{
"type": "FeatureCollection",
"name": "09_lo_po_textgcp",
"crs": { "type": "name", "properties": { "name": "urn:ogc:def:crs:EPSG::32751" } },
"features": [
{ "type": "Feature", "properties": { "NAME": "LOMEA RIVER", "LAYER": "TEXT_GCP", "GM_TYPE": "Text", "ELEVATION": 116.402 }, "geometry": { "type": "Point", "coordinates": [ 765789.602134660002775, 8980671.584197569638491 ] } },
{ "type": "Feature", "properties": { "NAME": "BM 11", "LAYER": "TEXT_GCP", "GM_TYPE": "Text", "ELEVATION": 7.026 }, "geometry": { "type": "Point", "coordinates": [ 768195.625083410181105, 8975927.703202214092016 ] } },
{ "type": "Feature", "properties": { "NAME": "CP29", "LAYER": "TEXT_GCP", "GM_TYPE": "Text", "ELEVATION": 7.596 }, "geometry": { "type": "Point", "coordinates": [ 768257.333546803682111, 8976741.477202214300632 ] } },
{ "type": "Feature", "properties": { "NAME": "CP30", "LAYER": "TEXT_GCP", "GM_TYPE": "Text", "ELEVATION": 0.0 }, "geometry": { "type": "Point", "coordinates": [ 768315.733681273763068, 8977791.930242797359824 ] } },
{ "type": "Feature", "properties": { "NAME": "CP27", "LAYER": "TEXT_GCP", "GM_TYPE": "Text", "ELEVATION": 9.953 }, "geometry": { "type": "Point", "coordinates": [ 767487.131546803633682, 8977079.23720221593976 ] } },
{ "type": "Feature", "properties": { "NAME": "CP32", "LAYER": "TEXT_GCP", "GM_TYPE": "Text", "ELEVATION": 11.503 }, "geometry": { "type": "Point", "coordinates": [ 769537.484973993618041, 8978932.704120006412268 ] } },
{ "type": "Feature", "properties": { "NAME": "CP31", "LAYER": "TEXT_GCP", "GM_TYPE": "Text", "ELEVATION": 11.4 }, "geometry": { "type": "Point", "coordinates": [ 768443.69615606428124, 8979007.653577201068401 ] } },
{ "type": "Feature", "properties": { "NAME": "CP33", "LAYER": "TEXT_GCP", "GM_TYPE": "Text", "ELEVATION": 11.053 }, "geometry": { "type": "Point", "coordinates": [ 767522.607251868117601, 8978460.959725134074688 ] } },
{ "type": "Feature", "properties": { "NAME": "CP26", "LAYER": "TEXT_GCP", "GM_TYPE": "Text", "ELEVATION": 0.0 }, "geometry": { "type": "Point", "coordinates": [ 767311.314614727627486, 8979274.50664945691824 ] } },
{ "type": "Feature", "properties": { "NAME": "CP34", "LAYER": "TEXT_GCP", "GM_TYPE": "Text", "ELEVATION": 24.871 }, "geometry": { "type": "Point", "coordinates": [ 767349.029097709339112, 8980659.869749024510384 ] } },
{ "type": "Feature", "properties": { "NAME": "BM10", "LAYER": "TEXT_GCP", "GM_TYPE": "Text", "ELEVATION": 0.942 }, "geometry": { "type": "Point", "coordinates": [ 766734.245005674660206, 8980447.611239476129413 ] } },
{ "type": "Feature", "properties": { "NAME": "CP23", "LAYER": "TEXT_GCP", "GM_TYPE": "Text", "ELEVATION": 0.0 }, "geometry": { "type": "Point", "coordinates": [ 765776.688092573080212, 8981439.296491486951709 ] } },
{ "type": "Feature", "properties": { "NAME": "CP21", "LAYER": "TEXT_GCP", "GM_TYPE": "Text", "ELEVATION": 42.694 }, "geometry": { "type": "Point", "coordinates": [ 764313.781583967385814, 8981759.962353300303221 ] } },
{ "type": "Feature", "properties": { "NAME": "BM 09", "LAYER": "TEXT_GCP", "GM_TYPE": "Text", "ELEVATION": 0.942 }, "geometry": { "type": "Point", "coordinates": [ 765095.170232945005409, 8982114.732272487133741 ] } },
{ "type": "Feature", "properties": { "NAME": "CP24", "LAYER": "TEXT_GCP", "GM_TYPE": "Text", "ELEVATION": 41.067 }, "geometry": { "type": "Point", "coordinates": [ 765646.473432233557105, 8982188.665576424449682 ] } },
{ "type": "Feature", "properties": { "NAME": "CP20", "LAYER": "TEXT_GCP", "GM_TYPE": "Text", "ELEVATION": 51.104 }, "geometry": { "type": "Point", "coordinates": [ 764425.966131066903472, 8982603.268138363957405 ] } },
{ "type": "Feature", "properties": { "NAME": "CP22", "LAYER": "TEXT_GCP", "GM_TYPE": "Text", "ELEVATION": 60.738 }, "geometry": { "type": "Point", "coordinates": [ 763745.692636714898981, 8983466.309300530701876 ] } },
{ "type": "Feature", "properties": { "NAME": "CP19", "LAYER": "TEXT_GCP", "GM_TYPE": "Text", "ELEVATION": 71.132 }, "geometry": { "type": "Point", "coordinates": [ 763289.845310037955642, 8983967.193699428811669 ] } },
{ "type": "Feature", "properties": { "NAME": "BM08", "LAYER": "TEXT_GCP", "GM_TYPE": "Text", "ELEVATION": 73.863 }, "geometry": { "type": "Point", "coordinates": [ 763302.633750442415476, 8984277.732875512912869 ] } },
{ "type": "Feature", "properties": { "NAME": "BM07", "LAYER": "TEXT_GCP", "GM_TYPE": "Text", "ELEVATION": 73.809 }, "geometry": { "type": "Point", "coordinates": [ 763281.174564165528864, 8984210.123273983597755 ] } },
{ "type": "Feature", "properties": { "NAME": "LOMEA LEFT MAIN CANAL", "LAYER": "TEXT_GCP", "GM_TYPE": "Text", "ELEVATION": 3.209 }, "geometry": { "type": "Point", "coordinates": [ 766541.711476018885151, 8981000.837018221616745 ] } },
{ "type": "Feature", "properties": { "NAME": "LOMEA LEFT MAIN CANAL", "LAYER": "TEXT_GCP", "GM_TYPE": "Text", "ELEVATION": 1.821 }, "geometry": { "type": "Point", "coordinates": [ 766599.85480665799696, 8980157.812448114156723 ] } },
{ "type": "Feature", "properties": { "NAME": "CULUAN LEFT SEC CANAL", "LAYER": "TEXT_GCP", "GM_TYPE": "Text", "ELEVATION": 6.946 }, "geometry": { "type": "Point", "coordinates": [ 767359.869129244005308, 8979702.011525923386216 ] } },
{ "type": "Feature", "properties": { "NAME": "CULUAN RIGHT SEC CANAL", "LAYER": "TEXT_GCP", "GM_TYPE": "Text", "ELEVATION": 2.979 }, "geometry": { "type": "Point", "coordinates": [ 766360.374998546438292, 8979688.743960324674845 ] } },
{ "type": "Feature", "properties": { "NAME": "LOMEA LEFT MAIN CANAL", "LAYER": "TEXT_GCP", "GM_TYPE": "Text", "ELEVATION": 0.112 }, "geometry": { "type": "Point", "coordinates": [ 764381.187130635371432, 8982715.666892137378454 ] } },
{ "type": "Feature", "properties": { "NAME": "LOMEA LEFT MAIN CANAL", "LAYER": "TEXT_GCP", "GM_TYPE": "Text", "ELEVATION": 0.942 }, "geometry": { "type": "Point", "coordinates": [ 765050.947872519493103, 8981844.164195593446493 ] } },
{ "type": "Feature", "properties": { "NAME": "LOMEA LEFT MAIN CANAL", "LAYER": "TEXT_GCP", "GM_TYPE": "Text", "ELEVATION": 0.862 }, "geometry": { "type": "Point", "coordinates": [ 765749.687827148358338, 8981736.428202345967293 ] } },
{ "type": "Feature", "properties": { "NAME": "CP25", "LAYER": "TEXT_GCP", "GM_TYPE": "Text", "ELEVATION": 31.692 }, "geometry": { "type": "Point", "coordinates": [ 766521.082636227831244, 8981420.926038820296526 ] } },
{ "type": "Feature", "properties": { "NAME": "CULUAN LEFT SEC CANAL", "LAYER": "TEXT_GCP", "GM_TYPE": "Text", "ELEVATION": 1.705 }, "geometry": { "type": "Point", "coordinates": [ 767211.740945465164259, 8980285.497481426224113 ] } },
{ "type": "Feature", "properties": { "NAME": "CULUAN LEFT SEC CANAL", "LAYER": "TEXT_GCP", "GM_TYPE": "Text", "ELEVATION": 0.884 }, "geometry": { "type": "Point", "coordinates": [ 766481.582029545330442, 8980224.996759355068207 ] } },
{ "type": "Feature", "properties": { "NAME": "CULUAN RIGHT SEC CANAL", "LAYER": "TEXT_GCP", "GM_TYPE": "Text", "ELEVATION": 16.739 }, "geometry": { "type": "Point", "coordinates": [ 766568.928414293797687, 8978994.847905134782195 ] } },
{ "type": "Feature", "properties": { "NAME": "CULUAN RIGHT SEC CANAL", "LAYER": "TEXT_GCP", "GM_TYPE": "Text", "ELEVATION": 0.942 }, "geometry": { "type": "Point", "coordinates": [ 767125.480884228483774, 8979322.209427237510681 ] } },
{ "type": "Feature", "properties": { "NAME": "CULUAN RIGHT SEC CANAL", "LAYER": "TEXT_GCP", "GM_TYPE": "Text", "ELEVATION": 2.972 }, "geometry": { "type": "Point", "coordinates": [ 767349.478430065326393, 8978874.710884235799313 ] } },
{ "type": "Feature", "properties": { "NAME": "CULUAN LEFT SEC CANAL", "LAYER": "TEXT_GCP", "GM_TYPE": "Text", "ELEVATION": 0.942 }, "geometry": { "type": "Point", "coordinates": [ 767488.190114139579237, 8979417.843820948153734 ] } },
{ "type": "Feature", "properties": { "NAME": "CULUAN LEFT SEC CANAL", "LAYER": "TEXT_GCP", "GM_TYPE": "Text", "ELEVATION": 0.942 }, "geometry": { "type": "Point", "coordinates": [ 767759.60515408590436, 8979144.990810219198465 ] } },
{ "type": "Feature", "properties": { "NAME": "CULUAN LEFT SEC CANAL", "LAYER": "TEXT_GCP", "GM_TYPE": "Text", "ELEVATION": 0.942 }, "geometry": { "type": "Point", "coordinates": [ 768309.133757281466387, 8979144.990810219198465 ] } },
{ "type": "Feature", "properties": { "NAME": "CULUAN LEFT SEC CANAL", "LAYER": "TEXT_GCP", "GM_TYPE": "Text", "ELEVATION": 2.641 }, "geometry": { "type": "Point", "coordinates": [ 768919.684453373309225, 8979376.723271854221821 ] } },
{ "type": "Feature", "properties": { "NAME": "CULUAN LEFT SEC CANAL", "LAYER": "TEXT_GCP", "GM_TYPE": "Text", "ELEVATION": 0.942 }, "geometry": { "type": "Point", "coordinates": [ 769106.143014909583144, 8978690.16344883851707 ] } },
{ "type": "Feature", "properties": { "NAME": "CULUAN LEFT SEC CANAL", "LAYER": "TEXT_GCP", "GM_TYPE": "Text", "ELEVATION": 0.942 }, "geometry": { "type": "Point", "coordinates": [ 769285.950433289399371, 8978362.773405764251947 ] } },
{ "type": "Feature", "properties": { "NAME": "CULUAN RIGHT SEC CANAL", "LAYER": "TEXT_GCP", "GM_TYPE": "Text", "ELEVATION": 0.862 }, "geometry": { "type": "Point", "coordinates": [ 767108.932124165585265, 8978340.599984731525183 ] } },
{ "type": "Feature", "properties": { "NAME": "LOMEA LEFT MAIN CANAL", "LAYER": "TEXT_GCP", "GM_TYPE": "Text", "ELEVATION": 2.566 }, "geometry": { "type": "Point", "coordinates": [ 764106.529329255223274, 8983048.500325670465827 ] } }
]
}
