{
"type": "FeatureCollection",
"name": "09_lo_po_cp",
"crs": { "type": "name", "properties": { "name": "urn:ogc:def:crs:EPSG::32751" } },
"features": [
{ "type": "Feature", "properties": { "NAME": "Cp.34" }, "geometry": { "type": "Point", "coordinates": [ 759691.223194422433153, 8977875.440851302817464 ] } },
{ "type": "Feature", "properties": { "NAME": "Cp.30" }, "geometry": { "type": "Point", "coordinates": [ 762828.324331119889393, 8981265.106115086004138 ] } },
{ "type": "Feature", "properties": { "NAME": "Cp.28" }, "geometry": { "type": "Point", "coordinates": [ 761839.599637034232728, 8980027.427311403676867 ] } },
{ "type": "Feature", "properties": { "NAME": "Cp.35" }, "geometry": { "type": "Point", "coordinates": [ 763571.831004063365981, 8979899.287663951516151 ] } },
{ "type": "Feature", "properties": { "NAME": "Cp.32" }, "geometry": { "type": "Point", "coordinates": [ 760457.852405889541842, 8977779.107359893620014 ] } },
{ "type": "Feature", "properties": { "NAME": "Cp.6" }, "geometry": { "type": "Point", "coordinates": [ 762355.222113304305822, 8980165.80985894985497 ] } },
{ "type": "Feature", "properties": { "NAME": "Cp.11" }, "geometry": { "type": "Point", "coordinates": [ 762666.518905646982603, 8980857.761861765757203 ] } },
{ "type": "Feature", "properties": { "NAME": "Cp.29" }, "geometry": { "type": "Point", "coordinates": [ 762767.82585265324451, 8980222.969279531389475 ] } },
{ "type": "Feature", "properties": { "NAME": "Cp.35" }, "geometry": { "type": "Point", "coordinates": [ 763238.029436731594615, 8980032.606055431067944 ] } },
{ "type": "Feature", "properties": { "NAME": "Cp.25" }, "geometry": { "type": "Point", "coordinates": [ 761024.966582284541801, 8978189.787655962631106 ] } },
{ "type": "Feature", "properties": { "NAME": "Cp.16" }, "geometry": { "type": "Point", "coordinates": [ 760872.831339496537112, 8979828.095324821770191 ] } },
{ "type": "Feature", "properties": { "NAME": "Cp.14" }, "geometry": { "type": "Point", "coordinates": [ 765296.295584954554215, 8979635.943153316155076 ] } },
{ "type": "Feature", "properties": { "NAME": "Cp.31" }, "geometry": { "type": "Point", "coordinates": [ 763651.304239444551058, 8982222.656239856034517 ] } },
{ "type": "Feature", "properties": { "NAME": "Cp.1" }, "geometry": { "type": "Point", "coordinates": [ 763318.356606559013017, 8984278.731353728100657 ] } },
{ "type": "Feature", "properties": { "NAME": "Cp.6" }, "geometry": { "type": "Point", "coordinates": [ 762723.345259048626758, 8979880.776198210194707 ] } },
{ "type": "Feature", "properties": { "NAME": "Cp.4" }, "geometry": { "type": "Point", "coordinates": [ 763379.383029813645408, 8981506.505302399396896 ] } },
{ "type": "Feature", "properties": { "NAME": "Cp.9" }, "geometry": { "type": "Point", "coordinates": [ 763773.725196350715123, 8981559.706073425710201 ] } },
{ "type": "Feature", "properties": { "NAME": "Cp.29" }, "geometry": { "type": "Point", "coordinates": [ 763105.895036590052769, 8980033.434042878448963 ] } },
{ "type": "Feature", "properties": { "NAME": "Cp.3" }, "geometry": { "type": "Point", "coordinates": [ 763207.516629307647236, 8982190.339470770210028 ] } },
{ "type": "Feature", "properties": { "NAME": "Cp.10" }, "geometry": { "type": "Point", "coordinates": [ 764216.974089468480088, 8981729.15214247815311 ] } },
{ "type": "Feature", "properties": { "NAME": "Cp.28" }, "geometry": { "type": "Point", "coordinates": [ 762208.873929081484675, 8979797.974362952634692 ] } },
{ "type": "Feature", "properties": { "NAME": "Cp.5" }, "geometry": { "type": "Point", "coordinates": [ 763839.419760342570953, 8980106.765585489571095 ] } },
{ "type": "Feature", "properties": { "NAME": "Cp.1" }, "geometry": { "type": "Point", "coordinates": [ 762755.388463416020386, 8984544.460687082260847 ] } },
{ "type": "Feature", "properties": { "NAME": "Cp.36" }, "geometry": { "type": "Point", "coordinates": [ 759071.391383320325986, 8977670.358683684840798 ] } },
{ "type": "Feature", "properties": { "NAME": "Cp.17" }, "geometry": { "type": "Point", "coordinates": [ 761970.389162014471367, 8978776.035375131294131 ] } },
{ "type": "Feature", "properties": { "NAME": "Cp.2" }, "geometry": { "type": "Point", "coordinates": [ 762807.978321525966749, 8983885.808048585429788 ] } },
{ "type": "Feature", "properties": { "NAME": "Cp.34" }, "geometry": { "type": "Point", "coordinates": [ 759341.867062045377679, 8977997.391272393986583 ] } },
{ "type": "Feature", "properties": { "NAME": "Cp.19" }, "geometry": { "type": "Point", "coordinates": [ 760023.867098357528448, 8978629.626786539331079 ] } },
{ "type": "Feature", "properties": { "NAME": "Cp.26" }, "geometry": { "type": "Point", "coordinates": [ 759780.259186361799948, 8978251.096947502344847 ] } },
{ "type": "Feature", "properties": { "NAME": "Cp.18" }, "geometry": { "type": "Point", "coordinates": [ 760564.110186383826658, 8978921.321985783055425 ] } },
{ "type": "Feature", "properties": { "NAME": "Cp.20" }, "geometry": { "type": "Point", "coordinates": [ 763426.545780739281327, 8977935.591487655416131 ] } },
{ "type": "Feature", "properties": { "NAME": "Cp.15" }, "geometry": { "type": "Point", "coordinates": [ 765503.163285725167952, 8978833.226082054898143 ] } },
{ "type": "Feature", "properties": { "NAME": "Cp.8" }, "geometry": { "type": "Point", "coordinates": [ 760890.350665283971466, 8979185.442152533680201 ] } },
{ "type": "Feature", "properties": { "NAME": "Cp.24" }, "geometry": { "type": "Point", "coordinates": [ 761170.142443183809519, 8979461.757900541648269 ] } },
{ "type": "Feature", "properties": { "NAME": "Cp.23" }, "geometry": { "type": "Point", "coordinates": [ 765664.353734052507207, 8978019.265726912766695 ] } },
{ "type": "Feature", "properties": { "NAME": "Cp.7" }, "geometry": { "type": "Point", "coordinates": [ 761154.820547956158407, 8979986.904000416398048 ] } },
{ "type": "Feature", "properties": { "NAME": "Cp.21" }, "geometry": { "type": "Point", "coordinates": [ 764206.891711598262191, 8978759.12613258510828 ] } },
{ "type": "Feature", "properties": { "NAME": "Cp.7" }, "geometry": { "type": "Point", "coordinates": [ 760126.321171824936755, 8979994.038423281162977 ] } },
{ "type": "Feature", "properties": { "NAME": "Cp.11" }, "geometry": { "type": "Point", "coordinates": [ 762266.066580897197127, 8980964.202207474038005 ] } },
{ "type": "Feature", "properties": { "NAME": "Cp.3" }, "geometry": { "type": "Point", "coordinates": [ 762806.615349575411528, 8982226.160907324403524 ] } },
{ "type": "Feature", "properties": { "NAME": "Cp.7" }, "geometry": { "type": "Point", "coordinates": [ 760521.966452701715752, 8979903.923722587525845 ] } },
{ "type": "Feature", "properties": { "NAME": "Cp.22" }, "geometry": { "type": "Point", "coordinates": [ 764862.706191985984333, 8978697.650559248402715 ] } },
{ "type": "Feature", "properties": { "NAME": "Cp.30" }, "geometry": { "type": "Point", "coordinates": [ 762450.048950899625197, 8981380.976898644119501 ] } },
{ "type": "Feature", "properties": { "NAME": "Cp.27" }, "geometry": { "type": "Point", "coordinates": [ 762744.13405285240151, 8981931.142137795686722 ] } },
{ "type": "Feature", "properties": { "NAME": "Cp.5" }, "geometry": { "type": "Point", "coordinates": [ 763432.325400078319944, 8980219.668383060023189 ] } },
{ "type": "Feature", "properties": { "NAME": "Cp.8" }, "geometry": { "type": "Point", "coordinates": [ 761368.890036989352666, 8979100.396985517814755 ] } },
{ "type": "Feature", "properties": { "NAME": "Cp.2" }, "geometry": { "type": "Point", "coordinates": [ 763254.016788210021332, 8983589.786994088441133 ] } },
{ "type": "Feature", "properties": { "NAME": "Cp.25" }, "geometry": { "type": "Point", "coordinates": [ 760663.206582688726485, 8978358.929540511220694 ] } },
{ "type": "Feature", "properties": { "NAME": "Cp.12" }, "geometry": { "type": "Point", "coordinates": [ 762683.426570898620412, 8978980.638428930193186 ] } },
{ "type": "Feature", "properties": { "NAME": "Cp.17" }, "geometry": { "type": "Point", "coordinates": [ 761604.461554196896031, 8978968.763985600322485 ] } },
{ "type": "Feature", "properties": { "NAME": "Cp.32" }, "geometry": { "type": "Point", "coordinates": [ 760814.0537721645087, 8977675.156565172597766 ] } },
{ "type": "Feature", "properties": { "NAME": "Cp.13" }, "geometry": { "type": "Point", "coordinates": [ 762896.775562645168975, 8978555.500956019386649 ] } },
{ "type": "Feature", "properties": { "NAME": "Cp.20" }, "geometry": { "type": "Point", "coordinates": [ 763023.074846648261882, 8978077.971061151474714 ] } },
{ "type": "Feature", "properties": { "NAME": "Cp.18" }, "geometry": { "type": "Point", "coordinates": [ 760848.798925377894193, 8978813.980847926810384 ] } },
{ "type": "Feature", "properties": { "NAME": "Cp.21" }, "geometry": { "type": "Point", "coordinates": [ 763789.865877770003863, 8978923.955333594232798 ] } },
{ "type": "Feature", "properties": { "NAME": "Cp.22" }, "geometry": { "type": "Point", "coordinates": [ 764420.984238693956286, 8978905.374874962493777 ] } },
{ "type": "Feature", "properties": { "NAME": "Cp.26" }, "geometry": { "type": "Point", "coordinates": [ 760116.841409946558997, 8978090.079726062715054 ] } },
{ "type": "Feature", "properties": { "NAME": "Cp.15" }, "geometry": { "type": "Point", "coordinates": [ 765097.356805843883194, 8978959.520318072289228 ] } },
{ "type": "Feature", "properties": { "NAME": "Cp.33" }, "geometry": { "type": "Point", "coordinates": [ 765691.300034817890264, 8979027.23823494836688 ] } },
{ "type": "Feature", "properties": { "NAME": "Cp.19" }, "geometry": { "type": "Point", "coordinates": [ 760359.960327913518995, 8978471.340791419148445 ] } },
{ "type": "Feature", "properties": { "NAME": "Cp.23" }, "geometry": { "type": "Point", "coordinates": [ 765226.630138729815371, 8978153.467661675065756 ] } },
{ "type": "Feature", "properties": { "NAME": "Cp.9" }, "geometry": { "type": "Point", "coordinates": [ 763365.25303370738402, 8981741.614793786779046 ] } },
{ "type": "Feature", "properties": { "NAME": "Cp.4" }, "geometry": { "type": "Point", "coordinates": [ 762950.930710531421937, 8981589.822266338393092 ] } },
{ "type": "Feature", "properties": { "NAME": "Cp.36" }, "geometry": { "type": "Point", "coordinates": [ 759421.266802887432277, 8977538.680555311962962 ] } },
{ "type": "Feature", "properties": { "NAME": "Cp.12" }, "geometry": { "type": "Point", "coordinates": [ 763054.24056651967112, 8978844.586554370820522 ] } },
{ "type": "Feature", "properties": { "NAME": "Cp.10" }, "geometry": { "type": "Point", "coordinates": [ 763794.909136459231377, 8981932.214698806405067 ] } },
{ "type": "Feature", "properties": { "NAME": "Cp.14" }, "geometry": { "type": "Point", "coordinates": [ 764875.735667983652093, 8979786.218422403559089 ] } },
{ "type": "Feature", "properties": { "NAME": "Cp.31" }, "geometry": { "type": "Point", "coordinates": [ 763238.797356696915813, 8982504.640937779098749 ] } },
{ "type": "Feature", "properties": { "NAME": "Cp.33" }, "geometry": { "type": "Point", "coordinates": [ 766121.143916032742709, 8978898.445493295788765 ] } },
{ "type": "Feature", "properties": { "NAME": "Cp.13" }, "geometry": { "type": "Point", "coordinates": [ 763298.809902818291448, 8978386.285647386685014 ] } },
{ "type": "Feature", "properties": { "NAME": "Cp.24" }, "geometry": { "type": "Point", "coordinates": [ 761531.787110429722816, 8979367.037005890160799 ] } },
{ "type": "Feature", "properties": { "NAME": "Cp.27" }, "geometry": { "type": "Point", "coordinates": [ 763153.722177749499679, 8981788.291495200246572 ] } }
]
}
