{
"type": "FeatureCollection",
"name": "09_lo_po_asesories",
"crs": { "type": "name", "properties": { "name": "urn:ogc:def:crs:EPSG::32751" } },
"features": [
{ "type": "Feature", "properties": { "NAME": "DAM AXIS ALTERNATIF 1", "LAYER": "06.Asesories", "GM_TYPE": "Text", "ELEVATION": 0 }, "geometry": { "type": "Point", "coordinates": [ 763185.022931446204893, 8984492.116777190938592 ] } },
{ "type": "Feature", "properties": { "NAME": "EXISTING DAM AXIS", "LAYER": "06.Asesories", "GM_TYPE": "Text", "ELEVATION": 0 }, "geometry": { "type": "Point", "coordinates": [ 763129.655632102279924, 8984061.322664549574256 ] } },
{ "type": "Feature", "properties": { "NAME": "DIFINITIF DAM AXIS", "LAYER": "06.Asesories", "GM_TYPE": "Text", "ELEVATION": 0 }, "geometry": { "type": "Point", "coordinates": [ 763354.358950951369479, 8984284.255538046360016 ] } },
{ "type": "Feature", "properties": { "NAME": "MAUKOLA VILAGE", "LAYER": "06.Asesories", "GM_TYPE": "Text", "ELEVATION": 0 }, "geometry": { "type": "Point", "coordinates": [ 763362.904942485969514, 8981536.52855734154582 ] } },
{ "type": "Feature", "properties": { "NAME": "MAUKOLA VILAGE", "LAYER": "06.Asesories", "GM_TYPE": "Text", "ELEVATION": 0 }, "geometry": { "type": "Point", "coordinates": [ 763036.007777033373713, 8981162.895852250978351 ] } },
{ "type": "Feature", "properties": { "NAME": "MAUKOLA VILAGE", "LAYER": "06.Asesories", "GM_TYPE": "Text", "ELEVATION": 0 }, "geometry": { "type": "Point", "coordinates": [ 763161.445846795220859, 8981100.16687848046422 ] } },
{ "type": "Feature", "properties": { "NAME": "BEKO VILAGE", "LAYER": "06.Asesories", "GM_TYPE": "Text", "ELEVATION": 0 }, "geometry": { "type": "Point", "coordinates": [ 762603.47705817851238, 8979623.381165819242597 ] } },
{ "type": "Feature", "properties": { "NAME": "BEKO VILAGE", "LAYER": "06.Asesories", "GM_TYPE": "Text", "ELEVATION": 0 }, "geometry": { "type": "Point", "coordinates": [ 762462.362543264054693, 8979678.767003679648042 ] } },
{ "type": "Feature", "properties": { "NAME": "Maracado", "LAYER": "06.Asesories", "GM_TYPE": "Text", "ELEVATION": 0 }, "geometry": { "type": "Point", "coordinates": [ 762390.63428403402213, 8979601.373072441667318 ] } },
{ "type": "Feature", "properties": { "NAME": "HALIK VILAGE", "LAYER": "06.Asesories", "GM_TYPE": "Text", "ELEVATION": 0 }, "geometry": { "type": "Point", "coordinates": [ 765873.991678910912015, 8978803.371717158704996 ] } },
{ "type": "Feature", "properties": { "NAME": "SMP BEKO", "LAYER": "06.Asesories", "GM_TYPE": "Text", "ELEVATION": 0 }, "geometry": { "type": "Point", "coordinates": [ 761625.371100252610631, 8979300.177064584568143 ] } },
{ "type": "Feature", "properties": { "NAME": "HOLBULU VILAGE", "LAYER": "06.Asesories", "GM_TYPE": "Text", "ELEVATION": 0 }, "geometry": { "type": "Point", "coordinates": [ 760561.06018980697263, 8980058.094376623630524 ] } },
{ "type": "Feature", "properties": { "NAME": "LAPANGAN BOLA", "LAYER": "06.Asesories", "GM_TYPE": "Text", "ELEVATION": 0 }, "geometry": { "type": "Point", "coordinates": [ 760926.496951493434608, 8979911.119223289191723 ] } },
{ "type": "Feature", "properties": { "NAME": "ADENTUY VILAGE", "LAYER": "06.Asesories", "GM_TYPE": "Text", "ELEVATION": 0 }, "geometry": { "type": "Point", "coordinates": [ 760676.424118614173494, 8978470.881666664034128 ] } },
{ "type": "Feature", "properties": { "NAME": "HALIK VILAGE", "LAYER": "06.Asesories", "GM_TYPE": "Text", "ELEVATION": 0 }, "geometry": { "type": "Point", "coordinates": [ 766196.384680117014796, 8978924.951685367152095 ] } },
{ "type": "Feature", "properties": { "NAME": "HALIK VILAGE", "LAYER": "06.Asesories", "GM_TYPE": "Text", "ELEVATION": 0 }, "geometry": { "type": "Point", "coordinates": [ 765348.854788111755624, 8978770.968150708824396 ] } },
{ "type": "Feature", "properties": { "NAME": "BEKO VILAGE", "LAYER": "06.Asesories", "GM_TYPE": "Text", "ELEVATION": 0 }, "geometry": { "type": "Point", "coordinates": [ 761555.128751590033062, 8979061.077078349888325 ] } },
{ "type": "Feature", "properties": { "NAME": "KIAR RIVER", "LAYER": "06.Asesories", "GM_TYPE": "Text", "ELEVATION": 0 }, "geometry": { "type": "Point", "coordinates": [ 763493.709517186507583, 8979773.383039467036724 ] } },
{ "type": "Feature", "properties": { "NAME": "MAUKOLA SECONDARY CANAL", "LAYER": "06.Asesories", "GM_TYPE": "Text", "ELEVATION": 0 }, "geometry": { "type": "Point", "coordinates": [ 763598.214714454486966, 8980804.760707374662161 ] } },
{ "type": "Feature", "properties": { "NAME": "HALIK SECONDARY CANAL", "LAYER": "06.Asesories", "GM_TYPE": "Text", "ELEVATION": 0 }, "geometry": { "type": "Point", "coordinates": [ 763885.127798575209454, 8981399.42217586748302 ] } },
{ "type": "Feature", "properties": { "NAME": "LEFT HALIK SECONDARY CANAL", "LAYER": "06.Asesories", "GM_TYPE": "Text", "ELEVATION": 0 }, "geometry": { "type": "Point", "coordinates": [ 764296.174235522048548, 8981644.601020999252796 ] } },
{ "type": "Feature", "properties": { "NAME": "MAUKOLA PRIMARY CANAL", "LAYER": "06.Asesories", "GM_TYPE": "Text", "ELEVATION": 0 }, "geometry": { "type": "Point", "coordinates": [ 763302.353248896077275, 8982682.207209723070264 ] } },
{ "type": "Feature", "properties": { "NAME": "HOLBOLU SECONDARY CANAL", "LAYER": "06.Asesories", "GM_TYPE": "Text", "ELEVATION": 0 }, "geometry": { "type": "Point", "coordinates": [ 762852.060593280009925, 8981252.069341754540801 ] } },
{ "type": "Feature", "properties": { "NAME": "ADENTUY SECONDARY CANAL", "LAYER": "06.Asesories", "GM_TYPE": "Text", "ELEVATION": 0 }, "geometry": { "type": "Point", "coordinates": [ 760486.892146622529253, 8978407.489661730825901 ] } },
{ "type": "Feature", "properties": { "NAME": "ADENTUIY SECONDARY CANAL", "LAYER": "06.Asesories", "GM_TYPE": "Text", "ELEVATION": 0 }, "geometry": { "type": "Point", "coordinates": [ 761327.07506286574062, 8977047.664613258093596 ] } },
{ "type": "Feature", "properties": { "NAME": "LEFT HALIK SECONDARY CANAL", "LAYER": "06.Asesories", "GM_TYPE": "Text", "ELEVATION": 0 }, "geometry": { "type": "Point", "coordinates": [ 765651.737455673981458, 8978325.770774390548468 ] } },
{ "type": "Feature", "properties": { "NAME": "LOMEA RIVER", "LAYER": "06.Asesories", "GM_TYPE": "Text", "ELEVATION": 0 }, "geometry": { "type": "Point", "coordinates": [ 762971.277757046744227, 8985035.5114032831043 ] } },
{ "type": "Feature", "properties": { "NAME": "LOMEA RIVER", "LAYER": "06.Asesories", "GM_TYPE": "Text", "ELEVATION": 0 }, "geometry": { "type": "Point", "coordinates": [ 763624.7872110925382, 8983337.515987036749721 ] } },
{ "type": "Feature", "properties": { "NAME": "LOMEA RIVER", "LAYER": "06.Asesories", "GM_TYPE": "Text", "ELEVATION": 0 }, "geometry": { "type": "Point", "coordinates": [ 764046.105721812462434, 8982555.05570082180202 ] } },
{ "type": "Feature", "properties": { "NAME": "LOMEA RIVER", "LAYER": "06.Asesories", "GM_TYPE": "Text", "ELEVATION": 0 }, "geometry": { "type": "Point", "coordinates": [ 765221.055774304782972, 8980958.741281436756253 ] } },
{ "type": "Feature", "properties": { "NAME": "LOMEA RIVER", "LAYER": "06.Asesories", "GM_TYPE": "Text", "ELEVATION": 0 }, "geometry": { "type": "Point", "coordinates": [ 765659.778866794542409, 8980249.591723741963506 ] } },
{ "type": "Feature", "properties": { "NAME": "LOMEA RIVER", "LAYER": "06.Asesories", "GM_TYPE": "Text", "ELEVATION": 0 }, "geometry": { "type": "Point", "coordinates": [ 766616.074655131320469, 8978940.052150113508105 ] } },
{ "type": "Feature", "properties": { "NAME": "LOMEA RIVER", "LAYER": "06.Asesories", "GM_TYPE": "Text", "ELEVATION": 0 }, "geometry": { "type": "Point", "coordinates": [ 767238.378770125564188, 8977904.53018975071609 ] } },
{ "type": "Feature", "properties": { "NAME": "LOMEA RIVER", "LAYER": "06.Asesories", "GM_TYPE": "Text", "ELEVATION": 0 }, "geometry": { "type": "Point", "coordinates": [ 767578.92279680701904, 8976662.837847059592605 ] } },
{ "type": "Feature", "properties": { "NAME": "BEKO VILAGE", "LAYER": "06.Asesories", "GM_TYPE": "Text", "ELEVATION": 0 }, "geometry": { "type": "Point", "coordinates": [ 762524.082833051565103, 8979781.743490135297179 ] } },
{ "type": "Feature", "properties": { "NAME": "Lao. Bola", "LAYER": "06.Asesories", "GM_TYPE": "Text", "ELEVATION": 0 }, "geometry": { "type": "Point", "coordinates": [ 762331.686396737466566, 8979710.46692637167871 ] } },
{ "type": "Feature", "properties": { "NAME": "SD BEKO", "LAYER": "06.Asesories", "GM_TYPE": "Text", "ELEVATION": 0 }, "geometry": { "type": "Point", "coordinates": [ 762675.959824379300699, 8980036.359119605273008 ] } },
{ "type": "Feature", "properties": { "NAME": "Puskesmas", "LAYER": "06.Asesories", "GM_TYPE": "Text", "ELEVATION": 0 }, "geometry": { "type": "Point", "coordinates": [ 762791.735547000891529, 8979965.315857535228133 ] } }
]
}
