{
"type": "FeatureCollection",
"name": "09_lo_po_bm",
"crs": { "type": "name", "properties": { "name": "urn:ogc:def:crs:EPSG::32751" } },
"features": [
{ "type": "Feature", "properties": { "NAME": "BM MK.27" }, "geometry": { "type": "Point", "coordinates": [ 763204.233904132852331, 8981705.253190916031599 ] } },
{ "type": "Feature", "properties": { "NAME": "BM MK.34" }, "geometry": { "type": "Point", "coordinates": [ 759697.602242105058394, 8977912.985737113282084 ] } },
{ "type": "Feature", "properties": { "NAME": "BM MK.28" }, "geometry": { "type": "Point", "coordinates": [ 761840.999288085149601, 8979942.269874356687069 ] } },
{ "type": "Feature", "properties": { "NAME": "BM MK.30" }, "geometry": { "type": "Point", "coordinates": [ 762826.856593857868575, 8981333.700069144368172 ] } },
{ "type": "Feature", "properties": { "NAME": "BM MK.6" }, "geometry": { "type": "Point", "coordinates": [ 762356.621764355222695, 8980080.652421902865171 ] } },
{ "type": "Feature", "properties": { "NAME": "BM MK.35" }, "geometry": { "type": "Point", "coordinates": [ 763606.297034760820679, 8979836.59385934099555 ] } },
{ "type": "Feature", "properties": { "NAME": "BM MK.32" }, "geometry": { "type": "Point", "coordinates": [ 760456.452754838624969, 8977864.264796940609813 ] } },
{ "type": "Feature", "properties": { "NAME": "BM MK.29" }, "geometry": { "type": "Point", "coordinates": [ 762766.426201602327637, 8980308.126716578379273 ] } },
{ "type": "Feature", "properties": { "NAME": "BM MK.11" }, "geometry": { "type": "Point", "coordinates": [ 762686.803350397851318, 8980917.83366053365171 ] } },
{ "type": "Feature", "properties": { "NAME": "BM MK.25" }, "geometry": { "type": "Point", "coordinates": [ 761031.467186784837395, 8978145.170032205060124 ] } },
{ "type": "Feature", "properties": { "NAME": "BM MK.16" }, "geometry": { "type": "Point", "coordinates": [ 760855.902945847949013, 8979868.477944115176797 ] } },
{ "type": "Feature", "properties": { "NAME": "BM MK.14" }, "geometry": { "type": "Point", "coordinates": [ 765320.276952002313919, 8979703.886984556913376 ] } },
{ "type": "Feature", "properties": { "NAME": "BM MK.6" }, "geometry": { "type": "Point", "coordinates": [ 762684.575979507877491, 8979937.941820995882154 ] } },
{ "type": "Feature", "properties": { "NAME": "BM MK.31" }, "geometry": { "type": "Point", "coordinates": [ 763638.208799167303368, 8982275.60215805657208 ] } },
{ "type": "Feature", "properties": { "NAME": "BM MK.1" }, "geometry": { "type": "Point", "coordinates": [ 763094.184557840111665, 8984258.286311192438006 ] } },
{ "type": "Feature", "properties": { "NAME": "BM MK.4" }, "geometry": { "type": "Point", "coordinates": [ 763392.232919305795804, 8981426.510849736630917 ] } },
{ "type": "Feature", "properties": { "NAME": "BM MK.9" }, "geometry": { "type": "Point", "coordinates": [ 763780.902978667290881, 8981638.330091347917914 ] } },
{ "type": "Feature", "properties": { "NAME": "BM MK.29" }, "geometry": { "type": "Point", "coordinates": [ 763142.494232316152193, 8980089.378444662317634 ] } },
{ "type": "Feature", "properties": { "NAME": "BM MK.3" }, "geometry": { "type": "Point", "coordinates": [ 763238.606372263981029, 8982130.93715618737042 ] } },
{ "type": "Feature", "properties": { "NAME": "BM MK.10" }, "geometry": { "type": "Point", "coordinates": [ 764210.999660531757399, 8981684.234139617532492 ] } },
{ "type": "Feature", "properties": { "NAME": "BM MK.1" }, "geometry": { "type": "Point", "coordinates": [ 762755.388463416020386, 8984448.631892779842019 ] } },
{ "type": "Feature", "properties": { "NAME": "BM MK.28" }, "geometry": { "type": "Point", "coordinates": [ 762214.814583039842546, 8979761.120542801916599 ] } },
{ "type": "Feature", "properties": { "NAME": "BM MK.14" }, "geometry": { "type": "Point", "coordinates": [ 764874.33601693273522, 8979871.375859450548887 ] } },
{ "type": "Feature", "properties": { "NAME": "BM MK.2" }, "geometry": { "type": "Point", "coordinates": [ 762807.978321525966749, 8983789.97925428301096 ] } },
{ "type": "Feature", "properties": { "NAME": "BM MK.5" }, "geometry": { "type": "Point", "coordinates": [ 763866.231823621783406, 8980068.401847427710891 ] } },
{ "type": "Feature", "properties": { "NAME": "BM MK.36" }, "geometry": { "type": "Point", "coordinates": [ 759069.991732269409113, 8977755.516120731830597 ] } },
{ "type": "Feature", "properties": { "NAME": "BM MK.26" }, "geometry": { "type": "Point", "coordinates": [ 759781.658837412716821, 8978165.939510455355048 ] } },
{ "type": "Feature", "properties": { "NAME": "BM MK.17" }, "geometry": { "type": "Point", "coordinates": [ 761993.689730428857729, 8978728.217147113755345 ] } },
{ "type": "Feature", "properties": { "NAME": "BM MK.34" }, "geometry": { "type": "Point", "coordinates": [ 759340.467410994460806, 8978082.548709440976381 ] } },
{ "type": "Feature", "properties": { "NAME": "BM MK.15" }, "geometry": { "type": "Point", "coordinates": [ 765510.527790684020147, 8978911.822004893794656 ] } },
{ "type": "Feature", "properties": { "NAME": "BM MK.19" }, "geometry": { "type": "Point", "coordinates": [ 760022.467447306611575, 8978714.784223586320877 ] } },
{ "type": "Feature", "properties": { "NAME": "BM MK.18" }, "geometry": { "type": "Point", "coordinates": [ 760562.710535332909785, 8979006.479422830045223 ] } },
{ "type": "Feature", "properties": { "NAME": "BM MK.20" }, "geometry": { "type": "Point", "coordinates": [ 763392.244177637156099, 8978030.903112811967731 ] } },
{ "type": "Feature", "properties": { "NAME": "BM MK.8" }, "geometry": { "type": "Point", "coordinates": [ 760888.951014233054593, 8979270.599589580669999 ] } },
{ "type": "Feature", "properties": { "NAME": "BM MK.24" }, "geometry": { "type": "Point", "coordinates": [ 761168.742792132892646, 8979546.915337588638067 ] } },
{ "type": "Feature", "properties": { "NAME": "BM MK.7" }, "geometry": { "type": "Point", "coordinates": [ 761007.852190821547993, 8980072.061437463387847 ] } },
{ "type": "Feature", "properties": { "NAME": "BM MK.23" }, "geometry": { "type": "Point", "coordinates": [ 765696.792961361585185, 8977968.151164554059505 ] } },
{ "type": "Feature", "properties": { "NAME": "BM MK.7" }, "geometry": { "type": "Point", "coordinates": [ 760124.921520774019882, 8980079.195860328152776 ] } },
{ "type": "Feature", "properties": { "NAME": "BM MK.21" }, "geometry": { "type": "Point", "coordinates": [ 764212.741091093048453, 8978722.129478491842747 ] } },
{ "type": "Feature", "properties": { "NAME": "BM MK.11" }, "geometry": { "type": "Point", "coordinates": [ 762264.666929846280254, 8981070.201683554798365 ] } },
{ "type": "Feature", "properties": { "NAME": "BM MK.27" }, "geometry": { "type": "Point", "coordinates": [ 762744.13405285240151, 8981820.219860734418035 ] } },
{ "type": "Feature", "properties": { "NAME": "BM MK.3" }, "geometry": { "type": "Point", "coordinates": [ 762806.615349575411528, 8982337.083184385672212 ] } },
{ "type": "Feature", "properties": { "NAME": "BM MK.7" }, "geometry": { "type": "Point", "coordinates": [ 760496.403929302585311, 8980001.87092818506062 ] } },
{ "type": "Feature", "properties": { "NAME": "BM MK.30" }, "geometry": { "type": "Point", "coordinates": [ 762448.649299848708324, 8981486.976374724879861 ] } },
{ "type": "Feature", "properties": { "NAME": "BM MK.22" }, "geometry": { "type": "Point", "coordinates": [ 764840.429579956224188, 8978740.790699193254113 ] } },
{ "type": "Feature", "properties": { "NAME": "BM MK.35" }, "geometry": { "type": "Point", "coordinates": [ 763236.629785680677742, 8980117.763492478057742 ] } },
{ "type": "Feature", "properties": { "NAME": "BM MK.25" }, "geometry": { "type": "Point", "coordinates": [ 760664.606233739643358, 8978273.772103464230895 ] } },
{ "type": "Feature", "properties": { "NAME": "BM MK.5" }, "geometry": { "type": "Point", "coordinates": [ 763430.925749027403072, 8980304.825820107012987 ] } },
{ "type": "Feature", "properties": { "NAME": "BM MK.17" }, "geometry": { "type": "Point", "coordinates": [ 761605.861205247812904, 8978883.606548553332686 ] } },
{ "type": "Feature", "properties": { "NAME": "BM MK.8" }, "geometry": { "type": "Point", "coordinates": [ 761424.699112073983997, 8979057.207810956984758 ] } },
{ "type": "Feature", "properties": { "NAME": "BM MK.13" }, "geometry": { "type": "Point", "coordinates": [ 762898.175213696085848, 8978470.343518972396851 ] } },
{ "type": "Feature", "properties": { "NAME": "BM MK.2" }, "geometry": { "type": "Point", "coordinates": [ 763232.006586946197785, 8983641.967695621773601 ] } },
{ "type": "Feature", "properties": { "NAME": "BM MK.12" }, "geometry": { "type": "Point", "coordinates": [ 762682.026919847703539, 8979065.795865977182984 ] } },
{ "type": "Feature", "properties": { "NAME": "BM MK.21" }, "geometry": { "type": "Point", "coordinates": [ 763791.265528820920736, 8978838.797896547242999 ] } },
{ "type": "Feature", "properties": { "NAME": "BM MK.32" }, "geometry": { "type": "Point", "coordinates": [ 760794.941708707017824, 8977723.539036804810166 ] } },
{ "type": "Feature", "properties": { "NAME": "BM MK.22" }, "geometry": { "type": "Point", "coordinates": [ 764422.383889744873159, 8978820.217437915503979 ] } },
{ "type": "Feature", "properties": { "NAME": "BM MK.13" }, "geometry": { "type": "Point", "coordinates": [ 763021.675195597345009, 8978163.128498198464513 ] } },
{ "type": "Feature", "properties": { "NAME": "BM MK.33" }, "geometry": { "type": "Point", "coordinates": [ 765692.699685868807137, 8978942.080797901377082 ] } },
{ "type": "Feature", "properties": { "NAME": "BM MK.18" }, "geometry": { "type": "Point", "coordinates": [ 760942.514107206254266, 8978773.752481181174517 ] } },
{ "type": "Feature", "properties": { "NAME": "BM MK.23" }, "geometry": { "type": "Point", "coordinates": [ 765228.029789780732244, 8978068.310224628075957 ] } },
{ "type": "Feature", "properties": { "NAME": "BM MK.15" }, "geometry": { "type": "Point", "coordinates": [ 765095.957154792966321, 8979044.677755119279027 ] } },
{ "type": "Feature", "properties": { "NAME": "BM MK.26" }, "geometry": { "type": "Point", "coordinates": [ 760120.092625086195767, 8978019.675916735082865 ] } },
{ "type": "Feature", "properties": { "NAME": "BM MK.4" }, "geometry": { "type": "Point", "coordinates": [ 762950.930710531421937, 8981493.993472035974264 ] } },
{ "type": "Feature", "properties": { "NAME": "BM MK.19" }, "geometry": { "type": "Point", "coordinates": [ 760344.263135956134647, 8978559.674870479851961 ] } },
{ "type": "Feature", "properties": { "NAME": "BM MK.10" }, "geometry": { "type": "Point", "coordinates": [ 763794.909136459231377, 8981836.385904503986239 ] } },
{ "type": "Feature", "properties": { "NAME": "BM MK.9" }, "geometry": { "type": "Point", "coordinates": [ 763365.25303370738402, 8981837.443588089197874 ] } },
{ "type": "Feature", "properties": { "NAME": "BM MK.31" }, "geometry": { "type": "Point", "coordinates": [ 763238.797356696915813, 8982408.812143476679921 ] } },
{ "type": "Feature", "properties": { "NAME": "BM MK.36" }, "geometry": { "type": "Point", "coordinates": [ 759427.499507321626879, 8977583.790202084928751 ] } },
{ "type": "Feature", "properties": { "NAME": "BM MK.12" }, "geometry": { "type": "Point", "coordinates": [ 763069.364051257260144, 8978893.381748370826244 ] } },
{ "type": "Feature", "properties": { "NAME": "BM MK.33" }, "geometry": { "type": "Point", "coordinates": [ 766133.79709088022355, 8978815.604236654937267 ] } },
{ "type": "Feature", "properties": { "NAME": "BM MK.13" }, "geometry": { "type": "Point", "coordinates": [ 763273.632892418652773, 8978317.090544123202562 ] } },
{ "type": "Feature", "properties": { "NAME": "BM MK.24" }, "geometry": { "type": "Point", "coordinates": [ 761569.7830291116843, 8979440.025490773841739 ] } }
]
}
