{
"type": "FeatureCollection",
"name": "09_lo_li_patoksaluran",
"crs": { "type": "name", "properties": { "name": "urn:ogc:def:crs:EPSG::32751" } },
"features": [
{ "type": "Feature", "properties": { "id": null }, "geometry": { "type": "MultiLineString", "coordinates": [ [ [ 763236.062742702080868, 8984123.751474199816585 ], [ 763241.012954697012901, 8984102.496453389525414 ], [ 763243.546985680935904, 8984093.400659669190645 ], [ 763254.652761269942857, 8984052.186740769073367 ], [ 763273.961323179071769, 8984006.525332700461149 ], [ 763284.19081242592074, 8983958.236039079725742 ], [ 763277.042947575915605, 8983903.362422270700336 ], [ 763289.876975005026907, 8983856.468026829883456 ], [ 763295.503969910903834, 8983805.507278749719262 ], [ 763301.563350572017953, 8983755.500944109633565 ], [ 763307.280074699083343, 8983706.91053575091064 ], [ 763310.1628062420059, 8983658.091116320341825 ], [ 763293.372676035040058, 8983619.029199870303273 ], [ 763291.225590007961728, 8983614.181515369564295 ], [ 763284.26495570410043, 8983603.68290451914072 ], [ 763268.602621152997017, 8983565.766323460265994 ], [ 763254.798982350970618, 8983532.467806279659271 ], [ 763258.765415764995851, 8983518.958324920386076 ], [ 763260.661605344968848, 8983505.39678910933435 ], [ 763271.648992695962079, 8983456.619392640888691 ], [ 763279.453111562994309, 8983421.766378309577703 ], [ 763277.709048424963839, 8983397.757453959435225 ], [ 763269.953697580029257, 8983372.90907908976078 ], [ 763265.43356242205482, 8983329.88139471039176 ], [ 763270.779832142055966, 8983279.117621740326285 ], [ 763277.461787412990816, 8983229.744154209271073 ], [ 763278.418180717038922, 8983179.91784512065351 ], [ 763282.394390390953049, 8983129.570444809272885 ], [ 763292.158104215981439, 8983080.434392660856247 ], [ 763297.103460277081467, 8983057.902670290321112 ], [ 763302.36099405400455, 8983032.597151959314942 ], [ 763301.395940577960573, 8982982.340515060350299 ], [ 763309.600831522024237, 8982932.346287310123444 ], [ 763324.981301332009025, 8982883.517192149534822 ], [ 763351.392806275980547, 8982840.177989119663835 ], [ 763340.904323593014851, 8982792.408687120303512 ], [ 763344.551492330036126, 8982756.076677760109305 ], [ 763329.337792965932749, 8982719.628830920904875 ], [ 763324.074661138001829, 8982713.713829010725021 ], [ 763282.378399471985176, 8982690.776915080845356 ], [ 763250.932100225938484, 8982670.780237469822168 ], [ 763235.345522055984475, 8982650.32950740121305 ], [ 763225.812229639966972, 8982625.546252369880676 ], [ 763217.710981875890866, 8982597.111468020826578 ], [ 763212.211745770880952, 8982577.905030930414796 ], [ 763197.190547175006941, 8982528.643680110573769 ], [ 763202.550024972064421, 8982501.050080390647054 ], [ 763217.835106614045799, 8982482.424198489636183 ], [ 763264.208042232086882, 8982451.801068620756269 ], [ 763293.574577701976523, 8982419.260223440825939 ], [ 763298.740610075881705, 8982397.951915459707379 ], [ 763297.128343160962686, 8982373.436281310394406 ], [ 763291.717331282910891, 8982323.725731790065765 ], [ 763300.270263837999664, 8982272.072687009349465 ], [ 763306.872906222008169, 8982249.078670401126146 ], [ 763309.150504268007353, 8982224.333061240613461 ], [ 763299.000933869974688, 8982175.570602020248771 ], [ 763296.490710470010526, 8982159.49441884085536 ], [ 763283.135016054031439, 8982149.274057710543275 ], [ 763277.243015997926705, 8982104.331893339753151 ], [ 763277.085983507917263, 8982054.005653450265527 ], [ 763276.492774774087593, 8982002.886637030169368 ], [ 763273.995273404056206, 8981952.246417729184031 ], [ 763271.119443875038996, 8981903.023627480491996 ], [ 763270.626994987018406, 8981896.344618760049343 ], [ 763268.894711729953997, 8981852.393929859623313 ], [ 763265.215936540043913, 8981828.87997823022306 ], [ 763252.649026951985434, 8981807.458305029198527 ], [ 763228.352285977918655, 8981764.234795419499278 ], [ 763219.689087400096469, 8981749.381371190771461 ], [ 763203.828298363019712, 8981719.731428999453783 ], [ 763184.563720234087668, 8981675.124575259163976 ], [ 763183.100452604005113, 8981646.46625430136919 ], [ 763193.803763285977766, 8981617.364238498732448 ], [ 763169.121263722074218, 8981578.100489120930433 ], [ 763159.259432532940991, 8981574.95693120919168 ], [ 763150.599987550987862, 8981590.2284881696105 ], [ 763141.366012435988523, 8981617.249429909512401 ], [ 763134.293817190919071, 8981667.903862979263067 ], [ 763124.128988794982433, 8981688.753801019862294 ], [ 763108.269632557989098, 8981706.269794510677457 ], [ 763094.836880994960666, 8981715.545853180810809 ], [ 763047.780111359083094, 8981722.443473629653454 ], [ 763023.396115425042808, 8981709.653471289202571 ], [ 763000.48407027090434, 8981695.359634630382061 ], [ 762983.338576946989633, 8981675.936242429539561 ], [ 762980.824193659005687, 8981646.973765980452299 ], [ 762984.729150158003904, 8981598.031817529350519 ], [ 762987.721360284951515, 8981550.63937577046454 ], [ 762980.9868279309012, 8981526.291956730186939 ], [ 762966.816254122066312, 8981504.411916529759765 ], [ 762938.476016510976478, 8981465.962316619232297 ], [ 762910.636935082962736, 8981417.956452749669552 ], [ 762895.503472967073321, 8981366.832958750426769 ], [ 762883.622217264026403, 8981318.570111589506269 ], [ 762872.426347369095311, 8981271.233347099274397 ], [ 762857.226981675019488, 8981222.874125380069017 ], [ 762840.325333692017011, 8981175.542785089462996 ], [ 762823.261517935898155, 8981128.146963620558381 ], [ 762806.224748902022839, 8981081.133986979722977 ], [ 762800.646498662070371, 8981072.604175379499793 ], [ 762787.730526653002016, 8981034.709148710593581 ], [ 762772.162971004028805, 8980986.449439860880375 ], [ 762756.521421125973575, 8980939.467328039929271 ], [ 762744.091083809966221, 8980895.014357769861817 ], [ 762726.71903824293986, 8980847.165665559470654 ], [ 762709.425114954006858, 8980802.200608029961586 ], [ 762701.420577312004752, 8980788.381728699430823 ], [ 762679.672884125029668, 8980762.753101849928498 ], [ 762674.445674245012924, 8980754.853779660537839 ], [ 762642.323435900034383, 8980729.217877369374037 ], [ 762636.300918980035931, 8980722.653868619352579 ], [ 762607.558728785021231, 8980692.000367689877748 ], [ 762596.481659147073515, 8980683.900944160297513 ], [ 762568.919096492929384, 8980679.937031710520387 ], [ 762516.456099912989885, 8980675.966426819562912 ], [ 762470.808889874955639, 8980647.461975090205669 ], [ 762430.902240218012594, 8980615.862136460840702 ], [ 762391.262897410895675, 8980584.968016529455781 ], [ 762355.319271304062568, 8980556.305481869727373 ], [ 762364.566855972982012, 8980503.633186310529709 ], [ 762378.026994615909643, 8980469.608961429446936 ], [ 762376.816568580921739, 8980428.653787830844522 ], [ 762354.801333770970814, 8980377.638447970151901 ], [ 762341.153947190032341, 8980348.310989 ], [ 762329.806730062933639, 8980334.330385649576783 ], [ 762325.351577479043044, 8980328.967632150277495 ], [ 762296.610758702037856, 8980298.112589299678802 ], [ 762281.922455594060011, 8980280.566234009340405 ], [ 762265.292837220942602, 8980258.188144069164991 ], [ 762248.173960555926897, 8980239.48874088935554 ], [ 762230.573657114058733, 8980222.323475399985909 ], [ 762195.298124997061677, 8980186.714240109547973 ], [ 762162.033601894043386, 8980148.875178910791874 ], [ 762143.238830782007426, 8980130.162625769153237 ], [ 762123.869920137920417, 8980114.632233239710331 ], [ 762104.601078012026846, 8980097.870097020640969 ], [ 762085.756585630006157, 8980081.603758189827204 ], [ 762059.160596045898274, 8980059.808657420799136 ], [ 762046.8585562199587, 8980049.751050079241395 ], [ 762008.558528558001854, 8980017.945358198136091 ], [ 761970.168681325041689, 8979986.380884300917387 ], [ 761931.652749383007176, 8979954.159555429592729 ], [ 761892.779553157975897, 8979922.216378390789032 ], [ 761854.646943382918835, 8979890.503208750858903 ], [ 761814.866135177086107, 8979859.691004419699311 ], [ 761775.023414699942805, 8979832.497747540473938 ], [ 761752.841600414947607, 8979817.770133089274168 ], [ 761731.684803274110891, 8979803.363167699426413 ], [ 761690.436674922006205, 8979773.770714849233627 ], [ 761650.913877049111761, 8979744.182085990905762 ], [ 761610.975027517066337, 8979714.217549430206418 ], [ 761570.56828617292922, 8979684.048465859144926 ], [ 761530.614692615927197, 8979654.076068710535765 ], [ 761490.088664215058088, 8979623.935361789539456 ], [ 761450.608740377007052, 8979592.989205710589886 ], [ 761411.132184569025412, 8979561.847732340916991 ], [ 761372.59650974906981, 8979529.792298290878534 ], [ 761332.503418580046855, 8979500.949551090598106 ], [ 761290.566324557061307, 8979471.90838141925633 ], [ 761249.741462185047567, 8979443.159799840301275 ], [ 761227.313219578005373, 8979427.835381159558892 ], [ 761262.619951027911156, 8979381.173284590244293 ], [ 761289.540968027082272, 8979345.852265460416675 ], [ 761317.348133928026073, 8979309.279465710744262 ], [ 761346.593770729959942, 8979270.253462430089712 ], [ 761377.814296134049073, 8979230.31764106079936 ], [ 761406.627775125904009, 8979191.053552160039544 ], [ 761415.45754728501197, 8979178.653245989233255 ], [ 761443.138944225967862, 8979142.680549839511514 ], [ 761481.170464904978871, 8979093.134805869311094 ], [ 761485.335653554997407, 8979083.875733179971576 ], [ 761416.4794152850518, 8979049.458538210019469 ], [ 761373.630076242028736, 8979027.198645129799843 ], [ 761319.615326942061074, 8978998.93495088070631 ], [ 761274.775628699106164, 8978974.891439510509372 ], [ 761228.651437422027811, 8978947.30908221937716 ], [ 761187.227877099998295, 8978923.368612529709935 ], [ 761141.713034377084114, 8978896.447645599022508 ], [ 761089.686530075967312, 8978870.367414830252528 ], [ 761044.576084029045887, 8978851.967459060251713 ], [ 760990.415172519977205, 8978823.665007719770074 ], [ 760983.95636240800377, 8978819.444620760157704 ], [ 760960.404899965971708, 8978802.394385360181332 ], [ 760947.63877622410655, 8978796.076570419594646 ], [ 760901.884382435935549, 8978774.282209880650043 ], [ 760855.400292244041339, 8978750.300919370725751 ], [ 760803.76060487201903, 8978723.550740670412779 ], [ 760782.678914602962323, 8978712.438182570040226 ], [ 760758.546594529063441, 8978700.262728549540043 ], [ 760713.700124547933228, 8978677.09271439909935 ], [ 760669.79355227202177, 8978653.833984280005097 ], [ 760625.677844444988295, 8978630.076415980234742 ], [ 760581.322441967087798, 8978607.968315340578556 ], [ 760554.451098277932033, 8978594.426917649805546 ], [ 760536.647669472964481, 8978586.716109680011868 ], [ 760491.811075602076016, 8978564.055559650063515 ], [ 760447.782005166984163, 8978540.699861420318484 ], [ 760411.330045854090713, 8978523.146189019083977 ], [ 760403.273500262992457, 8978517.665829779580235 ], [ 760356.006654424942099, 8978494.094480769708753 ], [ 760311.321610452025197, 8978468.953570179641247 ], [ 760275.272045412915759, 8978443.905877450481057 ], [ 760237.668389535043389, 8978412.136457979679108 ], [ 760198.772462922031991, 8978378.469592150300741 ], [ 760162.130551907932386, 8978344.411515509709716 ], [ 760126.346674902015366, 8978309.285102859139442 ], [ 760075.788642637082376, 8978258.342839639633894 ], [ 760043.278046930907294, 8978229.616657709702849 ], [ 760002.352171859005466, 8978190.209580950438976 ], [ 759972.753325022989884, 8978149.514111770316958 ], [ 759941.940769777051173, 8978110.651014801114798 ], [ 759912.471953324042261, 8978069.595416499301791 ], [ 759883.444923569099046, 8978028.569928709417582 ], [ 759851.888387652928941, 8977989.458120599389076 ], [ 759821.681957334047183, 8977949.085397040471435 ], [ 759792.211927015916444, 8977908.781767640262842 ], [ 759758.621957737021148, 8977864.070010440424085 ], [ 759727.93395261792466, 8977818.510133670642972 ] ] ] } },
{ "type": "Feature", "properties": { "id": null }, "geometry": { "type": "MultiLineString", "coordinates": [ [ [ 760411.330045854090713, 8978523.146189019083977 ], [ 760427.969976199092343, 8978478.364971619099379 ], [ 760453.254381184116937, 8978435.672788849100471 ], [ 760475.243550460902043, 8978391.14147749915719 ], [ 760499.361766280955635, 8978346.041683930903673 ], [ 760516.629631444113329, 8978310.61697630956769 ], [ 760520.885047483025119, 8978301.491841780021787 ], [ 760542.106132721994072, 8978256.014254340901971 ], [ 760563.45517298206687, 8978212.719430789351463 ], [ 760589.502281085005961, 8978167.517736420035362 ], [ 760611.885575204039924, 8978123.282309401780367 ], [ 760616.160171674098819, 8978114.14269812963903 ], [ 760633.936846725991927, 8978077.531798349693418 ], [ 760657.387339406996034, 8978033.899283550679684 ], [ 760679.551797049120069, 8977988.349806969985366 ], [ 760703.001971577992663, 8977944.40310063958168 ], [ 760824.986343317083083, 8977727.005357719957829 ], [ 761046.043520128005184, 8977383.844824789091945 ], [ 761209.263710875995457, 8977164.340648619458079 ], [ 761469.234973254031502, 8976823.750108629465103 ] ] ] } },
{ "type": "Feature", "properties": { "id": null }, "geometry": { "type": "MultiLineString", "coordinates": [ [ [ 763283.135016054031439, 8982149.274057710543275 ], [ 763293.049997657071799, 8982124.346715789288282 ], [ 763295.190741402911954, 8982107.20841827057302 ], [ 763317.784313690033741, 8982009.539667960256338 ], [ 763351.54743272496853, 8981863.433097479864955 ], [ 763417.416226847912185, 8981578.823696760460734 ], [ 763499.488525617052801, 8981229.195109130814672 ], [ 763566.088353440980427, 8980936.026915390044451 ], [ 763614.104729220969602, 8980745.442452730610967 ], [ 763674.24339835299179, 8980555.501382689923048 ], [ 763698.492932272958569, 8980501.637492939829826 ], [ 763755.974512932007201, 8980420.010180249810219 ], [ 763825.951461752993055, 8980347.907009920105338 ], [ 763878.350390704115853, 8980261.915535999462008 ], [ 763897.4412616599584, 8980217.512628879398108 ], [ 763915.231280052918009, 8980148.511656919494271 ], [ 763925.564285804983228, 8980061.898487079888582 ], [ 763928.112011271994561, 8980010.342731149867177 ], [ 763917.830312605015934, 8979991.621877990663052 ], [ 763914.669130485039204, 8979943.279829269275069 ], [ 763887.027384444023483, 8979818.084212219342589 ], [ 763864.576310185948387, 8979674.333864830434322 ], [ 763864.828050300944597, 8979613.892145639285445 ], [ 763857.690722487983294, 8979562.143644800409675 ], [ 763851.634566819993779, 8979523.303706159815192 ], [ 763826.607392597943544, 8979507.689060170203447 ], [ 763819.917095980024897, 8979484.928920479491353 ], [ 763813.498338659992442, 8979430.454207679256797 ], [ 763813.498338659992442, 8979430.454207679256797 ], [ 763778.991770380991511, 8979386.428916959092021 ], [ 763716.0727636909578, 8979318.709959629923105 ], [ 763671.842048339080065, 8979301.551635179668665 ], [ 763561.053522960050032, 8979269.477890230715275 ], [ 763543.76943461294286, 8979262.914946960285306 ], [ 763169.428694252041169, 8978857.473278019577265 ], [ 763077.956678717047907, 8978745.661248689517379 ] ] ] } },
{ "type": "Feature", "properties": { "id": null }, "geometry": { "type": "MultiLineString", "coordinates": [ [ [ 763291.225590007961728, 8983614.181515369564295 ], [ 763296.555335184093565, 8983612.170561080798507 ], [ 763320.606062642997131, 8983606.982029369100928 ], [ 763333.74187393207103, 8983597.621614260599017 ], [ 763338.669232868589461, 8983579.710738353431225 ], [ 763343.242103739990853, 8983529.398122319951653 ], [ 763360.601296344073489, 8983483.907461430877447 ], [ 763383.378724812995642, 8983447.227981170639396 ], [ 763393.886334212962538, 8983397.103251039981842 ], [ 763409.882427915930748, 8983352.696524420753121 ], [ 763435.310339267947711, 8983310.271019009873271 ], [ 763457.566405379096977, 8983263.77230554074049 ], [ 763453.602775732055306, 8983237.60094952955842 ], [ 763440.945138528011739, 8983213.916614150628448 ], [ 763418.438048364012502, 8983170.78768315911293 ], [ 763400.24582609301433, 8983124.191982839256525 ], [ 763421.289834306575358, 8983070.610460922122002 ], [ 763432.704848818015307, 8983033.639755580574274 ], [ 763448.377900572959334, 8982985.434282450005412 ], [ 763501.391305265016854, 8982992.942448170855641 ], [ 763551.273889784119092, 8982979.255386289209127 ], [ 763601.700766823021695, 8982970.63936522975564 ], [ 763610.678274055942893, 8982962.261656569316983 ], [ 763631.163037585909478, 8982888.859727069735527 ], [ 763639.243852215935476, 8982835.078920260071754 ], [ 763621.191597467986867, 8982785.836037570610642 ], [ 763627.027671440970153, 8982735.699823550879955 ], [ 763627.302062232978642, 8982717.271608259528875 ], [ 763617.899439277942292, 8982703.478524960577488 ], [ 763614.96416992705781, 8982679.868696169927716 ], [ 763617.495781947043724, 8982654.420361239463091 ], [ 763619.710556457052007, 8982605.076654190197587 ], [ 763712.27279288705904, 8982226.487932950258255 ], [ 763768.742916634073481, 8981981.151434829458594 ], [ 763804.193758494104259, 8981827.893084939569235 ], [ 763831.879517197026871, 8981694.568990159779787 ], [ 763854.580847039120272, 8981596.409574780613184 ], [ 763935.997496107942425, 8981253.704635320231318 ], [ 763988.924807192059234, 8981006.862844260409474 ], [ 764044.506007335963659, 8980762.261922469362617 ], [ 764089.804854774032719, 8980565.900466920807958 ], [ 764137.061272618011571, 8980424.030940499156713 ] ] ] } },
{ "type": "Feature", "properties": { "id": null }, "geometry": { "type": "MultiLineString", "coordinates": [ [ [ 763851.987811067025177, 8981608.323832539841533 ], [ 763900.555983004975133, 8981623.351336650550365 ], [ 764237.948438812047243, 8981747.27932034060359 ], [ 764275.80933463096153, 8981712.324540650472045 ], [ 764302.810468101990409, 8981667.00285037048161 ], [ 764356.103258320013992, 8981575.66848604939878 ], [ 764355.594131245044991, 8981469.784878760576248 ], [ 764665.104307864094153, 8981216.358206940814853 ], [ 764708.982724315021187, 8981233.301262710243464 ], [ 764770.060795397963375, 8981198.084182320162654 ], [ 764858.267819580039941, 8981072.527182770892978 ], [ 764930.62413341505453, 8980879.905010759830475 ], [ 764980.204373977030627, 8980747.853628119453788 ], [ 765011.530551012954675, 8980706.587987039238214 ], [ 765163.902234914945439, 8980505.920259030535817 ], [ 765193.123507127049379, 8980467.312798740342259 ], [ 765419.391974807018414, 8979743.575729450210929 ], [ 765374.956301804981194, 8979709.937378089874983 ], [ 765555.594570929999463, 8978951.617766279727221 ], [ 765583.482086660922505, 8978886.775853360071778 ], [ 765569.618175167008303, 8978785.127684459090233 ], [ 765557.549564567976631, 8978671.15708477050066 ], [ 765544.640961595927365, 8978612.827039800584316 ], [ 765557.543784498004243, 8978517.685783380642533 ], [ 765720.983737835893407, 8978063.940663440153003 ], [ 766072.445843579014763, 8976629.819371059536934 ] ] ] } }
]
}
