{
"type": "FeatureCollection",
"name": "09_lo_li_salexisting",
"crs": { "type": "name", "properties": { "name": "urn:ogc:def:crs:EPSG::32751" } },
"features": [
{ "type": "Feature", "properties": { "LAYER": "07.Sal_existing", "GM_TYPE": "Unknown Line Type", "ELEVATION": 0 }, "geometry": { "type": "MultiLineString", "coordinates": [ [ [ 762282.324567665695213, 8979749.86816724576056 ], [ 762272.892692769062705, 8979744.155097529292107 ], [ 762404.930564535898156, 8979795.168136790394783 ], [ 762457.485388617031276, 8979789.497163139283657 ], [ 762546.174164470052347, 8979807.868184210732579 ], [ 762595.047152717015706, 8979852.024988640099764 ], [ 762654.322457798756659, 8979876.979942945763469 ], [ 762683.994890414061956, 8979929.27561704069376 ], [ 762695.335113504086621, 8979951.791751759126782 ], [ 762708.178777544060722, 8979963.030971420928836 ], [ 762714.67096238094382, 8979965.59934014081955 ], [ 762725.948308880906552, 8979969.52440015040338 ], [ 762747.240820304024965, 8979974.773400720208883 ], [ 762773.488867210922763, 8980033.765883810818195 ], [ 762780.538632317911834, 8980031.041410339996219 ], [ 762803.574175934074447, 8980028.198464499786496 ], [ 762855.290566144045442, 8980038.312848640605807 ], [ 762909.302898905938491, 8980046.065784249454737 ], [ 762942.871628782013431, 8980051.615248519927263 ], [ 762960.599801716976799, 8980053.139916710555553 ], [ 763028.827601574943401, 8980048.752232149243355 ], [ 763093.30537640908733, 8980044.606286840513349 ], [ 763117.611196244950406, 8980043.303844420239329 ], [ 763150.751636077067815, 8980043.076186880469322 ], [ 763168.128057184047066, 8980047.865249060094357 ], [ 763189.15871527697891, 8980053.244699209928513 ], [ 763223.165066785993986, 8980065.372190130874515 ], [ 763252.264124490902759, 8980085.895609360188246 ], [ 763278.231213644961827, 8980101.266336910426617 ], [ 763307.674581667990424, 8980112.102293809875846 ], [ 763338.397202579071745, 8980121.512579049915075 ], [ 763365.093485555960797, 8980130.424048809334636 ], [ 763386.346564722014591, 8980137.830904420465231 ], [ 763419.780634250026196, 8980149.123475309461355 ], [ 763484.862287404946983, 8980173.170639380812645 ], [ 763519.385423865052871, 8980208.879116650670767 ], [ 763524.36162989505101, 8980222.44743175059557 ], [ 763521.747188074979931, 8980235.843202359974384 ], [ 763514.881403762032278, 8980244.659441599622369 ], [ 763513.446333715924993, 8980259.828725840896368 ], [ 763515.850648397929035, 8980282.039494849741459 ], [ 763511.737868900061585, 8980294.204680349677801 ], [ 763498.846599063021131, 8980323.57921677082777 ], [ 763482.59109638503287, 8980336.819563629105687 ], [ 763478.032505435985513, 8980340.683016840368509 ] ] ] } },
{ "type": "Feature", "properties": { "LAYER": "07.Sal_existing", "GM_TYPE": "Unknown Line Type", "ELEVATION": 0 }, "geometry": { "type": "MultiLineString", "coordinates": [ [ [ 763293.372676035040058, 8983619.029199870303273 ], [ 763296.555335184093565, 8983612.170561080798507 ], [ 763320.606062642997131, 8983606.982029369100928 ], [ 763333.74187393207103, 8983597.621614260599017 ], [ 763341.093284484115429, 8983584.073410289362073 ], [ 763343.242103739990853, 8983529.398122319951653 ], [ 763360.601296344073489, 8983483.907461430877447 ], [ 763383.378724812995642, 8983447.227981170639396 ], [ 763393.886334212962538, 8983397.103251039981842 ], [ 763409.882427915930748, 8983352.696524420753121 ], [ 763428.414128302014433, 8983324.210871549323201 ], [ 763435.310339267947711, 8983310.271019009873271 ], [ 763457.566405379096977, 8983263.77230554074049 ], [ 763453.602775732055306, 8983237.60094952955842 ], [ 763440.945138528011739, 8983213.916614150628448 ], [ 763418.438048364012502, 8983170.78768315911293 ], [ 763400.24582609301433, 8983124.191982839256525 ], [ 763421.571039175032638, 8983082.282779239118099 ], [ 763432.704848818015307, 8983033.639755580574274 ], [ 763448.377900572959334, 8982985.434282450005412 ], [ 763501.391305265016854, 8982992.942448170855641 ], [ 763551.273889784119092, 8982979.255386289209127 ], [ 763601.700766823021695, 8982970.63936522975564 ], [ 763610.678274055942893, 8982962.261656569316983 ], [ 763617.046043467940763, 8982928.101426070556045 ], [ 763631.163037585909478, 8982888.859727069735527 ], [ 763628.208463847986422, 8982878.671098599210382 ], [ 763639.243852215935476, 8982835.078920260071754 ], [ 763621.191597467986867, 8982785.836037570610642 ], [ 763627.027671440970153, 8982735.699823550879955 ], [ 763627.302062232978642, 8982717.271608259528875 ], [ 763617.899439277942292, 8982703.478524960577488 ], [ 763614.96416992705781, 8982679.868696169927716 ], [ 763617.495781947043724, 8982654.420361239463091 ], [ 763619.710556457052007, 8982605.076654190197587 ], [ 763635.459525140933692, 8982559.762096270918846 ], [ 763646.607252119109035, 8982510.514344520866871 ], [ 763657.691321390913799, 8982462.632190801203251 ], [ 763670.695155329070985, 8982414.128547320142388 ], [ 763680.348887214087881, 8982374.035281959921122 ], [ 763690.923623859067447, 8982325.276325449347496 ], [ 763701.776247395901009, 8982275.271601729094982 ], [ 763705.510955869103782, 8982257.476107429713011 ], [ 763712.27279288705904, 8982226.487932950258255 ], [ 763723.921361275948584, 8982176.763217069208622 ], [ 763734.830045909038745, 8982128.40799269080162 ], [ 763742.59051310911309, 8982094.017499720677733 ], [ 763743.642900557024404, 8982078.898157499730587 ], [ 763757.524874292081222, 8982030.67051412910223 ], [ 763768.742916634073481, 8981981.151434829458594 ], [ 763775.148568075965159, 8981951.35428399965167 ], [ 763779.198303267010488, 8981933.447902802377939 ], [ 763788.414096010965295, 8981891.702237540856004 ], [ 763801.319295997032896, 8981843.708414610475302 ], [ 763802.41068675799761, 8981837.626096449792385 ], [ 763804.193758494104259, 8981827.893084939569235 ], [ 763810.839003034983762, 8981793.301583360880613 ], [ 763820.545018192031421, 8981744.179048180580139 ], [ 763831.879517197026871, 8981694.568990159779787 ], [ 763843.280787331983447, 8981646.405377050861716 ], [ 763850.507046684040688, 8981614.161104489117861 ], [ 763851.987811067025177, 8981608.323832539841533 ], [ 763854.580847039120272, 8981596.409574780613184 ], [ 763865.259138279943727, 8981547.186792630702257 ], [ 763876.687637030030601, 8981498.643300849944353 ], [ 763889.484386282972991, 8981449.131772829219699 ], [ 763901.47859133197926, 8981400.234958410263062 ], [ 763912.723869904060848, 8981351.479863829910755 ], [ 763916.223402459057979, 8981336.560414709150791 ], [ 763924.818038817960769, 8981302.670613870024681 ], [ 763935.997496107942425, 8981253.704635320231318 ], [ 763937.275662504020147, 8981245.553658770397305 ], [ 763941.023239885922521, 8981201.940056450664997 ], [ 763946.671057450002991, 8981175.512837309390306 ], [ 763952.302425650879741, 8981153.24328207038343 ], [ 763964.321063035051338, 8981104.438519719988108 ], [ 763977.04897696909029, 8981055.503177709877491 ], [ 763985.726875058026053, 8981021.328857529908419 ], [ 763988.924807192059234, 8981006.862844260409474 ], [ 763999.942481709062122, 8980957.995542349293828 ], [ 764009.951825120020658, 8980914.079467149451375 ], [ 764011.510141935897991, 8980908.107093809172511 ], [ 764022.588898914051242, 8980860.001125749200583 ], [ 764034.483188734040596, 8980814.8950828704983 ], [ 764044.506007335963659, 8980762.261922469362617 ], [ 764056.490340015036054, 8980713.800374219194055 ], [ 764063.337903574109077, 8980689.083281790837646 ], [ 764068.694762667058967, 8980664.647411670535803 ], [ 764071.018753809970804, 8980654.08941744081676 ], [ 764078.146223107934929, 8980615.016252459958196 ], [ 764089.804854774032719, 8980565.900466920807958 ], [ 764106.125237550935708, 8980517.844160690903664 ], [ 764120.589406050043181, 8980470.68346743658185 ] ] ] } },
{ "type": "Feature", "properties": { "LAYER": "07.Sal_existing", "GM_TYPE": "Unknown Line Type", "ELEVATION": 0 }, "geometry": { "type": "MultiLineString", "coordinates": [ [ [ 763236.062742702080868, 8984123.751474199816585 ], [ 763241.012954697012901, 8984102.496453389525414 ], [ 763243.546985680935904, 8984093.400659669190645 ], [ 763254.652761269942857, 8984052.186740769073367 ], [ 763273.961323179071769, 8984006.525332700461149 ], [ 763284.19081242592074, 8983958.236039079725742 ], [ 763277.042947575915605, 8983903.362422270700336 ], [ 763289.876975005026907, 8983856.468026829883456 ], [ 763295.503969910903834, 8983805.507278749719262 ], [ 763301.563350572017953, 8983755.500944109633565 ], [ 763307.280074699083343, 8983706.91053575091064 ], [ 763310.1628062420059, 8983658.091116320341825 ], [ 763293.372676035040058, 8983619.029199870303273 ], [ 763291.225590007961728, 8983614.181515369564295 ], [ 763284.26495570410043, 8983603.68290451914072 ], [ 763268.602621152997017, 8983565.766323460265994 ], [ 763254.798982350970618, 8983532.467806279659271 ], [ 763258.765415764995851, 8983518.958324920386076 ], [ 763260.661605344968848, 8983505.39678910933435 ], [ 763271.648992695962079, 8983456.619392640888691 ], [ 763279.453111562994309, 8983421.766378309577703 ], [ 763277.709048424963839, 8983397.757453959435225 ], [ 763269.953697580029257, 8983372.90907908976078 ], [ 763265.43356242205482, 8983329.88139471039176 ], [ 763270.779832142055966, 8983279.117621740326285 ], [ 763277.461787412990816, 8983229.744154209271073 ], [ 763278.418180717038922, 8983179.91784512065351 ], [ 763282.394390390953049, 8983129.570444809272885 ], [ 763292.158104215981439, 8983080.434392660856247 ], [ 763297.103460277081467, 8983057.902670290321112 ], [ 763302.36099405400455, 8983032.597151959314942 ], [ 763301.395940577960573, 8982982.340515060350299 ], [ 763309.600831522024237, 8982932.346287310123444 ], [ 763324.981301332009025, 8982883.517192149534822 ], [ 763351.392806275980547, 8982840.177989119663835 ], [ 763340.904323593014851, 8982792.408687120303512 ], [ 763344.551492330036126, 8982756.076677760109305 ], [ 763329.337792965932749, 8982719.628830920904875 ], [ 763324.074661138001829, 8982713.713829010725021 ], [ 763282.378399471985176, 8982690.776915080845356 ], [ 763250.932100225938484, 8982670.780237469822168 ], [ 763235.345522055984475, 8982650.32950740121305 ], [ 763225.812229639966972, 8982625.546252369880676 ], [ 763217.710981875890866, 8982597.111468020826578 ], [ 763212.211745770880952, 8982577.905030930414796 ], [ 763197.190547175006941, 8982528.643680110573769 ], [ 763202.550024972064421, 8982501.050080390647054 ], [ 763217.835106614045799, 8982482.424198489636183 ], [ 763264.208042232086882, 8982451.801068620756269 ], [ 763293.574577701976523, 8982419.260223440825939 ], [ 763298.740610075881705, 8982397.951915459707379 ], [ 763297.128343160962686, 8982373.436281310394406 ], [ 763291.717331282910891, 8982323.725731790065765 ], [ 763300.270263837999664, 8982272.072687009349465 ], [ 763306.872906222008169, 8982249.078670401126146 ], [ 763309.150504268007353, 8982224.333061240613461 ], [ 763299.000933869974688, 8982175.570602020248771 ], [ 763296.490710470010526, 8982159.49441884085536 ], [ 763293.049997657071799, 8982124.346715789288282 ], [ 763295.190741402911954, 8982107.20841827057302 ], [ 763304.611930747982115, 8982067.347265850752592 ], [ 763306.792904670001008, 8982057.963781049475074 ], [ 763317.784313690033741, 8982009.539667960256338 ], [ 763329.395442909095436, 8981960.574306698516011 ], [ 763340.630359602975659, 8981911.34718812070787 ], [ 763351.54743272496853, 8981863.433097479864955 ], [ 763361.45577148499433, 8981819.919389890506864 ], [ 763363.044417212950066, 8981813.775119349360466 ], [ 763373.592187265050597, 8981766.364925580099225 ], [ 763384.872601294075139, 8981717.129351219162345 ], [ 763396.291675124084577, 8981668.032607469707727 ], [ 763407.94396994705312, 8981619.837612889707088 ], [ 763417.416226847912185, 8981578.823696760460734 ], [ 763419.1273266809294, 8981570.883733039721847 ], [ 763430.782769144047052, 8981522.14115416072309 ], [ 763446.704557630000636, 8981467.025773169472814 ], [ 763446.039915136992931, 8981455.173318330198526 ], [ 763452.647639513015747, 8981424.539507290348411 ], [ 763463.433939295937307, 8981375.821204990148544 ], [ 763476.267519919085316, 8981326.379549900069833 ], [ 763487.916253359988332, 8981278.162317890673876 ], [ 763499.488525617052801, 8981229.195109130814672 ], [ 763510.899125450989231, 8981180.75244571082294 ], [ 763514.707133502000943, 8981165.729074940085411 ], [ 763522.7143230229849, 8981132.438113529235125 ], [ 763533.755614602938294, 8981083.396827150136232 ], [ 763545.444933086982928, 8981034.324834460392594 ], [ 763556.811798879061826, 8980985.88937721028924 ], [ 763566.805820105946623, 8980941.256226779893041 ], [ 763566.088353440980427, 8980936.026915390044451 ], [ 763578.342510395916179, 8980886.893857939168811 ], [ 763590.952875530929305, 8980837.55362194031477 ], [ 763602.11448015703354, 8980789.271705750375986 ], [ 763614.104729220969602, 8980745.442452730610967 ], [ 763615.637927367002703, 8980740.65323318913579 ], [ 763627.979683395009488, 8980692.272818589583039 ], [ 763643.271885240916163, 8980643.936148960143328 ], [ 763658.750601972918957, 8980595.456914309412241 ], [ 763674.24339835299179, 8980555.501382689923048 ], [ 763679.19877048197668, 8980548.598565369844437 ], [ 763698.492932272958569, 8980501.637492939829826 ], [ 763725.948727843002416, 8980459.942324379459023 ], [ 763750.565739560057409, 8980425.912377249449492 ], [ 763755.974512932007201, 8980420.010180249810219 ], [ 763792.829972805920988, 8980383.880395080894232 ], [ 763811.789360361988656, 8980367.321607459336519 ], [ 763825.951461752993055, 8980347.907009920105338 ], [ 763851.216045500943437, 8980304.779514379799366 ], [ 763873.634019226999953, 8980270.175559939816594 ], [ 763878.350390704115853, 8980261.915535999462008 ], [ 763897.4412616599584, 8980217.512628879398108 ], [ 763911.345811272971332, 8980170.738958779722452 ], [ 763915.231280052918009, 8980148.511656919494271 ], [ 763915.614787379046902, 8980123.529327470809221 ], [ 763918.407172922976315, 8980086.80172473937273 ], [ 763925.564285804983228, 8980061.898487079888582 ], [ 763927.680871667922474, 8980036.941948749125004 ], [ 763928.112011271994561, 8980010.342731149867177 ], [ 763917.830312605015934, 8979991.621877990663052 ], [ 763914.669130485039204, 8979943.279829269275069 ], [ 763902.921941149048507, 8979893.655699219554663 ], [ 763891.26889625901822, 8979841.476027529686689 ], [ 763887.027384444023483, 8979818.084212219342589 ], [ 763883.402754353010096, 8979793.92254626005888 ], [ 763880.56481422088109, 8979773.571398749947548 ], [ 763873.520091983024031, 8979723.656918289139867 ], [ 763871.409796965890564, 8979709.391904219985008 ], [ 763864.576310185948387, 8979674.333864830434322 ], [ 763865.902764754020609, 8979622.840128680691123 ], [ 763864.828050300944597, 8979613.892145639285445 ], [ 763859.745649352087639, 8979573.294507039710879 ], [ 763857.690722487983294, 8979562.143644800409675 ], [ 763851.634566819993779, 8979523.303706159815192 ], [ 763826.607392597943544, 8979507.689060170203447 ], [ 763819.917095980024897, 8979484.928920479491353 ], [ 763819.167271152022295, 8979443.205746360123158 ], [ 763813.498338659992442, 8979430.454207679256797 ], [ 763783.430801315000281, 8979390.806173598393798 ], [ 763778.991770380991511, 8979386.428916959092021 ], [ 763750.477418527007103, 8979354.263191198930144 ], [ 763734.044736854033545, 8979337.481334280222654 ], [ 763716.0727636909578, 8979318.709959629923105 ], [ 763671.842048339080065, 8979301.551635179668665 ], [ 763622.600174822029658, 8979287.610526850447059 ], [ 763575.406526959966868, 8979273.545077050104737 ], [ 763561.053522960050032, 8979269.477890230715275 ], [ 763543.76943461294286, 8979262.914946960285306 ], [ 763510.467768736998551, 8979223.146168949082494 ], [ 763478.71274965594057, 8979186.46977736055851 ], [ 763463.883230495033786, 8979170.402035519480705 ], [ 763443.750244292081334, 8979147.979239150881767 ], [ 763410.214608975918964, 8979113.325632080435753 ], [ 763375.233728960040025, 8979076.250832580029964 ], [ 763341.400368735892698, 8979039.753016939386725 ], [ 763326.78989742801059, 8979024.018152950331569 ], [ 763306.69984617002774, 8979003.125686809420586 ], [ 763272.415106049040332, 8978967.020368410274386 ], [ 763238.670162272988819, 8978929.836084129288793 ], [ 763203.973931806976907, 8978893.856732029467821 ], [ 763191.583659307914786, 8978881.011309359222651 ], [ 763169.428694252041169, 8978857.473278019577265 ], [ 763168.046379594015889, 8978850.109006160870194 ], [ 763132.089284152956679, 8978817.587250949814916 ], [ 763129.399773544981144, 8978814.706511469557881 ], [ 763096.44789516297169, 8978774.850602259859443 ], [ 763077.956678717047907, 8978745.661248689517379 ] ] ] } }
]
}
