{
"type": "FeatureCollection",
"name": "09_lo_ar_00",
"crs": { "type": "name", "properties": { "name": "urn:ogc:def:crs:EPSG::32751" } },
"features": [
{ "type": "Feature", "properties": { "LAYER": "00", "GM_TYPE": "Unknown Area Type", "ELEVATION": 72.841 }, "geometry": { "type": "MultiPolygon", "coordinates": [ [ [ [ 763471.169170129229315, 8984155.717000000178814 ], [ 763471.14144088816829, 8984154.137220239266753 ], [ 763471.058287327527069, 8984152.559386759996414 ], [ 763470.919811891857535, 8984150.985443444922566 ], [ 763470.726185182342306, 8984149.417329387739301 ], [ 763470.477645746199414, 8984147.856976494193077 ], [ 763470.17449978296645, 8984146.306307112798095 ], [ 763469.817120766965672, 8984144.767231661826372 ], [ 763469.405948987463489, 8984143.241646274924278 ], [ 763468.941491006291471, 8984141.731430467218161 ], [ 763468.424319033510983, 8984140.238444816321135 ], [ 763467.855070222518407, 8984138.76452867500484 ], [ 763467.234445885405876, 8984137.311497898772359 ], [ 763466.563210628344677, 8984135.881142616271973 ], [ 763465.842191410134546, 8984134.475225018337369 ], [ 763465.072276523103938, 8984133.095477189868689 ], [ 763464.254414498922415, 8984131.743598973378539 ], [ 763463.389612939674407, 8984130.421255877241492 ], [ 763462.478937277104706, 8984129.130077019333839 ], [ 763461.523509459220804, 8984127.871653128415346 ], [ 763460.524506568792276, 8984126.647534577175975 ], [ 763459.483159372699447, 8984125.459229473024607 ], [ 763458.400750806089491, 8984124.308201802894473 ], [ 763457.278614391107112, 8984123.195869626477361 ], [ 763456.118132594623603, 8984122.123603332787752 ], [ 763454.920735125080682, 8984121.092723950743675 ], [ 763453.687897170428187, 8984120.104501515626907 ], [ 763452.421137581579387, 8984119.160153513774276 ], [ 763451.122017000219785, 8984118.260843379423022 ], [ 763449.792135937022977, 8984117.407679056748748 ], [ 763448.43313279945869, 8984116.601711640134454 ], [ 763447.046681872918271, 8984115.843934079632163 ], [ 763445.634491258766502, 8984115.135279951617122 ], [ 763444.198300769086927, 8984114.476622316986322 ], [ 763442.739879784174263, 8984113.868772635236382 ], [ 763441.261025071726181, 8984113.31247977912426 ], [ 763439.763558574137278, 8984112.808429094031453 ], [ 763438.249325163196772, 8984112.357241570949554 ], [ 763436.720190367312171, 8984111.959473071619868 ], [ 763435.178038073703647, 8984111.615613643079996 ], [ 763433.624768206733279, 8984111.326086919754744 ], [ 763432.062294387840666, 8984111.091249594464898 ], [ 763430.492541577434167, 8984110.911390990018845 ], [ 763428.917443703860044, 8984110.786732688546181 ], [ 763427.338941280380823, 8984110.717428268864751 ], [ 763425.758979014703073, 8984110.703563114628196 ], [ 763424.179503413033672, 8984110.745154308155179 ], [ 763422.602460382157005, 8984110.842150606215 ], [ 763421.029792831628583, 8984110.994432512670755 ], [ 763419.463438280741684, 8984111.201812416315079 ], [ 763417.90532647096552, 8984111.464034825563431 ], [ 763416.357376988977194, 8984111.780776683241129 ], [ 763414.821496901335195, 8984112.151647765189409 ], [ 763413.299578405334614, 8984112.57619116269052 ], [ 763411.793496497441083, 8984113.053883835673332 ], [ 763410.305106663610786, 8984113.584137270227075 ], [ 763408.836242593242787, 8984114.166298199445009 ], [ 763407.388713920256123, 8984114.799649400636554 ], [ 763405.964303993154317, 8984115.483410589396954 ], [ 763404.564767678384669, 8984116.216739373281598 ], [ 763403.191829198272899, 8984116.998732298612595 ], [ 763401.847180006792769, 8984117.828425949439406 ], [ 763400.532476705382578, 8984118.704798148944974 ], [ 763399.249339002650231, 8984119.626769211143255 ], [ 763397.9993477180833, 8984120.593203270807862 ], [ 763396.784042835352011, 8984121.602909686043859 ], [ 763395.604921604390256, 8984122.654644504189491 ], [ 763394.463436697144061, 8984123.747111991047859 ], [ 763393.360994417686015, 8984124.878966232761741 ], [ 763392.29895296995528, 8984126.048812789842486 ], [ 763391.27862078405451, 8984127.255210416391492 ], [ 763390.301254904596135, 8984128.49667283706367 ], [ 763389.368059441680089, 8984129.771670574322343 ], [ 763388.480184087879024, 8984131.078632839024067 ], [ 763387.638722701696679, 8984132.415949458256364 ], [ 763386.844711959478445, 8984133.781972862780094 ], [ 763386.099130078800954, 8984135.17502012103796 ], [ 763385.402895613224246, 8984136.593375002965331 ], [ 763384.756866320269182, 8984138.035290103405714 ], [ 763384.161838105181232, 8984139.498988987877965 ], [ 763383.618544039898552, 8984140.98266838863492 ], [ 763383.127653460251167, 8984142.484500417485833 ], [ 763382.689771141158417, 8984144.002634825184941 ], [ 763382.305436551454477, 8984145.535201275721192 ], [ 763381.975123189855367, 8984147.08031165599823 ], [ 763381.699238000786863, 8984148.636062396690249 ], [ 763381.47812087344937, 8984150.200536819174886 ], [ 763381.312044223188423, 8984151.771807499229908 ], [ 763381.201212655636482, 8984153.347938638180494 ], [ 763381.145762714906596, 8984154.926988448947668 ], [ 763381.145762714906596, 8984156.50701155140996 ], [ 763381.201212655636482, 8984158.086061362177134 ], [ 763381.312044223188423, 8984159.66219250112772 ], [ 763381.47812087344937, 8984161.233463181182742 ], [ 763381.699238000786863, 8984162.797937603667378 ], [ 763381.975123189855367, 8984164.353688344359398 ], [ 763382.305436551454477, 8984165.898798724636436 ], [ 763382.689771141158417, 8984167.431365175172687 ], [ 763383.127653460251167, 8984168.949499582871795 ], [ 763383.618544039898552, 8984170.451331611722708 ], [ 763384.161838105181232, 8984171.935011012479663 ], [ 763384.756866320269182, 8984173.398709896951914 ], [ 763385.402895613224246, 8984174.840624997392297 ], [ 763386.099130078800954, 8984176.258979879319668 ], [ 763386.844711959478445, 8984177.652027137577534 ], [ 763387.638722701696679, 8984179.018050542101264 ], [ 763388.480184087879024, 8984180.355367161333561 ], [ 763389.368059441680089, 8984181.662329426035285 ], [ 763390.301254904596135, 8984182.937327163293958 ], [ 763391.27862078405451, 8984184.178789583966136 ], [ 763392.29895296995528, 8984185.385187210515141 ], [ 763393.360994417686015, 8984186.555033767595887 ], [ 763394.463436697144061, 8984187.686888009309769 ], [ 763395.604921604390256, 8984188.779355496168137 ], [ 763396.784042835352011, 8984189.831090314313769 ], [ 763397.9993477180833, 8984190.840796729549766 ], [ 763399.249339002650231, 8984191.807230789214373 ], [ 763400.532476705382578, 8984192.729201851412654 ], [ 763401.847180006792769, 8984193.605574050918221 ], [ 763403.191829198272899, 8984194.435267701745033 ], [ 763404.564767678384669, 8984195.21726062707603 ], [ 763405.964303993154317, 8984195.950589410960674 ], [ 763407.388713920256123, 8984196.634350599721074 ], [ 763408.836242593242787, 8984197.267701800912619 ], [ 763410.305106663610786, 8984197.849862730130553 ], [ 763411.793496497441083, 8984198.380116164684296 ], [ 763413.299578405334614, 8984198.857808837667108 ], [ 763414.821496901335195, 8984199.282352235168219 ], [ 763416.357376988977194, 8984199.653223317116499 ], [ 763417.90532647096552, 8984199.969965174794197 ], [ 763419.463438280741684, 8984200.232187584042549 ], [ 763421.029792831628583, 8984200.439567487686872 ], [ 763422.602460382157005, 8984200.591849394142628 ], [ 763424.179503413033672, 8984200.688845692202449 ], [ 763425.758979014703073, 8984200.730436885729432 ], [ 763427.338941280380823, 8984200.716571731492877 ], [ 763428.917443703860044, 8984200.647267311811447 ], [ 763430.492541577434167, 8984200.522609010338783 ], [ 763432.062294387840666, 8984200.34275040589273 ], [ 763433.624768206733279, 8984200.107913080602884 ], [ 763435.178038073703647, 8984199.818386357277632 ], [ 763436.720190367312171, 8984199.47452692873776 ], [ 763438.249325163196772, 8984199.076758429408073 ], [ 763439.763558574137278, 8984198.625570906326175 ], [ 763441.261025071726181, 8984198.121520221233368 ], [ 763442.739879784174263, 8984197.565227365121245 ], [ 763444.198300769086927, 8984196.957377683371305 ], [ 763445.634491258766502, 8984196.298720048740506 ], [ 763447.046681872918271, 8984195.590065920725465 ], [ 763448.43313279945869, 8984194.832288360223174 ], [ 763449.792135937022977, 8984194.02632094360888 ], [ 763451.122017000219785, 8984193.173156620934606 ], [ 763452.421137581579387, 8984192.273846486583352 ], [ 763453.687897170428187, 8984191.329498484730721 ], [ 763454.920735125080682, 8984190.341276049613953 ], [ 763456.118132594623603, 8984189.310396667569876 ], [ 763457.278614391107112, 8984188.238130373880267 ], [ 763458.400750806089491, 8984187.125798197463155 ], [ 763459.483159372699447, 8984185.974770527333021 ], [ 763460.524506568792276, 8984184.786465423181653 ], [ 763461.523509459220804, 8984183.562346871942282 ], [ 763462.478937277104706, 8984182.303922981023788 ], [ 763463.389612939674407, 8984181.012744123116136 ], [ 763464.254414498922415, 8984179.690401026979089 ], [ 763465.072276523103938, 8984178.338522810488939 ], [ 763465.842191410134546, 8984176.958774982020259 ], [ 763466.563210628344677, 8984175.552857384085655 ], [ 763467.234445885405876, 8984174.122502101585269 ], [ 763467.855070222518407, 8984172.669471325352788 ], [ 763468.424319033510983, 8984171.195555184036493 ], [ 763468.941491006291471, 8984169.702569533139467 ], [ 763469.405948987463489, 8984168.19235372543335 ], [ 763469.817120766965672, 8984166.666768338531256 ], [ 763470.17449978296645, 8984165.127692887559533 ], [ 763470.477645746199414, 8984163.577023506164551 ], [ 763470.726185182342306, 8984162.016670612618327 ], [ 763470.919811891857535, 8984160.448556555435061 ], [ 763471.058287327527069, 8984158.874613240361214 ], [ 763471.14144088816829, 8984157.296779761090875 ], [ 763471.169170129229315, 8984155.717000000178814 ] ] ] ] } },
{ "type": "Feature", "properties": { "LAYER": "00", "GM_TYPE": "Unknown Area Type", "ELEVATION": 72.867 }, "geometry": { "type": "MultiPolygon", "coordinates": [ [ [ [ 763302.488707025069743, 8984126.525827867910266 ], [ 763302.468238940113224, 8984125.359727926552296 ], [ 763302.406859901966527, 8984124.19506461545825 ], [ 763302.304645529133268, 8984123.033272793516517 ], [ 763302.16172174946405, 8984121.875783782452345 ], [ 763301.978264644159935, 8984120.72402360662818 ], [ 763301.754500231822021, 8984119.579411225393414 ], [ 763301.490704188821837, 8984118.443356797099113 ], [ 763301.18720151099842, 8984117.31725993566215 ], [ 763300.844366112025455, 8984116.202507989481091 ], [ 763300.462620363687165, 8984115.100474324077368 ], [ 763300.042434574803337, 8984114.01251664198935 ], [ 763299.584326412528753, 8984112.939975300803781 ], [ 763299.088860263931565, 8984111.884171668440104 ], [ 763298.556646540993825, 8984110.846406487748027 ], [ 763297.988340928568505, 8984109.827958283945918 ], [ 763297.384643576573581, 8984108.830081777647138 ], [ 763296.746298237354495, 8984107.854006348177791 ], [ 763296.07409134937916, 8984106.900934517383575 ], [ 763295.368851068546064, 8984105.972040463238955 ], [ 763294.631446247454733, 8984105.068468581885099 ], [ 763293.862785365665331, 8984104.191332068294287 ], [ 763293.063815409666859, 8984103.341711550951004 ], [ 763292.23552070686128, 8984102.520653756335378 ], [ 763291.37892171239946, 8984101.72917022742331 ], [ 763290.49507375236135, 8984100.96823606453836 ], [ 763289.585065723396838, 8984100.238788736984134 ], [ 763288.650018751155585, 8984099.541726922616363 ], [ 763287.691084809252061, 8984098.877909393981099 ], [ 763286.709445299697109, 8984098.248153975233436 ], [ 763285.706309598055668, 8984097.653236517682672 ], [ 763284.682913562748581, 8984097.093889962881804 ], [ 763283.640518013038673, 8984096.570803416892886 ], [ 763282.580407175468281, 8984096.084621325135231 ], [ 763281.503887101542205, 8984095.635942658409476 ], [ 763280.4122840592172, 8984095.225320186465979 ], [ 763279.306942898314446, 8984094.853259798139334 ], [ 763278.189225394045934, 8984094.52021986618638 ], [ 763277.060508569236845, 8984094.226610695943236 ], [ 763275.922182997805066, 8984093.972794013097882 ], [ 763274.775651091709733, 8984093.759082516655326 ], [ 763273.622325372765772, 8984093.585739500820637 ], [ 763272.46362673304975, 8984093.452978519722819 ], [ 763271.300982684013434, 8984093.360963137820363 ], [ 763270.135825597681105, 8984093.309806717559695 ], [ 763268.969590942142531, 8984093.29957228153944 ], [ 763267.80371551332064, 8984093.330272438004613 ], [ 763266.639635664178059, 8984093.401869365945458 ], [ 763265.478785535786301, 8984093.51427485793829 ], [ 763264.32259529014118, 8984093.667350431904197 ], [ 763263.172489348333329, 8984093.86090749874711 ], [ 763262.029884635470808, 8984094.094707597047091 ], [ 763260.896188835497014, 8984094.36846268363297 ], [ 763259.772798656136729, 8984094.681835498660803 ], [ 763258.661098109208979, 8984095.034439964219928 ], [ 763257.562456804327667, 8984095.425841674208641 ], [ 763256.478228262858465, 8984095.855558423325419 ], [ 763255.409748249105178, 8984096.323060803115368 ], [ 763254.358333125710487, 8984096.827772853896022 ], [ 763253.325278231059201, 8984097.369072770699859 ], [ 763252.31185628415551, 8984097.946293676272035 ], [ 763251.31931581615936, 8984098.558724435046315 ], [ 763250.348879632307217, 8984099.205610536038876 ], [ 763249.401743305497803, 8984099.886155020445585 ], [ 763248.479073703405447, 8984100.599519457668066 ], [ 763247.582007550518028, 8984101.344824986532331 ], [ 763246.71165002847556, 8984102.121153395622969 ], [ 763245.869073413545266, 8984102.927548252046108 ], [ 763245.055315756238997, 8984103.763016078621149 ], [ 763244.271379602374509, 8984104.626527585089207 ], [ 763243.518230757443234, 8984105.517018929123878 ], [ 763242.796797097660601, 8984106.433393029496074 ], [ 763242.107967425719835, 8984107.374520914629102 ], [ 763241.452590376604348, 8984108.339243123307824 ], [ 763240.831473371945322, 8984109.326371120288968 ], [ 763240.245381625019945, 8984110.334688767790794 ], [ 763239.695037198020145, 8984111.362953824922442 ], [ 763239.18111811298877, 8984112.409899473190308 ], [ 763238.704257515608333, 8984113.474235879257321 ], [ 763238.265042896033265, 8984114.554651785641909 ], [ 763237.864015364670195, 8984115.649816127493978 ], [ 763237.501668985583819, 8984116.758379666134715 ], [ 763237.1784501678776, 8984117.878976654261351 ], [ 763236.894757115514949, 8984119.010226523503661 ], [ 763236.650939337094314, 8984120.150735579431057 ], [ 763236.447297215112485, 8984121.299098718911409 ], [ 763236.284081635647453, 8984122.45390116609633 ], [ 763236.161493679392152, 8984123.613720206543803 ], [ 763236.079684374388307, 8984124.777126951143146 ], [ 763236.038754509179853, 8984125.942688087001443 ], [ 763236.038754509179853, 8984127.108967648819089 ], [ 763236.079684374388307, 8984128.274528784677386 ], [ 763236.161493679392152, 8984129.437935529276729 ], [ 763236.284081635647453, 8984130.597754569724202 ], [ 763236.447297215112485, 8984131.752557016909122 ], [ 763236.650939337094314, 8984132.900920156389475 ], [ 763236.894757115514949, 8984134.041429212316871 ], [ 763237.1784501678776, 8984135.172679081559181 ], [ 763237.501668985583819, 8984136.293276069685817 ], [ 763237.864015364670195, 8984137.401839608326554 ], [ 763238.265042896033265, 8984138.497003950178623 ], [ 763238.704257515608333, 8984139.57741985656321 ], [ 763239.18111811298877, 8984140.641756262630224 ], [ 763239.695037198020145, 8984141.688701910898089 ], [ 763240.245381625019945, 8984142.716966968029737 ], [ 763240.831473371945322, 8984143.725284615531564 ], [ 763241.452590376604348, 8984144.712412612512708 ], [ 763242.107967425719835, 8984145.67713482119143 ], [ 763242.796797097660601, 8984146.618262706324458 ], [ 763243.518230757443234, 8984147.534636806696653 ], [ 763244.271379602374509, 8984148.425128150731325 ], [ 763245.055315756238997, 8984149.288639657199383 ], [ 763245.869073413545266, 8984150.124107483774424 ], [ 763246.71165002847556, 8984150.930502340197563 ], [ 763247.582007550518028, 8984151.706830749288201 ], [ 763248.479073703405447, 8984152.452136278152466 ], [ 763249.401743305497803, 8984153.165500715374947 ], [ 763250.348879632307217, 8984153.846045199781656 ], [ 763251.31931581615936, 8984154.492931300774217 ], [ 763252.31185628415551, 8984155.105362059548497 ], [ 763253.325278231059201, 8984155.682582965120673 ], [ 763254.358333125710487, 8984156.22388288192451 ], [ 763255.409748249105178, 8984156.728594932705164 ], [ 763256.478228262858465, 8984157.196097312495112 ], [ 763257.562456804327667, 8984157.625814061611891 ], [ 763258.661098109208979, 8984158.017215771600604 ], [ 763259.772798656136729, 8984158.369820237159729 ], [ 763260.896188835497014, 8984158.683193052187562 ], [ 763262.029884635470808, 8984158.956948138773441 ], [ 763263.172489348333329, 8984159.190748237073421 ], [ 763264.32259529014118, 8984159.384305303916335 ], [ 763265.478785535786301, 8984159.537380877882242 ], [ 763266.639635664178059, 8984159.649786369875073 ], [ 763267.80371551332064, 8984159.721383297815919 ], [ 763268.969590942142531, 8984159.752083454281092 ], [ 763270.135825597681105, 8984159.741849018260837 ], [ 763271.300982684013434, 8984159.690692598000169 ], [ 763272.46362673304975, 8984159.598677216097713 ], [ 763273.622325372765772, 8984159.465916234999895 ], [ 763274.775651091709733, 8984159.292573219165206 ], [ 763275.922182997805066, 8984159.07886172272265 ], [ 763277.060508569236845, 8984158.825045039877295 ], [ 763278.189225394045934, 8984158.531435869634151 ], [ 763279.306942898314446, 8984158.198395937681198 ], [ 763280.4122840592172, 8984157.826335549354553 ], [ 763281.503887101542205, 8984157.415713077411056 ], [ 763282.580407175468281, 8984156.967034410685301 ], [ 763283.640518013038673, 8984156.480852318927646 ], [ 763284.682913562748581, 8984155.957765772938728 ], [ 763285.706309598055668, 8984155.39841921813786 ], [ 763286.709445299697109, 8984154.803501760587096 ], [ 763287.691084809252061, 8984154.173746341839433 ], [ 763288.650018751155585, 8984153.509928813204169 ], [ 763289.585065723396838, 8984152.812866998836398 ], [ 763290.49507375236135, 8984152.083419671282172 ], [ 763291.37892171239946, 8984151.322485508397222 ], [ 763292.23552070686128, 8984150.531001979485154 ], [ 763293.063815409666859, 8984149.709944184869528 ], [ 763293.862785365665331, 8984148.860323667526245 ], [ 763294.631446247454733, 8984147.983187153935432 ], [ 763295.368851068546064, 8984147.079615272581577 ], [ 763296.07409134937916, 8984146.150721218436956 ], [ 763296.746298237354495, 8984145.197649387642741 ], [ 763297.384643576573581, 8984144.221573958173394 ], [ 763297.988340928568505, 8984143.223697451874614 ], [ 763298.556646540993825, 8984142.205249248072505 ], [ 763299.088860263931565, 8984141.167484067380428 ], [ 763299.584326412528753, 8984140.111680435016751 ], [ 763300.042434574803337, 8984139.039139093831182 ], [ 763300.462620363687165, 8984137.951181411743164 ], [ 763300.844366112025455, 8984136.84914774633944 ], [ 763301.18720151099842, 8984135.734395800158381 ], [ 763301.490704188821837, 8984134.608298938721418 ], [ 763301.754500231822021, 8984133.472244510427117 ], [ 763301.978264644159935, 8984132.327632129192352 ], [ 763302.16172174946405, 8984131.175871953368187 ], [ 763302.304645529133268, 8984130.018382942304015 ], [ 763302.406859901966527, 8984128.856591120362282 ], [ 763302.468238940113224, 8984127.691927809268236 ], [ 763302.488707025069743, 8984126.525827867910266 ] ] ] ] } },
{ "type": "Feature", "properties": { "LAYER": "00", "GM_TYPE": "Unknown Area Type", "ELEVATION": 70.19 }, "geometry": { "type": "MultiPolygon", "coordinates": [ [ [ [ 763320.984747558948584, 8983994.279999934136868 ], [ 763320.96199152758345, 8983992.983551982790232 ], [ 763320.893751468975097, 8983991.688701247796416 ], [ 763320.780111454427242, 8983990.397042980417609 ], [ 763320.621211487916298, 8983989.110168499872088 ], [ 763320.417247333563864, 8983987.829663228243589 ], [ 763320.16847027419135, 8983986.557104740291834 ], [ 763319.875186802004464, 8983985.294060822576284 ], [ 763319.537758240941912, 8983984.042087541893125 ], [ 763319.156600301386788, 8983982.802727323025465 ], [ 763318.732182568171993, 8983981.577507048845291 ], [ 763318.265027921996079, 8983980.367936188355088 ], [ 763317.755711895180866, 8983979.175504926592112 ], [ 763317.204861962818541, 8983978.001682333648205 ], [ 763316.613156769308262, 8983976.84791455231607 ], [ 763315.981325292959809, 8983975.715623019263148 ], [ 763315.310145947034471, 8983974.606202712282538 ], [ 763314.600445621530525, 8983973.52102043479681 ], [ 763313.853098663850687, 8983972.461413122713566 ], [ 763313.06902580219321, 8983971.428686209022999 ], [ 763312.249193010502495, 8983970.424112008884549 ], [ 763311.394610319053754, 8983969.448928153142333 ], [ 763310.5063305698568, 8983968.504336062818766 ], [ 763309.585448119323701, 8983967.591499472036958 ], [ 763308.633097490528598, 8983966.711542990058661 ], [ 763307.650451975059696, 8983965.86555072106421 ], [ 763306.638722187606618, 8983965.054564921185374 ], [ 763305.599154574563727, 8983964.279584722593427 ], [ 763304.533029878512025, 8983963.541564896702766 ], [ 763303.441661560093053, 8983962.84141468256712 ], [ 763302.326394180068746, 8983962.179996659979224 ], [ 763301.188601742731407, 8983961.55812569335103 ], [ 763300.029686003108509, 8983960.976567924022675 ], [ 763298.851074740057811, 8983960.436039829626679 ], [ 763297.654219997115433, 8983959.937207339331508 ], [ 763296.440596294007264, 8983959.480685010552406 ], [ 763295.211698809405789, 8983959.067035276442766 ], [ 763293.969041539239697, 8983958.696767752990127 ], [ 763292.714155431836843, 8983958.37033860757947 ], [ 763291.44858650083188, 8983958.088150000199676 ], [ 763290.173893921310082, 8983957.850549584254622 ], [ 763288.891648108838126, 8983957.657830081880093 ], [ 763287.603428784292191, 8983957.510228926315904 ], [ 763286.310823027859442, 8983957.407927956432104 ], [ 763285.015423323842697, 8983957.351053211838007 ], [ 763283.718825598829426, 8983957.339674757793546 ], [ 763282.422627255087718, 8983957.373806614428759 ], [ 763281.128425203147344, 8983957.453406730666757 ], [ 763279.837813893915154, 8983957.578377040103078 ], [ 763278.552383354632184, 8983957.748563580214977 ], [ 763277.27371722960379, 8983957.963756680488586 ], [ 763276.003390829777345, 8983958.22369122505188 ], [ 763274.742969191400334, 8983958.528046976774931 ], [ 763273.494005148066208, 8983958.876448968425393 ], [ 763272.258037417777814, 8983959.268467972055078 ], [ 763271.036588707007468, 8983959.70362102240324 ], [ 763269.83116383489687, 8983960.181372011080384 ], [ 763268.643247879459523, 8983960.701132353395224 ], [ 763267.474304347648285, 8983961.26226170361042 ], [ 763266.325773372431286, 8983961.864068757742643 ], [ 763265.19906993873883, 8983962.505812088027596 ], [ 763264.09558213991113, 8983963.186701070517302 ], [ 763263.016669467906468, 8983963.905896855518222 ], [ 763261.963661138201132, 8983964.662513393908739 ], [ 763260.937854452175088, 8983965.455618539825082 ], [ 763259.94051319884602, 8983966.284235190600157 ], [ 763258.972866098163649, 8983967.147342495620251 ], [ 763258.036105286795646, 8983968.043877108022571 ], [ 763257.13138484978117, 8983968.972734503448009 ], [ 763256.259819398634136, 8983969.932770332321525 ], [ 763255.422482697758824, 8983970.922801837325096 ], [ 763254.62040634220466, 8983971.941609302535653 ], [ 763253.854578486410901, 8983972.987937560304999 ], [ 763253.12594262661878, 8983974.060497542843223 ], [ 763252.435396439046599, 8983975.157967856153846 ], [ 763251.783790673245676, 8983976.278996426612139 ], [ 763251.171928104595281, 8983977.422202151268721 ], [ 763250.600562544888817, 8983978.586176604032516 ], [ 763250.07039791403804, 8983979.769485775381327 ], [ 763249.582087372196838, 8983980.970671832561493 ], [ 763249.136232515797019, 8983982.188254920765758 ], [ 763248.733382635982707, 8983983.420734982937574 ], [ 763248.374034041888081, 8983984.666593609377742 ], [ 763248.05862944945693, 8983985.924295909702778 ], [ 763247.787557435454801, 8983987.192292395979166 ], [ 763247.56115195970051, 8983988.469020906835794 ], [ 763247.379691952373832, 8983989.752908516675234 ], [ 763247.243400971521623, 8983991.042373484000564 ], [ 763247.152446926920675, 8983992.335827190428972 ], [ 763247.10694187367335, 8983993.63167610950768 ], [ 763247.10694187367335, 8983994.928323758766055 ], [ 763247.152446926920675, 8983996.224172677844763 ], [ 763247.243400971521623, 8983997.517626384273171 ], [ 763247.379691952373832, 8983998.807091351598501 ], [ 763247.56115195970051, 8984000.090978961437941 ], [ 763247.787557435454801, 8984001.367707472294569 ], [ 763248.05862944945693, 8984002.635703958570957 ], [ 763248.374034041888081, 8984003.893406258895993 ], [ 763248.733382635982707, 8984005.139264885336161 ], [ 763249.136232515797019, 8984006.371744947507977 ], [ 763249.582087372196838, 8984007.589328035712242 ], [ 763250.07039791403804, 8984008.790514092892408 ], [ 763250.600562544888817, 8984009.973823264241219 ], [ 763251.171928104595281, 8984011.137797717005014 ], [ 763251.783790673245676, 8984012.281003441661596 ], [ 763252.435396439046599, 8984013.402032012119889 ], [ 763253.12594262661878, 8984014.499502325430512 ], [ 763253.854578486410901, 8984015.572062307968736 ], [ 763254.62040634220466, 8984016.618390565738082 ], [ 763255.422482697758824, 8984017.637198030948639 ], [ 763256.259819398634136, 8984018.62722953595221 ], [ 763257.13138484978117, 8984019.587265364825726 ], [ 763258.036105286795646, 8984020.516122760251164 ], [ 763258.972866098163649, 8984021.412657372653484 ], [ 763259.94051319884602, 8984022.275764677673578 ], [ 763260.937854452175088, 8984023.104381328448653 ], [ 763261.963661138201132, 8984023.897486474364996 ], [ 763263.016669467906468, 8984024.654103012755513 ], [ 763264.09558213991113, 8984025.373298797756433 ], [ 763265.199069938622415, 8984026.054187780246139 ], [ 763266.325773372431286, 8984026.695931110531092 ], [ 763267.474304347648285, 8984027.297738164663315 ], [ 763268.643247879459523, 8984027.858867514878511 ], [ 763269.83116383489687, 8984028.378627857193351 ], [ 763271.036588707007468, 8984028.856378845870495 ], [ 763272.258037417777814, 8984029.291531896218657 ], [ 763273.494005148066208, 8984029.683550899848342 ], [ 763274.742969191400334, 8984030.031952891498804 ], [ 763276.003390829777345, 8984030.336308643221855 ], [ 763277.27371722960379, 8984030.596243187785149 ], [ 763278.552383354632184, 8984030.811436288058758 ], [ 763279.837813893915154, 8984030.981622828170657 ], [ 763281.128425203147344, 8984031.106593137606978 ], [ 763282.422627255087718, 8984031.186193253844976 ], [ 763283.718825598829426, 8984031.220325110480189 ], [ 763285.015423323842697, 8984031.208946656435728 ], [ 763286.310823027859442, 8984031.152071911841631 ], [ 763287.603428784292191, 8984031.049770941957831 ], [ 763288.891648108838126, 8984030.902169786393642 ], [ 763290.173893921310082, 8984030.709450284019113 ], [ 763291.44858650083188, 8984030.471849868074059 ], [ 763292.714155431836843, 8984030.189661260694265 ], [ 763293.969041539239697, 8984029.863232115283608 ], [ 763295.211698809405789, 8984029.492964591830969 ], [ 763296.440596294007264, 8984029.079314857721329 ], [ 763297.654219997115433, 8984028.622792528942227 ], [ 763298.851074740057811, 8984028.123960038647056 ], [ 763300.029686003108509, 8984027.58343194425106 ], [ 763301.188601742731407, 8984027.001874174922705 ], [ 763302.326394180068746, 8984026.380003208294511 ], [ 763303.441661560093053, 8984025.718585185706615 ], [ 763304.533029878512025, 8984025.018434971570969 ], [ 763305.599154574563727, 8984024.280415145680308 ], [ 763306.638722187606618, 8984023.505434947088361 ], [ 763307.650451975059696, 8984022.694449147209525 ], [ 763308.633097490528598, 8984021.848456878215075 ], [ 763309.585448119323701, 8984020.968500396236777 ], [ 763310.5063305698568, 8984020.055663805454969 ], [ 763311.394610319053754, 8984019.111071715131402 ], [ 763312.249193010502495, 8984018.135887859389186 ], [ 763313.06902580219321, 8984017.131313659250736 ], [ 763313.853098663850687, 8984016.098586745560169 ], [ 763314.600445621530525, 8984015.038979433476925 ], [ 763315.310145947034471, 8984013.953797155991197 ], [ 763315.981325292959809, 8984012.844376849010587 ], [ 763316.613156769308262, 8984011.712085315957665 ], [ 763317.204861962818541, 8984010.55831753462553 ], [ 763317.755711895180866, 8984009.384494941681623 ], [ 763318.265027921996079, 8984008.192063679918647 ], [ 763318.732182568171993, 8984006.982492819428444 ], [ 763319.156600301386788, 8984005.75727254524827 ], [ 763319.537758240941912, 8984004.51791232638061 ], [ 763319.875186802004464, 8984003.265939045697451 ], [ 763320.16847027419135, 8984002.002895127981901 ], [ 763320.417247333563864, 8984000.730336640030146 ], [ 763320.621211487916298, 8983999.449831368401647 ], [ 763320.780111454427242, 8983998.162956887856126 ], [ 763320.893751468975097, 8983996.871298620477319 ], [ 763320.96199152758345, 8983995.576447885483503 ], [ 763320.984747558948584, 8983994.279999934136868 ] ] ] ] } },
{ "type": "Feature", "properties": { "LAYER": "00", "GM_TYPE": "Unknown Area Type", "ELEVATION": -0.08 }, "geometry": { "type": "MultiPolygon", "coordinates": [ [ [ [ 763163.24787526705768, 8984234.948999999091029 ], [ 763163.244292085291818, 8984234.744860332459211 ], [ 763163.233546954463236, 8984234.540972165763378 ], [ 763163.215653112623841, 8984234.337586686015129 ], [ 763163.190632604761049, 8984234.134954465553164 ], [ 763163.158516256022267, 8984233.93332514539361 ], [ 763163.119343633763492, 8984233.732947131618857 ], [ 763163.073162998422049, 8984233.53406728990376 ], [ 763163.020031244144775, 8984233.336930638179183 ], [ 763162.960013829288073, 8984233.14178004860878 ], [ 763162.89318469481077, 8984232.948855945840478 ], [ 763162.819626174052246, 8984232.758396012708545 ], [ 763162.739428890636191, 8984232.570634892210364 ], [ 763162.652691647293977, 8984232.38580390624702 ], [ 763162.559521303861402, 8984232.20413076505065 ], [ 763162.460032645962201, 8984232.025839291512966 ], [ 763162.354348242981359, 8984231.851149139925838 ], [ 763162.242598297656514, 8984231.680275524035096 ], [ 763162.124920485424809, 8984231.513428961858153 ], [ 763162.001459784689359, 8984231.350815007463098 ], [ 763161.872368298703805, 8984231.192634001374245 ], [ 763161.737805067445152, 8984231.039080820977688 ], [ 763161.597935872152448, 8984230.890344642102718 ], [ 763161.452933031134307, 8984230.746608708053827 ], [ 763161.302975187194534, 8984230.608050100505352 ], [ 763161.14824708760716, 8984230.474839523434639 ], [ 763160.988939356757328, 8984230.347141090780497 ], [ 763160.82524826109875, 8984230.22511212900281 ], [ 763160.657375467126258, 8984230.108902974054217 ], [ 763160.485527793527581, 8984229.998656796291471 ], [ 763160.309916955768131, 8984229.894509417936206 ], [ 763160.130759305553511, 8984229.796589149162173 ], [ 763159.948275564354844, 8984229.705016627907753 ], [ 763159.762690551229753, 8984229.619904669001698 ], [ 763159.574232906219549, 8984229.541358130052686 ], [ 763159.383134808042087, 8984229.469473782926798 ], [ 763159.1896316887578, 8984229.40434018522501 ], [ 763158.993961943429895, 8984229.346037583425641 ], [ 763158.796366636175662, 8984229.294637804850936 ], [ 763158.59708920342382, 8984229.250204175710678 ], [ 763158.396375154261477, 8984229.212791435420513 ], [ 763158.194471767288633, 8984229.182445678859949 ], [ 763157.991627786657773, 8984229.159204289317131 ], [ 763157.788093115203083, 8984229.143095903098583 ], [ 763157.584118506638333, 8984229.13414036296308 ], [ 763157.37995525682345, 8984229.132348703220487 ], [ 763157.175854893866926, 8984229.137723131105304 ], [ 763156.972068868461065, 8984229.150257024914026 ], [ 763156.768848244100809, 8984229.169934943318367 ], [ 763156.566443387768231, 8984229.196732642129064 ], [ 763156.365103661082685, 8984229.230617109686136 ], [ 763156.165077113779262, 8984229.271546598523855 ], [ 763155.96661017765291, 8984229.319470683112741 ], [ 763155.769947363063693, 8984229.374330321326852 ], [ 763155.575330957653932, 8984229.436057928949594 ], [ 763155.383000727859326, 8984229.504577454179525 ], [ 763155.193193623796105, 8984229.579804481938481 ], [ 763155.006143486942165, 8984229.661646336317062 ], [ 763154.822080762009136, 8984229.750002183020115 ], [ 763154.6412322135875, 8984229.844763172790408 ], [ 763154.463820646167733, 8984229.945812558755279 ], [ 763154.290064630098641, 8984230.053025849163532 ], [ 763154.120178231969476, 8984230.166270956397057 ], [ 763153.954370750929229, 8984230.285408364608884 ], [ 763153.792846461059526, 8984230.41029129549861 ], [ 763153.635804359568283, 8984230.540765894576907 ], [ 763153.483437921735458, 8984230.676671417430043 ], [ 763153.335934862028807, 8984230.817840429022908 ], [ 763153.193476903717965, 8984230.964099012315273 ], [ 763153.056239554425701, 8984231.115266973152757 ], [ 763152.924391889711842, 8984231.271158074960113 ], [ 763152.798096345504746, 8984231.431580262258649 ], [ 763152.677508517168462, 8984231.596335895359516 ], [ 763152.562776968465187, 8984231.765221994370222 ], [ 763152.454043047968298, 8984231.938030492514372 ], [ 763152.35144071560353, 8984232.114548491314054 ], [ 763152.255096376873553, 8984232.294558521360159 ], [ 763152.165128727443516, 8984232.47783881239593 ], [ 763152.081648607156239, 8984232.664163561537862 ], [ 763152.004758863244206, 8984232.853303218260407 ], [ 763151.934554223204032, 8984233.045024763792753 ], [ 763151.871121179196052, 8984233.23909199796617 ], [ 763151.814537880127318, 8984233.435265831649303 ], [ 763151.764874036540277, 8984233.633304579183459 ], [ 763151.722190833999775, 8984233.83296425640583 ], [ 763151.686540858005174, 8984234.033998884260654 ], [ 763151.657968029263429, 8984234.236160790547729 ], [ 763151.636507549206726, 8984234.439200911670923 ], [ 763151.622185857151635, 8984234.642869101837277 ], [ 763151.615020597353578, 8984234.846914444118738 ], [ 763151.615020597353578, 8984235.05108555406332 ], [ 763151.622185857151635, 8984235.255130896344781 ], [ 763151.636507549206726, 8984235.458799086511135 ], [ 763151.657968029263429, 8984235.66183920763433 ], [ 763151.686540858005174, 8984235.864001113921404 ], [ 763151.722190833999775, 8984236.065035741776228 ], [ 763151.764874036540277, 8984236.264695418998599 ], [ 763151.814537880127318, 8984236.462734166532755 ], [ 763151.871121179196052, 8984236.658908000215888 ], [ 763151.934554223204032, 8984236.852975234389305 ], [ 763152.004758863244206, 8984237.044696779921651 ], [ 763152.081648607156239, 8984237.233836436644197 ], [ 763152.165128727443516, 8984237.420161185786128 ], [ 763152.255096376873553, 8984237.603441476821899 ], [ 763152.35144071560353, 8984237.783451506868005 ], [ 763152.454043047968298, 8984237.959969505667686 ], [ 763152.562776968465187, 8984238.132778003811836 ], [ 763152.677508517168462, 8984238.301664102822542 ], [ 763152.798096345504746, 8984238.466419735923409 ], [ 763152.924391889711842, 8984238.626841923221946 ], [ 763153.056239554425701, 8984238.782733025029302 ], [ 763153.193476903717965, 8984238.933900985866785 ], [ 763153.335934862028807, 8984239.08015956915915 ], [ 763153.483437921735458, 8984239.221328580752015 ], [ 763153.635804359568283, 8984239.357234103605151 ], [ 763153.792846461059526, 8984239.487708702683449 ], [ 763153.954370750929229, 8984239.612591633573174 ], [ 763154.120178231969476, 8984239.731729041785002 ], [ 763154.290064630098641, 8984239.844974149018526 ], [ 763154.463820646167733, 8984239.95218743942678 ], [ 763154.6412322135875, 8984240.05323682539165 ], [ 763154.822080762009136, 8984240.147997815161943 ], [ 763155.006143486942165, 8984240.236353661864996 ], [ 763155.193193623796105, 8984240.318195516243577 ], [ 763155.383000727859326, 8984240.393422544002533 ], [ 763155.575330957653932, 8984240.461942069232464 ], [ 763155.769947363063693, 8984240.523669676855206 ], [ 763155.96661017765291, 8984240.578529315069318 ], [ 763156.165077113779262, 8984240.626453399658203 ], [ 763156.365103661082685, 8984240.667382888495922 ], [ 763156.566443387768231, 8984240.701267356052995 ], [ 763156.768848244100809, 8984240.728065054863691 ], [ 763156.972068868461065, 8984240.747742973268032 ], [ 763157.175854893866926, 8984240.760276867076755 ], [ 763157.37995525682345, 8984240.765651294961572 ], [ 763157.584118506638333, 8984240.763859635218978 ], [ 763157.788093115203083, 8984240.754904095083475 ], [ 763157.991627786657773, 8984240.738795708864927 ], [ 763158.194471767288633, 8984240.715554319322109 ], [ 763158.396375154261477, 8984240.685208562761545 ], [ 763158.59708920342382, 8984240.64779582247138 ], [ 763158.796366636175662, 8984240.603362193331122 ], [ 763158.993961943429895, 8984240.551962414756417 ], [ 763159.1896316887578, 8984240.493659812957048 ], [ 763159.383134808042087, 8984240.42852621525526 ], [ 763159.574232906219549, 8984240.356641868129373 ], [ 763159.762690551229753, 8984240.27809532918036 ], [ 763159.948275564354844, 8984240.192983370274305 ], [ 763160.130759305553511, 8984240.101410849019885 ], [ 763160.309916955768131, 8984240.003490580245852 ], [ 763160.485527793527581, 8984239.899343201890588 ], [ 763160.657375467126258, 8984239.789097024127841 ], [ 763160.82524826109875, 8984239.672887869179249 ], [ 763160.988939356757328, 8984239.550858907401562 ], [ 763161.14824708760716, 8984239.423160474747419 ], [ 763161.302975187194534, 8984239.289949897676706 ], [ 763161.452933031134307, 8984239.151391290128231 ], [ 763161.597935872152448, 8984239.00765535607934 ], [ 763161.737805067445152, 8984238.85891917720437 ], [ 763161.872368298703805, 8984238.705365996807814 ], [ 763162.001459784689359, 8984238.547184990718961 ], [ 763162.124920485424809, 8984238.384571036323905 ], [ 763162.242598297656514, 8984238.217724474146962 ], [ 763162.354348242981359, 8984238.046850858256221 ], [ 763162.460032645962201, 8984237.872160706669092 ], [ 763162.559521303861402, 8984237.693869233131409 ], [ 763162.652691647293977, 8984237.512196091935039 ], [ 763162.739428890636191, 8984237.327365105971694 ], [ 763162.819626174052246, 8984237.139603985473514 ], [ 763162.89318469481077, 8984236.94914405234158 ], [ 763162.960013829288073, 8984236.756219949573278 ], [ 763163.020031244144775, 8984236.561069360002875 ], [ 763163.073162998422049, 8984236.363932708278298 ], [ 763163.119343633763492, 8984236.165052866563201 ], [ 763163.158516256022267, 8984235.964674852788448 ], [ 763163.190632604761049, 8984235.763045532628894 ], [ 763163.215653112623841, 8984235.560413312166929 ], [ 763163.233546954463236, 8984235.35702783241868 ], [ 763163.244292085291818, 8984235.153139665722847 ], [ 763163.24787526705768, 8984234.948999999091029 ] ] ] ] } },
{ "type": "Feature", "properties": { "LAYER": "00", "GM_TYPE": "Unknown Area Type", "ELEVATION": -0.08 }, "geometry": { "type": "MultiPolygon", "coordinates": [ [ [ [ 763387.453578810673207, 8984297.371266501024365 ], [ 763387.451242195325904, 8984297.238145744428039 ], [ 763387.444235228234902, 8984297.105188993737102 ], [ 763387.432566541712731, 8984296.972560048103333 ], [ 763387.416250511771068, 8984296.840422306209803 ], [ 763387.395307239494286, 8984296.708938563242555 ], [ 763387.369762527057901, 8984296.578270804136992 ], [ 763387.339647845248692, 8984296.448580013588071 ], [ 763387.305000295280479, 8984296.320025967434049 ], [ 763387.265862562926486, 8984296.192767044529319 ], [ 763387.222282865433954, 8984296.066960027441382 ], [ 763387.174314892967232, 8984295.942759910598397 ], [ 763387.122017741785385, 8984295.820319708436728 ], [ 763387.065455841831863, 8984295.699790263548493 ], [ 763387.004698876990005, 8984295.581320069730282 ], [ 763386.939821699517779, 8984295.465055081993341 ], [ 763386.870904237963259, 8984295.351138539612293 ], [ 763386.798031398211606, 8984295.239710783585906 ], [ 763386.721292959293351, 8984295.130909094586968 ], [ 763386.64078346255701, 8984295.024867516011 ], [ 763386.556602095486596, 8984294.921716690063477 ], [ 763386.468852568999864, 8984294.821583699434996 ], [ 763386.377642990089953, 8984294.724591905251145 ], [ 763386.283085728646256, 8984294.630860801786184 ], [ 763386.185297278687358, 8984294.540505865588784 ], [ 763386.084398115170188, 8984294.453638412058353 ], [ 763385.980512545444071, 8984294.370365465059876 ], [ 763385.873768555931747, 8984294.290789613500237 ], [ 763385.764297654852271, 8984294.215008893981576 ], [ 763385.652234709821641, 8984294.143116671591997 ], [ 763385.537717781844549, 8984294.075201513245702 ], [ 763385.420887955348007, 8984294.011347092688084 ], [ 763385.301889163907617, 8984293.951632076874375 ], [ 763385.180868013761938, 8984293.896130034700036 ], [ 763385.057973602204584, 8984293.844909345731139 ], [ 763384.933357334695756, 8984293.798033110797405 ], [ 763384.807172737782821, 8984293.755559084936976 ], [ 763384.679575270391069, 8984293.71753959171474 ], [ 763384.550722132087685, 8984293.684021474793553 ], [ 763384.420772069250233, 8984293.65504602715373 ], [ 763384.289885179838166, 8984293.630648944526911 ], [ 763384.158222715719603, 8984293.610860286280513 ], [ 763384.025946884648874, 8984293.59570443071425 ], [ 763383.893220649682917, 8984293.585200050845742 ], [ 763383.760207528946921, 8984293.579360086470842 ], [ 763383.627071394119412, 8984293.578191734850407 ], [ 763383.49397626821883, 8984293.581696432083845 ], [ 763383.361086123855785, 8984293.589869862422347 ], [ 763383.228564681019634, 8984293.602701956406236 ], [ 763383.096575205563568, 8984293.620176905766129 ], [ 763382.965280307922512, 8984293.642273178324103 ], [ 763382.834841742762364, 8984293.668963555246592 ], [ 763382.705420209793374, 8984293.700215149670839 ], [ 763382.577175155747682, 8984293.735989464446902 ], [ 763382.450264577986673, 8984293.776242423802614 ], [ 763382.32484482973814, 8984293.820924434810877 ], [ 763382.201070427545346, 8984293.86998045258224 ], [ 763382.079093860927969, 8984293.923350038006902 ], [ 763381.959065404371358, 8984293.980967439711094 ], [ 763381.841132932459004, 8984294.04276167601347 ], [ 763381.725441737449728, 8984294.108656613156199 ], [ 763381.612134350347333, 8984294.178571071475744 ], [ 763381.501350365229882, 8984294.252418916672468 ], [ 763381.393226267653517, 8984294.330109165981412 ], [ 763381.287895265850239, 8984294.411546109244227 ], [ 763381.185487127280794, 8984294.496629411354661 ], [ 763381.086128018097952, 8984294.58525425568223 ], [ 763380.989940348430537, 8984294.677311453968287 ], [ 763380.897042620927095, 8984294.772687591612339 ], [ 763380.807549285236746, 8984294.871265165507793 ], [ 763380.721570596797392, 8984294.97292273119092 ], [ 763380.63921248074621, 8984295.077535044401884 ], [ 763380.560576402116567, 8984295.18497322499752 ], [ 763380.485759240109473, 8984295.295104909688234 ], [ 763380.414853169117123, 8984295.40779441408813 ], [ 763380.347945545101538, 8984295.522902907803655 ], [ 763380.2851187979104, 8984295.640288576483727 ], [ 763380.226450329879299, 8984295.759806802496314 ], [ 763380.172012420254759, 8984295.88131034001708 ], [ 763380.121872136252932, 8984296.004649495705962 ], [ 763380.076091250521131, 8984296.129672316834331 ], [ 763380.034726164885797, 8984296.256224777549505 ], [ 763379.997827840968966, 8984296.384150963276625 ], [ 763379.965441737323999, 8984296.513293271884322 ], [ 763379.937607753439806, 8984296.643492598086596 ], [ 763379.914360180613585, 8984296.774588540196419 ], [ 763379.895727659924887, 8984296.906419584527612 ], [ 763379.881733146379702, 8984297.038823319599032 ], [ 763379.872393881203607, 8984297.171636624261737 ], [ 763379.86772137042135, 8984297.304695870727301 ], [ 763379.86772137042135, 8984297.43783713132143 ], [ 763379.872393881203607, 8984297.570896377786994 ], [ 763379.881733146379702, 8984297.703709682449698 ], [ 763379.895727659924887, 8984297.836113417521119 ], [ 763379.914360180613585, 8984297.967944461852312 ], [ 763379.937607753439806, 8984298.099040403962135 ], [ 763379.965441737323999, 8984298.229239730164409 ], [ 763379.997827840968966, 8984298.358382038772106 ], [ 763380.034726164885797, 8984298.486308224499226 ], [ 763380.076091250521131, 8984298.6128606852144 ], [ 763380.121872136252932, 8984298.737883506342769 ], [ 763380.172012420254759, 8984298.861222662031651 ], [ 763380.226450329879299, 8984298.982726199552417 ], [ 763380.2851187979104, 8984299.102244425565004 ], [ 763380.347945545101538, 8984299.219630094245076 ], [ 763380.414853169117123, 8984299.334738587960601 ], [ 763380.485759240109473, 8984299.447428092360497 ], [ 763380.560576402116567, 8984299.55755977705121 ], [ 763380.63921248074621, 8984299.664997957646847 ], [ 763380.721570596797392, 8984299.769610270857811 ], [ 763380.807549285236746, 8984299.871267836540937 ], [ 763380.897042620927095, 8984299.969845410436392 ], [ 763380.989940348430537, 8984300.065221548080444 ], [ 763381.086128018097952, 8984300.157278746366501 ], [ 763381.185487127280794, 8984300.24590359069407 ], [ 763381.287895265850239, 8984300.330986892804503 ], [ 763381.393226267653517, 8984300.412423836067319 ], [ 763381.501350365229882, 8984300.490114085376263 ], [ 763381.612134350347333, 8984300.563961930572987 ], [ 763381.725441737449728, 8984300.633876388892531 ], [ 763381.841132932459004, 8984300.699771326035261 ], [ 763381.959065404371358, 8984300.761565562337637 ], [ 763382.079093860927969, 8984300.819182964041829 ], [ 763382.201070427545346, 8984300.872552549466491 ], [ 763382.32484482973814, 8984300.921608567237854 ], [ 763382.450264577986673, 8984300.966290578246117 ], [ 763382.577175155747682, 8984301.006543537601829 ], [ 763382.705420209793374, 8984301.042317852377892 ], [ 763382.834841742762364, 8984301.073569446802139 ], [ 763382.965280307922512, 8984301.100259823724627 ], [ 763383.096575205563568, 8984301.122356096282601 ], [ 763383.228564681019634, 8984301.139831045642495 ], [ 763383.361086123855785, 8984301.152663139626384 ], [ 763383.49397626821883, 8984301.160836569964886 ], [ 763383.627071394119412, 8984301.164341267198324 ], [ 763383.760207528946921, 8984301.163172915577888 ], [ 763383.893220649682917, 8984301.157332951202989 ], [ 763384.025946884648874, 8984301.146828571334481 ], [ 763384.158222715719603, 8984301.131672715768218 ], [ 763384.289885179838166, 8984301.11188405752182 ], [ 763384.420772069250233, 8984301.087486974895 ], [ 763384.550722132087685, 8984301.058511527255177 ], [ 763384.679575270391069, 8984301.024993410333991 ], [ 763384.807172737782821, 8984300.986973917111754 ], [ 763384.933357334695756, 8984300.944499891251326 ], [ 763385.057973602204584, 8984300.897623656317592 ], [ 763385.180868013761938, 8984300.846402967348695 ], [ 763385.301889163907617, 8984300.790900925174356 ], [ 763385.420887955348007, 8984300.731185909360647 ], [ 763385.537717781844549, 8984300.667331488803029 ], [ 763385.652234709821641, 8984300.599416330456734 ], [ 763385.764297654852271, 8984300.527524108067155 ], [ 763385.873768555931747, 8984300.451743388548493 ], [ 763385.980512545444071, 8984300.372167536988854 ], [ 763386.084398115170188, 8984300.288894589990377 ], [ 763386.185297278687358, 8984300.202027136459947 ], [ 763386.283085728646256, 8984300.111672200262547 ], [ 763386.377642990089953, 8984300.017941096797585 ], [ 763386.468852568999864, 8984299.920949302613735 ], [ 763386.556602095486596, 8984299.820816311985254 ], [ 763386.64078346255701, 8984299.717665486037731 ], [ 763386.721292959293351, 8984299.611623907461762 ], [ 763386.798031398211606, 8984299.502822218462825 ], [ 763386.870904237963259, 8984299.391394462436438 ], [ 763386.939821699517779, 8984299.277477920055389 ], [ 763387.004698876990005, 8984299.161212932318449 ], [ 763387.065455841831863, 8984299.042742738500237 ], [ 763387.122017741785385, 8984298.922213293612003 ], [ 763387.174314892967232, 8984298.799773091450334 ], [ 763387.222282865433954, 8984298.675572974607348 ], [ 763387.265862562926486, 8984298.549765957519412 ], [ 763387.305000295280479, 8984298.422507034614682 ], [ 763387.339647845248692, 8984298.29395298846066 ], [ 763387.369762527057901, 8984298.164262197911739 ], [ 763387.395307239494286, 8984298.033594438806176 ], [ 763387.416250511771068, 8984297.902110695838928 ], [ 763387.432566541712731, 8984297.769972953945398 ], [ 763387.444235228234902, 8984297.637344008311629 ], [ 763387.451242195325904, 8984297.504387257620692 ], [ 763387.453578810673207, 8984297.371266501024365 ] ] ] ] } },
{ "type": "Feature", "properties": { "LAYER": "00", "GM_TYPE": "Unknown Area Type", "ELEVATION": -0.08 }, "geometry": { "type": "MultiPolygon", "coordinates": [ [ [ [ 763378.658252155175433, 8984295.344331741333008 ], [ 763378.658045314368792, 8984295.332547683268785 ], [ 763378.657425046665594, 8984295.320778142660856 ], [ 763378.656392116216011, 8984295.309037622064352 ], [ 763378.654947795672342, 8984295.297340581193566 ], [ 763378.653093864442781, 8984295.285701435059309 ], [ 763378.650832606479526, 8984295.274134520441294 ], [ 763378.648166807717644, 8984295.262654088437557 ], [ 763378.645099752233364, 8984295.251274282112718 ], [ 763378.641635218868032, 8984295.240009123459458 ], [ 763378.637777475873008, 8984295.228872489184141 ], [ 763378.633531275787391, 8984295.21787810139358 ], [ 763378.628901850082912, 8984295.207039501518011 ], [ 763378.623894902062602, 8984295.196370046585798 ], [ 763378.618516600341536, 8984295.185882879421115 ], [ 763378.612773570930585, 8984295.175590921193361 ], [ 763378.60667288932018, 8984295.165506849065423 ], [ 763378.600222071399912, 8984295.155643090605736 ], [ 763378.593429064610973, 8984295.146011793985963 ], [ 763378.586302237818018, 8984295.136624827980995 ], [ 763378.578850371413864, 8984295.127493755891919 ], [ 763378.571082645794377, 8984295.118629826232791 ], [ 763378.563008631113917, 8984295.110043959692121 ], [ 763378.554638274130411, 8984295.101746736094356 ], [ 763378.54598188737873, 8984295.09374837577343 ], [ 763378.537050135433674, 8984295.086058732122183 ], [ 763378.527854022104293, 8984295.078687280416489 ], [ 763378.518404876929708, 8984295.071643102914095 ], [ 763378.508714341325685, 8984295.064934873953462 ], [ 763378.49879435391631, 8984295.058570861816406 ], [ 763378.488657135982066, 8984295.052558906376362 ], [ 763378.478315176791511, 8984295.046906411647797 ], [ 763378.467781217419542, 8984295.041620345786214 ], [ 763378.457068235613406, 8984295.03670721873641 ], [ 763378.446189429843798, 8984295.032173082232475 ], [ 763378.435158202657476, 8984295.028023524209857 ], [ 763378.423988144495524, 8984295.02426365762949 ], [ 763378.412693016813137, 8984295.020898113027215 ], [ 763378.401286735082977, 8984295.017931036651134 ], [ 763378.389783352031372, 8984295.015366084873676 ], [ 763378.378197039593942, 8984295.013206416741014 ], [ 763378.366542072035372, 8984295.011454693973064 ], [ 763378.354832808254287, 8984295.010113073512912 ], [ 763378.34308367408812, 8984295.009183209389448 ], [ 763378.331309144268744, 8984295.008666245266795 ], [ 763378.319523725076579, 8984295.008562821894884 ], [ 763378.307741936063394, 8984295.008873062208295 ], [ 763378.295978292357177, 8984295.009596588090062 ], [ 763378.284247286617756, 8984295.010732505470514 ], [ 763378.272563371574506, 8984295.012279415503144 ], [ 763378.26094094151631, 8984295.014235410839319 ], [ 763378.249394315411337, 8984295.016598084941506 ], [ 763378.237937718629837, 8984295.019364526495337 ], [ 763378.22658526559826, 8984295.022531323134899 ], [ 763378.215350942453369, 8984295.026094578206539 ], [ 763378.204248589812778, 8984295.030049901455641 ], [ 763378.193291885894723, 8984295.034392416477203 ], [ 763378.182494329172187, 8984295.039116775617003 ], [ 763378.171869222191162, 8984295.04421715810895 ], [ 763378.161429655039683, 8984295.049687281250954 ], [ 763378.151188489282504, 8984295.05552040413022 ], [ 763378.141158341895789, 8984295.061709340661764 ], [ 763378.131351570016704, 8984295.068246467038989 ], [ 763378.12178025546018, 8984295.075123731046915 ], [ 763378.11245619028341, 8984295.082332655787468 ], [ 763378.10339086141903, 8984295.089864363893867 ], [ 763378.094595437403768, 8984295.097709573805332 ], [ 763378.086080754292198, 8984295.105858620256186 ], [ 763378.077857301919721, 8984295.114301465451717 ], [ 763378.069935211678967, 8984295.123027706518769 ], [ 763378.062324243481271, 8984295.132026594132185 ], [ 763378.055033774115145, 8984295.141287039965391 ], [ 763378.048072785255499, 8984295.150797635316849 ], [ 763378.041449852869846, 8984295.160546666011214 ], [ 763378.035173136391677, 8984295.17052211612463 ], [ 763378.029250368708745, 8984295.180711701512337 ], [ 763378.023688846617006, 8984295.191102864220738 ], [ 763378.018495421973057, 8984295.201682804152369 ], [ 763378.013676492962986, 8984295.212438488379121 ], [ 763378.00923799641896, 8984295.223356664180756 ], [ 763378.005185400717892, 8984295.234423879534006 ], [ 763378.001523698563688, 8984295.245626501739025 ], [ 763377.998257401166484, 8984295.256950728595257 ], [ 763377.995390532538295, 8984295.268382607027888 ], [ 763377.99292662460357, 8984295.279908055439591 ], [ 763377.990868713124655, 8984295.291512873023748 ], [ 763377.9892193331616, 8984295.303182763978839 ], [ 763377.987980516860262, 8984295.314903350546956 ], [ 763377.987153790541925, 8984295.326660191640258 ], [ 763377.986740172607824, 8984295.338438805192709 ], [ 763377.986740172607824, 8984295.350224677473307 ], [ 763377.987153790541925, 8984295.362003291025758 ], [ 763377.987980516860262, 8984295.37376013211906 ], [ 763377.9892193331616, 8984295.385480718687177 ], [ 763377.990868713124655, 8984295.397150609642267 ], [ 763377.99292662460357, 8984295.408755427226424 ], [ 763377.995390532538295, 8984295.420280875638127 ], [ 763377.998257401166484, 8984295.431712754070759 ], [ 763378.001523698563688, 8984295.443036980926991 ], [ 763378.005185400717892, 8984295.45423960313201 ], [ 763378.00923799641896, 8984295.46530681848526 ], [ 763378.013676492962986, 8984295.476224994286895 ], [ 763378.018495421973057, 8984295.486980678513646 ], [ 763378.023688846617006, 8984295.497560618445277 ], [ 763378.029250368708745, 8984295.507951781153679 ], [ 763378.035173136391677, 8984295.518141366541386 ], [ 763378.041449852869846, 8984295.528116816654801 ], [ 763378.048072785255499, 8984295.537865847349167 ], [ 763378.055033774115145, 8984295.547376442700624 ], [ 763378.062324243481271, 8984295.556636888533831 ], [ 763378.069935211678967, 8984295.565635776147246 ], [ 763378.077857301919721, 8984295.574362017214298 ], [ 763378.086080754292198, 8984295.58280486240983 ], [ 763378.094595437403768, 8984295.590953908860683 ], [ 763378.10339086141903, 8984295.598799118772149 ], [ 763378.11245619028341, 8984295.606330826878548 ], [ 763378.12178025546018, 8984295.613539751619101 ], [ 763378.131351570016704, 8984295.620417015627027 ], [ 763378.141158341895789, 8984295.626954142004251 ], [ 763378.151188489282504, 8984295.633143078535795 ], [ 763378.161429655039683, 8984295.638976201415062 ], [ 763378.171869222191162, 8984295.644446324557066 ], [ 763378.182494329172187, 8984295.649546707049012 ], [ 763378.193291885894723, 8984295.654271066188812 ], [ 763378.204248589812778, 8984295.658613581210375 ], [ 763378.215350942453369, 8984295.662568904459476 ], [ 763378.22658526559826, 8984295.666132159531116 ], [ 763378.237937718629837, 8984295.669298956170678 ], [ 763378.249394315411337, 8984295.672065397724509 ], [ 763378.26094094151631, 8984295.674428071826696 ], [ 763378.272563371574506, 8984295.676384067162871 ], [ 763378.284247286617756, 8984295.677930977195501 ], [ 763378.295978292357177, 8984295.679066894575953 ], [ 763378.307741936063394, 8984295.679790420457721 ], [ 763378.319523725076579, 8984295.680100660771132 ], [ 763378.331309144268744, 8984295.67999723739922 ], [ 763378.34308367408812, 8984295.679480273276567 ], [ 763378.354832808254287, 8984295.678550409153104 ], [ 763378.366542072035372, 8984295.677208788692951 ], [ 763378.378197039593942, 8984295.675457065925002 ], [ 763378.389783352031372, 8984295.673297397792339 ], [ 763378.401286735082977, 8984295.670732446014881 ], [ 763378.412693016813137, 8984295.667765369638801 ], [ 763378.423988144495524, 8984295.664399825036526 ], [ 763378.435158202657476, 8984295.660639958456159 ], [ 763378.446189429843798, 8984295.65649040043354 ], [ 763378.457068235613406, 8984295.651956263929605 ], [ 763378.467781217419542, 8984295.647043136879802 ], [ 763378.478315176791511, 8984295.641757071018219 ], [ 763378.488657135982066, 8984295.636104576289654 ], [ 763378.49879435391631, 8984295.630092620849609 ], [ 763378.508714341325685, 8984295.623728608712554 ], [ 763378.518404876929708, 8984295.617020379751921 ], [ 763378.527854022104293, 8984295.609976202249527 ], [ 763378.537050135433674, 8984295.602604750543833 ], [ 763378.54598188737873, 8984295.594915106892586 ], [ 763378.554638274130411, 8984295.58691674657166 ], [ 763378.563008631113917, 8984295.578619522973895 ], [ 763378.571082645794377, 8984295.570033656433225 ], [ 763378.578850371413864, 8984295.561169726774096 ], [ 763378.586302237818018, 8984295.55203865468502 ], [ 763378.593429064610973, 8984295.542651688680053 ], [ 763378.600222071399912, 8984295.53302039206028 ], [ 763378.60667288932018, 8984295.523156633600593 ], [ 763378.612773570930585, 8984295.513072561472654 ], [ 763378.618516600341536, 8984295.502780603244901 ], [ 763378.623894902062602, 8984295.492293436080217 ], [ 763378.628901850082912, 8984295.481623981148005 ], [ 763378.633531275787391, 8984295.470785381272435 ], [ 763378.637777475873008, 8984295.459790993481874 ], [ 763378.641635218868032, 8984295.448654359206557 ], [ 763378.645099752233364, 8984295.437389200553298 ], [ 763378.648166807717644, 8984295.426009394228458 ], [ 763378.650832606479526, 8984295.414528962224722 ], [ 763378.653093864442781, 8984295.402962047606707 ], [ 763378.654947795672342, 8984295.391322901472449 ], [ 763378.656392116216011, 8984295.379625860601664 ], [ 763378.657425046665594, 8984295.367885340005159 ], [ 763378.658045314368792, 8984295.35611579939723 ], [ 763378.658252155175433, 8984295.344331741333008 ] ] ] ] } },
{ "type": "Feature", "properties": { "LAYER": "00", "GM_TYPE": "Unknown Area Type", "ELEVATION": -0.08 }, "geometry": { "type": "MultiPolygon", "coordinates": [ [ [ [ 763233.797304650186561, 8984255.722282290458679 ], [ 763233.797213224694133, 8984255.717073628678918 ], [ 763233.796939060674049, 8984255.711871385574341 ], [ 763233.796482495963573, 8984255.706681966781616 ], [ 763233.795844093081541, 8984255.701511768624187 ], [ 763233.795024638529867, 8984255.696367159485817 ], [ 763233.794025141745806, 8984255.691254476085305 ], [ 763233.792846834287047, 8984255.686180019751191 ], [ 763233.79149116773624, 8984255.681150041520596 ], [ 763233.789959812304005, 8984255.67617073841393 ], [ 763233.788254654617049, 8984255.671248244121671 ], [ 763233.786377795273438, 8984255.666388623416424 ], [ 763233.784331546747126, 8984255.661597864702344 ], [ 763233.782118430011906, 8984255.656881866976619 ], [ 763233.7797411713982, 8984255.652246443554759 ], [ 763233.777202699915506, 8984255.647697303444147 ], [ 763233.774506142828614, 8984255.643240053206682 ], [ 763233.771654822281562, 8984255.638880180194974 ], [ 763233.768652251106687, 8984255.634623060002923 ], [ 763233.76550212840084, 8984255.630473934113979 ], [ 763233.762208335334435, 8984255.626437917351723 ], [ 763233.758774929563515, 8984255.622519979253411 ], [ 763233.755206141155213, 8984255.618724947795272 ], [ 763233.751506366766989, 8984255.615057498216629 ], [ 763233.747680164640769, 8984255.61152215115726 ], [ 763233.74373224854935, 8984255.608123257756233 ], [ 763233.739667482324876, 8984255.604865008965135 ], [ 763233.735490873688832, 8984255.601751416921616 ], [ 763233.731207568314858, 8984255.598786318674684 ], [ 763233.726822843076661, 8984255.595973366871476 ], [ 763233.722342100110836, 8984255.593316027894616 ], [ 763233.717770859482698, 8984255.590817574411631 ], [ 763233.713114753016271, 8984255.588481083512306 ], [ 763233.708379517076537, 8984255.586309436708689 ], [ 763233.703570985351689, 8984255.584305306896567 ], [ 763233.698695081984624, 8984255.58247116394341 ], [ 763233.693757814122364, 8984255.580809269100428 ], [ 763233.688765264349058, 8984255.579321667551994 ], [ 763233.683723583468236, 8984255.578010192140937 ], [ 763233.678638982935809, 8984255.576876459643245 ], [ 763233.673517726827413, 8984255.57592186704278 ], [ 763233.668366124504246, 8984255.575147589668632 ], [ 763233.663190522813238, 8984255.574554581195116 ], [ 763233.657997298054397, 8984255.574143573641777 ], [ 763233.652792848180979, 8984255.573915069922805 ], [ 763233.647583584999666, 8984255.573869356885552 ], [ 763233.642375926487148, 8984255.574006484821439 ], [ 763233.637176288291812, 8984255.574326289817691 ], [ 763233.631991076515988, 8984255.574828375130892 ], [ 763233.626826679101214, 8984255.575512124225497 ], [ 763233.621689458726905, 8984255.576376693323255 ], [ 763233.616585744312033, 8984255.577421016991138 ], [ 763233.61152182368096, 8984255.578643808141351 ], [ 763233.606503935647197, 8984255.580043561756611 ], [ 763233.60153826198075, 8984255.581618553027511 ], [ 763233.59663092053961, 8984255.583366841077805 ], [ 763233.591787957237102, 8984255.5852862726897 ], [ 763233.587015338358469, 8984255.587374482303858 ], [ 763233.582318943808787, 8984255.589628899469972 ], [ 763233.577704559662379, 8984255.592046743258834 ], [ 763233.573177870712243, 8984255.594625037163496 ], [ 763233.568744453717954, 8984255.597360603511333 ], [ 763233.564409770886414, 8984255.600250072777271 ], [ 763233.560179162304848, 8984255.603289887309074 ], [ 763233.556057840120047, 8984255.606476297602057 ], [ 763233.552050881902687, 8984255.609805380925536 ], [ 763233.54816322401166, 8984255.613273035734892 ], [ 763233.54439965612255, 8984255.616874989122152 ], [ 763233.540764814941213, 8984255.620606804266572 ], [ 763233.537263178615831, 8984255.624463882297277 ], [ 763233.533899061032571, 8984255.628441473469138 ], [ 763233.53067660680972, 8984255.632534675300121 ], [ 763233.527599786059, 8984255.636738445609808 ], [ 763233.524672389379703, 8984255.641047606244683 ], [ 763233.521898023318499, 8984255.645456846803427 ], [ 763233.519280105712824, 8984255.649960735812783 ], [ 763233.516821862081997, 8984255.654553724452853 ], [ 763233.514526320854202, 8984255.659230155870318 ], [ 763233.512396310223266, 8984255.663984265178442 ], [ 763233.510434454074129, 8984255.668810199946165 ], [ 763233.508643169770949, 8984255.673702009022236 ], [ 763233.507024663849734, 8984255.678653670474887 ], [ 763233.505580930504948, 8984255.683659082278609 ], [ 763233.504313748329878, 8984255.688712079077959 ], [ 763233.503224678570405, 8984255.693806432187557 ], [ 763233.502315062796697, 8984255.698935868218541 ], [ 763233.501586021855474, 8984255.704094065353274 ], [ 763233.501038453658111, 8984255.709274671971798 ], [ 763233.500673033064231, 8984255.714471304789186 ], [ 763233.500490210135467, 8984255.719677558168769 ], [ 763233.500490210135467, 8984255.72488702274859 ], [ 763233.500673033064231, 8984255.730093276128173 ], [ 763233.501038453658111, 8984255.73528990894556 ], [ 763233.501586021855474, 8984255.740470515564084 ], [ 763233.502315062796697, 8984255.745628712698817 ], [ 763233.503224678570405, 8984255.750758148729801 ], [ 763233.504313748329878, 8984255.755852501839399 ], [ 763233.505580930504948, 8984255.760905498638749 ], [ 763233.507024663849734, 8984255.765910910442472 ], [ 763233.508643169770949, 8984255.770862571895123 ], [ 763233.510434454074129, 8984255.775754380971193 ], [ 763233.512396310223266, 8984255.780580315738916 ], [ 763233.514526320854202, 8984255.78533442504704 ], [ 763233.516821862081997, 8984255.790010856464505 ], [ 763233.519280105712824, 8984255.794603845104575 ], [ 763233.521898023318499, 8984255.799107734113932 ], [ 763233.524672389379703, 8984255.803516974672675 ], [ 763233.527599786059, 8984255.80782613530755 ], [ 763233.53067660680972, 8984255.812029905617237 ], [ 763233.533899061032571, 8984255.81612310744822 ], [ 763233.537263178615831, 8984255.820100698620081 ], [ 763233.540764814941213, 8984255.823957776650786 ], [ 763233.54439965612255, 8984255.827689591795206 ], [ 763233.54816322401166, 8984255.831291545182467 ], [ 763233.552050881902687, 8984255.834759199991822 ], [ 763233.556057840120047, 8984255.838088283315301 ], [ 763233.560179162304848, 8984255.841274693608284 ], [ 763233.564409770886414, 8984255.844314508140087 ], [ 763233.568744453717954, 8984255.847203977406025 ], [ 763233.573177870712243, 8984255.849939543753862 ], [ 763233.577704559662379, 8984255.852517837658525 ], [ 763233.582318943808787, 8984255.854935681447387 ], [ 763233.587015338358469, 8984255.857190098613501 ], [ 763233.591787957237102, 8984255.859278308227658 ], [ 763233.59663092053961, 8984255.861197739839554 ], [ 763233.60153826198075, 8984255.862946027889848 ], [ 763233.606503935647197, 8984255.864521019160748 ], [ 763233.61152182368096, 8984255.865920772776008 ], [ 763233.616585744312033, 8984255.86714356392622 ], [ 763233.621689458726905, 8984255.868187887594104 ], [ 763233.626826679101214, 8984255.869052456691861 ], [ 763233.631991076515988, 8984255.869736205786467 ], [ 763233.637176288291812, 8984255.870238291099668 ], [ 763233.642375926487148, 8984255.87055809609592 ], [ 763233.647583584999666, 8984255.870695224031806 ], [ 763233.652792848180979, 8984255.870649510994554 ], [ 763233.657997298054397, 8984255.870421007275581 ], [ 763233.663190522813238, 8984255.870009999722242 ], [ 763233.668366124504246, 8984255.869416991248727 ], [ 763233.673517726827413, 8984255.868642713874578 ], [ 763233.678638982935809, 8984255.867688121274114 ], [ 763233.683723583468236, 8984255.866554388776422 ], [ 763233.688765264349058, 8984255.865242913365364 ], [ 763233.693757814122364, 8984255.863755311816931 ], [ 763233.698695081984624, 8984255.862093416973948 ], [ 763233.703570985351689, 8984255.860259274020791 ], [ 763233.708379517076537, 8984255.85825514420867 ], [ 763233.713114753016271, 8984255.856083497405052 ], [ 763233.717770859482698, 8984255.853747006505728 ], [ 763233.722342100110836, 8984255.851248553022742 ], [ 763233.726822843076661, 8984255.848591214045882 ], [ 763233.731207568314858, 8984255.845778262242675 ], [ 763233.735490873688832, 8984255.842813163995743 ], [ 763233.739667482324876, 8984255.839699571952224 ], [ 763233.74373224854935, 8984255.836441323161125 ], [ 763233.747680164640769, 8984255.833042429760098 ], [ 763233.751506366766989, 8984255.829507082700729 ], [ 763233.755206141155213, 8984255.825839633122087 ], [ 763233.758774929563515, 8984255.822044601663947 ], [ 763233.762208335334435, 8984255.818126663565636 ], [ 763233.76550212840084, 8984255.814090646803379 ], [ 763233.768652251106687, 8984255.809941520914435 ], [ 763233.771654822281562, 8984255.805684400722384 ], [ 763233.774506142828614, 8984255.801324527710676 ], [ 763233.777202699915506, 8984255.796867277473211 ], [ 763233.7797411713982, 8984255.792318137362599 ], [ 763233.782118430011906, 8984255.78768271394074 ], [ 763233.784331546747126, 8984255.782966716215014 ], [ 763233.786377795273438, 8984255.778175957500935 ], [ 763233.788254654617049, 8984255.773316336795688 ], [ 763233.789959812304005, 8984255.768393842503428 ], [ 763233.79149116773624, 8984255.763414539396763 ], [ 763233.792846834287047, 8984255.758384561166167 ], [ 763233.794025141745806, 8984255.753310104832053 ], [ 763233.795024638529867, 8984255.748197421431541 ], [ 763233.795844093081541, 8984255.743052812293172 ], [ 763233.796482495963573, 8984255.737882614135742 ], [ 763233.796939060674049, 8984255.732693195343018 ], [ 763233.797213224694133, 8984255.727490952238441 ], [ 763233.797304650186561, 8984255.722282290458679 ] ] ] ] } },
{ "type": "Feature", "properties": { "LAYER": "00", "GM_TYPE": "Unknown Area Type", "ELEVATION": 72.921 }, "geometry": { "type": "MultiPolygon", "coordinates": [ [ [ [ 763386.041885383892804, 8984156.170290246605873 ], [ 763386.081382276839577, 8984157.422020591795444 ], [ 763386.170106855453923, 8984158.671624012291431 ], [ 763386.307949811220169, 8984159.917560998350382 ], [ 763386.494741322472692, 8984161.158296564593911 ], [ 763386.730251262779348, 8984162.392302131280303 ], [ 763387.014189484994859, 8984163.61805740557611 ], [ 763387.346206178655848, 8984164.834052264690399 ], [ 763387.725892300601117, 8984166.038788609206676 ], [ 763388.152780079399236, 8984167.230782208964229 ], [ 763388.626343591138721, 8984168.40856453217566 ], [ 763389.145999407744966, 8984169.570684559643269 ], [ 763389.711107315844856, 8984170.715710559859872 ], [ 763390.32097110489849, 8984171.842231871560216 ], [ 763390.974839425645769, 8984172.948860621079803 ], [ 763391.671906715258956, 8984174.034233449026942 ], [ 763392.411314190132543, 8984175.097013181075454 ], [ 763393.192150903632864, 8984176.135890478268266 ], [ 763394.013454868574627, 8984177.149585446342826 ], [ 763394.874214242096059, 8984178.136849220842123 ], [ 763395.773368572699837, 8984179.096465494483709 ], [ 763396.709810106549412, 8984180.027252024039626 ], [ 763397.682385151740164, 8984180.928062088787556 ], [ 763398.68989550054539, 8984181.797785891219974 ], [ 763399.731099904631265, 8984182.635351937264204 ], [ 763400.804715605219826, 8984183.439728347584605 ], [ 763401.90941991249565, 8984184.209924137219787 ], [ 763403.043851835886016, 8984184.944990424439311 ], [ 763404.206613760674372, 8984185.644021615386009 ], [ 763405.396273169317283, 8984186.306156504899263 ], [ 763406.611364406999201, 8984186.930579343810678 ], [ 763407.850390486884862, 8984187.516520850360394 ], [ 763409.111824934603646, 8984188.063259143382311 ], [ 763410.394113668706268, 8984188.570120645686984 ], [ 763411.695676915463991, 8984189.036480905488133 ], [ 763413.014911154750735, 8984189.461765369400382 ], [ 763414.350191096309572, 8984189.845450090244412 ], [ 763415.699871681281365, 8984190.187062367796898 ], [ 763417.062290109344758, 8984190.486181339249015 ], [ 763418.435767887509428, 8984190.742438491433859 ], [ 763419.81861289718654, 8984190.955518115311861 ], [ 763421.209121480002068, 8984191.125157697126269 ], [ 763422.605580535484478, 8984191.25114824436605 ], [ 763424.006269632838666, 8984191.333334535360336 ], [ 763425.409463129355572, 8984191.371615318581462 ], [ 763426.813432297087274, 8984191.365943429991603 ], [ 763428.216447452548891, 8984191.316325858235359 ], [ 763429.61678008758463, 8984191.222823733463883 ], [ 763431.012704998836853, 8984191.085552249103785 ], [ 763432.402502413257025, 8984190.904680520296097 ], [ 763433.784460106748156, 8984190.680431384593248 ], [ 763435.156875513959676, 8984190.413081113249063 ], [ 763436.518057825276628, 8984190.102959079667926 ], [ 763437.8663300704211, 8984189.750447355210781 ], [ 763439.200031184242107, 8984189.355980232357979 ], [ 763440.517518053064123, 8984188.920043690130115 ], [ 763441.817167539149523, 8984188.443174803629518 ], [ 763443.097378480480984, 8984187.925961071625352 ], [ 763444.356573662837036, 8984187.369039699435234 ], [ 763445.593201763695106, 8984186.77309680916369 ], [ 763446.805739262956195, 8984186.138866605237126 ], [ 763447.992692319909111, 8984185.46713045053184 ], [ 763449.152598613873124, 8984184.75871592387557 ], [ 763450.284029145725071, 8984184.014495788142085 ], [ 763451.385589998331852, 8984183.235386921092868 ], [ 763452.455924053560011, 8984182.42234917730093 ], [ 763453.493712665047497, 8984181.576384218409657 ], [ 763454.497677281848155, 8984180.698534267023206 ], [ 763455.466581024229527, 8984179.789880832657218 ], [ 763456.399230207200162, 8984178.851543372496963 ], [ 763457.294475811417215, 8984177.884677911177278 ], [ 763458.151214898214675, 8984176.890475623309612 ], [ 763458.968391969101503, 8984175.870161363855004 ], [ 763459.745000265771523, 8984174.824992151930928 ], [ 763460.480083010275848, 8984173.756255634129047 ], [ 763461.172734584077261, 8984172.665268486365676 ], [ 763461.822101643658243, 8984171.553374802693725 ], [ 763462.427384171751328, 8984170.421944428235292 ], [ 763462.987836463144049, 8984169.272371282801032 ], [ 763463.502768043079413, 8984168.106071630492806 ], [ 763463.971544518368319, 8984166.924482353031635 ], [ 763464.393588358536363, 8984165.729059157893062 ], [ 763464.768379607354291, 8984164.52127480506897 ], [ 763465.095456523937173, 8984163.302617276087403 ], [ 763465.374416150851175, 8984162.07458795234561 ], [ 763465.604914811323397, 8984160.838699761778116 ], [ 763465.786668531829491, 8984159.596475310623646 ], [ 763465.919453392853029, 8984158.349445015192032 ], [ 763466.003105803974904, 8984157.099145211279392 ], [ 763466.037522705737501, 8984155.847116261720657 ], [ 763466.022661696770228, 8984154.594900660216808 ], [ 763465.958541085594334, 8984153.344041131436825 ], [ 763465.845239868853241, 8984152.096078729256988 ], [ 763465.682897632708773, 8984150.852550935000181 ], [ 763465.471714382409118, 8984149.614989770576358 ], [ 763465.211950294440612, 8984148.384919906035066 ], [ 763464.90392539720051, 8984147.163856780156493 ], [ 763464.548019175883383, 8984145.953304739668965 ], [ 763464.144670105190016, 8984144.754755178466439 ], [ 763463.694375109509565, 8984143.569684702903032 ], [ 763463.19768894999288, 8984142.399553313851357 ], [ 763462.65522354177665, 8984141.245802609249949 ], [ 763462.067647199844941, 8984140.109854003414512 ], [ 763461.435683815507218, 8984138.993106981739402 ], [ 763460.760111964540556, 8984137.896937370300293 ], [ 763460.041763948625885, 8984136.822695644572377 ], [ 763459.281524769030511, 8984135.771705266088247 ], [ 763458.480331036960706, 8984134.745261048898101 ], [ 763457.639169819420204, 8984133.744627568870783 ], [ 763456.759077423252165, 8984132.771037602797151 ], [ 763455.841138117946684, 8984131.825690606608987 ], [ 763454.886482800822705, 8984130.909751243889332 ], [ 763453.896287602488883, 8984130.024347947910428 ], [ 763452.871772439219058, 8984129.170571533963084 ], [ 763451.81419950874988, 8984128.349473847076297 ], [ 763450.72487173601985, 8984127.562066476792097 ], [ 763449.605131168034859, 8984126.809319507330656 ], [ 763448.456357319722883, 8984126.092160316184163 ], [ 763447.279965475434437, 8984125.41147244349122 ], [ 763446.077404944342561, 8984124.76809449121356 ], [ 763444.850157275563106, 8984124.162819098681211 ], [ 763443.599734432529658, 8984123.596391964703798 ], [ 763442.327676930464804, 8984123.069510919973254 ], [ 763441.035551938228309, 8984122.58282508328557 ], [ 763439.72495134791825, 8984122.136934049427509 ], [ 763438.397489813389257, 8984121.732387151569128 ], [ 763437.054802761180326, 8984121.369682792574167 ], [ 763435.698544375598431, 8984121.049267821013927 ], [ 763434.330385560519062, 8984120.77153698541224 ], [ 763432.95201188151259, 8984120.536832449957728 ], [ 763431.565121488529257, 8984120.345443371683359 ], [ 763430.171423024032265, 8984120.197605537250638 ], [ 763428.772633518325165, 8984120.093501085415483 ], [ 763427.370476273354143, 8984120.033258270472288 ], [ 763425.966678740573116, 8984120.016951311379671 ], [ 763424.562970392056741, 8984120.044600300490856 ], [ 763423.161080589867197, 8984120.116171170026064 ], [ 763421.76273645600304, 8984120.23157574981451 ], [ 763420.369660743745044, 8984120.390671858564019 ], [ 763418.98356971621979, 8984120.593263491988182 ], [ 763417.606171030900441, 8984120.839101057499647 ], [ 763416.23916163679678, 8984121.127881685271859 ], [ 763414.884225683170371, 8984121.459249598905444 ], [ 763413.543032444780692, 8984121.832796553149819 ], [ 763412.217234265524894, 8984122.248062340542674 ], [ 763410.908464522683062, 8984122.704535357654095 ], [ 763409.618335614679381, 8984123.20165322907269 ], [ 763408.348436974105425, 8984123.738803507760167 ], [ 763407.100333110429347, 8984124.315324429422617 ], [ 763405.875561681808904, 8984124.930505720898509 ], [ 763404.675631600897759, 8984125.583589483052492 ], [ 763403.502021176158451, 8984126.273771120235324 ], [ 763402.356176290195435, 8984127.000200329348445 ], [ 763401.239508618484251, 8984127.761982154101133 ], [ 763400.153393890708685, 8984128.558178082108498 ], [ 763399.099170194938779, 8984129.387807205319405 ], [ 763398.078136330121197, 8984130.249847425147891 ], [ 763397.091550205135718, 8984131.143236709758639 ], [ 763396.14062728965655, 8984132.066874407231808 ], [ 763395.226539116119966, 8984133.019622603431344 ], [ 763394.350411837105639, 8984134.000307513400912 ], [ 763393.513324837433174, 8984135.007720939815044 ], [ 763392.716309404233471, 8984136.040621753782034 ], [ 763391.960347456973977, 8984137.097737425938249 ], [ 763391.246370337321423, 8984138.177765594795346 ], [ 763390.575257661752403, 8984139.279375672340393 ], [ 763389.947836237959564, 8984140.401210475713015 ], [ 763389.364879046217538, 8984141.541887914761901 ], [ 763388.827104287105612, 8984142.700002675876021 ], [ 763388.335174496751279, 8984143.874127969145775 ], [ 763387.88969573029317, 8984145.062817275524139 ], [ 763387.49121681554243, 8984146.264606138691306 ], [ 763387.14022867672611, 8984147.478013958781958 ], [ 763386.837163729593158, 8984148.70154582336545 ], [ 763386.582395348697901, 8984149.933694344013929 ], [ 763386.376237407559529, 8984151.172941524535418 ], [ 763386.218943891697563, 8984152.417760612443089 ], [ 763386.110708586289547, 8984153.666618000715971 ], [ 763386.0516648364719, 8984154.917975099757314 ], [ 763386.041885383892804, 8984156.170290246605873 ] ] ] ] } }
]
}
