{
"type": "FeatureCollection",
"name": "09_lo_asesories",
"crs": { "type": "name", "properties": { "name": "urn:ogc:def:crs:EPSG::32751" } },
"features": [
{ "type": "Feature", "properties": { "LAYER": "06.Asesories", "GM_TYPE": "Unknown Area Type", "ELEVATION": 0 }, "geometry": { "type": "MultiPolygon", "coordinates": [ [ [ [ 763424.746514498023316, 8984157.130044160410762 ], [ 763425.566397539223544, 8984152.1197021137923 ], [ 763437.082520275027491, 8984155.228959359228611 ], [ 763439.292284509981982, 8984155.828772030770779 ], [ 763448.757827752968296, 8984162.026838110759854 ], [ 763462.312275290023535, 8984166.385305469855666 ], [ 763473.795592784066685, 8984173.658661749213934 ], [ 763477.338282130891457, 8984176.78004009090364 ], [ 763480.810640129027888, 8984180.179099710658193 ], [ 763483.380265059997328, 8984183.678567849099636 ], [ 763489.736645482946187, 8984194.66656382009387 ], [ 763493.671263340977021, 8984206.617873350158334 ], [ 763493.886363807017915, 8984207.470777079463005 ], [ 763497.500252614961937, 8984219.301067739725113 ], [ 763499.063558182911947, 8984224.604736570268869 ], [ 763508.079705099924468, 8984254.958695210516453 ], [ 763512.511475072940812, 8984269.584246590733528 ], [ 763527.868405324988998, 8984321.845352869480848 ], [ 763543.191299172933213, 8984375.172317560762167 ], [ 763553.603527534054592, 8984407.798268169164658 ], [ 763556.311352389049716, 8984419.566244509071112 ], [ 763567.270577379036695, 8984456.612565470859408 ], [ 763573.422664327081293, 8984473.586748199537396 ], [ 763574.956533379037865, 8984473.261563170701265 ], [ 763570.046729167923331, 8984456.737662190571427 ], [ 763564.367269054986537, 8984438.625323740765452 ], [ 763555.663323654094711, 8984407.185642998665571 ], [ 763552.394363979110494, 8984396.733566539362073 ], [ 763532.849433718016371, 8984329.196266390383244 ], [ 763530.377520865993574, 8984320.779094679281116 ], [ 763524.218565090908669, 8984299.26569727063179 ], [ 763518.228173052077182, 8984278.837916519492865 ], [ 763511.147682362003252, 8984253.515591120347381 ], [ 763502.546387064037845, 8984225.507587529718876 ], [ 763498.592193364980631, 8984210.985285090282559 ], [ 763491.220268464065157, 8984186.429506409913301 ], [ 763487.374958112020977, 8984180.685855219140649 ], [ 763466.940697117010131, 8984163.440361309796572 ], [ 763459.859395302017219, 8984161.490723500028253 ], [ 763454.766810959088616, 8984160.097354270517826 ], [ 763446.616755872964859, 8984157.842708550393581 ], [ 763440.976109220995568, 8984150.145077910274267 ], [ 763432.255003589089029, 8984147.685222549363971 ], [ 763426.614698930992745, 8984146.112488420680165 ], [ 763424.881586890900508, 8984151.950374402105808 ], [ 763424.105953304097056, 8984157.052074901759624 ], [ 763424.746514498023316, 8984157.130044160410762 ] ] ] ] } },
{ "type": "Feature", "properties": { "LAYER": "06.Asesories", "GM_TYPE": "Unknown Area Type", "ELEVATION": 0 }, "geometry": { "type": "MultiPolygon", "coordinates": [ [ [ [ 762781.898148704087362, 8979953.272188039496541 ], [ 762784.85004853096325, 8979963.503029579296708 ], [ 762789.846016130992211, 8979961.970500530675054 ], [ 762787.105898989015259, 8979951.34794582054019 ], [ 762781.898148704087362, 8979953.272188039496541 ] ] ] ] } },
{ "type": "Feature", "properties": { "LAYER": "06.Asesories", "GM_TYPE": "Unknown Area Type", "ELEVATION": 0 }, "geometry": { "type": "MultiPolygon", "coordinates": [ [ [ [ 762283.838013067026623, 8979721.721433840692043 ], [ 762360.643556620925665, 8979747.590217519551516 ], [ 762402.117505292058922, 8979658.814992979168892 ], [ 762332.035791211994365, 8979621.671825459226966 ], [ 762283.838013067026623, 8979721.721433840692043 ] ] ] ] } },
{ "type": "Feature", "properties": { "LAYER": "06.Asesories", "GM_TYPE": "Unknown Area Type", "ELEVATION": 0 }, "geometry": { "type": "MultiPolygon", "coordinates": [ [ [ [ 762546.174164470052347, 8979807.868184210732579 ], [ 762541.44491119205486, 8979874.292326020076871 ], [ 762602.535084608010948, 8979873.475061969831586 ], [ 762595.047152717015706, 8979852.024988640099764 ], [ 762546.174164470052347, 8979807.868184210732579 ] ] ] ] } }
]
}
