{
"type": "FeatureCollection",
"name": "09_lo_li_salters",
"crs": { "type": "name", "properties": { "name": "urn:ogc:def:crs:EPSG::32751" } },
"features": [
{ "type": "Feature", "properties": { "LAYER": "Sal Ters", "GM_TYPE": "Unknown Line Type", "ELEVATION": 0 }, "geometry": { "type": "MultiLineString", "coordinates": [ [ [ 763816.344905495177954, 8976860.766071792691946 ], [ 763814.028470146586187, 8976863.7056535333395 ], [ 763806.724510123371147, 8976937.806265024468303 ], [ 763779.69318674725946, 8976971.4717450235039 ], [ 763772.923124479479156, 8977064.174402821809053 ] ] ] } },
{ "type": "Feature", "properties": { "LAYER": "Sal Ters", "GM_TYPE": "Unknown Line Type", "ELEVATION": 0 }, "geometry": { "type": "MultiLineString", "coordinates": [ [ [ 763701.127627752372064, 8977263.80328780412674 ], [ 763679.794773842557333, 8977325.285448852926493 ], [ 763675.92648063832894, 8977336.769921246916056 ] ] ] } },
{ "type": "Feature", "properties": { "LAYER": "Sal Ters", "GM_TYPE": "Unknown Line Type", "ELEVATION": 0 }, "geometry": { "type": "MultiLineString", "coordinates": [ [ [ 763091.01546977693215, 8980873.943859484046698 ], [ 763126.628881691605784, 8980965.341900117695332 ], [ 763149.990754317841493, 8980958.291158102452755 ], [ 763180.552338415873237, 8980948.383046885952353 ], [ 763219.741804608027451, 8980990.574851803481579 ], [ 763227.017872771597467, 8981047.27489373460412 ], [ 763229.02970308798831, 8981062.952435599640012 ], [ 763249.798749192035757, 8981099.176150478422642 ], [ 763224.280903219245374, 8981119.355551585555077 ], [ 763233.704937956877984, 8981148.917297590523958 ], [ 763235.924918625620194, 8981162.501009007915854 ], [ 763390.573272057226859, 8981196.678182482719421 ], [ 763377.610065863816999, 8981246.712288029491901 ], [ 763373.410896814195439, 8981271.354071278125048 ], [ 763339.732015667017549, 8981416.629551623016596 ], [ 763368.160026261233725, 8981426.835223145782948 ], [ 763408.990155225852504, 8981442.056907484307885 ], [ 763442.557637848309241, 8981453.408557590097189 ] ] ] } },
{ "type": "Feature", "properties": { "LAYER": "Sal Ters", "GM_TYPE": "Unknown Line Type", "ELEVATION": 0 }, "geometry": { "type": "MultiLineString", "coordinates": [ [ [ 763434.70725033537019, 8981446.531227398663759 ], [ 763443.839044972672127, 8981449.61936298198998 ] ] ] } },
{ "type": "Feature", "properties": { "LAYER": "Sal Ters", "GM_TYPE": "Unknown Line Type", "ELEVATION": 0 }, "geometry": { "type": "MultiLineString", "coordinates": [ [ [ 764020.843495456269011, 8978596.446534024551511 ], [ 764093.361754747107625, 8978626.232440821826458 ], [ 764137.296449668821879, 8978643.816525863483548 ], [ 764172.360296746715903, 8978658.066571807488799 ], [ 764225.110386462067254, 8978678.886740919202566 ], [ 764240.089844653382897, 8978685.110040904954076 ], [ 764264.207204823032953, 8978694.793135030195117 ] ] ] } },
{ "type": "Feature", "properties": { "LAYER": "Sal Ters", "GM_TYPE": "Unknown Line Type", "ELEVATION": 0 }, "geometry": { "type": "MultiLineString", "coordinates": [ [ [ 764897.715101657435298, 8978704.608023023232818 ], [ 764900.861509303562343, 8978704.310744673013687 ], [ 764943.228204444632865, 8978701.449012719094753 ], [ 764993.384283326100558, 8978698.574535138905048 ], [ 765040.675257593626156, 8978695.389154929667711 ], [ 765082.875275792903267, 8978692.09756763651967 ], [ 765124.977959465701133, 8978689.281187806278467 ], [ 765172.263297341065481, 8978686.618602735921741 ], [ 765182.515543637098745, 8978686.412986664101481 ], [ 765195.227116647176445, 8978685.189739972352982 ], [ 765232.748552212142386, 8978682.914529817178845 ], [ 765271.755287808831781, 8978680.265812991186976 ], [ 765306.67034331348259, 8978677.802433816716075 ], [ 765333.31284009187948, 8978676.067547814920545 ] ] ] } },
{ "type": "Feature", "properties": { "LAYER": "Sal Ters", "GM_TYPE": "Unknown Line Type", "ELEVATION": 0 }, "geometry": { "type": "MultiLineString", "coordinates": [ [ [ 763293.437939693569206, 8983617.181034522131085 ], [ 763299.866785311955027, 8983604.60149759054184 ], [ 763297.028329092659988, 8983597.822471311315894 ], [ 763279.889895582571626, 8983560.672900732606649 ], [ 763269.463107993360609, 8983530.807844391092658 ], [ 763272.841276174411178, 8983508.135219322517514 ], [ 763283.933791278977878, 8983460.109363507479429 ], [ 763294.495628242730163, 8983423.285459838807583 ], [ 763291.857368736178614, 8983395.589239753782749 ], [ 763288.095478849252686, 8983370.014362547546625 ], [ 763280.018789886729792, 8983327.779467398300767 ], [ 763281.157201598165557, 8983280.284169720485806 ], [ 763286.148357514408417, 8983230.501570392400026 ], [ 763290.448194380616769, 8983180.947677323594689 ], [ 763290.526617930154316, 8983180.198824571445584 ] ] ] } },
{ "type": "Feature", "properties": { "LAYER": "Sal Ters", "GM_TYPE": "Unknown Line Type", "ELEVATION": 0 }, "geometry": { "type": "MultiLineString", "coordinates": [ [ [ 763675.926480639027432, 8977336.769921245053411 ], [ 763652.534179203095846, 8977399.47618174739182 ], [ 763644.728217788622715, 8977420.823310546576977 ], [ 763630.577186696580611, 8977463.383794022724032 ], [ 763627.842292122775689, 8977471.594686783850193 ] ] ] } },
{ "type": "Feature", "properties": { "LAYER": "Sal Ters", "GM_TYPE": "Unknown Line Type", "ELEVATION": 0 }, "geometry": { "type": "MultiLineString", "coordinates": [ [ [ 763539.189863055711612, 8977730.251739043742418 ], [ 763529.986291400156915, 8977757.989605765789747 ], [ 763518.231070739915594, 8977794.051577690988779 ], [ 763496.654122091829777, 8977852.107459591701627 ], [ 763480.980874286382459, 8977894.237831957638264 ], [ 763443.511093922774307, 8978005.965851709246635 ] ] ] } },
{ "type": "Feature", "properties": { "LAYER": "Sal Ters", "GM_TYPE": "Unknown Line Type", "ELEVATION": 0 }, "geometry": { "type": "MultiLineString", "coordinates": [ [ [ 763453.21839887346141, 8977977.020446937531233 ], [ 763443.511093905661255, 8978005.965851757675409 ], [ 763436.805495209060609, 8978024.921171216294169 ], [ 763427.645456467522308, 8978052.364776438102126 ], [ 763418.747223192476667, 8978076.385051771998405 ], [ 763412.313975132070482, 8978097.692164549604058 ], [ 763405.903626711457036, 8978115.773917205631733 ] ] ] } },
{ "type": "Feature", "properties": { "LAYER": "Sal Ters", "GM_TYPE": "Unknown Line Type", "ELEVATION": 0 }, "geometry": { "type": "MultiLineString", "coordinates": [ [ [ 763331.549019578495063, 8978330.421505745500326 ], [ 763325.40261179197114, 8978347.876841614022851 ], [ 763317.838973708101548, 8978367.523863516747952 ], [ 763306.385670171701349, 8978399.134797897189856 ], [ 763292.72410553554073, 8978441.26321192458272 ], [ 763277.641249912558123, 8978487.91708724014461 ], [ 763263.846688890364021, 8978528.140564082190394 ], [ 763248.405688805039972, 8978570.656768316403031 ], [ 763242.501122280256823, 8978588.240605549886823 ], [ 763240.278348225634545, 8978595.333741841837764 ], [ 763222.814686016063206, 8978647.724126169458032 ], [ 763207.274024440674111, 8978692.803968284279108 ], [ 763192.343515486456454, 8978735.459577813744545 ], [ 763182.49073608382605, 8978764.408363131806254 ], [ 763169.404384582536295, 8978802.716066841036081 ], [ 763159.92443482670933, 8978829.97274942137301 ] ] ] } },
{ "type": "Feature", "properties": { "LAYER": "Sal Ters", "GM_TYPE": "Unknown Line Type", "ELEVATION": 0 }, "geometry": { "type": "MultiLineString", "coordinates": [ [ [ 760793.130952732404694, 8977799.211972841992974 ], [ 760782.796328273019753, 8977822.209141179919243 ], [ 760767.448281173710711, 8977850.865878628566861 ], [ 760752.03989404765889, 8977878.683769254013896 ], [ 760746.220626222086139, 8977890.641956578940153 ], [ 760724.095908971969038, 8977931.434964757412672 ], [ 760682.283005777397193, 8978006.076324371621013 ], [ 760666.814065756509081, 8978036.400448879227042 ], [ 760652.712621943443082, 8978066.007518496364355 ] ] ] } },
{ "type": "Feature", "properties": { "LAYER": "Sal Ters", "GM_TYPE": "Unknown Line Type", "ELEVATION": 0 }, "geometry": { "type": "MultiLineString", "coordinates": [ [ [ 760637.609014479327016, 8977746.916045403108001 ], [ 760602.114135603886098, 8977817.676508622244 ], [ 760568.485867903567851, 8977874.273458957672119 ], [ 760533.794782228884287, 8977932.697088859975338 ], [ 760502.980098454863764, 8977984.932779561728239 ], [ 760638.575783498119563, 8978058.352932440117002 ] ] ] } },
{ "type": "Feature", "properties": { "LAYER": "Sal Ters", "GM_TYPE": "Unknown Line Type", "ELEVATION": 0 }, "geometry": { "type": "MultiLineString", "coordinates": [ [ [ 760647.359103460097685, 8978063.108782114461064 ], [ 760652.712621943326667, 8978066.007518496364355 ] ] ] } },
{ "type": "Feature", "properties": { "LAYER": "Sal Ters", "GM_TYPE": "Unknown Line Type", "ELEVATION": 0 }, "geometry": { "type": "MultiLineString", "coordinates": [ [ [ 761095.032705975347199, 8978119.716678377240896 ], [ 761070.293456345447339, 8978169.164392715319991 ], [ 761049.918429897748865, 8978205.298083527013659 ], [ 761023.342039163806476, 8978255.660554582253098 ], [ 761020.037484207889065, 8978262.084120858460665 ], [ 761057.081506774527952, 8978281.58900923281908 ], [ 760980.437969611724839, 8978432.836327280849218 ], [ 760829.181902923155576, 8978731.32300042361021 ] ] ] } },
{ "type": "Feature", "properties": { "LAYER": "Sal Ters", "GM_TYPE": "Unknown Line Type", "ELEVATION": 0 }, "geometry": { "type": "MultiLineString", "coordinates": [ [ [ 765549.724522876436822, 8978591.234799714758992 ], [ 765690.43973781040404, 8978595.113668164238334 ] ] ] } },
{ "type": "Feature", "properties": { "LAYER": "Sal Ters", "GM_TYPE": "Unknown Line Type", "ELEVATION": 0 }, "geometry": { "type": "MultiLineString", "coordinates": [ [ [ 765333.312840091995895, 8978676.067547814920545 ], [ 765328.414701995323412, 8978581.132790867239237 ], [ 765530.969413779675961, 8978586.716288583353162 ] ] ] } },
{ "type": "Feature", "properties": { "LAYER": "Sal Ters", "GM_TYPE": "Unknown Line Type", "ELEVATION": 0 }, "geometry": { "type": "MultiLineString", "coordinates": [ [ [ 761502.025720781995915, 8979612.873356085270643 ], [ 761499.799746438045986, 8979611.217816596850753 ], [ 761460.498836854239926, 8979580.411980016157031 ], [ 761421.204703745665029, 8979549.414412608370185 ], [ 761382.396481785923243, 8979517.132263520732522 ], [ 761361.116294712061062, 8979501.823415081948042 ] ] ] } },
{ "type": "Feature", "properties": { "LAYER": "Sal Ters", "GM_TYPE": "Unknown Line Type", "ELEVATION": 0 }, "geometry": { "type": "MultiLineString", "coordinates": [ [ [ 760036.144890095572919, 8978217.195338353514671 ], [ 760005.38007941050455, 8978187.572239177301526 ], [ 759975.939320271252654, 8978147.094124849885702 ], [ 759945.134562659543008, 8978108.240862838923931 ], [ 759915.72943191905506, 8978067.273990701884031 ], [ 759886.637304191710427, 8978026.15649638697505 ], [ 759855.047372581320815, 8977987.003296978771687 ], [ 759824.897895772941411, 8977946.706695236265659 ], [ 759796.642335883690976, 8977908.06399273686111 ] ] ] } },
{ "type": "Feature", "properties": { "LAYER": "Sal Ters", "GM_TYPE": "Unknown Line Type", "ELEVATION": 0 }, "geometry": { "type": "MultiLineString", "coordinates": [ [ [ 760994.01623077574186, 8977461.807867765426636 ], [ 761018.855122008011676, 8977424.602141670882702 ], [ 761046.043520128005184, 8977383.844824789091945 ], [ 761073.661398592987098, 8977342.18140771985054 ], [ 761090.183051719097421, 8977317.93274188041687 ], [ 761103.662941007991321, 8977301.201851410791278 ], [ 761115.580143959028646, 8977283.343040069565177 ], [ 761146.610343837062828, 8977244.041729910299182 ], [ 761177.942718558013439, 8977203.973112490028143 ], [ 761208.53083687776234, 8977165.268001174554229 ], [ 761241.237435070914216, 8977124.107738049700856 ], [ 761272.408368507982232, 8977083.819585580378771 ], [ 761302.880020139971748, 8977044.35938454978168 ], [ 761333.4924561008811, 8977004.684698069468141 ], [ 761363.749112055986188, 8976965.600668750703335 ], [ 761395.268240209086798, 8976924.747270260006189 ], [ 761424.989384300075471, 8976884.182151289656758 ], [ 761454.397805528016761, 8976844.015123790130019 ], [ 761469.234973254031502, 8976823.750108629465103 ] ] ] } },
{ "type": "Feature", "properties": { "LAYER": "Sal Ters", "GM_TYPE": "Unknown Line Type", "ELEVATION": 0 }, "geometry": { "type": "MultiLineString", "coordinates": [ [ [ 764010.457562857074663, 8980894.854211134836078 ], [ 764018.705061472719535, 8980859.042079344391823 ], [ 764030.579869240755215, 8980814.009917149320245 ], [ 764040.596922433236614, 8980761.407032836228609 ], [ 764052.620673541794531, 8980712.78608663007617 ], [ 764059.454014341812581, 8980688.120332937687635 ], [ 764064.787547281128354, 8980663.790867492556572 ], [ 764067.096692318446003, 8980653.300312984734774 ], [ 764067.961519159260206, 8980648.559286342933774 ] ] ] } },
{ "type": "Feature", "properties": { "LAYER": "Sal Ters", "GM_TYPE": "Unknown Line Type", "ELEVATION": 0 }, "geometry": { "type": "MultiLineString", "coordinates": [ [ [ 764123.449924756772816, 8980461.102351076900959 ], [ 764131.742005639942363, 8980432.889968270435929 ], [ 764137.061272618011571, 8980424.030940499156713 ], [ 764147.193178545450792, 8980397.223881063982844 ], [ 764154.490252315881662, 8980323.528059616684914 ] ] ] } },
{ "type": "Feature", "properties": { "LAYER": "Sal Ters", "GM_TYPE": "Unknown Line Type", "ELEVATION": 0 }, "geometry": { "type": "MultiLineString", "coordinates": [ [ [ 764016.775661266874522, 8980903.066627364605665 ], [ 764026.472736355382949, 8980860.960172154009342 ], [ 764038.386508227325976, 8980815.780248591676354 ], [ 764048.415092238690704, 8980763.116812102496624 ], [ 764060.360006488277577, 8980714.814661808311939 ], [ 764067.221792806405574, 8980690.046230643987656 ], [ 764072.60197805298958, 8980665.503955848515034 ], [ 764074.940815301495604, 8980654.878521896898746 ], [ 764082.062397265690379, 8980615.837631590664387 ], [ 764082.564488547039218, 8980613.722408432513475 ] ] ] } },
{ "type": "Feature", "properties": { "LAYER": "Sal Ters", "GM_TYPE": "Unknown Line Type", "ELEVATION": 0 }, "geometry": { "type": "MultiLineString", "coordinates": [ [ [ 763626.183597286348231, 8982777.546047050505877 ], [ 763631.02421833272092, 8982735.961513699963689 ], [ 763631.320472789811902, 8982716.064924331381917 ], [ 763621.749513330054469, 8982702.024901488795877 ], [ 763618.988825794542208, 8982679.819320918992162 ], [ 763621.486888024606742, 8982654.708236042410135 ], [ 763623.680376085219905, 8982605.838776970282197 ], [ 763639.311372485011816, 8982560.863661078736186 ], [ 763650.506400692975149, 8982511.406944828107953 ], [ 763661.57272808207199, 8982463.601434400305152 ], [ 763674.57200106268283, 8982415.114803059026599 ], [ 763684.248380041448399, 8982374.927481228485703 ], [ 763694.83274550945498, 8982326.124127266928554 ], [ 763705.688150570611469, 8982276.106587555259466 ], [ 763709.422398168942891, 8982258.313289277255535 ], [ 763716.174323520623147, 8982227.370538020506501 ], [ 763727.819679881213233, 8982177.659533455967903 ], [ 763738.731987317791209, 8982129.288250178098679 ], [ 763746.559646265232004, 8982094.599997162818909 ], [ 763747.603865914628841, 8982079.597999308258295 ], [ 763761.4006132875802, 8982031.666442552581429 ], [ 763772.648937718360685, 8981982.013690985739231 ], [ 763778.214045893284492, 8981956.126492911949754 ] ] ] } },
{ "type": "Feature", "properties": { "LAYER": "Sal Ters", "GM_TYPE": "Unknown Line Type", "ELEVATION": 0 }, "geometry": { "type": "MultiLineString", "coordinates": [ [ [ 763858.958502878667787, 8981595.097611621022224 ], [ 763869.160752726602368, 8981548.069199778139591 ], [ 763880.571239941753447, 8981499.602213479578495 ], [ 763893.363319839350879, 8981450.108751522377133 ], [ 763905.370028056204319, 8981401.160965399816632 ], [ 763916.619869143236428, 8981352.386089554056525 ], [ 763920.109497304889373, 8981337.508865527808666 ], [ 763928.707051051780581, 8981303.607561036944389 ], [ 763939.927843277575448, 8981254.460535634309053 ], [ 763941.249015863169916, 8981246.035304930061102 ], [ 763944.987153041758575, 8981202.531565923243761 ], [ 763950.567202131147496, 8981176.4214484449476 ], [ 763956.183412571670488, 8981154.211835402995348 ], [ 763968.19880856142845, 8981105.420235564932227 ], [ 763980.923087915289216, 8981056.498867521062493 ], [ 763982.336589195299894, 8981050.932376094162464 ] ] ] } },
{ "type": "Feature", "properties": { "LAYER": "Sal Ters", "GM_TYPE": "Unknown Line Type", "ELEVATION": 0 }, "geometry": { "type": "MultiLineString", "coordinates": [ [ [ 763456.555417795083486, 8981425.393549047410488 ], [ 763467.323765421402641, 8981376.756330955773592 ], [ 763480.147716648411006, 8981327.351773329079151 ], [ 763491.806734231417067, 8981279.09197249636054 ], [ 763503.381296014529653, 8981230.115075778216124 ], [ 763514.784817871171981, 8981181.702466011047363 ], [ 763518.590513152419589, 8981166.688219588249922 ], [ 763526.610234388732351, 8981133.345155894756317 ], [ 763537.652487396961078, 8981084.299599211663008 ], [ 763549.337607441237196, 8981035.245231654495001 ], [ 763560.710673219058663, 8980986.783355589956045 ], [ 763570.866687986766919, 8980941.426744410768151 ], [ 763570.156012110644951, 8980936.246928211301565 ], [ 763582.220812561223283, 8980887.873095896095037 ], [ 763594.839714309899136, 8980838.4994589202106 ], [ 763605.993744392413646, 8980790.250308046117425 ], [ 763617.940374052152038, 8980746.580501748248935 ], [ 763619.48410567571409, 8980741.758378997445107 ], [ 763631.827554023941047, 8980693.3713304027915 ], [ 763647.083982965559699, 8980645.147734289988875 ], [ 763662.524061917793006, 8980596.7895129006356 ], [ 763677.78914043540135, 8980557.421259913593531 ], [ 763682.72092621284537, 8980550.551298305392265 ], [ 763702.046071276417933, 8980503.514814062044024 ], [ 763729.241152661037631, 8980462.215573634952307 ], [ 763753.671055079204962, 8980428.44428176432848 ], [ 763758.851161098340526, 8980422.791612647473812 ], [ 763795.547933514462784, 8980386.817390419542789 ], [ 763814.757416404783726, 8980370.040174039080739 ], [ 763829.301365783438087, 8980350.102107221260667 ], [ 763854.621996910544112, 8980306.878936916589737 ], [ 763877.052057361346669, 8980272.256325639784336 ], [ 763881.93596646853257, 8980263.702884430065751 ], [ 763901.208621278521605, 8980218.877171477302909 ], [ 763915.246104769292288, 8980171.656323619186878 ], [ 763919.225957347196527, 8980148.889087637886405 ], [ 763919.612457275739871, 8980123.711814902722836 ], [ 763922.364627719041891, 8980087.513152113184333 ], [ 763929.516872417996638, 8980062.626853339374065 ], [ 763931.678128361934796, 8980037.143612734973431 ], [ 763932.128677179221995, 8980009.346941029652953 ], [ 763921.763840120867826, 8979990.474710000678897 ], [ 763918.638741311151534, 8979942.684461548924446 ], [ 763906.82022840261925, 8979892.759036429226398 ], [ 763895.190319328568876, 8979840.682961635291576 ], [ 763890.974079127074219, 8979817.430518543347716 ], [ 763887.361561676836573, 8979793.349595053121448 ], [ 763884.526023497572169, 8979773.015672182664275 ], [ 763877.478977298014797, 8979723.084725588560104 ], [ 763875.353373801452108, 8979708.716230407357216 ], [ 763868.586269363178872, 8979673.998754309490323 ], [ 763869.908934124163352, 8979622.65214067324996 ], [ 763868.798313160659745, 8979613.405203014612198 ], [ 763863.700329761486501, 8979572.683093581348658 ], [ 763861.634473474114202, 8979561.472923882305622 ], [ 763855.30481430341024, 8979520.878925429657102 ], [ 763830.01585344504565, 8979505.100948749110103 ], [ 763823.906763718114235, 8979484.318053236231208 ], [ 763823.152042354573496, 8979442.322416808456182 ], [ 763816.965306998230517, 8979428.406146803870797 ], [ 763786.444155013305135, 8979388.159961681813002 ], [ 763781.895914412103593, 8979383.675015155225992 ], [ 763753.404825292876922, 8979351.535531014204025 ], [ 763736.918469302472658, 8979334.698859261348844 ], [ 763718.347676879027858, 8979315.30202960036695 ], [ 763673.113015146693215, 8979297.754246430471539 ], [ 763623.716286604641937, 8979283.769296336919069 ], [ 763576.523088430985808, 8979269.703980559483171 ], [ 763562.311117655248381, 8979265.676758088171482 ], [ 763546.165707111242227, 8979259.546182304620743 ], [ 763513.513374746078625, 8979220.552836982533336 ], [ 763481.695224146591499, 8979183.803529791533947 ], [ 763466.841234246501699, 8979167.709273975342512 ], [ 763446.676627853303216, 8979145.251261115074158 ], [ 763413.10662760224659, 8979110.562143493443727 ], [ 763378.155219900771044, 8979073.518580488860607 ], [ 763362.65322694927454, 8979056.795769717544317 ] ] ] } },
{ "type": "Feature", "properties": { "LAYER": "Sal Ters", "GM_TYPE": "Unknown Line Type", "ELEVATION": 0 }, "geometry": { "type": "MultiLineString", "coordinates": [ [ [ 763915.391438108403236, 8980082.813574349507689 ], [ 763917.771888904157095, 8980074.530774723738432 ] ] ] } },
{ "type": "Feature", "properties": { "LAYER": "Sal Ters", "GM_TYPE": "Unknown Line Type", "ELEVATION": 0 }, "geometry": { "type": "MultiLineString", "coordinates": [ [ [ 763445.116749111679383, 8981440.482433101162314 ], [ 763448.739861230948009, 8981423.685465533286333 ], [ 763459.544113170471974, 8981374.886079024523497 ], [ 763472.387323189759627, 8981325.407326471060514 ], [ 763484.025772488559596, 8981277.232663284987211 ], [ 763495.595755219575949, 8981228.275142483413219 ], [ 763507.013433030806482, 8981179.802425410598516 ], [ 763510.823753851582296, 8981164.7699302919209 ], [ 763518.818411657237448, 8981131.531071163713932 ], [ 763529.858741808915511, 8981082.494055088609457 ], [ 763541.55225873272866, 8981033.404437266290188 ], [ 763541.766009780112654, 8981032.493620695546269 ] ] ] } },
{ "type": "Feature", "properties": { "LAYER": "Sal Ters", "GM_TYPE": "Unknown Line Type", "ELEVATION": 0 }, "geometry": { "type": "MultiLineString", "coordinates": [ [ [ 765757.530395506415516, 8977913.542308483272791 ], [ 765765.229377863113768, 8977881.411018365994096 ], [ 765776.975952312583104, 8977831.568237921223044 ], [ 765788.17060496925842, 8977783.933421541005373 ], [ 765799.500707472092472, 8977734.545842047780752 ], [ 765804.615270043374039, 8977713.011493198573589 ] ] ] } },
{ "type": "Feature", "properties": { "LAYER": "Sal Ters", "GM_TYPE": "Unknown Line Type", "ELEVATION": 0 }, "geometry": { "type": "MultiLineString", "coordinates": [ [ [ 765866.609544700942934, 8977492.803188282996416 ], [ 765874.639861074043438, 8977459.525635084137321 ], [ 765886.363397987675853, 8977411.476927891373634 ], [ 765899.043361041112803, 8977362.220232699066401 ], [ 765910.554429178126156, 8977312.804934514686465 ], [ 765922.558124549803324, 8977263.943430799990892 ], [ 765934.529745454085059, 8977215.410247415304184 ], [ 765946.573105292045511, 8977166.480491627007723 ], [ 765958.532857965212315, 8977118.049071503803134 ], [ 765966.29435414809268, 8977086.549885168671608 ] ] ] } },
{ "type": "Feature", "properties": { "LAYER": "Sal Ters", "GM_TYPE": "Unknown Line Type", "ELEVATION": 0 }, "geometry": { "type": "MultiLineString", "coordinates": [ [ [ 765976.987135102972388, 8977042.848557703197002 ], [ 765982.282122407923453, 8977021.109225379303098 ], [ 765994.054902087547816, 8976972.235558720305562 ], [ 766005.7252161182696, 8976923.758248705416918 ], [ 766017.588305903365836, 8976874.469994248822331 ], [ 766017.966393487877212, 8976872.891488660126925 ] ] ] } },
{ "type": "Feature", "properties": { "LAYER": "Sal Ters", "GM_TYPE": "Unknown Line Type", "ELEVATION": 0 }, "geometry": { "type": "MultiLineString", "coordinates": [ [ [ 765439.007849782821722, 8979420.724687246605754 ], [ 765446.614287600503303, 8979388.56140928901732 ], [ 765458.310312112676911, 8979339.965531663969159 ], [ 765470.05042003444396, 8979291.257179886102676 ], [ 765481.926301353843883, 8979241.912484984844923 ], [ 765493.434288813266903, 8979194.14710838906467 ], [ 765504.783768173889257, 8979145.322448400780559 ], [ 765516.752510788384825, 8979095.12587221711874 ], [ 765528.346966051845811, 8979046.677462458610535 ] ] ] } },
{ "type": "Feature", "properties": { "LAYER": "Sal Ters", "GM_TYPE": "Unknown Line Type", "ELEVATION": 0 }, "geometry": { "type": "MultiLineString", "coordinates": [ [ [ 765449.461188102373853, 8979411.284030066803098 ], [ 765454.395891365478747, 8979390.417990470305085 ], [ 765466.08820984128397, 8979341.837511075660586 ], [ 765477.82769932365045, 8979293.131726995110512 ], [ 765489.704212272074074, 8979243.78440959379077 ], [ 765501.219265192747116, 8979195.989707892760634 ], [ 765512.570877146092243, 8979147.155873639509082 ], [ 765520.631062238710001, 8979113.351679826155305 ] ] ] } },
{ "type": "Feature", "properties": { "LAYER": "Sal Ters", "GM_TYPE": "Unknown Line Type", "ELEVATION": 0 }, "geometry": { "type": "MultiLineString", "coordinates": [ [ [ 765308.673038727487437, 8980051.068913750350475 ], [ 765314.241113140014932, 8980033.015161275863647 ], [ 765330.801248697331175, 8979984.986257011070848 ], [ 765347.344507794943638, 8979938.031853688880801 ], [ 765363.897773670731112, 8979890.569374773651361 ], [ 765380.384644963196479, 8979843.26923842728138 ], [ 765398.290692078066058, 8979791.951237559318542 ], [ 765414.656575740198605, 8979745.007853796705604 ], [ 765370.505853570299223, 8979711.585213722661138 ], [ 765374.789523658459075, 8979691.8365299385041 ], [ 765377.502071270369925, 8979681.361073100939393 ], [ 765388.686632619006559, 8979632.773803373798728 ] ] ] } },
{ "type": "Feature", "properties": { "LAYER": "Sal Ters", "GM_TYPE": "Unknown Line Type", "ELEVATION": 0 }, "geometry": { "type": "MultiLineString", "coordinates": [ [ [ 765548.778919984470122, 8978577.755991563200951 ], [ 765548.819651170517318, 8978567.399203699082136 ], [ 765561.368928792886436, 8978518.870779503136873 ], [ 765578.400929096154869, 8978471.887485072016716 ], [ 765595.498303911532275, 8978424.599642338231206 ], [ 765597.125799102475867, 8978420.106023587286472 ] ] ] } },
{ "type": "Feature", "properties": { "LAYER": "Sal Ters", "GM_TYPE": "Unknown Line Type", "ELEVATION": 0 }, "geometry": { "type": "MultiLineString", "coordinates": [ [ [ 765653.284977010916919, 8978264.720088116824627 ], [ 765663.832490215543658, 8978235.298704104498029 ], [ 765680.315219122101553, 8978189.203673034906387 ], [ 765697.32364618324209, 8978142.138952452689409 ], [ 765699.523096386576071, 8978135.983171857893467 ] ] ] } },
{ "type": "Feature", "properties": { "LAYER": "Sal Ters", "GM_TYPE": "Unknown Line Type", "ELEVATION": 0 }, "geometry": { "type": "MultiLineString", "coordinates": [ [ [ 765765.985011317883618, 8977912.590058350935578 ], [ 765773.012637938722037, 8977883.260635854676366 ], [ 765784.762632207479328, 8977833.403344517573714 ], [ 765795.963296132511459, 8977785.74295623973012 ], [ 765807.291283093742095, 8977736.364598333835602 ], [ 765813.38937384262681, 8977710.689203480258584 ], [ 765827.010340050328523, 8977654.361302107572556 ], [ 765838.945775600383058, 8977605.747135354205966 ], [ 765851.065824686316773, 8977556.491689408197999 ], [ 765851.602672794717364, 8977554.300133092328906 ] ] ] } },
{ "type": "Feature", "properties": { "LAYER": "Sal Ters", "GM_TYPE": "Unknown Line Type", "ELEVATION": 0 }, "geometry": { "type": "MultiLineString", "coordinates": [ [ [ 765966.951133906492032, 8977050.247421238571405 ], [ 765974.506959132035263, 8977019.225893499329686 ], [ 765986.277362810564227, 8976970.362090600654483 ], [ 765997.947421561810188, 8976921.88584067299962 ], [ 766009.190205613151193, 8976875.174805726855993 ] ] ] } },
{ "type": "Feature", "properties": { "LAYER": "Sal Ters", "GM_TYPE": "Unknown Line Type", "ELEVATION": 0 }, "geometry": { "type": "MultiLineString", "coordinates": [ [ [ 765860.577945832861587, 8977483.694557199254632 ], [ 765866.865460725966841, 8977457.639156436547637 ], [ 765878.603380680433474, 8977409.531500607728958 ], [ 765891.272919393028133, 8977360.315299902111292 ], [ 765902.308478184975684, 8977312.941292395815253 ] ] ] } },
{ "type": "Feature", "properties": { "LAYER": "Sal Ters", "GM_TYPE": "Unknown Line Type", "ELEVATION": 0 }, "geometry": { "type": "MultiLineString", "coordinates": [ [ [ 765646.868559343973175, 8978258.912160199135542 ], [ 765656.301793244434521, 8978232.598962796851993 ], [ 765672.786865846137516, 8978186.497369583696127 ], [ 765689.794951642747037, 8978139.433593329042196 ], [ 765690.069754477590322, 8978138.664480231702328 ] ] ] } },
{ "type": "Feature", "properties": { "LAYER": "Sal Ters", "GM_TYPE": "Unknown Line Type", "ELEVATION": 0 }, "geometry": { "type": "MultiLineString", "coordinates": [ [ [ 765540.823652361403219, 8978566.36608299985528 ], [ 765553.71864020312205, 8978516.500787258148193 ], [ 765570.87986909574829, 8978469.161011807620525 ], [ 765570.945679357857443, 8978468.978994047269225 ] ] ] } },
{ "type": "Feature", "properties": { "LAYER": "Sal Ters", "GM_TYPE": "Unknown Line Type", "ELEVATION": 0 }, "geometry": { "type": "MultiLineString", "coordinates": [ [ [ 761482.965084679774009, 8979020.61160834133625 ], [ 761475.597725875093602, 8978975.245769126340747 ], [ 761431.461343267001212, 8978893.565615193918347 ], [ 761435.934619993669912, 8978881.51520649716258 ], [ 761474.793650269857608, 8978822.139864386990666 ], [ 761621.915159994736314, 8978617.058511266484857 ] ] ] } },
{ "type": "Feature", "properties": { "LAYER": "Sal Ters", "GM_TYPE": "Unknown Line Type", "ELEVATION": 0 }, "geometry": { "type": "MultiLineString", "coordinates": [ [ [ 761475.160305661847815, 8979022.459084555506706 ], [ 761467.91762420127634, 8978977.860968550667167 ], [ 761422.699953221948817, 8978894.179748931899667 ], [ 761428.747903399867937, 8978877.887380748987198 ], [ 761468.19353031006176, 8978817.61573794297874 ], [ 761613.18636527354829, 8978615.501670176163316 ] ] ] } },
{ "type": "Feature", "properties": { "LAYER": "Sal Ters", "GM_TYPE": "Unknown Line Type", "ELEVATION": 0 }, "geometry": { "type": "MultiLineString", "coordinates": [ [ [ 759517.550290727172978, 8977245.668344348669052 ], [ 759547.909895583405159, 8977091.480299029499292 ], [ 759553.417599898064509, 8977074.307434113696218 ] ] ] } },
{ "type": "Feature", "properties": { "LAYER": "Sal Ters", "GM_TYPE": "Unknown Line Type", "ELEVATION": 0 }, "geometry": { "type": "MultiLineString", "coordinates": [ [ [ 759509.170720838359557, 8977511.212125828489661 ], [ 759500.101092119002715, 8977498.184850944206119 ], [ 759505.553397369687445, 8977458.743351109325886 ], [ 759506.4292318362277, 8977446.11320081166923 ], [ 759509.916457635583356, 8977430.335508635267615 ], [ 759509.534328449750319, 8977393.807410618290305 ], [ 759506.027070615906268, 8977304.19159566052258 ], [ 759511.171214887523092, 8977278.065908128395677 ] ] ] } },
{ "type": "Feature", "properties": { "LAYER": "Sal Ters", "GM_TYPE": "Unknown Line Type", "ELEVATION": 0 }, "geometry": { "type": "MultiLineString", "coordinates": [ [ [ 759766.968908508657478, 8976595.394198996946216 ], [ 759797.047112322179601, 8976549.45864313095808 ], [ 759822.74951985233929, 8976482.928764352574944 ], [ 759818.910846090060659, 8976366.078172517940402 ] ] ] } },
{ "type": "Feature", "properties": { "LAYER": "Sal Ters", "GM_TYPE": "Unknown Line Type", "ELEVATION": 0 }, "geometry": { "type": "MultiLineString", "coordinates": [ [ [ 761246.846248476067558, 8976273.103179343044758 ], [ 762089.076013336423784, 8976087.015521179884672 ] ] ] } },
{ "type": "Feature", "properties": { "LAYER": "Sal Ters", "GM_TYPE": "Unknown Line Type", "ELEVATION": 0 }, "geometry": { "type": "MultiLineString", "coordinates": [ [ [ 759794.202575792209245, 8976598.156081395223737 ], [ 760122.859342667856254, 8976525.54054269194603 ] ] ] } },
{ "type": "Feature", "properties": { "LAYER": "Sal Ters", "GM_TYPE": "Unknown Line Type", "ELEVATION": 0 }, "geometry": { "type": "MultiLineString", "coordinates": [ [ [ 760313.261680553085171, 8976483.471826238557696 ], [ 760950.577098785550334, 8976342.659261025488377 ] ] ] } },
{ "type": "Feature", "properties": { "LAYER": "Sal Ters", "GM_TYPE": "Unknown Line Type", "ELEVATION": 0 }, "geometry": { "type": "MultiLineString", "coordinates": [ [ [ 759785.951789869344793, 8976590.762002626433969 ], [ 760061.899374064174481, 8976529.792369563132524 ] ] ] } },
{ "type": "Feature", "properties": { "LAYER": "Sal Ters", "GM_TYPE": "Unknown Line Type", "ELEVATION": 0 }, "geometry": { "type": "MultiLineString", "coordinates": [ [ [ 760314.209552235202864, 8976474.045336930081248 ], [ 760795.848715687170625, 8976367.628884145990014 ] ] ] } },
{ "type": "Feature", "properties": { "LAYER": "Sal Ters", "GM_TYPE": "Unknown Line Type", "ELEVATION": 0 }, "geometry": { "type": "MultiLineString", "coordinates": [ [ [ 764270.905797318322584, 8978692.16762550920248 ], [ 764296.74904993455857, 8978628.298300972208381 ], [ 764305.025974272401072, 8978589.523823022842407 ], [ 764311.734508722671308, 8978558.096699794754386 ], [ 764317.208979208837263, 8978535.052707735449076 ], [ 764323.944105978938751, 8978506.702165303751826 ], [ 764328.357736749341711, 8978431.528895381838083 ], [ 764330.827544881845824, 8978389.462949438020587 ], [ 764347.710979903000407, 8978330.578589400276542 ], [ 764393.472792759072036, 8978186.605798387899995 ], [ 764434.749094867380336, 8978006.629632981494069 ], [ 764433.304225542349741, 8977969.331281742081046 ], [ 764655.626940244459547, 8977272.867837572470307 ], [ 764751.253659335896373, 8976941.097006237134337 ], [ 764776.02699262148235, 8976772.568086056038737 ] ] ] } },
{ "type": "Feature", "properties": { "LAYER": "Sal Ters", "GM_TYPE": "Unknown Line Type", "ELEVATION": 0 }, "geometry": { "type": "MultiLineString", "coordinates": [ [ [ 764645.461935422616079, 8977291.557807508856058 ], [ 764651.799124185927212, 8977271.7054936401546 ], [ 764723.822938728379086, 8977021.823441283777356 ] ] ] } },
{ "type": "Feature", "properties": { "LAYER": "Sal Ters", "GM_TYPE": "Unknown Line Type", "ELEVATION": 0 }, "geometry": { "type": "MultiLineString", "coordinates": [ [ [ 764510.019008002243936, 8977715.855647906661034 ], [ 764577.231367886648513, 8977505.301581406965852 ] ] ] } },
{ "type": "Feature", "properties": { "LAYER": "Sal Ters", "GM_TYPE": "Unknown Line Type", "ELEVATION": 0 }, "geometry": { "type": "MultiLineString", "coordinates": [ [ [ 764399.618700626655482, 8978141.914007846266031 ], [ 764430.731521965470165, 8978006.253447344526649 ], [ 764429.280029747984372, 8977968.784130491316319 ], [ 764429.795856868615374, 8977967.168214935809374 ] ] ] } },
{ "type": "Feature", "properties": { "LAYER": "Sal Ters", "GM_TYPE": "Unknown Line Type", "ELEVATION": 0 }, "geometry": { "type": "MultiLineString", "coordinates": [ [ [ 764270.283140241052024, 8978683.042226681485772 ], [ 764292.910091156489216, 8978627.121708750724792 ], [ 764301.114106621127576, 8978588.688783215358853 ], [ 764307.83221753325779, 8978557.216797633096576 ], [ 764313.317290814360604, 8978534.12817464210093 ], [ 764319.971501623047516, 8978506.118236251175404 ], [ 764324.200719526736066, 8978434.085899254307151 ] ] ] } },
{ "type": "Feature", "properties": { "LAYER": "Sal Ters", "GM_TYPE": "Unknown Line Type", "ELEVATION": 0 }, "geometry": { "type": "MultiLineString", "coordinates": [ [ [ 766062.862067942158319, 8976627.257094642147422 ], [ 765307.423750217771158, 8976523.054920518770814 ] ] ] } },
{ "type": "Feature", "properties": { "LAYER": "Sal Ters", "GM_TYPE": "Unknown Line Type", "ELEVATION": 0 }, "geometry": { "type": "MultiLineString", "coordinates": [ [ [ 766060.86942296475172, 8976604.797295549884439 ], [ 766055.189644928555936, 8976572.9213459007442 ], [ 766048.702054082881659, 8976532.746015513315797 ], [ 766032.623315859935246, 8976444.264993529766798 ], [ 766025.248399447649717, 8976376.800825459882617 ], [ 766024.839130078908056, 8976313.67124549113214 ], [ 766026.577829397981986, 8976279.43530885130167 ], [ 766010.082389398128726, 8976200.616892179474235 ] ] ] } },
{ "type": "Feature", "properties": { "LAYER": "Sal Ters", "GM_TYPE": "Unknown Line Type", "ELEVATION": 0 }, "geometry": { "type": "MultiLineString", "coordinates": [ [ [ 766071.198207361390814, 8976614.670151898637414 ], [ 766064.68409685336519, 8976603.403628608211875 ], [ 766059.133314550388604, 8976572.251626526936889 ], [ 766052.644631640287116, 8976532.069533374160528 ], [ 766036.58421784976963, 8976443.689350431784987 ], [ 766029.246986528509296, 8976376.569917563349009 ], [ 766028.839788191253319, 8976313.759793085977435 ], [ 766030.598900723038241, 8976279.121909167617559 ], [ 766014.46586245961953, 8976202.035118391737342 ] ] ] } },
{ "type": "Feature", "properties": { "LAYER": "Sal Ters", "GM_TYPE": "Unknown Line Type", "ELEVATION": 0 }, "geometry": { "type": "MultiLineString", "coordinates": [ [ [ 762064.934484417783096, 8977623.059629570692778 ], [ 762060.909838967141695, 8977619.97999731823802 ] ] ] } },
{ "type": "Feature", "properties": { "LAYER": "Sal Ters", "GM_TYPE": "Unknown Line Type", "ELEVATION": 24 }, "geometry": { "type": "MultiLineString", "coordinates": [ [ [ 761844.241488932748325, 8978379.891370043158531 ], [ 761842.106233468395658, 8978378.851859018206596 ] ] ] } },
{ "type": "Feature", "properties": { "LAYER": "Sal Ters", "GM_TYPE": "Unknown Line Type", "ELEVATION": 22 }, "geometry": { "type": "MultiLineString", "coordinates": [ [ [ 759523.892129345447756, 8977264.931510427966714 ], [ 760056.991775769973174, 8977191.774934895336628 ] ] ] } },
{ "type": "Feature", "properties": { "LAYER": "Sal Ters", "GM_TYPE": "Unknown Line Type", "ELEVATION": 0 }, "geometry": { "type": "MultiLineString", "coordinates": [ [ [ 761245.660327385063283, 8976270.814827149733901 ], [ 761248.318977662245743, 8976265.900676166638732 ] ] ] } },
{ "type": "Feature", "properties": { "LAYER": "Sal Ters", "GM_TYPE": "Unknown Line Type", "ELEVATION": 0 }, "geometry": { "type": "MultiLineString", "coordinates": [ [ [ 760300.408634296269156, 8976485.895569019019604 ], [ 760453.41729624173604, 8976738.033368969336152 ] ] ] } },
{ "type": "Feature", "properties": { "LAYER": "Sal Ters", "GM_TYPE": "Unknown Line Type", "ELEVATION": 0 }, "geometry": { "type": "MultiLineString", "coordinates": [ [ [ 760299.782622104045004, 8976478.823949115350842 ], [ 760301.694687872426584, 8976474.311007725074887 ] ] ] } },
{ "type": "Feature", "properties": { "LAYER": "Sal Ters", "GM_TYPE": "Unknown Line Type", "ELEVATION": 0 }, "geometry": { "type": "MultiLineString", "coordinates": [ [ [ 760303.649075921508484, 8976469.698175434023142 ], [ 760416.984988210024312, 8976202.197790237143636 ] ] ] } },
{ "type": "Feature", "properties": { "LAYER": "Sal Ters", "GM_TYPE": "Unknown Line Type", "ELEVATION": 0 }, "geometry": { "type": "MultiLineString", "coordinates": [ [ [ 763348.488700362155214, 8982752.323317224159837 ], [ 763353.441187393735163, 8982750.281446922570467 ], [ 763340.323856761679053, 8982715.422998638823628 ], [ 763336.598944614175707, 8982703.079509880393744 ], [ 763290.83278324326966, 8982677.121655700728297 ], [ 763260.776272654067725, 8982662.410933140665293 ], [ 763244.696167373447679, 8982644.604286465793848 ], [ 763236.191960834199563, 8982621.887796770781279 ], [ 763228.824497359222732, 8982594.169005891308188 ], [ 763223.682368976180442, 8982574.065710643306375 ], [ 763206.020580567070283, 8982528.156603869050741 ], [ 763213.746941568679176, 8982507.001160223037004 ], [ 763225.438161577680148, 8982492.603063333779573 ], [ 763270.022857083473355, 8982458.68017141520977 ], [ 763302.965444315806963, 8982424.617099672555923 ], [ 763310.598375796456821, 8982398.983321020379663 ], [ 763310.592078694258817, 8982397.55203365907073 ] ] ] } },
{ "type": "Feature", "properties": { "LAYER": "Sal Ters", "GM_TYPE": "Unknown Line Type", "ELEVATION": 0 }, "geometry": { "type": "MultiLineString", "coordinates": [ [ [ 765649.344328432925977, 8978277.84716660156846 ], [ 765927.0390247044852, 8978268.785349605605006 ], [ 766036.107413711841218, 8978222.780028974637389 ], [ 766111.745475620497018, 8978178.457976954057813 ], [ 766173.627551408251747, 8978145.342291155830026 ], [ 766266.100597328622825, 8978117.661050630733371 ] ] ] } },
{ "type": "Feature", "properties": { "LAYER": "Sal Ters", "GM_TYPE": "Unknown Line Type", "ELEVATION": 0 }, "geometry": { "type": "MultiLineString", "coordinates": [ [ [ 766089.573183095781133, 8976626.034252999350429 ], [ 766595.277654058532789, 8976578.661610778421164 ], [ 766647.654346122290008, 8976568.992922076955438 ] ] ] } },
{ "type": "Feature", "properties": { "LAYER": "Sal Ters", "GM_TYPE": "Unknown Line Type", "ELEVATION": 0 }, "geometry": { "type": "MultiLineString", "coordinates": [ [ [ 765303.01626454887446, 8980065.915789244696498 ], [ 764699.117217478342354, 8979815.985348982736468 ] ] ] } },
{ "type": "Feature", "properties": { "LAYER": "Sal Ters", "GM_TYPE": "Unknown Line Type", "ELEVATION": 0 }, "geometry": { "type": "MultiLineString", "coordinates": [ [ [ 765435.321757416240871, 8979432.035317538306117 ], [ 764792.572485503973439, 8979184.95999126881361 ] ] ] } },
{ "type": "Feature", "properties": { "LAYER": "Sal Ters", "GM_TYPE": "Unknown Line Type", "ELEVATION": 0 }, "geometry": { "type": "MultiLineString", "coordinates": [ [ [ 765640.127302559558302, 8978277.716318177059293 ], [ 765240.471063864533789, 8978230.480142021551728 ] ] ] } },
{ "type": "Feature", "properties": { "LAYER": "Sal Ters", "GM_TYPE": "Unknown Line Type", "ELEVATION": 0 }, "geometry": { "type": "MultiLineString", "coordinates": [ [ [ 764401.172414403175935, 8978153.033305024728179 ], [ 763970.395477408310398, 8978052.257008409127593 ] ] ] } },
{ "type": "Feature", "properties": { "LAYER": "Sal Ters", "GM_TYPE": "Unknown Line Type", "ELEVATION": 0 }, "geometry": { "type": "MultiLineString", "coordinates": [ [ [ 761849.284939878154546, 8978363.664280412718654 ], [ 762042.001972584519535, 8978011.542417705059052 ], [ 762048.276962983654812, 8977935.744635300710797 ] ] ] } },
{ "type": "Feature", "properties": { "LAYER": "Sal Ters", "GM_TYPE": "Unknown Line Type", "ELEVATION": 0 }, "geometry": { "type": "MultiLineString", "coordinates": [ [ [ 761841.452878555515781, 8978361.31141771376133 ], [ 762031.898788086953573, 8978013.339225182309747 ] ] ] } },
{ "type": "Feature", "properties": { "LAYER": "Sal Ters", "GM_TYPE": "Unknown Line Type", "ELEVATION": 0 }, "geometry": { "type": "MultiLineString", "coordinates": [ [ [ 762070.219491222058423, 8977622.21056223474443 ], [ 762072.813474887865596, 8977590.876935096457601 ], [ 762610.05442590045277, 8976763.846167184412479 ] ] ] } },
{ "type": "Feature", "properties": { "LAYER": "Sal Ters", "GM_TYPE": "Unknown Line Type", "ELEVATION": 0 }, "geometry": { "type": "MultiLineString", "coordinates": [ [ [ 762067.470409743720666, 8977606.934994995594025 ], [ 762068.910236561787315, 8977589.542828168720007 ], [ 762411.294034398859367, 8977062.475904636085033 ] ] ] } },
{ "type": "Feature", "properties": { "LAYER": "Sal Ters", "GM_TYPE": "Unknown Line Type", "ELEVATION": 0 }, "geometry": { "type": "MultiLineString", "coordinates": [ [ [ 765757.482102489448152, 8977926.378651743754745 ], [ 765348.791146597126499, 8977900.247856773436069 ] ] ] } },
{ "type": "Feature", "properties": { "LAYER": "Sal Ters", "GM_TYPE": "Unknown Line Type", "ELEVATION": 0 }, "geometry": { "type": "MultiLineString", "coordinates": [ [ [ 765757.068270431831479, 8977926.415953746065497 ], [ 765867.296029310789891, 8977909.655579015612602 ], [ 765920.258532525389455, 8977880.261207181960344 ], [ 766093.213636388420127, 8977846.289431791752577 ], [ 766235.308990804478526, 8977847.799578160047531 ], [ 766384.265328428242356, 8977826.75598555803299 ], [ 766659.25309032201767, 8977746.64046997204423 ], [ 766802.14959718065802, 8977685.794294282793999 ], [ 766915.974375350982882, 8977609.074731918051839 ], [ 767005.946291983127594, 8977533.927100576460361 ], [ 767094.73553335503675, 8977446.550013089552522 ] ] ] } },
{ "type": "Feature", "properties": { "LAYER": "Sal Ters", "GM_TYPE": "Unknown Line Type", "ELEVATION": 0 }, "geometry": { "type": "MultiLineString", "coordinates": [ [ [ 765853.27044243097771, 8977503.345722924917936 ], [ 765388.69683328201063, 8977425.661462558433414 ] ] ] } },
{ "type": "Feature", "properties": { "LAYER": "Sal Ters", "GM_TYPE": "Unknown Line Type", "ELEVATION": 0 }, "geometry": { "type": "MultiLineString", "coordinates": [ [ [ 764648.323845936916769, 8977303.042849933728576 ], [ 764339.721697793109342, 8977197.067759411409497 ] ] ] } },
{ "type": "Feature", "properties": { "LAYER": "Sal Ters", "GM_TYPE": "Unknown Line Type", "ELEVATION": 0 }, "geometry": { "type": "MultiLineString", "coordinates": [ [ [ 765862.526022094418295, 8977503.455607712268829 ], [ 766499.93971893703565, 8977346.554318845272064 ], [ 766819.488160765613429, 8977259.023273881524801 ], [ 766868.443366141524166, 8977238.772898299619555 ] ] ] } },
{ "type": "Feature", "properties": { "LAYER": "Sal Ters", "GM_TYPE": "Unknown Line Type", "ELEVATION": 0 }, "geometry": { "type": "MultiLineString", "coordinates": [ [ [ 764776.39293917408213, 8976770.078611724078655 ], [ 764476.506815110798925, 8976629.117205342277884 ] ] ] } },
{ "type": "Feature", "properties": { "LAYER": "Sal Ters", "GM_TYPE": "Unknown Line Type", "ELEVATION": 0 }, "geometry": { "type": "MultiLineString", "coordinates": [ [ [ 764502.67854198848363, 8977735.565500533208251 ], [ 764275.656784637947567, 8977651.038299361243844 ] ] ] } },
{ "type": "Feature", "properties": { "LAYER": "Sal Ters", "GM_TYPE": "Unknown Line Type", "ELEVATION": 0 }, "geometry": { "type": "MultiLineString", "coordinates": [ [ [ 764324.425874690641649, 8978430.251040663570166 ], [ 764046.882010398432612, 8978340.049316547811031 ] ] ] } },
{ "type": "Feature", "properties": { "LAYER": "Sal Ters", "GM_TYPE": "Unknown Line Type", "ELEVATION": 0 }, "geometry": { "type": "MultiLineString", "coordinates": [ [ [ 765571.86522686353419, 8978466.435713224112988 ], [ 764926.751335305278189, 8978446.307395346462727 ] ] ] } },
{ "type": "Feature", "properties": { "LAYER": "Sal Ters", "GM_TYPE": "Unknown Line Type", "ELEVATION": 0 }, "geometry": { "type": "MultiLineString", "coordinates": [ [ [ 764430.979739424190484, 8977963.459502927958965 ], [ 764176.603742560371757, 8977875.790341166779399 ] ] ] } },
{ "type": "Feature", "properties": { "LAYER": "Sal Ters", "GM_TYPE": "Unknown Line Type", "ELEVATION": 0 }, "geometry": { "type": "MultiLineString", "coordinates": [ [ [ 765690.926353164948523, 8978136.26704765111208 ], [ 765294.631193918758072, 8978067.193228339776397 ] ] ] } },
{ "type": "Feature", "properties": { "LAYER": "Sal Ters", "GM_TYPE": "Unknown Line Type", "ELEVATION": 0 }, "geometry": { "type": "MultiLineString", "coordinates": [ [ [ 764579.208566954126582, 8977501.770658759400249 ], [ 764280.037610213737935, 8977434.72375824674964 ] ] ] } },
{ "type": "Feature", "properties": { "LAYER": "Sal Ters", "GM_TYPE": "Unknown Line Type", "ELEVATION": 0 }, "geometry": { "type": "MultiLineString", "coordinates": [ [ [ 765805.225377943948843, 8977710.44269553758204 ], [ 765367.563896371750161, 8977671.204417185857892 ] ] ] } },
{ "type": "Feature", "properties": { "LAYER": "Sal Ters", "GM_TYPE": "Unknown Line Type", "ELEVATION": 0 }, "geometry": { "type": "MultiLineString", "coordinates": [ [ [ 764724.89942118676845, 8977018.088653730228543 ], [ 764405.113932135282084, 8976927.614094413816929 ] ] ] } },
{ "type": "Feature", "properties": { "LAYER": "Sal Ters", "GM_TYPE": "Unknown Line Type", "ELEVATION": 0 }, "geometry": { "type": "MultiLineString", "coordinates": [ [ [ 765962.675923225819133, 8977063.777822690084577 ], [ 765544.306869576219469, 8976996.018105652183294 ] ] ] } },
{ "type": "Feature", "properties": { "LAYER": "Sal Ters", "GM_TYPE": "Unknown Line Type", "ELEVATION": 0 }, "geometry": { "type": "MultiLineString", "coordinates": [ [ [ 765971.993356831953861, 8977063.351232994347811 ], [ 766937.811716598109342, 8976875.366851169615984 ] ] ] } },
{ "type": "Feature", "properties": { "LAYER": "Sal Ters", "GM_TYPE": "Unknown Line Type", "ELEVATION": 0 }, "geometry": { "type": "MultiLineString", "coordinates": [ [ [ 765903.209403999266215, 8977309.170558815822005 ], [ 765458.50965393637307, 8977223.07890441082418 ] ] ] } },
{ "type": "Feature", "properties": { "LAYER": "Sal Ters", "GM_TYPE": "Unknown Line Type", "ELEVATION": 0 }, "geometry": { "type": "MultiLineString", "coordinates": [ [ [ 766009.76794533059001, 8976872.774437630549073 ], [ 765549.808710081269965, 8976783.649683803319931 ] ] ] } },
{ "type": "Feature", "properties": { "LAYER": "Sal Ters", "GM_TYPE": "Unknown Line Type", "ELEVATION": 0 }, "geometry": { "type": "MultiLineString", "coordinates": [ [ [ 765254.835158721311018, 8976180.334388867020607 ], [ 765453.438611366553232, 8976191.012627007439733 ], [ 765481.442079019849189, 8976191.399763729423285 ], [ 766009.694259695126675, 8976198.762333061546087 ] ] ] } },
{ "type": "Feature", "properties": { "LAYER": "Sal Ters", "GM_TYPE": "Unknown Line Type", "ELEVATION": 0 }, "geometry": { "type": "MultiLineString", "coordinates": [ [ [ 766017.966393487644382, 8976872.891488660126925 ], [ 766439.487640901119448, 8976809.219288310036063 ], [ 766731.20497365668416, 8976749.112384729087353 ], [ 766893.472783457371406, 8976696.291152913123369 ], [ 766921.190377031220123, 8976679.07841918990016 ] ] ] } },
{ "type": "Feature", "properties": { "LAYER": "Sal Ters", "GM_TYPE": "Unknown Line Type", "ELEVATION": 0 }, "geometry": { "type": "MultiLineString", "coordinates": [ [ [ 765912.986661468748935, 8977302.904439423233271 ], [ 766314.008374734083191, 8977205.184361977502704 ], [ 766578.850264545995742, 8977122.494440991431475 ], [ 766907.216479907394387, 8977034.870083268731833 ] ] ] } },
{ "type": "Feature", "properties": { "LAYER": "Sal Ters", "GM_TYPE": "Unknown Line Type", "ELEVATION": 0 }, "geometry": { "type": "MultiLineString", "coordinates": [ [ [ 765815.541196042089723, 8977701.790596231818199 ], [ 766234.791562538128346, 8977654.571244133636355 ], [ 766300.228520107455552, 8977637.085271634161472 ], [ 766378.673007071716711, 8977616.530146090313792 ], [ 766458.23440812039189, 8977591.531681805849075 ], [ 766541.240565802319907, 8977557.462241116911173 ], [ 766614.991021976806223, 8977533.066423654556274 ], [ 766768.583988554193638, 8977471.693937245756388 ], [ 766828.108497696113773, 8977429.907460724934936 ] ] ] } },
{ "type": "Feature", "properties": { "LAYER": "Sal Ters", "GM_TYPE": "Unknown Line Type", "ELEVATION": 0 }, "geometry": { "type": "MultiLineString", "coordinates": [ [ [ 765699.523096386459656, 8978135.983171857893467 ], [ 765915.952226595603861, 8978100.608143197372556 ], [ 766016.970888952724636, 8978045.944062510505319 ], [ 766064.019271678058431, 8978020.48484013043344 ], [ 766153.06558970885817, 8978000.0 ], [ 766214.076271065277979, 8978013.92399294860661 ], [ 766289.975758333923295, 8978015.991914996877313 ], [ 766355.525324127986096, 8978004.962978327646852 ], [ 766390.277611872996204, 8977981.681320941075683 ], [ 766424.360495116910897, 8977950.550831297412515 ], [ 766511.911568284151144, 8977918.483828799799085 ], [ 766892.824579128529876, 8977804.459849519655108 ], [ 766948.663606208749115, 8977777.730556208640337 ] ] ] } },
{ "type": "Feature", "properties": { "LAYER": "Sal Ters", "GM_TYPE": "Unknown Line Type", "ELEVATION": 0 }, "geometry": { "type": "MultiLineString", "coordinates": [ [ [ 760062.144147880608216, 8976529.738287663087249 ], [ 760123.543034269008785, 8976283.591344986110926 ] ] ] } },
{ "type": "Feature", "properties": { "LAYER": "Sal Ters", "GM_TYPE": "Unknown Line Type", "ELEVATION": 0 }, "geometry": { "type": "MultiLineString", "coordinates": [ [ [ 760799.875152999651618, 8976367.006342064589262 ], [ 760912.410534661612473, 8976101.395404322072864 ] ] ] } },
{ "type": "Feature", "properties": { "LAYER": "Sal Ters", "GM_TYPE": "Unknown Line Type", "ELEVATION": 21 }, "geometry": { "type": "MultiLineString", "coordinates": [ [ [ 759895.78122095449362, 8976822.65927954390645 ], [ 759896.826685655862093, 8976575.48165088519454 ] ] ] } },
{ "type": "Feature", "properties": { "LAYER": "Sal Ters", "GM_TYPE": "Unknown Line Type", "ELEVATION": 0 }, "geometry": { "type": "MultiLineString", "coordinates": [ [ [ 760126.937909862957895, 8976524.639397837221622 ], [ 760185.811577161075547, 8976778.911787915974855 ] ] ] } },
{ "type": "Feature", "properties": { "LAYER": "Sal Ters", "GM_TYPE": "Unknown Line Type", "ELEVATION": 0 }, "geometry": { "type": "MultiLineString", "coordinates": [ [ [ 761645.741459537646733, 8976184.968707283958793 ], [ 761740.093785635428503, 8976353.123894564807415 ] ] ] } },
{ "type": "Feature", "properties": { "LAYER": "Sal Ters", "GM_TYPE": "Unknown Line Type", "ELEVATION": 0 }, "geometry": { "type": "MultiLineString", "coordinates": [ [ [ 765555.594570929999463, 8978951.617766279727221 ], [ 765742.99868114804849, 8978939.618989039212465 ], [ 766141.257054447196424, 8978924.062772508710623 ], [ 766180.789477361016907, 8978924.556452590972185 ], [ 766238.11145902518183, 8978927.518418623134494 ], [ 766270.231513191596605, 8978925.05010405741632 ], [ 766279.126355688436888, 8978917.15148027613759 ], [ 766288.278986773919314, 8978889.811727968975902 ], [ 766288.498586798319593, 8978849.77001522667706 ], [ 766308.46520931518171, 8978821.709344631060958 ], [ 766400.377129985485226, 8978717.182001719251275 ], [ 766463.410984662827104, 8978640.303404709324241 ], [ 766479.092913399916142, 8978504.52873376943171 ], [ 766509.533554444555193, 8978423.774696601554751 ], [ 766584.851366348913871, 8978300.65505831502378 ], [ 766634.4224680372281, 8978227.14036295376718 ], [ 766635.202108579338528, 8978226.120470151305199 ] ] ] } },
{ "type": "Feature", "properties": { "LAYER": "Sal Ters", "GM_TYPE": "Unknown Line Type", "ELEVATION": 0 }, "geometry": { "type": "MultiLineString", "coordinates": [ [ [ 765481.972213203203864, 8979241.721921971067786 ], [ 764824.119937748997472, 8979048.883297380059958 ] ] ] } },
{ "type": "Feature", "properties": { "LAYER": "Sal Ters", "GM_TYPE": "Unknown Line Type", "ELEVATION": 0 }, "geometry": { "type": "MultiLineString", "coordinates": [ [ [ 765528.346966051845811, 8979046.677462458610535 ], [ 764858.682365485467017, 8978899.801816491410136 ] ] ] } },
{ "type": "Feature", "properties": { "LAYER": "Sal Ters", "GM_TYPE": "Unknown Line Type", "ELEVATION": 0 }, "geometry": { "type": "MultiLineString", "coordinates": [ [ [ 764761.481681998353451, 8979394.890215834602714 ], [ 765388.686632619705051, 8979632.773803373798728 ] ] ] } },
{ "type": "Feature", "properties": { "LAYER": "Sal Ters", "GM_TYPE": "Unknown Line Type", "ELEVATION": 0 }, "geometry": { "type": "MultiLineString", "coordinates": [ [ [ 764730.221599079901353, 8979605.963442867621779 ], [ 765376.234176196274348, 8979855.581816172227263 ] ] ] } },
{ "type": "Feature", "properties": { "LAYER": "Sal Ters", "GM_TYPE": "Unknown Line Type", "ELEVATION": 0 }, "geometry": { "type": "MultiLineString", "coordinates": [ [ [ 765013.236269791610539, 8980155.904285179451108 ], [ 765010.223046149127185, 8980153.289426531642675 ] ] ] } },
{ "type": "Feature", "properties": { "LAYER": "Sal Ters", "GM_TYPE": "Unknown Line Type", "ELEVATION": 0 }, "geometry": { "type": "MultiLineString", "coordinates": [ [ [ 765307.291683051967993, 8980067.765753645449877 ], [ 765366.724766673753038, 8980079.764440461993217 ], [ 765400.0, 8979999.282416608184576 ], [ 765514.013193664955907, 8979798.35957502387464 ], [ 765616.591397173469886, 8979674.847558416426182 ], [ 765620.576079156016931, 8979673.940344600006938 ] ] ] } },
{ "type": "Feature", "properties": { "LAYER": "Sal Ters", "GM_TYPE": "Unknown Line Type", "ELEVATION": 0 }, "geometry": { "type": "MultiLineString", "coordinates": [ [ [ 761614.480501523939893, 8978613.697697296738625 ], [ 761436.219144467147999, 8978513.517858589068055 ], [ 761469.002091686241329, 8978291.271909486502409 ] ] ] } },
{ "type": "Feature", "properties": { "LAYER": "Sal Ters", "GM_TYPE": "Unknown Line Type", "ELEVATION": 0 }, "geometry": { "type": "MultiLineString", "coordinates": [ [ [ 761631.07901100278832, 8979404.569338010624051 ], [ 761494.586765850312077, 8979334.816831609234214 ], [ 761419.407488116412424, 8979302.561987435445189 ] ] ] } },
{ "type": "Feature", "properties": { "LAYER": "Sal Ters", "GM_TYPE": "Unknown Line Type", "ELEVATION": 0 }, "geometry": { "type": "MultiLineString", "coordinates": [ [ [ 763666.235036858008243, 8979862.554721960797906 ], [ 763660.423687734990381, 8979861.31070327013731 ], [ 763655.756028670002706, 8979858.665618840605021 ], [ 763559.116223365883343, 8979668.464684849604964 ], [ 763540.847611092962325, 8979634.84141257032752 ], [ 763527.612375659053214, 8979611.040098439902067 ], [ 763509.921741712023504, 8979577.408213309943676 ], [ 763473.927509665954858, 8979515.113309180364013 ], [ 763406.881806534016505, 8979420.832331629469991 ], [ 763385.17331510502845, 8979393.344255590811372 ], [ 763337.359909475897439, 8979331.959949290379882 ], [ 763322.526006134110503, 8979314.190961269661784 ], [ 763295.740474501973949, 8979281.995994230732322 ], [ 763289.570386027917266, 8979276.050202989950776 ], [ 763271.676955752074718, 8979256.351120630279183 ], [ 763267.281683209119365, 8979250.004827849566936 ], [ 763258.881622619112022, 8979239.101655809208751 ], [ 763236.922745654010214, 8979213.932372169569135 ], [ 763228.18368680588901, 8979200.567226620391011 ], [ 763208.788764295983128, 8979175.550075110048056 ], [ 763198.164190580020659, 8979161.025130039080977 ], [ 763174.549980583018623, 8979132.558090010657907 ], [ 763153.1768298659008, 8979101.461766859516501 ], [ 763144.155291834962554, 8979092.633853169158101 ], [ 763113.120408757939003, 8979056.26108692958951 ], [ 763099.873244060901925, 8979043.500213699415326 ], [ 763095.788288790965453, 8979039.878187350928783 ], [ 763066.301729044062085, 8979020.946941079571843 ], [ 763042.088698875973932, 8979007.940654810518026 ], [ 763018.420252674957737, 8978987.333436379209161 ], [ 762971.852862972998992, 8978958.437740560621023 ], [ 762945.431341014103964, 8978939.609530080109835 ], [ 762942.393646834068932, 8978938.012602429836988 ], [ 762897.41116013401188, 8978905.250767290592194 ], [ 762875.87703693297226, 8978894.126865910366178 ], [ 762848.57705206098035, 8978882.598804140463471 ], [ 762847.70233326498419, 8978882.354888789355755 ], [ 762818.813123380881734, 8978871.156563589349389 ], [ 762788.807834904058836, 8978859.752101801335812 ], [ 762769.337709557032213, 8978842.340988539159298 ], [ 762750.957022984046489, 8978822.452815420925617 ], [ 762743.05954289669171, 8978810.794402595609426 ], [ 762731.431744999368675, 8978802.298069098964334 ], [ 762711.653965401812457, 8978785.586028875783086 ], [ 762697.323104486451484, 8978780.481131179258227 ], [ 762669.400512645835988, 8978772.260671069845557 ], [ 762656.602165418327786, 8978770.026964632794261 ], [ 762650.582521392614581, 8978767.967696836218238 ] ] ] } },
{ "type": "Feature", "properties": { "LAYER": "Sal Ters", "GM_TYPE": "Unknown Line Type", "ELEVATION": 0 }, "geometry": { "type": "MultiLineString", "coordinates": [ [ [ 763572.720148915075697, 8979268.361063344404101 ], [ 763638.353830872219987, 8979048.445650715380907 ] ] ] } },
{ "type": "Feature", "properties": { "LAYER": "Sal Ters", "GM_TYPE": "Unknown Line Type", "ELEVATION": 0 }, "geometry": { "type": "MultiLineString", "coordinates": [ [ [ 763808.974068145034835, 8979434.304631184786558 ], [ 763799.161153043736704, 8979433.484587216749787 ] ] ] } },
{ "type": "Feature", "properties": { "LAYER": "Sal Ters", "GM_TYPE": "Unknown Line Type", "ELEVATION": 0 }, "geometry": { "type": "MultiLineString", "coordinates": [ [ [ 763626.192917924956419, 8982785.839679935947061 ], [ 763628.037385523552075, 8982785.950021358206868 ], [ 763630.064869223395362, 8982785.926957009360194 ], [ 763630.300458166166209, 8982785.142339911311865 ], [ 763630.496757481014356, 8982784.35772281140089 ], [ 763630.339747793972492, 8982783.376944284886122 ], [ 763629.303979940596037, 8982781.487270163372159 ], [ 763627.395258070435375, 8982779.555330479517579 ], [ 763626.430925904074684, 8982778.1639149710536 ], [ 763626.183597286464646, 8982777.546047050505877 ] ] ] } },
{ "type": "Feature", "properties": { "LAYER": "Sal Ters", "GM_TYPE": "Unknown Line Type", "ELEVATION": 0 }, "geometry": { "type": "MultiLineString", "coordinates": [ [ [ 763857.192150181392208, 8981605.009462669491768 ], [ 763860.093982381862588, 8981603.981808295473456 ], [ 763861.242765062954277, 8981603.574978588148952 ], [ 763861.590113551472314, 8981602.411000229418278 ], [ 763861.263493715901859, 8981601.344946565106511 ], [ 763859.848491222015582, 8981597.262336954474449 ], [ 763858.958502878900617, 8981595.097611621022224 ] ] ] } },
{ "type": "Feature", "properties": { "LAYER": "Sal Ters", "GM_TYPE": "Unknown Line Type", "ELEVATION": 0 }, "geometry": { "type": "MultiLineString", "coordinates": [ [ [ 764014.583369247964583, 8980915.963292775675654 ], [ 764018.724147585453466, 8980916.689316473901272 ] ] ] } },
{ "type": "Feature", "properties": { "LAYER": "Sal Ters", "GM_TYPE": "Unknown Line Type", "ELEVATION": 0 }, "geometry": { "type": "MultiLineString", "coordinates": [ [ [ 764021.58353079482913, 8980914.857132576406002 ], [ 764021.925379876745865, 8980911.677362130954862 ], [ 764019.862376765930094, 8980908.147028731182218 ], [ 764018.081048537511379, 8980905.937315307557583 ], [ 764016.775661266758107, 8980903.066627364605665 ] ] ] } },
{ "type": "Feature", "properties": { "LAYER": "Sal Ters", "GM_TYPE": "Unknown Line Type", "ELEVATION": 0 }, "geometry": { "type": "MultiLineString", "coordinates": [ [ [ 763844.397358496440575, 8981599.589550126343966 ], [ 763848.599473708076403, 8981603.183593591675162 ] ] ] } },
{ "type": "Feature", "properties": { "LAYER": "Sal Ters", "GM_TYPE": "Unknown Line Type", "ELEVATION": 0 }, "geometry": { "type": "MultiLineString", "coordinates": [ [ [ 764005.08815701934509, 8980912.919841086491942 ], [ 764001.734659364912659, 8980912.21714011952281 ] ] ] } },
{ "type": "Feature", "properties": { "LAYER": "Sal Ters", "GM_TYPE": "Unknown Line Type", "ELEVATION": 0 }, "geometry": { "type": "MultiLineString", "coordinates": [ [ [ 763999.381948852795176, 8980907.714485881850123 ], [ 764002.041355616180226, 8980901.893585527315736 ], [ 764006.736565360566601, 8980898.129546746611595 ], [ 764010.457562857191078, 8980894.854211134836078 ] ] ] } },
{ "type": "Feature", "properties": { "LAYER": "Sal Ters", "GM_TYPE": "Unknown Line Type", "ELEVATION": 0 }, "geometry": { "type": "MultiLineString", "coordinates": [ [ [ 764958.527837431058288, 8980791.326060557737947 ], [ 764956.205544918309897, 8980790.472148489207029 ], [ 764955.730447991634719, 8980788.625941794365644 ], [ 764956.336828400148079, 8980785.185881245881319 ], [ 764957.57209968904499, 8980781.523925138637424 ], [ 764958.876545098493807, 8980779.207961184903979 ], [ 764959.564474106184207, 8980777.785468272864819 ], [ 764952.869145494070835, 8980749.581175515428185 ], [ 764947.082725878688507, 8980720.337755953893065 ], [ 764947.497308506048284, 8980696.053028317168355 ], [ 764966.577514482662082, 8980614.362052055075765 ], [ 764972.028947800397873, 8980536.755640344694257 ], [ 764970.666089470963925, 8980391.073400774970651 ], [ 764966.577514482662082, 8980333.889725977554917 ], [ 764986.51585852552671, 8980247.759177330881357 ], [ 765002.52526209061034, 8980197.715034523978829 ], [ 765009.442315692314878, 8980157.272528642788529 ], [ 765010.234430622193031, 8980153.285527439787984 ] ] ] } },
{ "type": "Feature", "properties": { "LAYER": "Sal Ters", "GM_TYPE": "Unknown Line Type", "ELEVATION": 0 }, "geometry": { "type": "MultiLineString", "coordinates": [ [ [ 765615.813958429032937, 8979678.760689064860344 ], [ 765616.591397173469886, 8979674.847558416426182 ] ] ] } },
{ "type": "Feature", "properties": { "LAYER": "Sal Ters", "GM_TYPE": "Unknown Line Type", "ELEVATION": 0 }, "geometry": { "type": "MultiLineString", "coordinates": [ [ [ 765293.753232063609175, 8980059.394616542384028 ], [ 765296.75960574822966, 8980056.359935790300369 ], [ 765301.310207834583707, 8980054.862126672640443 ], [ 765306.556762179825455, 8980052.615441612899303 ], [ 765308.673038727720268, 8980051.068913750350475 ] ] ] } },
{ "type": "Feature", "properties": { "LAYER": "Sal Ters", "GM_TYPE": "Unknown Line Type", "ELEVATION": 0 }, "geometry": { "type": "MultiLineString", "coordinates": [ [ [ 765527.065859937807545, 8979051.004613934084773 ], [ 765527.843298682244495, 8979047.091483285650611 ] ] ] } },
{ "type": "Feature", "properties": { "LAYER": "Sal Ters", "GM_TYPE": "Unknown Line Type", "ELEVATION": 0 }, "geometry": { "type": "MultiLineString", "coordinates": [ [ [ 765156.999161358457059, 8978969.314441090449691 ], [ 765157.776600102894008, 8978965.401310442015529 ] ] ] } },
{ "type": "Feature", "properties": { "LAYER": "Sal Ters", "GM_TYPE": "Unknown Line Type", "ELEVATION": 0 }, "geometry": { "type": "MultiLineString", "coordinates": [ [ [ 765136.09320503694471, 8979144.474177336320281 ], [ 765136.870643781381659, 8979140.561046687886119 ] ] ] } },
{ "type": "Feature", "properties": { "LAYER": "Sal Ters", "GM_TYPE": "Unknown Line Type", "ELEVATION": 0 }, "geometry": { "type": "MultiLineString", "coordinates": [ [ [ 765115.923031874117441, 8979313.469183204695582 ], [ 765116.700470618554391, 8979309.55605255626142 ] ] ] } },
{ "type": "Feature", "properties": { "LAYER": "Sal Ters", "GM_TYPE": "Unknown Line Type", "ELEVATION": 0 }, "geometry": { "type": "MultiLineString", "coordinates": [ [ [ 765428.921647721668705, 8979426.897851979359984 ], [ 765430.180881698383018, 8979424.141809867694974 ], [ 765432.084345108247362, 8979423.08843301050365 ], [ 765435.75112900044769, 8979422.224349787458777 ], [ 765438.153054759604856, 8979421.372714443132281 ], [ 765439.007849782705307, 8979420.724687246605754 ] ] ] } },
{ "type": "Feature", "properties": { "LAYER": "Sal Ters", "GM_TYPE": "Unknown Line Type", "ELEVATION": 0 }, "geometry": { "type": "MultiLineString", "coordinates": [ [ [ 765451.426063236664049, 8979430.67822427302599 ], [ 765450.998233052901924, 8979423.235003227367997 ], [ 765450.114315642509609, 8979417.447711689397693 ], [ 765449.461188102373853, 8979411.284030066803098 ] ] ] } },
{ "type": "Feature", "properties": { "LAYER": "Sal Ters", "GM_TYPE": "Unknown Line Type", "ELEVATION": 0 }, "geometry": { "type": "MultiLineString", "coordinates": [ [ [ 765554.62592611159198, 8978588.955772183835506 ], [ 765554.308077121037059, 8978585.248632265254855 ], [ 765552.645510722300969, 8978583.301011113449931 ], [ 765551.132045443519019, 8978581.528055163100362 ], [ 765549.721657974994741, 8978579.692155912518501 ], [ 765548.778919984470122, 8978577.755991563200951 ] ] ] } },
{ "type": "Feature", "properties": { "LAYER": "Sal Ters", "GM_TYPE": "Unknown Line Type", "ELEVATION": 0 }, "geometry": { "type": "MultiLineString", "coordinates": [ [ [ 765655.072070832015015, 8978275.13941565901041 ], [ 765654.411897478159517, 8978272.506935622543097 ], [ 765653.752346595516428, 8978269.876937726512551 ], [ 765653.53497481206432, 8978267.478506948798895 ], [ 765653.284977010800503, 8978264.720088116824627 ] ] ] } },
{ "type": "Feature", "properties": { "LAYER": "Sal Ters", "GM_TYPE": "Unknown Line Type", "ELEVATION": 0 }, "geometry": { "type": "MultiLineString", "coordinates": [ [ [ 765768.152558085275814, 8977922.229458345100284 ], [ 765767.996326486114413, 8977919.042183624580503 ], [ 765767.064289203146473, 8977916.052288552746177 ], [ 765765.985011317883618, 8977912.590058350935578 ] ] ] } },
{ "type": "Feature", "properties": { "LAYER": "Sal Ters", "GM_TYPE": "Unknown Line Type", "ELEVATION": 0 }, "geometry": { "type": "MultiLineString", "coordinates": [ [ [ 765867.44355679594446, 8977499.725762227550149 ], [ 765867.574201597599313, 8977496.220044381916523 ], [ 765867.102279590442777, 8977494.517374627292156 ], [ 765866.609544701175764, 8977492.803188282996416 ] ] ] } },
{ "type": "Feature", "properties": { "LAYER": "Sal Ters", "GM_TYPE": "Unknown Line Type", "ELEVATION": -19 }, "geometry": { "type": "MultiLineString", "coordinates": [ [ [ 765977.457992010284215, 8977059.977538459002972 ], [ 765977.138984184479341, 8977055.366849632933736 ], [ 765976.452606291859411, 8977049.263553623110056 ], [ 765976.987135102739558, 8977042.848557705059648 ] ] ] } },
{ "type": "Feature", "properties": { "LAYER": "Sal Ters", "GM_TYPE": "Unknown Line Type", "ELEVATION": 0 }, "geometry": { "type": "MultiLineString", "coordinates": [ [ [ 765541.452868765220046, 8978587.31762664578855 ], [ 765538.7002724573249, 8978585.628135237842798 ], [ 765537.562425788142718, 8978584.929746532812715 ], [ 765533.884316558716819, 8978585.107899675145745 ], [ 765530.95366565650329, 8978586.47080921754241 ] ] ] } },
{ "type": "Feature", "properties": { "LAYER": "Sal Ters", "GM_TYPE": "Unknown Line Type", "ELEVATION": 0 }, "geometry": { "type": "MultiLineString", "coordinates": [ [ [ 765528.298741945996881, 8978584.135990146547556 ], [ 765528.643963227863424, 8978580.110175773501396 ], [ 765531.409466868964955, 8978578.010089546442032 ], [ 765535.059929691022262, 8978575.246831748634577 ], [ 765538.046685529407114, 8978570.936145007610321 ], [ 765540.823652361403219, 8978566.36608299985528 ] ] ] } },
{ "type": "Feature", "properties": { "LAYER": "Sal Ters", "GM_TYPE": "Unknown Line Type", "ELEVATION": 0 }, "geometry": { "type": "MultiLineString", "coordinates": [ [ [ 765632.847830671817064, 8978274.359730832278728 ], [ 765634.259642134536989, 8978269.105001397430897 ], [ 765636.710828752839006, 8978267.018679378554225 ], [ 765643.885104876826517, 8978262.291575260460377 ], [ 765646.868559343856759, 8978258.912160199135542 ] ] ] } },
{ "type": "Feature", "properties": { "LAYER": "Sal Ters", "GM_TYPE": "Unknown Line Type", "ELEVATION": 0 }, "geometry": { "type": "MultiLineString", "coordinates": [ [ [ 765748.807771145482548, 8977923.371576242148876 ], [ 765750.000089470762759, 8977920.169074514880776 ], [ 765752.624805278726853, 8977917.334477486088872 ], [ 765755.903455271502025, 8977915.291765972971916 ], [ 765757.530395506531931, 8977913.542308483272791 ] ] ] } },
{ "type": "Feature", "properties": { "LAYER": "Sal Ters", "GM_TYPE": "Unknown Line Type", "ELEVATION": 0 }, "geometry": { "type": "MultiLineString", "coordinates": [ [ [ 765848.05138990690466, 8977500.036356864497066 ], [ 765849.257248112582602, 8977493.714758178219199 ], [ 765853.762210732209496, 8977489.727315710857511 ], [ 765856.958904921892099, 8977486.897850686684251 ], [ 765860.577945832978003, 8977483.694557199254632 ] ] ] } },
{ "type": "Feature", "properties": { "LAYER": "Sal Ters", "GM_TYPE": "Unknown Line Type", "ELEVATION": 0 }, "geometry": { "type": "MultiLineString", "coordinates": [ [ [ 765957.518249055487104, 8977060.45174353942275 ], [ 765958.930523649090901, 8977056.247329721227288 ], [ 765961.934245463111438, 8977054.305345885455608 ], [ 765964.290134890703484, 8977052.363362049683928 ], [ 765966.951133906724863, 8977050.247421238571405 ] ] ] } },
{ "type": "Feature", "properties": { "LAYER": "Sal Ters", "GM_TYPE": "Unknown Line Type", "ELEVATION": 0 }, "geometry": { "type": "MultiLineString", "coordinates": [ [ [ 766067.603996940306388, 8976628.571764901280403 ], [ 766062.862067938316613, 8976627.257094640284777 ] ] ] } },
{ "type": "Feature", "properties": { "LAYER": "Sal Ters", "GM_TYPE": "Unknown Line Type", "ELEVATION": 0 }, "geometry": { "type": "MultiLineString", "coordinates": [ [ [ 766061.391494023380801, 8976624.572896882891655 ], [ 766063.600423824740574, 8976618.090059751644731 ], [ 766063.378973194980063, 8976613.149023782461882 ], [ 766060.86942296475172, 8976604.797295549884439 ] ] ] } },
{ "type": "Feature", "properties": { "LAYER": "Sal Ters", "GM_TYPE": "Unknown Line Type", "ELEVATION": 0 }, "geometry": { "type": "MultiLineString", "coordinates": [ [ [ 764496.367423017625697, 8977730.527901355177164 ], [ 764499.529847988975234, 8977722.990153243765235 ], [ 764503.277840367052704, 8977720.55923955142498 ], [ 764506.603270813124254, 8977718.885786546394229 ], [ 764509.030695143970661, 8977717.101046627387404 ], [ 764510.019008002476767, 8977715.855647906661034 ] ] ] } },
{ "type": "Feature", "properties": { "LAYER": "Sal Ters", "GM_TYPE": "Unknown Line Type", "ELEVATION": 0 }, "geometry": { "type": "MultiLineString", "coordinates": [ [ [ 764392.518443305976689, 8978148.42974791303277 ], [ 764393.309297324274667, 8978145.68970232643187 ], [ 764394.448597315698862, 8978144.884510453790426 ], [ 764396.449292632867582, 8978143.996017938479781 ], [ 764397.671983867301606, 8978143.301912669092417 ], [ 764399.618700626888312, 8978141.914007846266031 ] ] ] } },
{ "type": "Feature", "properties": { "LAYER": "Sal Ters", "GM_TYPE": "Unknown Line Type", "ELEVATION": 0 }, "geometry": { "type": "MultiLineString", "coordinates": [ [ [ 764637.035524527658708, 8977296.501353155821562 ], [ 764638.444925134535879, 8977293.841800773516297 ], [ 764640.485604593181051, 8977293.175967933610082 ], [ 764643.234340691124089, 8977292.343705497682095 ], [ 764645.461935422499664, 8977291.557807508856058 ] ] ] } },
{ "type": "Feature", "properties": { "LAYER": "Sal Ters", "GM_TYPE": "Unknown Line Type", "ELEVATION": 0 }, "geometry": { "type": "MultiLineString", "coordinates": [ [ [ 764260.908536480972543, 8978690.758030574768782 ], [ 764262.306714676436968, 8978686.153069609776139 ], [ 764264.066661806893535, 8978684.929772028699517 ], [ 764266.515268803224899, 8978684.088753154501319 ], [ 764268.351761256461032, 8978683.477090056985617 ], [ 764270.283140241284855, 8978683.042226681485772 ] ] ] } },
{ "type": "Feature", "properties": { "LAYER": "Sal Ters", "GM_TYPE": "Unknown Line Type", "ELEVATION": 0 }, "geometry": { "type": "MultiLineString", "coordinates": [ [ [ 763153.72118793532718, 8978833.803638124838471 ], [ 763154.833603771170601, 8978832.035906059667468 ], [ 763156.534070770489052, 8978831.469541801139712 ], [ 763158.13145210489165, 8978830.748737975955009 ], [ 763159.924434826476499, 8978829.97274942137301 ] ] ] } },
{ "type": "Feature", "properties": { "LAYER": "Sal Ters", "GM_TYPE": "Unknown Line Type", "ELEVATION": 0 }, "geometry": { "type": "MultiLineString", "coordinates": [ [ [ 763398.530500399530865, 8978121.613528527319431 ], [ 763400.428652343456633, 8978118.489309050142765 ], [ 763403.128326014732011, 8978117.179105231538415 ], [ 763405.903626711340621, 8978115.773917205631733 ] ] ] } },
{ "type": "Feature", "properties": { "LAYER": "Sal Ters", "GM_TYPE": "Unknown Line Type", "ELEVATION": 0 }, "geometry": { "type": "MultiLineString", "coordinates": [ [ [ 763619.671380358864553, 8977480.136065449565649 ], [ 763620.958555414807051, 8977476.266893034800887 ], [ 763623.091208320460282, 8977475.26061781309545 ], [ 763624.986883256118745, 8977473.840014170855284 ], [ 763627.842292122426443, 8977471.594686783850193 ] ] ] } },
{ "type": "Feature", "properties": { "LAYER": "Sal Ters", "GM_TYPE": "Unknown Line Type", "ELEVATION": 0 }, "geometry": { "type": "MultiLineString", "coordinates": [ [ [ 761472.118874560110271, 8979034.810670463368297 ], [ 761472.637670423951931, 8979030.872169630602002 ], [ 761473.386653758818284, 8979027.712210757657886 ], [ 761474.414583529927768, 8979025.53469012863934 ], [ 761475.1603056617314, 8979022.459084555506706 ] ] ] } },
{ "type": "Feature", "properties": { "LAYER": "Sal Ters", "GM_TYPE": "Unknown Line Type", "ELEVATION": 0 }, "geometry": { "type": "MultiLineString", "coordinates": [ [ [ 761473.426077257841825, 8979038.095669871196151 ], [ 761477.044969197595492, 8979039.205077089369297 ] ] ] } },
{ "type": "Feature", "properties": { "LAYER": "Sal Ters", "GM_TYPE": "Unknown Line Type", "ELEVATION": 0 }, "geometry": { "type": "MultiLineString", "coordinates": [ [ [ 761493.247119762352668, 8979045.358553702011704 ], [ 761495.763386630802415, 8979038.866198547184467 ], [ 761495.368902892572805, 8979036.498897816985846 ], [ 761491.317160020582378, 8979031.60447701625526 ], [ 761486.65900753880851, 8979025.41567694209516 ], [ 761482.965084679774009, 8979020.61160834133625 ] ] ] } },
{ "type": "Feature", "properties": { "LAYER": "Sal Ters", "GM_TYPE": "Unknown Line Type", "ELEVATION": 0 }, "geometry": { "type": "MultiLineString", "coordinates": [ [ [ 761486.498057940043509, 8979041.948386069387197 ], [ 761490.654649034608155, 8979043.73857125453651 ] ] ] } },
{ "type": "Feature", "properties": { "LAYER": "Sal Ters", "GM_TYPE": "Unknown Line Type", "ELEVATION": 0 }, "geometry": { "type": "MultiLineString", "coordinates": [ [ [ 762060.715190638322383, 8977616.413107823580503 ], [ 762064.003569301799871, 8977611.655422134324908 ], [ 762066.791396595188417, 8977608.746681520715356 ], [ 762067.470409743720666, 8977606.934994995594025 ] ] ] } },
{ "type": "Feature", "properties": { "LAYER": "Sal Ters", "GM_TYPE": "Unknown Line Type", "ELEVATION": 24 }, "geometry": { "type": "MultiLineString", "coordinates": [ [ [ 761847.613163741421886, 8978378.38291765935719 ], [ 761848.562714807572775, 8978373.82075085118413 ], [ 761848.562714807572775, 8978368.830352598801255 ], [ 761848.811846766038798, 8978365.805317303165793 ], [ 761849.284939878736623, 8978363.664280410856009 ] ] ] } },
{ "type": "Feature", "properties": { "LAYER": "Sal Ters", "GM_TYPE": "Unknown Line Type", "ELEVATION": 48 }, "geometry": { "type": "MultiLineString", "coordinates": [ [ [ 761828.161436097347178, 8978369.630402246490121 ], [ 761830.84577148524113, 8978365.2711172234267 ], [ 761833.120105170062743, 8978364.242092426866293 ], [ 761835.866410470334813, 8978363.556056819856167 ], [ 761838.741498439689167, 8978362.784288223832846 ], [ 761841.452878555515781, 8978361.31141771376133 ] ] ] } },
{ "type": "Feature", "properties": { "LAYER": "Sal Ters", "GM_TYPE": "Unknown Line Type", "ELEVATION": 0 }, "geometry": { "type": "MultiLineString", "coordinates": [ [ [ 760304.582757195457816, 8976472.976529425010085 ], [ 760308.66118885949254, 8976473.420753808692098 ], [ 760311.825945898890495, 8976473.894993355497718 ], [ 760314.209552233456634, 8976474.045336930081248 ] ] ] } },
{ "type": "Feature", "properties": { "LAYER": "Sal Ters", "GM_TYPE": "Unknown Line Type", "ELEVATION": 0 }, "geometry": { "type": "MultiLineString", "coordinates": [ [ [ 761251.891203012317419, 8976264.797374844551086 ], [ 761254.102560440078378, 8976265.277617422863841 ], [ 761256.737651029601693, 8976266.003984320908785 ], [ 761258.220717089250684, 8976265.871917612850666 ], [ 761259.544883213937283, 8976265.391675034537911 ], [ 761260.222666217945516, 8976265.027118485420942 ], [ 761639.926904669613577, 8976181.132823275402188 ] ] ] } },
{ "type": "Feature", "properties": { "LAYER": "Sal Ters", "GM_TYPE": "Unknown Line Type", "ELEVATION": 0 }, "geometry": { "type": "MultiLineString", "coordinates": [ [ [ 761255.506176533177495, 8976273.597820088267326 ], [ 761259.094666730612516, 8976283.526835391297936 ], [ 761259.425708262249827, 8976292.05114115215838 ], [ 761260.41883285716176, 8976296.511394096538424 ], [ 761261.162846240215003, 8976299.604210946708918 ], [ 761350.604048400768079, 8976427.212007626891136 ] ] ] } },
{ "type": "Feature", "properties": { "LAYER": "Sal Ters", "GM_TYPE": "Unknown Line Type", "ELEVATION": 0 }, "geometry": { "type": "MultiLineString", "coordinates": [ [ [ 760305.800990030169487, 8976489.803028754889965 ], [ 760308.700913842767477, 8976488.512376826256514 ], [ 760310.303154854103923, 8976486.855539930984378 ], [ 760311.230071142315865, 8976485.516863744705915 ], [ 760312.209954073652625, 8976484.274236073717475 ], [ 760313.295770296826959, 8976483.44581762701273 ] ] ] } },
{ "type": "Feature", "properties": { "LAYER": "Sal Ters", "GM_TYPE": "Unknown Line Type", "ELEVATION": 0 }, "geometry": { "type": "MultiLineString", "coordinates": [ [ [ 759772.678466448560357, 8976590.533909514546394 ], [ 759777.273322900757194, 8976591.776537185534835 ], [ 759781.815212709829211, 8976592.695001116022468 ], [ 759784.463544961065054, 8976591.884591765701771 ], [ 759786.039302648976445, 8976590.695991383865476 ] ] ] } },
{ "type": "Feature", "properties": { "LAYER": "Sal Ters", "GM_TYPE": "Unknown Line Type", "ELEVATION": 0 }, "geometry": { "type": "MultiLineString", "coordinates": [ [ [ 759511.171214887173846, 8977278.065908128395677 ], [ 759512.598997838795185, 8977275.635965386405587 ], [ 759515.379746701568365, 8977272.046152114868164 ], [ 759518.186978885903955, 8977268.600411616265774 ], [ 759520.411577977240086, 8977266.913559561595321 ], [ 759523.892129346728325, 8977264.931510427966714 ] ] ] } },
{ "type": "Feature", "properties": { "LAYER": "Sal Ters", "GM_TYPE": "Unknown Line Type", "ELEVATION": 0 }, "geometry": { "type": "MultiLineString", "coordinates": [ [ [ 760042.43758943118155, 8978221.941959492862225 ], [ 760044.569496892392635, 8978219.678816344588995 ], [ 760043.933897152543068, 8978218.72433421947062 ], [ 760042.027097931131721, 8978218.045991577208042 ], [ 760038.412124410271645, 8978217.547739902511239 ], [ 760036.094833692535758, 8978217.187557969242334 ] ] ] } },
{ "type": "Feature", "properties": { "LAYER": "Sal Ters", "GM_TYPE": "Unknown Line Type", "ELEVATION": 0 }, "geometry": { "type": "MultiLineString", "coordinates": [ [ [ 759766.48136898316443, 8976603.584501573815942 ], [ 759773.141924591735005, 8976607.65455742366612 ], [ 759779.934896813705564, 8976608.062763614580035 ], [ 759784.423819975927472, 8976606.435941882431507 ], [ 759787.138360532000661, 8976603.854638025164604 ], [ 759790.130975974723697, 8976600.733061267063022 ], [ 759794.202575791045092, 8976598.156081395223737 ] ] ] } },
{ "type": "Feature", "properties": { "LAYER": "Sal Ters", "GM_TYPE": "Unknown Line Type", "ELEVATION": 0 }, "geometry": { "type": "MultiLineString", "coordinates": [ [ [ 763438.499027209472843, 8981448.951238779351115 ], [ 763439.337449028040282, 8981446.635794021189213 ], [ 763440.767541940207593, 8981444.123085396364331 ], [ 763443.067895473795943, 8981442.578653672710061 ], [ 763444.434310779324733, 8981441.50633211247623 ], [ 763445.116749111330137, 8981440.482433101162314 ] ] ] } },
{ "type": "Feature", "properties": { "LAYER": "Sal Ters", "GM_TYPE": "Unknown Line Type", "ELEVATION": 0 }, "geometry": { "type": "MultiLineString", "coordinates": [ [ [ 763459.935828104498796, 8981458.832474462687969 ], [ 763462.254754273337312, 8981449.259764274582267 ], [ 763461.0342668161029, 8981443.470550965517759 ], [ 763458.335589458118193, 8981430.669748479500413 ], [ 763456.555417795083486, 8981425.393549047410488 ] ] ] } },
{ "type": "Feature", "properties": { "LAYER": "Sal Ters", "GM_TYPE": "Unknown Line Type", "ELEVATION": 0 }, "geometry": { "type": "MultiLineString", "coordinates": [ [ [ 761415.753337299916893, 8979559.206288352608681 ], [ 761417.743041129782796, 8979556.13234749250114 ], [ 761417.624640756752342, 8979552.998184621334076 ], [ 761417.92497341055423, 8979549.621824534609914 ], [ 761415.876299319672398, 8979547.091955456882715 ], [ 761413.04569883889053, 8979545.020735228434205 ] ] ] } },
{ "type": "Feature", "properties": { "LAYER": "Sal Ters", "GM_TYPE": "Unknown Line Type", "ELEVATION": 0 }, "geometry": { "type": "MultiLineString", "coordinates": [ [ [ 766072.445843579014763, 8976629.819371059536934 ], [ 766071.198207361390814, 8976614.670151898637414 ] ] ] } },
{ "type": "Feature", "properties": { "LAYER": "Sal Ters", "GM_TYPE": "Unknown Line Type", "ELEVATION": 0 }, "geometry": { "type": "MultiLineString", "coordinates": [ [ [ 766074.462988593732007, 8976620.529404582455754 ], [ 766078.458118295879103, 8976620.239205840975046 ], [ 766080.49200250802096, 8976621.835641944780946 ], [ 766082.380609276355244, 8976623.722276791930199 ], [ 766084.995603263261728, 8976625.02851415425539 ], [ 766087.536445221514441, 8976625.753667984157801 ], [ 766089.573183099040762, 8976626.034252999350429 ] ] ] } },
{ "type": "Feature", "properties": { "LAYER": "Sal Ters", "GM_TYPE": "Unknown Line Type", "ELEVATION": 0 }, "geometry": { "type": "MultiLineString", "coordinates": [ [ [ 764968.085203838301823, 8980793.382856957614422 ], [ 765019.100852687493898, 8980796.821378586813807 ] ] ] } },
{ "type": "Feature", "properties": { "LAYER": "Sal Ters", "GM_TYPE": "Unknown Line Type", "ELEVATION": 0 }, "geometry": { "type": "MultiLineString", "coordinates": [ [ [ 765014.261715105269104, 8980800.243420071899891 ], [ 765015.039153849706054, 8980796.330289423465729 ] ] ] } },
{ "type": "Feature", "properties": { "LAYER": "Sal Ters", "GM_TYPE": "Unknown Line Type", "ELEVATION": 0 }, "geometry": { "type": "MultiLineString", "coordinates": [ [ [ 763923.093563573318534, 8980084.976813351735473 ], [ 764227.702671190374531, 8979961.477302649989724 ], [ 764236.65817244281061, 8979950.621284214779735 ], [ 764238.00632589077577, 8979940.144413620233536 ], [ 764232.477816356229596, 8979929.559084869921207 ], [ 764029.677407828276046, 8979848.207656452432275 ], [ 764204.6679295146605, 8979585.968074141070247 ], [ 764144.311789230792783, 8979524.566732712090015 ], [ 764223.245399682666175, 8979358.892661118879914 ], [ 764442.970352833392099, 8979414.581267885863781 ], [ 764466.359095410793088, 8979319.242387056350708 ], [ 764473.255043767741881, 8979291.161640182137489 ] ] ] } },
{ "type": "Feature", "properties": { "LAYER": "Sal Ters", "GM_TYPE": "Unknown Line Type", "ELEVATION": 29 }, "geometry": { "type": "MultiLineString", "coordinates": [ [ [ 763896.625278285355307, 8979141.60930684953928 ], [ 763823.129338201950304, 8979424.14845865778625 ], [ 763821.995594429783523, 8979427.209538970142603 ], [ 763819.283252948545851, 8979430.046098839491606 ], [ 763818.285609990940429, 8979431.375999541953206 ] ] ] } },
{ "type": "Feature", "properties": { "LAYER": "Sal Ters", "GM_TYPE": "Unknown Line Type", "ELEVATION": 0 }, "geometry": { "type": "MultiLineString", "coordinates": [ [ [ 766223.655179341440089, 8979211.691033646464348 ], [ 766222.908675038139336, 8979215.42936883866787 ], [ 766189.919910741504282, 8979317.808419331908226 ], [ 766163.898166262195446, 8979377.920001678168774 ], [ 766137.573266769992188, 8979437.315004032105207 ], [ 766103.605525945546106, 8979482.285497887060046 ], [ 766052.765617167460732, 8979495.504025982692838 ], [ 765816.078164699720219, 8979471.489171477034688 ], [ 765710.092172948643565, 8979473.183250958099961 ], [ 765638.402756809373386, 8979456.331918926909566 ], [ 765583.075375256477855, 8979441.025731852278113 ], [ 765519.637785486760549, 8979428.815680766478181 ], [ 765458.26517457573209, 8979432.983213670551777 ], [ 765445.274153908598237, 8979432.792971292510629 ] ] ] } },
{ "type": "Feature", "properties": { "LAYER": "Sal Ters", "GM_TYPE": "Unknown Line Type", "ELEVATION": 0 }, "geometry": { "type": "MultiLineString", "coordinates": [ [ [ 760989.734417850268073, 8977461.198377322405577 ], [ 760675.885701760300435, 8977103.562299057841301 ], [ 760767.769633223302662, 8976997.213025901466608 ], [ 760847.246377628180198, 8976915.475756786763668 ], [ 760928.910651696380228, 8976881.723276564851403 ] ] ] } },
{ "type": "Feature", "properties": { "LAYER": "Sal Ters", "GM_TYPE": "Unknown Line Type", "ELEVATION": 0 }, "geometry": { "type": "MultiLineString", "coordinates": [ [ [ 763666.235036858008243, 8979862.554721960797906 ], [ 763670.6424216828309, 8979864.126837784424424 ], [ 763675.117601432837546, 8979871.502195896580815 ], [ 763690.11016882956028, 8979892.284240085631609 ], [ 763697.686808937229216, 8979902.461494088172913 ], [ 763708.137363189249299, 8979906.897720461711287 ], [ 763714.806866984814405, 8979909.017549280077219 ], [ 763717.777396422927268, 8979911.984585100784898 ], [ 763718.501854789094068, 8979917.05020347610116 ], [ 763721.979614518233575, 8979923.201339475810528 ], [ 763729.563602390815504, 8979930.178142488002777 ], [ 763741.446892658714205, 8979933.864777181297541 ], [ 763748.018608645070344, 8979938.630434866994619 ], [ 763749.639103507855907, 8979944.654909195378423 ], [ 763752.031191868009046, 8979985.223490996286273 ], [ 763760.192995476885699, 8979990.318547358736396 ], [ 763792.432018113555387, 8979995.006040988489985 ], [ 763812.224317605607212, 8979993.987003605812788 ], [ 763822.834646663512103, 8979989.095728611573577 ], [ 763828.590135388425551, 8979991.981304101645947 ], [ 763830.023887584451586, 8979998.711800582706928 ], [ 763832.31779729668051, 8980013.604778656736016 ], [ 763830.167247170465998, 8980018.187248511239886 ], [ 763825.005911233834922, 8980026.492938408628106 ], [ 763825.292630405980162, 8980029.35697390884161 ], [ 763833.334524742676876, 8980038.921578356996179 ], [ 763838.540259940433316, 8980039.373722344636917 ], [ 763848.046470048953779, 8980035.30445908755064 ], [ 763862.192559279268607, 8980027.392037205398083 ], [ 763869.888014310970902, 8980022.644590601325035 ], [ 763874.867453978862613, 8980021.853322304785252 ], [ 763881.657570556038991, 8980024.340114239603281 ], [ 763885.165815693326294, 8980034.174131752923131 ], [ 763893.604880180908367, 8980052.956677343696356 ], [ 763896.463395285885781, 8980062.503527617082 ], [ 763900.978049730998464, 8980071.132709011435509 ], [ 763905.493016846943647, 8980072.952348686754704 ], [ 763913.407172922976315, 8980086.80172473937273 ] ] ] } },
{ "type": "Feature", "properties": { "LAYER": "Sal Ters", "GM_TYPE": "Unknown Line Type", "ELEVATION": 0 }, "geometry": { "type": "MultiLineString", "coordinates": [ [ [ 761357.076838820590638, 8979498.876022685319185 ], [ 761354.360467306338251, 8979493.619774453341961 ], [ 761354.355653623933904, 8979490.054617533460259 ], [ 761354.425607297569513, 8979488.377839904278517 ], [ 761355.3347721346654, 8979485.164018988609314 ], [ 761359.950705273775384, 8979479.295314526185393 ], [ 761363.073309934930876, 8979471.964192919433117 ], [ 761372.021246596588753, 8979454.623202346265316 ], [ 761378.250539711327292, 8979442.684433890506625 ], [ 761380.514756119810045, 8979431.658007927238941 ], [ 761382.495896952226758, 8979420.914326749742031 ], [ 761383.344968400429934, 8979414.128831196576357 ], [ 761382.560105263139121, 8979376.253478905186057 ], [ 761385.058639304246753, 8979360.564505532383919 ], [ 761387.20026209380012, 8979350.580603981390595 ], [ 761389.341884883353487, 8979344.875497676432133 ], [ 761392.91123031929601, 8979333.821897312998772 ], [ 761396.123664503684267, 8979323.124874716624618 ], [ 761402.191621620790102, 8979315.993526319041848 ], [ 761407.902589846402407, 8979308.149022391065955 ], [ 761415.398269609897397, 8979301.017673993483186 ] ] ] } },
{ "type": "Feature", "properties": { "LAYER": "Sal Ters", "GM_TYPE": "Unknown Line Type", "ELEVATION": 0 }, "geometry": { "type": "MultiLineString", "coordinates": [ [ [ 761413.04569883889053, 8979545.020735228434205 ], [ 761357.43946511298418, 8979504.960109414532781 ], [ 761358.885288751451299, 8979501.347001478075981 ] ] ] } }
]
}
