{
"type": "FeatureCollection",
"name": "09_lo_li_box",
"crs": { "type": "name", "properties": { "name": "urn:ogc:def:crs:EPSG::32751" } },
"features": [
{ "type": "Feature", "properties": { "LAYER": "Box", "GM_TYPE": "Unknown Line Type", "ELEVATION": 0 }, "geometry": { "type": "MultiLineString", "coordinates": [ [ [ 766463.913658950477839, 8978636.335115587338805 ], [ 766463.869960062671453, 8978636.329580126330256 ] ] ] } },
{ "type": "Feature", "properties": { "LAYER": "Box", "GM_TYPE": "Unknown Line Type", "ELEVATION": 0 }, "geometry": { "type": "MultiLineString", "coordinates": [ [ [ 764900.265245355432853, 8978720.43833664432168 ], [ 764900.357418043073267, 8978720.040759226307273 ] ] ] } },
{ "type": "Feature", "properties": { "LAYER": "Box", "GM_TYPE": "Unknown Line Type", "ELEVATION": 0 }, "geometry": { "type": "MultiLineString", "coordinates": [ [ [ 764236.305239303503186, 8981698.849910642951727 ], [ 764306.646112788468599, 8981722.273559715598822 ] ] ] } },
{ "type": "Feature", "properties": { "LAYER": "Box", "GM_TYPE": "Unknown Line Type", "ELEVATION": 0 }, "geometry": { "type": "MultiLineString", "coordinates": [ [ [ 763351.940940103959292, 8982753.363166727125645 ], [ 763350.035107578616589, 8982748.740634694695473 ], [ 763354.6576396105811, 8982746.83480216935277 ], [ 763356.563472135923803, 8982751.457334201782942 ], [ 763351.940940103959292, 8982753.363166727125645 ] ] ] } },
{ "type": "Feature", "properties": { "LAYER": "Box", "GM_TYPE": "Unknown Line Type", "ELEVATION": 0 }, "geometry": { "type": "MultiLineString", "coordinates": [ [ [ 763225.635027060285211, 8982593.941890478134155 ], [ 763224.190215181559324, 8982589.155188206583261 ], [ 763228.976917453110218, 8982587.710376327857375 ], [ 763230.421729331836104, 8982592.497078599408269 ], [ 763225.635027060285211, 8982593.941890478134155 ] ] ] } },
{ "type": "Feature", "properties": { "LAYER": "Box", "GM_TYPE": "Unknown Line Type", "ELEVATION": 0 }, "geometry": { "type": "MultiLineString", "coordinates": [ [ [ 763624.635475025046617, 8982774.509728940203786 ], [ 763624.635475025046617, 8982769.509728940203786 ], [ 763629.635475025046617, 8982769.509728940203786 ], [ 763629.635475025046617, 8982774.509728940203786 ], [ 763624.635475025046617, 8982774.509728940203786 ] ] ] } },
{ "type": "Feature", "properties": { "LAYER": "Box", "GM_TYPE": "Unknown Line Type", "ELEVATION": 63 }, "geometry": { "type": "MultiLineString", "coordinates": [ [ [ 763654.200655620312318, 8982487.193883787840605 ], [ 763654.200655620312318, 8982482.193883787840605 ], [ 763659.200655620312318, 8982482.193883787840605 ], [ 763659.200655620312318, 8982487.193883787840605 ], [ 763654.200655620312318, 8982487.193883787840605 ] ] ] } },
{ "type": "Feature", "properties": { "LAYER": "Box", "GM_TYPE": "Unknown Line Type", "ELEVATION": 0 }, "geometry": { "type": "MultiLineString", "coordinates": [ [ [ 763706.719665510812774, 8982261.849395368248224 ], [ 763706.719665510812774, 8982256.849395368248224 ], [ 763711.719665510812774, 8982256.849395368248224 ], [ 763711.719665510812774, 8982261.849395368248224 ], [ 763706.719665510812774, 8982261.849395368248224 ] ] ] } },
{ "type": "Feature", "properties": { "LAYER": "Box", "GM_TYPE": "Unknown Line Type", "ELEVATION": 0 }, "geometry": { "type": "MultiLineString", "coordinates": [ [ [ 763736.287177832564339, 8982131.595379393547773 ], [ 763736.287177832564339, 8982126.595379393547773 ], [ 763741.287177832564339, 8982126.595379393547773 ], [ 763741.287177832564339, 8982131.595379393547773 ], [ 763736.287177832564339, 8982131.595379393547773 ] ] ] } },
{ "type": "Feature", "properties": { "LAYER": "Box", "GM_TYPE": "Unknown Line Type", "ELEVATION": 0 }, "geometry": { "type": "MultiLineString", "coordinates": [ [ [ 763861.51353936153464, 8981594.139462588354945 ], [ 763856.588667494012043, 8981593.275959787890315 ], [ 763857.452170294476673, 8981588.351087920367718 ], [ 763862.37704216199927, 8981589.214590720832348 ], [ 763861.51353936153464, 8981594.139462588354945 ] ] ] } },
{ "type": "Feature", "properties": { "LAYER": "Box", "GM_TYPE": "Unknown Line Type", "ELEVATION": 0 }, "geometry": { "type": "MultiLineString", "coordinates": [ [ [ 763887.23027713841293, 8981483.330291800200939 ], [ 763882.305405270890333, 8981482.466788999736309 ], [ 763883.168908071354963, 8981477.541917132213712 ], [ 763888.09377993887756, 8981478.405419932678342 ], [ 763887.23027713841293, 8981483.330291800200939 ] ] ] } },
{ "type": "Feature", "properties": { "LAYER": "Box", "GM_TYPE": "Unknown Line Type", "ELEVATION": 0 }, "geometry": { "type": "MultiLineString", "coordinates": [ [ [ 763919.186362505657598, 8981351.643292432650924 ], [ 763914.261490638135001, 8981350.779789632186294 ], [ 763915.124993438599631, 8981345.854917764663696 ], [ 763920.049865306122229, 8981346.718420565128326 ], [ 763919.186362505657598, 8981351.643292432650924 ] ] ] } },
{ "type": "Feature", "properties": { "LAYER": "Box", "GM_TYPE": "Unknown Line Type", "ELEVATION": 0 }, "geometry": { "type": "MultiLineString", "coordinates": [ [ [ 763946.691161864320748, 8981206.116295296698809 ], [ 763941.76628999679815, 8981205.252792496234179 ], [ 763942.62979279726278, 8981200.327920628711581 ], [ 763947.554664664785378, 8981201.191423429176211 ], [ 763946.691161864320748, 8981206.116295296698809 ] ] ] } },
{ "type": "Feature", "properties": { "LAYER": "Box", "GM_TYPE": "Unknown Line Type", "ELEVATION": 0 }, "geometry": { "type": "MultiLineString", "coordinates": [ [ [ 764023.182463928125799, 8980920.213755844160914 ], [ 764018.257592060603201, 8980919.350253043696284 ], [ 764019.121094861067832, 8980914.425381176173687 ], [ 764024.045966728590429, 8980915.288883976638317 ], [ 764023.182463928125799, 8980920.213755844160914 ] ] ] } },
{ "type": "Feature", "properties": { "LAYER": "Box", "GM_TYPE": "Unknown Line Type", "ELEVATION": 0 }, "geometry": { "type": "MultiLineString", "coordinates": [ [ [ 764050.305868394789286, 8980765.276414880529046 ], [ 764045.380996527266689, 8980764.412912080064416 ], [ 764046.244499327731319, 8980759.488040212541819 ], [ 764051.169371195253916, 8980760.351543013006449 ], [ 764050.305868394789286, 8980765.276414880529046 ] ] ] } },
{ "type": "Feature", "properties": { "LAYER": "Box", "GM_TYPE": "Unknown Line Type", "ELEVATION": 0 }, "geometry": { "type": "MultiLineString", "coordinates": [ [ [ 764126.672663778066635, 8980458.514506677165627 ], [ 764121.747791910544038, 8980457.651003876700997 ], [ 764122.611294711008668, 8980452.7261320091784 ], [ 764127.536166578531265, 8980453.58963480964303 ], [ 764126.672663778066635, 8980458.514506677165627 ] ] ] } },
{ "type": "Feature", "properties": { "LAYER": "Box", "GM_TYPE": "Unknown Line Type", "ELEVATION": 0 }, "geometry": { "type": "MultiLineString", "coordinates": [ [ [ 764961.60952037665993, 8980773.626481954008341 ], [ 764957.067387727089226, 8980775.716704670339823 ], [ 764954.977165012620389, 8980771.174572020769119 ], [ 764959.519297662191093, 8980769.084349304437637 ], [ 764961.60952037665993, 8980773.626481954008341 ] ] ] } },
{ "type": "Feature", "properties": { "LAYER": "Box", "GM_TYPE": "Unknown Line Type", "ELEVATION": 0 }, "geometry": { "type": "MultiLineString", "coordinates": [ [ [ 764973.632016652612947, 8980483.034504700452089 ], [ 764968.634870294365101, 8980482.86560151912272 ], [ 764968.803773477091454, 8980477.868455162271857 ], [ 764973.8009198353393, 8980478.037358341738582 ], [ 764973.632016652612947, 8980483.034504700452089 ] ] ] } },
{ "type": "Feature", "properties": { "LAYER": "Box", "GM_TYPE": "Unknown Line Type", "ELEVATION": 0 }, "geometry": { "type": "MultiLineString", "coordinates": [ [ [ 764975.235487818717957, 8980284.589337050914764 ], [ 764976.527025857940316, 8980279.759023446589708 ], [ 764981.357339458540082, 8980281.050561487674713 ], [ 764980.065801421180367, 8980285.880875090137124 ], [ 764975.235487818717957, 8980284.589337050914764 ] ] ] } },
{ "type": "Feature", "properties": { "LAYER": "Box", "GM_TYPE": "Unknown Line Type", "ELEVATION": 0 }, "geometry": { "type": "MultiLineString", "coordinates": [ [ [ 765366.272418415406719, 8980075.443232670426369 ], [ 765367.563956454629079, 8980070.612919066101313 ], [ 765372.394270055228844, 8980071.904457107186317 ], [ 765371.10273201786913, 8980076.734770709648728 ], [ 765366.272418415406719, 8980075.443232670426369 ] ] ] } },
{ "type": "Feature", "properties": { "LAYER": "Box", "GM_TYPE": "Unknown Line Type", "ELEVATION": 0 }, "geometry": { "type": "MultiLineString", "coordinates": [ [ [ 765290.046537224086933, 8980063.579161126166582 ], [ 765291.338075263309292, 8980058.748847521841526 ], [ 765296.168388863909058, 8980060.040385562926531 ], [ 765294.876850826549344, 8980064.870699165388942 ], [ 765290.046537224086933, 8980063.579161126166582 ] ] ] } },
{ "type": "Feature", "properties": { "LAYER": "Box", "GM_TYPE": "Unknown Line Type", "ELEVATION": 0 }, "geometry": { "type": "MultiLineString", "coordinates": [ [ [ 765372.753513981238939, 8979857.175761938095093 ], [ 765374.045052020461299, 8979852.345448333770037 ], [ 765378.875365621061064, 8979853.636986374855042 ], [ 765377.58382758370135, 8979858.467299977317452 ], [ 765372.753513981238939, 8979857.175761938095093 ] ] ] } },
{ "type": "Feature", "properties": { "LAYER": "Box", "GM_TYPE": "Unknown Line Type", "ELEVATION": 0 }, "geometry": { "type": "MultiLineString", "coordinates": [ [ [ 765425.214952882146463, 8979431.082396563142538 ], [ 765426.506490921368822, 8979426.252082958817482 ], [ 765431.336804521968588, 8979427.543621 ], [ 765430.045266484608874, 8979432.373934602364898 ], [ 765425.214952882146463, 8979431.082396563142538 ] ] ] } },
{ "type": "Feature", "properties": { "LAYER": "Box", "GM_TYPE": "Unknown Line Type", "ELEVATION": 0 }, "geometry": { "type": "MultiLineString", "coordinates": [ [ [ 765478.61597927683033, 8979243.363946657627821 ], [ 765479.90751731605269, 8979238.533633053302765 ], [ 765484.737830916652456, 8979239.82517109438777 ], [ 765483.446292879292741, 8979244.655484696850181 ], [ 765478.61597927683033, 8979243.363946657627821 ] ] ] } },
{ "type": "Feature", "properties": { "LAYER": "Box", "GM_TYPE": "Unknown Line Type", "ELEVATION": 0 }, "geometry": { "type": "MultiLineString", "coordinates": [ [ [ 765449.251296485424973, 8979435.828019373118877 ], [ 765448.931191846379079, 8979430.838276591151953 ], [ 765453.92093462694902, 8979430.518171953037381 ], [ 765454.241039267391898, 8979435.507914733141661 ], [ 765449.251296485424973, 8979435.828019373118877 ] ] ] } },
{ "type": "Feature", "properties": { "LAYER": "Box", "GM_TYPE": "Unknown Line Type", "ELEVATION": 0 }, "geometry": { "type": "MultiLineString", "coordinates": [ [ [ 766050.406714881304651, 8979497.996774584054947 ], [ 766050.086610242258757, 8979493.007031802088022 ], [ 766055.076353022828698, 8979492.686927163973451 ], [ 766055.396457663271576, 8979497.67666994407773 ], [ 766050.406714881304651, 8979497.996774584054947 ] ] ] } },
{ "type": "Feature", "properties": { "LAYER": "Box", "GM_TYPE": "Unknown Line Type", "ELEVATION": 0 }, "geometry": { "type": "MultiLineString", "coordinates": [ [ [ 766275.733973188325763, 8978918.098972568288445 ], [ 766278.168207227252424, 8978913.731535717844963 ], [ 766282.535644077695906, 8978916.165769755840302 ], [ 766280.10141004063189, 8978920.533206608146429 ], [ 766275.733973188325763, 8978918.098972568288445 ] ] ] } },
{ "type": "Feature", "properties": { "LAYER": "Box", "GM_TYPE": "Unknown Line Type", "ELEVATION": 0 }, "geometry": { "type": "MultiLineString", "coordinates": [ [ [ 766461.575592073029839, 8978638.969398021697998 ], [ 766461.255487433983944, 8978633.979655239731073 ], [ 766466.245230214553885, 8978633.659550601616502 ], [ 766466.565334854996763, 8978638.649293381720781 ], [ 766461.575592073029839, 8978638.969398021697998 ] ] ] } },
{ "type": "Feature", "properties": { "LAYER": "Box", "GM_TYPE": "Unknown Line Type", "ELEVATION": 0 }, "geometry": { "type": "MultiLineString", "coordinates": [ [ [ 765554.789226237800904, 8978591.471284851431847 ], [ 765554.745527349994518, 8978591.465749390423298 ] ] ] } },
{ "type": "Feature", "properties": { "LAYER": "Box", "GM_TYPE": "Unknown Line Type", "ELEVATION": 0 }, "geometry": { "type": "MultiLineString", "coordinates": [ [ [ 765552.451159360352904, 8978594.105567285791039 ], [ 765552.131054721307009, 8978589.115824503824115 ], [ 765557.12079750187695, 8978588.795719865709543 ], [ 765557.440902142319828, 8978593.785462645813823 ], [ 765552.451159360352904, 8978594.105567285791039 ] ] ] } },
{ "type": "Feature", "properties": { "LAYER": "Box", "GM_TYPE": "Unknown Line Type", "ELEVATION": 0 }, "geometry": { "type": "MultiLineString", "coordinates": [ [ [ 765655.235370958223939, 8978277.65492832660675 ], [ 765655.191672070417553, 8978277.649392865598202 ] ] ] } },
{ "type": "Feature", "properties": { "LAYER": "Box", "GM_TYPE": "Unknown Line Type", "ELEVATION": 0 }, "geometry": { "type": "MultiLineString", "coordinates": [ [ [ 765652.897304080775939, 8978280.289210760965943 ], [ 765652.577199441730045, 8978275.299467978999019 ], [ 765657.566942222299986, 8978274.979363340884447 ], [ 765657.887046862742864, 8978279.969106120988727 ], [ 765652.897304080775939, 8978280.289210760965943 ] ] ] } },
{ "type": "Feature", "properties": { "LAYER": "Box", "GM_TYPE": "Unknown Line Type", "ELEVATION": 0 }, "geometry": { "type": "MultiLineString", "coordinates": [ [ [ 765931.01145291805733, 8978267.133737161755562 ], [ 765930.967754030250944, 8978267.128201700747013 ] ] ] } },
{ "type": "Feature", "properties": { "LAYER": "Box", "GM_TYPE": "Unknown Line Type", "ELEVATION": 0 }, "geometry": { "type": "MultiLineString", "coordinates": [ [ [ 765928.67338604060933, 8978269.768019596114755 ], [ 765928.353281401563436, 8978264.77827681414783 ], [ 765933.343024182133377, 8978264.458172176033258 ], [ 765933.663128822576255, 8978269.447914956137538 ], [ 765928.67338604060933, 8978269.768019596114755 ] ] ] } },
{ "type": "Feature", "properties": { "LAYER": "Box", "GM_TYPE": "Unknown Line Type", "ELEVATION": 0 }, "geometry": { "type": "MultiLineString", "coordinates": [ [ [ 765699.372712989337742, 8978135.962367597967386 ], [ 765699.387588292360306, 8978135.920907260850072 ] ] ] } },
{ "type": "Feature", "properties": { "LAYER": "Box", "GM_TYPE": "Unknown Line Type", "ELEVATION": 0 }, "geometry": { "type": "MultiLineString", "coordinates": [ [ [ 765697.307810437865555, 8978133.108917383477092 ], [ 765702.248320998623967, 8978133.877913746982813 ], [ 765701.479324631392956, 8978138.818424306809902 ], [ 765696.538814071565866, 8978138.049427943304181 ], [ 765697.307810437865555, 8978133.108917383477092 ] ] ] } },
{ "type": "Feature", "properties": { "LAYER": "Box", "GM_TYPE": "Unknown Line Type", "ELEVATION": 25 }, "geometry": { "type": "MultiLineString", "coordinates": [ [ [ 766324.97605954145547, 8978010.102995662018657 ], [ 766324.932360653649084, 8978010.097460201010108 ] ] ] } },
{ "type": "Feature", "properties": { "LAYER": "Box", "GM_TYPE": "Unknown Line Type", "ELEVATION": 25 }, "geometry": { "type": "MultiLineString", "coordinates": [ [ [ 766322.63799266400747, 8978012.73727809637785 ], [ 766322.317888024961576, 8978007.747535314410925 ], [ 766327.307630805531517, 8978007.427430676296353 ], [ 766327.627735445974395, 8978012.417173456400633 ], [ 766322.63799266400747, 8978012.73727809637785 ] ] ] } },
{ "type": "Feature", "properties": { "LAYER": "Box", "GM_TYPE": "Unknown Line Type", "ELEVATION": 0 }, "geometry": { "type": "MultiLineString", "coordinates": [ [ [ 766024.993948286399245, 8978041.602556172758341 ], [ 766025.037725890055299, 8978041.607430163770914 ] ] ] } },
{ "type": "Feature", "properties": { "LAYER": "Box", "GM_TYPE": "Unknown Line Type", "ELEVATION": 0 }, "geometry": { "type": "MultiLineString", "coordinates": [ [ [ 766027.291910771280527, 8978038.933217473328114 ], [ 766027.687436377629638, 8978043.91754887253046 ], [ 766022.703104976564646, 8978044.313074473291636 ], [ 766022.30757937207818, 8978039.328743074089289 ], [ 766027.291910771280527, 8978038.933217473328114 ] ] ] } },
{ "type": "Feature", "properties": { "LAYER": "Box", "GM_TYPE": "Unknown Line Type", "ELEVATION": 0 }, "geometry": { "type": "MultiLineString", "coordinates": [ [ [ 765768.346761299995705, 8977924.701034244149923 ], [ 765768.390538903651759, 8977924.705908235162497 ] ] ] } },
{ "type": "Feature", "properties": { "LAYER": "Box", "GM_TYPE": "Unknown Line Type", "ELEVATION": 0 }, "geometry": { "type": "MultiLineString", "coordinates": [ [ [ 765770.644723784876987, 8977922.031695544719696 ], [ 765771.040249391226098, 8977927.016026943922043 ], [ 765766.055917990161106, 8977927.411552544683218 ], [ 765765.660392385674641, 8977922.427221145480871 ], [ 765770.644723784876987, 8977922.031695544719696 ] ] ] } },
{ "type": "Feature", "properties": { "LAYER": "Box", "GM_TYPE": "Unknown Line Type", "ELEVATION": 0 }, "geometry": { "type": "MultiLineString", "coordinates": [ [ [ 766105.651188722462393, 8977846.421614328399301 ], [ 766105.694966326118447, 8977846.426488319411874 ] ] ] } },
{ "type": "Feature", "properties": { "LAYER": "Box", "GM_TYPE": "Unknown Line Type", "ELEVATION": 0 }, "geometry": { "type": "MultiLineString", "coordinates": [ [ [ 766107.949151207343675, 8977843.752275628969073 ], [ 766108.344676813692786, 8977848.73660702817142 ], [ 766103.360345412627794, 8977849.132132628932595 ], [ 766102.964819808141328, 8977844.147801229730248 ], [ 766107.949151207343675, 8977843.752275628969073 ] ] ] } },
{ "type": "Feature", "properties": { "LAYER": "Box", "GM_TYPE": "Unknown Line Type", "ELEVATION": 0 }, "geometry": { "type": "MultiLineString", "coordinates": [ [ [ 766421.152576396008953, 8977816.009176794439554 ], [ 766421.196353999665007, 8977816.014050785452127 ] ] ] } },
{ "type": "Feature", "properties": { "LAYER": "Box", "GM_TYPE": "Unknown Line Type", "ELEVATION": 0 }, "geometry": { "type": "MultiLineString", "coordinates": [ [ [ 766423.450538880890235, 8977813.339838095009327 ], [ 766423.846064487239346, 8977818.324169494211674 ], [ 766418.861733086174354, 8977818.719695094972849 ], [ 766418.466207481687889, 8977813.735363695770502 ], [ 766423.450538880890235, 8977813.339838095009327 ] ] ] } },
{ "type": "Feature", "properties": { "LAYER": "Box", "GM_TYPE": "Unknown Line Type", "ELEVATION": 0 }, "geometry": { "type": "MultiLineString", "coordinates": [ [ [ 765815.541196042089723, 8977701.790596231818199 ], [ 765815.584973645745777, 8977701.795470222830772 ] ] ] } },
{ "type": "Feature", "properties": { "LAYER": "Box", "GM_TYPE": "Unknown Line Type", "ELEVATION": 0 }, "geometry": { "type": "MultiLineString", "coordinates": [ [ [ 765817.839158526971005, 8977699.121257532387972 ], [ 765818.234684133320116, 8977704.105588931590319 ], [ 765813.250352732255124, 8977704.501114532351494 ], [ 765812.854827127768658, 8977699.516783133149147 ], [ 765817.839158526971005, 8977699.121257532387972 ] ] ] } },
{ "type": "Feature", "properties": { "LAYER": "Box", "GM_TYPE": "Unknown Line Type", "ELEVATION": 19 }, "geometry": { "type": "MultiLineString", "coordinates": [ [ [ 766148.283314017928205, 8977664.314499650150537 ], [ 766148.327091621584259, 8977664.319373641163111 ] ] ] } },
{ "type": "Feature", "properties": { "LAYER": "Box", "GM_TYPE": "Unknown Line Type", "ELEVATION": 19 }, "geometry": { "type": "MultiLineString", "coordinates": [ [ [ 766150.581276502809487, 8977661.64516095072031 ], [ 766150.976802109158598, 8977666.629492349922657 ], [ 766145.992470708093606, 8977667.025017950683832 ], [ 766145.59694510360714, 8977662.040686551481485 ], [ 766150.581276502809487, 8977661.64516095072031 ] ] ] } },
{ "type": "Feature", "properties": { "LAYER": "Box", "GM_TYPE": "Unknown Line Type", "ELEVATION": 0 }, "geometry": { "type": "MultiLineString", "coordinates": [ [ [ 765867.637760010664351, 8977502.197338126599789 ], [ 765867.681537614320405, 8977502.202212117612362 ] ] ] } },
{ "type": "Feature", "properties": { "LAYER": "Box", "GM_TYPE": "Unknown Line Type", "ELEVATION": 0 }, "geometry": { "type": "MultiLineString", "coordinates": [ [ [ 765869.935722495545633, 8977499.527999427169561 ], [ 765870.331248101894744, 8977504.512330826371908 ], [ 765865.346916700829752, 8977504.907856427133083 ], [ 765864.951391096343286, 8977499.923525027930737 ], [ 765869.935722495545633, 8977499.527999427169561 ] ] ] } },
{ "type": "Feature", "properties": { "LAYER": "Box", "GM_TYPE": "Unknown Line Type", "ELEVATION": 0 }, "geometry": { "type": "MultiLineString", "coordinates": [ [ [ 766207.508895937702619, 8977418.481981305405498 ], [ 766207.552673541358672, 8977418.486855296418071 ] ] ] } },
{ "type": "Feature", "properties": { "LAYER": "Box", "GM_TYPE": "Unknown Line Type", "ELEVATION": 0 }, "geometry": { "type": "MultiLineString", "coordinates": [ [ [ 766209.8068584225839, 8977415.81264260597527 ], [ 766210.202384028933011, 8977420.796974005177617 ], [ 766205.218052627868019, 8977421.192499605938792 ], [ 766204.822527023381554, 8977416.208168206736445 ], [ 766209.8068584225839, 8977415.81264260597527 ] ] ] } },
{ "type": "Feature", "properties": { "LAYER": "Box", "GM_TYPE": "Unknown Line Type", "ELEVATION": -19 }, "geometry": { "type": "MultiLineString", "coordinates": [ [ [ 765913.173253071145155, 8977303.067424716427922 ], [ 765913.217030674801208, 8977303.072298707440495 ] ] ] } },
{ "type": "Feature", "properties": { "LAYER": "Box", "GM_TYPE": "Unknown Line Type", "ELEVATION": -19 }, "geometry": { "type": "MultiLineString", "coordinates": [ [ [ 765915.471215556026436, 8977300.398086016997695 ], [ 765915.866741162375547, 8977305.382417416200042 ], [ 765910.882409761310555, 8977305.777943016961217 ], [ 765910.48688415682409, 8977300.79361161775887 ], [ 765915.471215556026436, 8977300.398086016997695 ] ] ] } },
{ "type": "Feature", "properties": { "LAYER": "Box", "GM_TYPE": "Unknown Line Type", "ELEVATION": -19 }, "geometry": { "type": "MultiLineString", "coordinates": [ [ [ 766233.080832620733418, 8977225.113058619201183 ], [ 766233.124610224389471, 8977225.117932610213757 ] ] ] } },
{ "type": "Feature", "properties": { "LAYER": "Box", "GM_TYPE": "Unknown Line Type", "ELEVATION": -19 }, "geometry": { "type": "MultiLineString", "coordinates": [ [ [ 766235.378795105614699, 8977222.443719919770956 ], [ 766235.77432071196381, 8977227.428051318973303 ], [ 766230.789989310898818, 8977227.823576919734478 ], [ 766230.394463706412353, 8977222.839245520532131 ], [ 766235.378795105614699, 8977222.443719919770956 ] ] ] } },
{ "type": "Feature", "properties": { "LAYER": "Box", "GM_TYPE": "Unknown Line Type", "ELEVATION": -19 }, "geometry": { "type": "MultiLineString", "coordinates": [ [ [ 765977.652195225004107, 8977062.449114358052611 ], [ 765977.69597282866016, 8977062.453988349065185 ] ] ] } },
{ "type": "Feature", "properties": { "LAYER": "Box", "GM_TYPE": "Unknown Line Type", "ELEVATION": -19 }, "geometry": { "type": "MultiLineString", "coordinates": [ [ [ 765979.950157709885389, 8977059.779775658622384 ], [ 765980.345683316234499, 8977064.764107057824731 ], [ 765975.361351915169507, 8977065.159632658585906 ], [ 765974.965826310683042, 8977060.175301259383559 ], [ 765979.950157709885389, 8977059.779775658622384 ] ] ] } },
{ "type": "Feature", "properties": { "LAYER": "Box", "GM_TYPE": "Unknown Line Type", "ELEVATION": -19 }, "geometry": { "type": "MultiLineString", "coordinates": [ [ [ 766261.668295479030348, 8977007.168956868350506 ], [ 766261.712073082686402, 8977007.173830859363079 ] ] ] } },
{ "type": "Feature", "properties": { "LAYER": "Box", "GM_TYPE": "Unknown Line Type", "ELEVATION": -19 }, "geometry": { "type": "MultiLineString", "coordinates": [ [ [ 766263.96625796391163, 8977004.499618168920279 ], [ 766264.361783570260741, 8977009.483949568122625 ], [ 766259.377452169195749, 8977009.879475168883801 ], [ 766258.981926564709283, 8977004.895143769681454 ], [ 766263.96625796391163, 8977004.499618168920279 ] ] ] } },
{ "type": "Feature", "properties": { "LAYER": "Box", "GM_TYPE": "Unknown Line Type", "ELEVATION": -19 }, "geometry": { "type": "MultiLineString", "coordinates": [ [ [ 766018.152985089924186, 8976873.054473953321576 ], [ 766018.19676269358024, 8976873.059347944334149 ] ] ] } },
{ "type": "Feature", "properties": { "LAYER": "Box", "GM_TYPE": "Unknown Line Type", "ELEVATION": -19 }, "geometry": { "type": "MultiLineString", "coordinates": [ [ [ 766020.450947574805468, 8976870.385135253891349 ], [ 766020.846473181154579, 8976875.369466653093696 ], [ 766015.862141780089587, 8976875.764992253854871 ], [ 766015.466616175603122, 8976870.780660854652524 ], [ 766020.450947574805468, 8976870.385135253891349 ] ] ] } },
{ "type": "Feature", "properties": { "LAYER": "Box", "GM_TYPE": "Unknown Line Type", "ELEVATION": -19 }, "geometry": { "type": "MultiLineString", "coordinates": [ [ [ 766278.361365966266021, 8976833.749123958870769 ], [ 766278.405143569922075, 8976833.753997949883342 ] ] ] } },
{ "type": "Feature", "properties": { "LAYER": "Box", "GM_TYPE": "Unknown Line Type", "ELEVATION": -19 }, "geometry": { "type": "MultiLineString", "coordinates": [ [ [ 766280.659328451147303, 8976831.079785259440541 ], [ 766281.054854057496414, 8976836.064116658642888 ], [ 766276.070522656431422, 8976836.459642259404063 ], [ 766275.674997051944956, 8976831.475310860201716 ], [ 766280.659328451147303, 8976831.079785259440541 ] ] ] } },
{ "type": "Feature", "properties": { "LAYER": "Box", "GM_TYPE": "Unknown Line Type", "ELEVATION": 0 }, "geometry": { "type": "MultiLineString", "coordinates": [ [ [ 766071.894436736823991, 8976620.580392686650157 ], [ 766071.938214340480044, 8976620.58526667766273 ] ] ] } },
{ "type": "Feature", "properties": { "LAYER": "Box", "GM_TYPE": "Unknown Line Type", "ELEVATION": 0 }, "geometry": { "type": "MultiLineString", "coordinates": [ [ [ 766074.192399221705273, 8976617.91105398721993 ], [ 766074.587924828054383, 8976622.895385386422276 ], [ 766069.603593426989391, 8976623.290910987183452 ], [ 766069.208067822502926, 8976618.306579587981105 ], [ 766074.192399221705273, 8976617.91105398721993 ] ] ] } },
{ "type": "Feature", "properties": { "LAYER": "Box", "GM_TYPE": "Unknown Line Type", "ELEVATION": -19 }, "geometry": { "type": "MultiLineString", "coordinates": [ [ [ 766300.237832130980678, 8976606.480383325368166 ], [ 766300.281609734636731, 8976606.485257316380739 ] ] ] } },
{ "type": "Feature", "properties": { "LAYER": "Box", "GM_TYPE": "Unknown Line Type", "ELEVATION": -19 }, "geometry": { "type": "MultiLineString", "coordinates": [ [ [ 766302.53579461586196, 8976603.811044625937939 ], [ 766302.93132022221107, 8976608.795376025140285 ], [ 766297.946988821146078, 8976609.190901625901461 ], [ 766297.551463216659613, 8976604.206570226699114 ], [ 766302.53579461586196, 8976603.811044625937939 ] ] ] } },
{ "type": "Feature", "properties": { "LAYER": "Box", "GM_TYPE": "Unknown Line Type", "ELEVATION": -19 }, "geometry": { "type": "MultiLineString", "coordinates": [ [ [ 766035.40945346117951, 8976431.398940429091454 ], [ 766035.453231064835563, 8976431.403814420104027 ] ] ] } },
{ "type": "Feature", "properties": { "LAYER": "Box", "GM_TYPE": "Unknown Line Type", "ELEVATION": -19 }, "geometry": { "type": "MultiLineString", "coordinates": [ [ [ 766037.707415946060792, 8976428.729601729661226 ], [ 766038.102941552409902, 8976433.713933128863573 ], [ 766033.11861015134491, 8976434.109458729624748 ], [ 766032.723084546858445, 8976429.125127330422401 ], [ 766037.707415946060792, 8976428.729601729661226 ] ] ] } },
{ "type": "Feature", "properties": { "LAYER": "Box", "GM_TYPE": "Unknown Line Type", "ELEVATION": 0 }, "geometry": { "type": "MultiLineString", "coordinates": [ [ [ 765528.462042072205804, 8978586.651502812281251 ], [ 765528.418343184399419, 8978586.645967351272702 ] ] ] } },
{ "type": "Feature", "properties": { "LAYER": "Box", "GM_TYPE": "Unknown Line Type", "ELEVATION": 0 }, "geometry": { "type": "MultiLineString", "coordinates": [ [ [ 765526.123975194757804, 8978589.285785246640444 ], [ 765525.80387055571191, 8978584.296042464673519 ], [ 765530.793613336281851, 8978583.975937826558948 ], [ 765531.113717976724729, 8978588.965680606663227 ], [ 765526.123975194757804, 8978589.285785246640444 ] ] ] } },
{ "type": "Feature", "properties": { "LAYER": "Box", "GM_TYPE": "Unknown Line Type", "ELEVATION": 0 }, "geometry": { "type": "MultiLineString", "coordinates": [ [ [ 765191.174329405650496, 8978685.579743521288037 ], [ 765191.130630517844111, 8978685.574208060279489 ] ] ] } },
{ "type": "Feature", "properties": { "LAYER": "Box", "GM_TYPE": "Unknown Line Type", "ELEVATION": 0 }, "geometry": { "type": "MultiLineString", "coordinates": [ [ [ 765188.836262528202496, 8978688.21402595564723 ], [ 765188.516157889156602, 8978683.224283173680305 ], [ 765193.505900669726543, 8978682.904178535565734 ], [ 765193.826005310169421, 8978687.893921315670013 ], [ 765188.836262528202496, 8978688.21402595564723 ] ] ] } },
{ "type": "Feature", "properties": { "LAYER": "Box", "GM_TYPE": "Unknown Line Type", "ELEVATION": 0 }, "geometry": { "type": "MultiLineString", "coordinates": [ [ [ 765571.865226863301359, 8978466.435713224112988 ], [ 765571.821527975494973, 8978466.430177763104439 ] ] ] } },
{ "type": "Feature", "properties": { "LAYER": "Box", "GM_TYPE": "Unknown Line Type", "ELEVATION": 0 }, "geometry": { "type": "MultiLineString", "coordinates": [ [ [ 765569.527159985853359, 8978469.06999565847218 ], [ 765569.207055346807465, 8978464.080252876505256 ], [ 765574.196798127377406, 8978463.760148238390684 ], [ 765574.516902767820284, 8978468.749891018494964 ], [ 765569.527159985853359, 8978469.06999565847218 ] ] ] } },
{ "type": "Feature", "properties": { "LAYER": "Box", "GM_TYPE": "Unknown Line Type", "ELEVATION": 0 }, "geometry": { "type": "MultiLineString", "coordinates": [ [ [ 765212.37194986466784, 8978455.219096980988979 ], [ 765212.328250976861455, 8978455.213561519980431 ] ] ] } },
{ "type": "Feature", "properties": { "LAYER": "Box", "GM_TYPE": "Unknown Line Type", "ELEVATION": 0 }, "geometry": { "type": "MultiLineString", "coordinates": [ [ [ 765210.03388298721984, 8978457.853379415348172 ], [ 765209.713778348173946, 8978452.863636633381248 ], [ 765214.703521128743887, 8978452.543531995266676 ], [ 765215.023625769186765, 8978457.533274775370955 ], [ 765210.03388298721984, 8978457.853379415348172 ] ] ] } },
{ "type": "Feature", "properties": { "LAYER": "Box", "GM_TYPE": "Unknown Line Type", "ELEVATION": 0 }, "geometry": { "type": "MultiLineString", "coordinates": [ [ [ 765633.011130798025988, 8978276.875243498012424 ], [ 765632.967431910219602, 8978276.869708037003875 ] ] ] } },
{ "type": "Feature", "properties": { "LAYER": "Box", "GM_TYPE": "Unknown Line Type", "ELEVATION": 0 }, "geometry": { "type": "MultiLineString", "coordinates": [ [ [ 765630.673063920577988, 8978279.509525932371616 ], [ 765630.352959281532094, 8978274.519783150404692 ], [ 765635.342702062102035, 8978274.19967851229012 ], [ 765635.662806702544913, 8978279.1894212923944 ], [ 765630.673063920577988, 8978279.509525932371616 ] ] ] } },
{ "type": "Feature", "properties": { "LAYER": "Box", "GM_TYPE": "Unknown Line Type", "ELEVATION": 0 }, "geometry": { "type": "MultiLineString", "coordinates": [ [ [ 765748.402418416575529, 8977925.840528275817633 ], [ 765748.417293719598092, 8977925.799067938700318 ] ] ] } },
{ "type": "Feature", "properties": { "LAYER": "Box", "GM_TYPE": "Unknown Line Type", "ELEVATION": 0 }, "geometry": { "type": "MultiLineString", "coordinates": [ [ [ 765746.337515865103342, 8977922.987078061327338 ], [ 765751.278026425861754, 8977923.756074424833059 ], [ 765750.509030058630742, 8977928.696584984660149 ], [ 765745.568519498803653, 8977927.927588621154428 ], [ 765746.337515865103342, 8977922.987078061327338 ] ] ] } },
{ "type": "Feature", "properties": { "LAYER": "Box", "GM_TYPE": "Unknown Line Type", "ELEVATION": 0 }, "geometry": { "type": "MultiLineString", "coordinates": [ [ [ 765957.112896326580085, 8977062.920695573091507 ], [ 765957.127771629602648, 8977062.879235235974193 ] ] ] } },
{ "type": "Feature", "properties": { "LAYER": "Box", "GM_TYPE": "Unknown Line Type", "ELEVATION": 0 }, "geometry": { "type": "MultiLineString", "coordinates": [ [ [ 765955.047993775107898, 8977060.067245358601213 ], [ 765959.98850433586631, 8977060.836241722106934 ], [ 765959.219507968635298, 8977065.776752281934023 ], [ 765954.278997408808209, 8977065.007755918428302 ], [ 765955.047993775107898, 8977060.067245358601213 ] ] ] } },
{ "type": "Feature", "properties": { "LAYER": "Box", "GM_TYPE": "Unknown Line Type", "ELEVATION": 0 }, "geometry": { "type": "MultiLineString", "coordinates": [ [ [ 766060.986141294473782, 8976627.041848914697766 ], [ 766061.001016597496346, 8976627.000388577580452 ] ] ] } },
{ "type": "Feature", "properties": { "LAYER": "Box", "GM_TYPE": "Unknown Line Type", "ELEVATION": 0 }, "geometry": { "type": "MultiLineString", "coordinates": [ [ [ 766058.921238743001595, 8976624.188398700207472 ], [ 766063.861749303760007, 8976624.957395063713193 ], [ 766063.092752936528996, 8976629.897905623540282 ], [ 766058.152242376701906, 8976629.128909260034561 ], [ 766058.921238743001595, 8976624.188398700207472 ] ] ] } },
{ "type": "Feature", "properties": { "LAYER": "Box", "GM_TYPE": "Unknown Line Type", "ELEVATION": 0 }, "geometry": { "type": "MultiLineString", "coordinates": [ [ [ 765806.357186009990983, 8976591.919337768107653 ], [ 765806.372061313013546, 8976591.877877430990338 ] ] ] } },
{ "type": "Feature", "properties": { "LAYER": "Box", "GM_TYPE": "Unknown Line Type", "ELEVATION": 0 }, "geometry": { "type": "MultiLineString", "coordinates": [ [ [ 765804.292283458518796, 8976589.065887553617358 ], [ 765809.232794019277208, 8976589.834883917123079 ], [ 765808.463797652046196, 8976594.775394476950169 ], [ 765803.523287092219107, 8976594.006398113444448 ], [ 765804.292283458518796, 8976589.065887553617358 ] ] ] } },
{ "type": "Feature", "properties": { "LAYER": "Box", "GM_TYPE": "Unknown Line Type", "ELEVATION": 0 }, "geometry": { "type": "MultiLineString", "coordinates": [ [ [ 766009.226779984659515, 8976198.244661312550306 ], [ 766009.225952623295598, 8976198.20062099583447 ] ] ] } },
{ "type": "Feature", "properties": { "LAYER": "Box", "GM_TYPE": "Unknown Line Type", "ELEVATION": 0 }, "geometry": { "type": "MultiLineString", "coordinates": [ [ [ 766006.282722762669437, 8976196.311134032905102 ], [ 766011.174072010326199, 8976195.274455420672894 ], [ 766012.210750618367456, 8976200.165804669260979 ], [ 766007.319401371642016, 8976201.202483281493187 ], [ 766006.282722762669437, 8976196.311134032905102 ] ] ] } },
{ "type": "Feature", "properties": { "LAYER": "Box", "GM_TYPE": "Unknown Line Type", "ELEVATION": 0 }, "geometry": { "type": "MultiLineString", "coordinates": [ [ [ 765775.55355513910763, 8976195.498972807079554 ], [ 765775.568430442130193, 8976195.457512469962239 ] ] ] } },
{ "type": "Feature", "properties": { "LAYER": "Box", "GM_TYPE": "Unknown Line Type", "ELEVATION": 0 }, "geometry": { "type": "MultiLineString", "coordinates": [ [ [ 765773.488652587635443, 8976192.645522592589259 ], [ 765778.429163148393854, 8976193.41451895609498 ], [ 765777.660166781162843, 8976198.35502951592207 ], [ 765772.719656221335754, 8976197.586033152416348 ], [ 765773.488652587635443, 8976192.645522592589259 ] ] ] } },
{ "type": "Feature", "properties": { "LAYER": "Box", "GM_TYPE": "Unknown Line Type", "ELEVATION": 0 }, "geometry": { "type": "MultiLineString", "coordinates": [ [ [ 765690.775969767710194, 8978136.246243391185999 ], [ 765690.790845070732757, 8978136.204783054068685 ] ] ] } },
{ "type": "Feature", "properties": { "LAYER": "Box", "GM_TYPE": "Unknown Line Type", "ELEVATION": 0 }, "geometry": { "type": "MultiLineString", "coordinates": [ [ [ 765805.181600340292789, 8977710.437821546569467 ], [ 765805.225377943948843, 8977710.44269553758204 ] ] ] } },
{ "type": "Feature", "properties": { "LAYER": "Box", "GM_TYPE": "Unknown Line Type", "ELEVATION": 0 }, "geometry": { "type": "MultiLineString", "coordinates": [ [ [ 765848.245593121624552, 8977502.507932763546705 ], [ 765848.289370725280605, 8977502.512806754559278 ] ] ] } },
{ "type": "Feature", "properties": { "LAYER": "Box", "GM_TYPE": "Unknown Line Type", "ELEVATION": 0 }, "geometry": { "type": "MultiLineString", "coordinates": [ [ [ 765850.543555606505834, 8977499.838594064116478 ], [ 765850.939081212854944, 8977504.822925463318825 ], [ 765845.954749811789952, 8977505.21845106408 ], [ 765845.559224207303487, 8977500.234119664877653 ], [ 765850.543555606505834, 8977499.838594064116478 ] ] ] } },
{ "type": "Feature", "properties": { "LAYER": "Box", "GM_TYPE": "Unknown Line Type", "ELEVATION": 0 }, "geometry": { "type": "MultiLineString", "coordinates": [ [ [ 764260.122824778780341, 8978693.153260841965675 ], [ 764260.08433482889086, 8978693.131842209026217 ] ] ] } },
{ "type": "Feature", "properties": { "LAYER": "Box", "GM_TYPE": "Unknown Line Type", "ELEVATION": 0 }, "geometry": { "type": "MultiLineString", "coordinates": [ [ [ 764256.971601476892829, 8978694.726725924760103 ], [ 764258.53367134090513, 8978689.976995643228292 ], [ 764263.283401621039957, 8978691.539065508171916 ], [ 764261.72133175842464, 8978696.288795787841082 ], [ 764256.971601476892829, 8978694.726725924760103 ] ] ] } },
{ "type": "Feature", "properties": { "LAYER": "Box", "GM_TYPE": "Unknown Line Type", "ELEVATION": 0 }, "geometry": { "type": "MultiLineString", "coordinates": [ [ [ 764391.732731603784487, 8978150.824978180229664 ], [ 764391.694241653895006, 8978150.803559547290206 ] ] ] } },
{ "type": "Feature", "properties": { "LAYER": "Box", "GM_TYPE": "Unknown Line Type", "ELEVATION": 0 }, "geometry": { "type": "MultiLineString", "coordinates": [ [ [ 764388.581508301896974, 8978152.398443263024092 ], [ 764390.143578165909275, 8978147.648712981492281 ], [ 764394.893308446044102, 8978149.210782846435905 ], [ 764393.331238583428785, 8978153.96051312610507 ], [ 764388.581508301896974, 8978152.398443263024092 ] ] ] } },
{ "type": "Feature", "properties": { "LAYER": "Box", "GM_TYPE": "Unknown Line Type", "ELEVATION": 0 }, "geometry": { "type": "MultiLineString", "coordinates": [ [ [ 764182.118677395628765, 8978101.787700908258557 ], [ 764182.080187445739284, 8978101.766282275319099 ] ] ] } },
{ "type": "Feature", "properties": { "LAYER": "Box", "GM_TYPE": "Unknown Line Type", "ELEVATION": 0 }, "geometry": { "type": "MultiLineString", "coordinates": [ [ [ 764178.967454093741253, 8978103.361165991052985 ], [ 764180.529523957753554, 8978098.611435709521174 ], [ 764185.279254237888381, 8978100.173505574464798 ], [ 764183.717184375273064, 8978104.923235854133964 ], [ 764178.967454093741253, 8978103.361165991052985 ] ] ] } },
{ "type": "Feature", "properties": { "LAYER": "Box", "GM_TYPE": "Unknown Line Type", "ELEVATION": 0 }, "geometry": { "type": "MultiLineString", "coordinates": [ [ [ 764496.749979340471327, 8977729.089849077165127 ], [ 764496.711489390581846, 8977729.068430444225669 ] ] ] } },
{ "type": "Feature", "properties": { "LAYER": "Box", "GM_TYPE": "Unknown Line Type", "ELEVATION": 0 }, "geometry": { "type": "MultiLineString", "coordinates": [ [ [ 764495.581711315433495, 8977732.923131620511413 ], [ 764495.543221365544014, 8977732.901712987571955 ] ] ] } },
{ "type": "Feature", "properties": { "LAYER": "Box", "GM_TYPE": "Unknown Line Type", "ELEVATION": 0 }, "geometry": { "type": "MultiLineString", "coordinates": [ [ [ 764492.430488013545983, 8977734.49659670330584 ], [ 764493.992557877558284, 8977729.74686642177403 ], [ 764498.74228815769311, 8977731.308936286717653 ], [ 764497.180218295077793, 8977736.058666566386819 ], [ 764492.430488013545983, 8977734.49659670330584 ] ] ] } },
{ "type": "Feature", "properties": { "LAYER": "Box", "GM_TYPE": "Unknown Line Type", "ELEVATION": 0 }, "geometry": { "type": "MultiLineString", "coordinates": [ [ [ 764636.249812825466506, 8977298.896583423018456 ], [ 764636.211322875577025, 8977298.875164790078998 ] ] ] } },
{ "type": "Feature", "properties": { "LAYER": "Box", "GM_TYPE": "Unknown Line Type", "ELEVATION": 0 }, "geometry": { "type": "MultiLineString", "coordinates": [ [ [ 764633.098589523578994, 8977300.470048505812883 ], [ 764634.660659387591295, 8977295.720318224281073 ], [ 764639.410389667726122, 8977297.282388089224696 ], [ 764637.848319805110805, 8977302.032118368893862 ], [ 764633.098589523578994, 8977300.470048505812883 ] ] ] } },
{ "type": "Feature", "properties": { "LAYER": "Box", "GM_TYPE": "Unknown Line Type", "ELEVATION": 0 }, "geometry": { "type": "MultiLineString", "coordinates": [ [ [ 764776.392939173965715, 8976770.078611724078655 ], [ 764776.354449224076234, 8976770.057193091139197 ] ] ] } },
{ "type": "Feature", "properties": { "LAYER": "Box", "GM_TYPE": "Unknown Line Type", "ELEVATION": 0 }, "geometry": { "type": "MultiLineString", "coordinates": [ [ [ 764773.241715872078203, 8976771.652076806873083 ], [ 764774.803785736090504, 8976766.902346525341272 ], [ 764779.553516016225331, 8976768.464416390284896 ], [ 764777.991446153610013, 8976773.214146669954062 ], [ 764773.241715872078203, 8976771.652076806873083 ] ] ] } },
{ "type": "Feature", "properties": { "LAYER": "Box", "GM_TYPE": "Unknown Line Type", "ELEVATION": 0 }, "geometry": { "type": "MultiLineString", "coordinates": [ [ [ 763095.788288790965453, 8979039.878187350928783 ], [ 763095.813041683519259, 8979039.841752089560032 ] ] ] } },
{ "type": "Feature", "properties": { "LAYER": "Box", "GM_TYPE": "Unknown Line Type", "ELEVATION": 0 }, "geometry": { "type": "MultiLineString", "coordinates": [ [ [ 763094.500955297844484, 8979036.59965518862009 ], [ 763098.3466652831994, 8979038.255948266014457 ] ] ] } },
{ "type": "Feature", "properties": { "LAYER": "Box", "GM_TYPE": "Unknown Line Type", "ELEVATION": 0 }, "geometry": { "type": "MultiLineString", "coordinates": [ [ [ 763098.355162875261158, 8979040.290984949097037 ], [ 763097.115360693307593, 8979043.169654004275799 ], [ 763092.52315858961083, 8979041.191857296973467 ], [ 763094.500955297844484, 8979036.59965518862009 ] ] ] } },
{ "type": "Feature", "properties": { "LAYER": "Box", "GM_TYPE": "Unknown Line Type", "ELEVATION": 24 }, "geometry": { "type": "MultiLineString", "coordinates": [ [ [ 762882.0419437099481, 8978897.360699230805039 ], [ 762882.066696602501906, 8978897.324263969436288 ] ] ] } },
{ "type": "Feature", "properties": { "LAYER": "Box", "GM_TYPE": "Unknown Line Type", "ELEVATION": 24 }, "geometry": { "type": "MultiLineString", "coordinates": [ [ [ 762880.754610216827132, 8978894.082167068496346 ], [ 762885.346812323317863, 8978896.059963779523969 ], [ 762883.369015612290241, 8978900.652165884152055 ], [ 762878.776813508593477, 8978898.674369176849723 ], [ 762880.754610216827132, 8978894.082167068496346 ] ] ] } },
{ "type": "Feature", "properties": { "LAYER": "Box", "GM_TYPE": "Unknown Line Type", "ELEVATION": 0 }, "geometry": { "type": "MultiLineString", "coordinates": [ [ [ 763449.37772089918144, 8979480.662159873172641 ], [ 763449.402473791735247, 8979480.625724611803889 ] ] ] } },
{ "type": "Feature", "properties": { "LAYER": "Box", "GM_TYPE": "Unknown Line Type", "ELEVATION": 0 }, "geometry": { "type": "MultiLineString", "coordinates": [ [ [ 763448.090387406060472, 8979477.383627710863948 ], [ 763452.682589512551203, 8979479.36142442189157 ], [ 763450.704792801523581, 8979483.953626526519656 ], [ 763446.112590697826818, 8979481.975829819217324 ], [ 763448.090387406060472, 8979477.383627710863948 ] ] ] } },
{ "type": "Feature", "properties": { "LAYER": "Box", "GM_TYPE": "Unknown Line Type", "ELEVATION": 0 }, "geometry": { "type": "MultiLineString", "coordinates": [ [ [ 763152.143244982813485, 8978835.715835379436612 ], [ 763152.171337066334672, 8978835.74976278655231 ] ] ] } },
{ "type": "Feature", "properties": { "LAYER": "Box", "GM_TYPE": "Unknown Line Type", "ELEVATION": 0 }, "geometry": { "type": "MultiLineString", "coordinates": [ [ [ 763155.650664405082352, 8978835.393330093473196 ], [ 763152.988109865342267, 8978838.624985301867127 ] ] ] } },
{ "type": "Feature", "properties": { "LAYER": "Box", "GM_TYPE": "Unknown Line Type", "ELEVATION": 0 }, "geometry": { "type": "MultiLineString", "coordinates": [ [ [ 763151.031351810437627, 8978838.065928569063544 ], [ 763148.612327531096525, 8978836.072899090126157 ], [ 763151.791711465572007, 8978832.213946156203747 ], [ 763155.650664405082352, 8978835.393330093473196 ] ] ] } },
{ "type": "Feature", "properties": { "LAYER": "Box", "GM_TYPE": "Unknown Line Type", "ELEVATION": 0 }, "geometry": { "type": "MultiLineString", "coordinates": [ [ [ 763245.428652650094591, 8978579.485122194513679 ], [ 763245.453405542648397, 8978579.448686933144927 ] ] ] } },
{ "type": "Feature", "properties": { "LAYER": "Box", "GM_TYPE": "Unknown Line Type", "ELEVATION": 0 }, "geometry": { "type": "MultiLineString", "coordinates": [ [ [ 763244.141319156973623, 8978576.206590032204986 ], [ 763247.987029142328538, 8978577.862883109599352 ] ] ] } },
{ "type": "Feature", "properties": { "LAYER": "Box", "GM_TYPE": "Unknown Line Type", "ELEVATION": 0 }, "geometry": { "type": "MultiLineString", "coordinates": [ [ [ 763247.995526734390296, 8978579.897919792681932 ], [ 763246.755724552436732, 8978582.776588847860694 ], [ 763242.163522448739968, 8978580.798792140558362 ], [ 763244.141319156973623, 8978576.206590032204986 ] ] ] } },
{ "type": "Feature", "properties": { "LAYER": "Box", "GM_TYPE": "Unknown Line Type", "ELEVATION": 0 }, "geometry": { "type": "MultiLineString", "coordinates": [ [ [ 763397.387037275126204, 8978123.845150854438543 ], [ 763397.41179016768001, 8978123.808715593069792 ] ] ] } },
{ "type": "Feature", "properties": { "LAYER": "Box", "GM_TYPE": "Unknown Line Type", "ELEVATION": 0 }, "geometry": { "type": "MultiLineString", "coordinates": [ [ [ 763396.099703782005236, 8978120.56661869212985 ], [ 763399.945413767360151, 8978122.222911769524217 ] ] ] } },
{ "type": "Feature", "properties": { "LAYER": "Box", "GM_TYPE": "Unknown Line Type", "ELEVATION": 0 }, "geometry": { "type": "MultiLineString", "coordinates": [ [ [ 763399.953911359421909, 8978124.257948452606797 ], [ 763398.714109177468345, 8978127.136617507785559 ], [ 763394.121907073771581, 8978125.158820800483227 ], [ 763396.099703782005236, 8978120.56661869212985 ] ] ] } },
{ "type": "Feature", "properties": { "LAYER": "Box", "GM_TYPE": "Unknown Line Type", "ELEVATION": 0 }, "geometry": { "type": "MultiLineString", "coordinates": [ [ [ 763467.111776701523922, 8977932.556382240727544 ], [ 763467.136529594077729, 8977932.519946979358792 ] ] ] } },
{ "type": "Feature", "properties": { "LAYER": "Box", "GM_TYPE": "Unknown Line Type", "ELEVATION": 0 }, "geometry": { "type": "MultiLineString", "coordinates": [ [ [ 763465.824443208402954, 8977929.277850078418851 ], [ 763469.670153193757869, 8977930.934143155813217 ] ] ] } },
{ "type": "Feature", "properties": { "LAYER": "Box", "GM_TYPE": "Unknown Line Type", "ELEVATION": 0 }, "geometry": { "type": "MultiLineString", "coordinates": [ [ [ 763469.678650785819627, 8977932.969179838895798 ], [ 763468.438848603866063, 8977935.847848894074559 ], [ 763463.8466465001693, 8977933.870052186772227 ], [ 763465.824443208402954, 8977929.277850078418851 ] ] ] } },
{ "type": "Feature", "properties": { "LAYER": "Box", "GM_TYPE": "Unknown Line Type", "ELEVATION": 0 }, "geometry": { "type": "MultiLineString", "coordinates": [ [ [ 763618.52500632184092, 8977482.366434086114168 ], [ 763618.549759214394726, 8977482.329998824745417 ] ] ] } },
{ "type": "Feature", "properties": { "LAYER": "Box", "GM_TYPE": "Unknown Line Type", "ELEVATION": 0 }, "geometry": { "type": "MultiLineString", "coordinates": [ [ [ 763617.237672828719951, 8977479.087901923805475 ], [ 763621.083382814074866, 8977480.744195001199841 ] ] ] } },
{ "type": "Feature", "properties": { "LAYER": "Box", "GM_TYPE": "Unknown Line Type", "ELEVATION": 0 }, "geometry": { "type": "MultiLineString", "coordinates": [ [ [ 763621.091880406136625, 8977482.779231684282422 ], [ 763619.85207822418306, 8977485.657900739461184 ], [ 763615.259876120486297, 8977483.680104032158852 ], [ 763617.237672828719951, 8977479.087901923805475 ] ] ] } },
{ "type": "Feature", "properties": { "LAYER": "Box", "GM_TYPE": "Unknown Line Type", "ELEVATION": 0 }, "geometry": { "type": "MultiLineString", "coordinates": [ [ [ 763773.941258192295209, 8977062.945376370102167 ], [ 763773.902768242405728, 8977062.923957737162709 ] ] ] } },
{ "type": "Feature", "properties": { "LAYER": "Box", "GM_TYPE": "Unknown Line Type", "ELEVATION": 0 }, "geometry": { "type": "MultiLineString", "coordinates": [ [ [ 763772.772990167257376, 8977066.778658913448453 ], [ 763772.734500217367895, 8977066.757240280508995 ] ] ] } },
{ "type": "Feature", "properties": { "LAYER": "Box", "GM_TYPE": "Unknown Line Type", "ELEVATION": 0 }, "geometry": { "type": "MultiLineString", "coordinates": [ [ [ 763769.621766865369864, 8977068.352123996242881 ], [ 763771.183836729382165, 8977063.60239371471107 ], [ 763775.933567009516992, 8977065.164463579654694 ], [ 763774.371497146901675, 8977069.914193859323859 ], [ 763769.621766865369864, 8977068.352123996242881 ] ] ] } },
{ "type": "Feature", "properties": { "LAYER": "Box", "GM_TYPE": "Unknown Line Type", "ELEVATION": 0 }, "geometry": { "type": "MultiLineString", "coordinates": [ [ [ 761469.822773506864905, 8979033.821772107854486 ], [ 761474.414975613355637, 8979035.799568818882108 ], [ 761472.437178902328014, 8979040.391770923510194 ], [ 761467.844976798631251, 8979038.413974216207862 ], [ 761469.822773506864905, 8979033.821772107854486 ] ] ] } },
{ "type": "Feature", "properties": { "LAYER": "Box", "GM_TYPE": "Unknown Line Type", "ELEVATION": 32 }, "geometry": { "type": "MultiLineString", "coordinates": [ [ [ 761435.309917933889665, 8978860.802339356392622 ], [ 761439.902120040380396, 8978862.780136067420244 ], [ 761437.924323329352774, 8978867.37233817204833 ], [ 761433.33212122565601, 8978865.394541464745998 ], [ 761435.309917933889665, 8978860.802339356392622 ] ] ] } },
{ "type": "Feature", "properties": { "LAYER": "Box", "GM_TYPE": "Unknown Line Type", "ELEVATION": 0 }, "geometry": { "type": "MultiLineString", "coordinates": [ [ [ 761531.964103684178554, 8978723.634450567886233 ], [ 761536.556305790669285, 8978725.612247278913856 ], [ 761534.578509079641663, 8978730.204449383541942 ], [ 761529.986306975944899, 8978728.22665267623961 ], [ 761531.964103684178554, 8978723.634450567886233 ] ] ] } },
{ "type": "Feature", "properties": { "LAYER": "Box", "GM_TYPE": "Unknown Line Type", "ELEVATION": 0 }, "geometry": { "type": "MultiLineString", "coordinates": [ [ [ 761613.381630015210249, 8978610.141756679862738 ], [ 761617.97383212170098, 8978612.11955339089036 ], [ 761615.996035410673358, 8978616.711755495518446 ], [ 761611.403833306976594, 8978614.733958788216114 ], [ 761613.381630015210249, 8978610.141756679862738 ] ] ] } },
{ "type": "Feature", "properties": { "LAYER": "Box", "GM_TYPE": "Unknown Line Type", "ELEVATION": 0 }, "geometry": { "type": "MultiLineString", "coordinates": [ [ [ 761435.110638377605937, 8978509.956503501161933 ], [ 761439.702840484096669, 8978511.934300212189555 ], [ 761437.725043773069046, 8978516.526502316817641 ], [ 761433.132841669372283, 8978514.548705609515309 ], [ 761435.110638377605937, 8978509.956503501161933 ] ] ] } },
{ "type": "Feature", "properties": { "LAYER": "Box", "GM_TYPE": "Unknown Line Type", "ELEVATION": 0 }, "geometry": { "type": "MultiLineString", "coordinates": [ [ [ 761491.601685748202726, 8979041.539667811244726 ], [ 761496.193887854693457, 8979043.517464522272348 ], [ 761494.216091143665835, 8979048.109666626900434 ], [ 761489.623889039969072, 8979046.131869919598103 ], [ 761491.601685748202726, 8979041.539667811244726 ] ] ] } },
{ "type": "Feature", "properties": { "LAYER": "Box", "GM_TYPE": "Unknown Line Type", "ELEVATION": 32 }, "geometry": { "type": "MultiLineString", "coordinates": [ [ [ 761444.064211240853183, 8978864.302569564431906 ], [ 761448.656413347343914, 8978866.280366275459528 ], [ 761446.678616636316292, 8978870.872568380087614 ], [ 761442.086414532619528, 8978868.894771672785282 ], [ 761444.064211240853183, 8978864.302569564431906 ] ] ] } },
{ "type": "Feature", "properties": { "LAYER": "Box", "GM_TYPE": "Unknown Line Type", "ELEVATION": 0 }, "geometry": { "type": "MultiLineString", "coordinates": [ [ [ 761539.601628805859946, 8978726.712476745247841 ], [ 761544.193830912350677, 8978728.690273456275463 ], [ 761542.216034201323055, 8978733.282475560903549 ], [ 761537.623832097626291, 8978731.304678853601217 ], [ 761539.601628805859946, 8978726.712476745247841 ] ] ] } },
{ "type": "Feature", "properties": { "LAYER": "Box", "GM_TYPE": "Unknown Line Type", "ELEVATION": 24 }, "geometry": { "type": "MultiLineString", "coordinates": [ [ [ 761845.31706268817652, 8978377.394019303843379 ], [ 761849.909264794667251, 8978379.371816014871001 ], [ 761847.931468083639629, 8978383.964018119499087 ], [ 761843.339265979942866, 8978381.986221412196755 ], [ 761845.31706268817652, 8978377.394019303843379 ] ] ] } },
{ "type": "Feature", "properties": { "LAYER": "Box", "GM_TYPE": "Unknown Line Type", "ELEVATION": 0 }, "geometry": { "type": "MultiLineString", "coordinates": [ [ [ 761908.354183598654345, 8978250.172500120475888 ], [ 761912.946385705145076, 8978252.15029683150351 ], [ 761910.968588994117454, 8978256.742498936131597 ], [ 761906.37638689042069, 8978254.764702228829265 ], [ 761908.354183598654345, 8978250.172500120475888 ] ] ] } },
{ "type": "Feature", "properties": { "LAYER": "Box", "GM_TYPE": "Unknown Line Type", "ELEVATION": 0 }, "geometry": { "type": "MultiLineString", "coordinates": [ [ [ 762067.894910620991141, 8977618.332572409883142 ], [ 762068.232232979033142, 8977613.343964023515582 ], [ 762073.220841366332024, 8977613.681286383420229 ], [ 762072.883519009221345, 8977618.669894766062498 ], [ 762067.894910620991141, 8977618.332572409883142 ] ] ] } },
{ "type": "Feature", "properties": { "LAYER": "Box", "GM_TYPE": "Unknown Line Type", "ELEVATION": 0 }, "geometry": { "type": "MultiLineString", "coordinates": [ [ [ 762238.573514066403732, 8977333.394033920019865 ], [ 762242.885372388875112, 8977335.925412561744452 ], [ 762240.353993747150525, 8977340.237270882353187 ], [ 762236.042135428404436, 8977337.70589224435389 ], [ 762238.573514066403732, 8977333.394033920019865 ] ] ] } },
{ "type": "Feature", "properties": { "LAYER": "Box", "GM_TYPE": "Unknown Line Type", "ELEVATION": 0 }, "geometry": { "type": "MultiLineString", "coordinates": [ [ [ 762416.402226445148699, 8977057.738792901858687 ], [ 762420.401896063121967, 8977060.739233359694481 ], [ 762417.401455603423528, 8977064.738902978599072 ], [ 762413.401785987312905, 8977061.738462524488568 ], [ 762416.402226445148699, 8977057.738792901858687 ] ] ] } },
{ "type": "Feature", "properties": { "LAYER": "Box", "GM_TYPE": "Unknown Line Type", "ELEVATION": 0 }, "geometry": { "type": "MultiLineString", "coordinates": [ [ [ 762055.537340128794312, 8977618.520206324756145 ], [ 762058.836781134828925, 8977614.763387318700552 ], [ 762062.593600141815841, 8977618.06282832659781 ], [ 762059.294159138575196, 8977621.819647330790758 ], [ 762055.537340128794312, 8977618.520206324756145 ] ] ] } },
{ "type": "Feature", "properties": { "LAYER": "Box", "GM_TYPE": "Unknown Line Type", "ELEVATION": 0 }, "geometry": { "type": "MultiLineString", "coordinates": [ [ [ 762233.575184758519754, 8977330.727980121970177 ], [ 762237.887043080991134, 8977333.259358763694763 ], [ 762235.355664439266548, 8977337.571217084303498 ], [ 762231.043806120520458, 8977335.039838446304202 ], [ 762233.575184758519754, 8977330.727980121970177 ] ] ] } },
{ "type": "Feature", "properties": { "LAYER": "Box", "GM_TYPE": "Unknown Line Type", "ELEVATION": 48 }, "geometry": { "type": "MultiLineString", "coordinates": [ [ [ 761826.164732769480906, 8978368.770450269803405 ], [ 761830.756934875971638, 8978370.748246980831027 ], [ 761828.779138164944015, 8978375.340449085459113 ], [ 761824.186936061247252, 8978373.362652378156781 ], [ 761826.164732769480906, 8978368.770450269803405 ] ] ] } },
{ "type": "Feature", "properties": { "LAYER": "Box", "GM_TYPE": "Unknown Line Type", "ELEVATION": 67 }, "geometry": { "type": "MultiLineString", "coordinates": [ [ [ 761945.524507139693014, 8978163.423748549073935 ], [ 761950.116709246183746, 8978165.401545260101557 ], [ 761948.138912535156123, 8978169.993747364729643 ], [ 761943.54671043145936, 8978168.015950657427311 ], [ 761945.524507139693014, 8978163.423748549073935 ] ] ] } },
{ "type": "Feature", "properties": { "LAYER": "Box", "GM_TYPE": "Unknown Line Type", "ELEVATION": 0 }, "geometry": { "type": "MultiLineString", "coordinates": [ [ [ 760828.094598749186844, 8978728.026315283030272 ], [ 760830.020279562100768, 8978723.412016483023763 ], [ 760834.634578362107277, 8978725.337697297334671 ], [ 760832.708897551521659, 8978729.95199609361589 ], [ 760828.094598749186844, 8978728.026315283030272 ] ] ] } },
{ "type": "Feature", "properties": { "LAYER": "Box", "GM_TYPE": "Unknown Line Type", "ELEVATION": 0 }, "geometry": { "type": "MultiLineString", "coordinates": [ [ [ 760933.30118346970994, 8978520.41306608915329 ], [ 760935.226864282623865, 8978515.798767289146781 ], [ 760939.841163082630374, 8978517.724448103457689 ], [ 760937.915482272044756, 8978522.338746899738908 ], [ 760933.30118346970994, 8978520.41306608915329 ] ] ] } },
{ "type": "Feature", "properties": { "LAYER": "Box", "GM_TYPE": "Unknown Line Type", "ELEVATION": 0 }, "geometry": { "type": "MultiLineString", "coordinates": [ [ [ 760649.29418596974574, 8978067.311057273298502 ], [ 760651.219866782659665, 8978062.696758473291993 ], [ 760655.834165582666174, 8978064.622439287602901 ], [ 760653.908484772080556, 8978069.23673808388412 ], [ 760649.29418596974574, 8978067.311057273298502 ] ] ] } },
{ "type": "Feature", "properties": { "LAYER": "Box", "GM_TYPE": "Unknown Line Type", "ELEVATION": 0 }, "geometry": { "type": "MultiLineString", "coordinates": [ [ [ 760720.866583737777546, 8977932.389825815334916 ], [ 760722.792264550691471, 8977927.775527015328407 ], [ 760727.406563350697979, 8977929.701207829639316 ], [ 760725.480882540112361, 8977934.315506625920534 ], [ 760720.866583737777546, 8977932.389825815334916 ] ] ] } },
{ "type": "Feature", "properties": { "LAYER": "Box", "GM_TYPE": "Unknown Line Type", "ELEVATION": 0 }, "geometry": { "type": "MultiLineString", "coordinates": [ [ [ 760993.517904778127559, 8977458.805314287543297 ], [ 760995.443585591041483, 8977454.191015487536788 ], [ 761000.057884391047992, 8977456.116696301847696 ], [ 760998.132203580462374, 8977460.730995098128915 ], [ 760993.517904778127559, 8977458.805314287543297 ] ] ] } },
{ "type": "Feature", "properties": { "LAYER": "Box", "GM_TYPE": "Unknown Line Type", "ELEVATION": 0 }, "geometry": { "type": "MultiLineString", "coordinates": [ [ [ 760302.643744043074548, 8976494.235693404451013 ], [ 760300.159145057201385, 8976489.896711047738791 ], [ 760304.498127415776253, 8976487.412112064659595 ], [ 760306.98272639978677, 8976491.751094415783882 ], [ 760302.643744043074548, 8976494.235693404451013 ] ] ] } },
{ "type": "Feature", "properties": { "LAYER": "Box", "GM_TYPE": "Unknown Line Type", "ELEVATION": 0 }, "geometry": { "type": "MultiLineString", "coordinates": [ [ [ 760303.448551114764996, 8976475.187042139470577 ], [ 760298.975500239175744, 8976472.952804937958717 ], [ 760301.209737443481572, 8976468.479754064232111 ], [ 760305.682788314414211, 8976470.713991262018681 ], [ 760303.448551114764996, 8976475.187042139470577 ] ] ] } },
{ "type": "Feature", "properties": { "LAYER": "Box", "GM_TYPE": "Unknown Line Type", "ELEVATION": 0 }, "geometry": { "type": "MultiLineString", "coordinates": [ [ [ 760606.588988126255572, 8976421.730137001723051 ], [ 760604.104389140382409, 8976417.391154645010829 ], [ 760608.443371498957276, 8976414.906555661931634 ], [ 760610.927970482967794, 8976419.245538013055921 ], [ 760606.588988126255572, 8976421.730137001723051 ] ] ] } },
{ "type": "Feature", "properties": { "LAYER": "Box", "GM_TYPE": "Unknown Line Type", "ELEVATION": 0 }, "geometry": { "type": "MultiLineString", "coordinates": [ [ [ 761253.566071390174329, 8976274.64941381663084 ], [ 761251.081472404301167, 8976270.310431459918618 ], [ 761255.420454762876034, 8976267.825832476839423 ], [ 761257.905053746886551, 8976272.16481482796371 ], [ 761253.566071390174329, 8976274.64941381663084 ] ] ] } },
{ "type": "Feature", "properties": { "LAYER": "Box", "GM_TYPE": "Unknown Line Type", "ELEVATION": 0 }, "geometry": { "type": "MultiLineString", "coordinates": [ [ [ 761645.357855193200521, 8976188.817718351259828 ], [ 761642.873256207327358, 8976184.478735994547606 ], [ 761647.212238565902226, 8976181.99413701146841 ], [ 761649.696837549912743, 8976186.333119362592697 ], [ 761645.357855193200521, 8976188.817718351259828 ] ] ] } },
{ "type": "Feature", "properties": { "LAYER": "Box", "GM_TYPE": "Unknown Line Type", "ELEVATION": 0 }, "geometry": { "type": "MultiLineString", "coordinates": [ [ [ 761250.604708005674183, 8976267.206699628382921 ], [ 761246.2634038021788, 8976264.726159803569317 ], [ 761248.743943631649017, 8976260.384855601936579 ], [ 761253.085247829556465, 8976262.865395423024893 ], [ 761250.604708005674183, 8976267.206699628382921 ] ] ] } },
{ "type": "Feature", "properties": { "LAYER": "Box", "GM_TYPE": "Unknown Line Type", "ELEVATION": 0 }, "geometry": { "type": "MultiLineString", "coordinates": [ [ [ 759771.901785222929902, 8976592.540319133549929 ], [ 759767.428734347340651, 8976590.306081932038069 ], [ 759769.662971551646478, 8976585.833031058311462 ], [ 759774.136022422579117, 8976588.067268256098032 ], [ 759771.901785222929902, 8976592.540319133549929 ] ] ] } },
{ "type": "Feature", "properties": { "LAYER": "Box", "GM_TYPE": "Unknown Line Type", "ELEVATION": 0 }, "geometry": { "type": "MultiLineString", "coordinates": [ [ [ 760985.607662560418248, 8977459.810602148994803 ], [ 760982.022665081545711, 8977456.325233720242977 ], [ 760985.508033512160182, 8977452.74023624137044 ], [ 760989.093030987307429, 8977456.225604666396976 ], [ 760985.607662560418248, 8977459.810602148994803 ] ] ] } },
{ "type": "Feature", "properties": { "LAYER": "Box", "GM_TYPE": "Unknown Line Type", "ELEVATION": 0 }, "geometry": { "type": "MultiLineString", "coordinates": [ [ [ 760795.642790269106627, 8976971.950176140293479 ], [ 760792.057792790234089, 8976968.464807711541653 ], [ 760795.54316122084856, 8976964.879810232669115 ], [ 760799.128158695995808, 8976968.365178657695651 ], [ 760795.642790269106627, 8976971.950176140293479 ] ] ] } },
{ "type": "Feature", "properties": { "LAYER": "Box", "GM_TYPE": "Unknown Line Type", "ELEVATION": 0 }, "geometry": { "type": "MultiLineString", "coordinates": [ [ [ 760629.358895298442803, 8978056.271156892180443 ], [ 760631.284576111356728, 8978051.656858092173934 ], [ 760635.898874911363237, 8978053.582538906484842 ], [ 760633.973194100777619, 8978058.196837702766061 ], [ 760629.358895298442803, 8978056.271156892180443 ] ] ] } },
{ "type": "Feature", "properties": { "LAYER": "Box", "GM_TYPE": "Unknown Line Type", "ELEVATION": 0 }, "geometry": { "type": "MultiLineString", "coordinates": [ [ [ 760499.590615049353801, 8977986.047685908153653 ], [ 760501.516295862267725, 8977981.433387108147144 ], [ 760506.130594662274234, 8977983.359067922458053 ], [ 760504.204913851688616, 8977987.973366718739271 ], [ 760499.590615049353801, 8977986.047685908153653 ] ] ] } },
{ "type": "Feature", "properties": { "LAYER": "Box", "GM_TYPE": "Unknown Line Type", "ELEVATION": 0 }, "geometry": { "type": "MultiLineString", "coordinates": [ [ [ 760555.510150507441722, 8977890.905628152191639 ], [ 760557.435831320355646, 8977886.29132935218513 ], [ 760562.050130120362155, 8977888.217010166496038 ], [ 760560.124449309776537, 8977892.831308962777257 ], [ 760555.510150507441722, 8977890.905628152191639 ] ] ] } },
{ "type": "Feature", "properties": { "LAYER": "Box", "GM_TYPE": "Unknown Line Type", "ELEVATION": 0 }, "geometry": { "type": "MultiLineString", "coordinates": [ [ [ 759509.00613378547132, 8977505.938529068604112 ], [ 759511.834721240215003, 8977510.061524704098701 ], [ 759507.711725602857769, 8977512.890112157911062 ], [ 759504.883138149045408, 8977508.767116528004408 ], [ 759509.00613378547132, 8977505.938529068604112 ] ] ] } },
{ "type": "Feature", "properties": { "LAYER": "Box", "GM_TYPE": "Unknown Line Type", "ELEVATION": 0 }, "geometry": { "type": "MultiLineString", "coordinates": [ [ [ 759651.009709030389786, 8977244.080260321497917 ], [ 759653.838296485133469, 8977248.203255956992507 ], [ 759649.715300847776234, 8977251.031843410804868 ], [ 759646.886713393963873, 8977246.908847780898213 ], [ 759651.009709030389786, 8977244.080260321497917 ] ] ] } },
{ "type": "Feature", "properties": { "LAYER": "Box", "GM_TYPE": "Unknown Line Type", "ELEVATION": 0 }, "geometry": { "type": "MultiLineString", "coordinates": [ [ [ 759899.051350354216993, 8976578.093030905351043 ], [ 759894.085694594308734, 8976578.678063277155161 ], [ 759893.500662225298584, 8976573.712407516315579 ], [ 759898.466317979618907, 8976573.127375142648816 ], [ 759899.051350354216993, 8976578.093030905351043 ] ] ] } },
{ "type": "Feature", "properties": { "LAYER": "Box", "GM_TYPE": "Unknown Line Type", "ELEVATION": 0 }, "geometry": { "type": "MultiLineString", "coordinates": [ [ [ 763440.07743125280831, 8981454.26521641947329 ], [ 763435.152559385285713, 8981453.40171361900866 ], [ 763436.016062185750343, 8981448.476841751486063 ], [ 763440.94093405327294, 8981449.340344551950693 ], [ 763440.07743125280831, 8981454.26521641947329 ] ] ] } },
{ "type": "Feature", "properties": { "LAYER": "Box", "GM_TYPE": "Unknown Line Type", "ELEVATION": 0 }, "geometry": { "type": "MultiLineString", "coordinates": [ [ [ 763930.995839048177004, 8980084.907830145210028 ], [ 763928.519593653269112, 8980080.56407499872148 ], [ 763932.863348797895014, 8980078.087829608470201 ], [ 763935.339594191871583, 8980082.431584751233459 ], [ 763930.995839048177004, 8980084.907830145210028 ] ] ] } },
{ "type": "Feature", "properties": { "LAYER": "Box", "GM_TYPE": "Unknown Line Type", "ELEVATION": 0 }, "geometry": { "type": "MultiLineString", "coordinates": [ [ [ 764102.879641474690288, 8979741.568109773099422 ], [ 764099.17208300717175, 8979738.21341004781425 ], [ 764102.5267827315256, 8979734.505851585417986 ], [ 764106.23434119625017, 8979737.860551305115223 ], [ 764102.879641474690288, 8979741.568109773099422 ] ] ] } },
{ "type": "Feature", "properties": { "LAYER": "Box", "GM_TYPE": "Unknown Line Type", "ELEVATION": 0 }, "geometry": { "type": "MultiLineString", "coordinates": [ [ [ 764142.110862075351179, 8979525.95234739407897 ], [ 764142.669666770845652, 8979520.98367178067565 ], [ 764147.638342378661036, 8979521.54247647896409 ], [ 764147.079537685029209, 8979526.51115208864212 ], [ 764142.110862075351179, 8979525.95234739407897 ] ] ] } },
{ "type": "Feature", "properties": { "LAYER": "Box", "GM_TYPE": "Unknown Line Type", "ELEVATION": 0 }, "geometry": { "type": "MultiLineString", "coordinates": [ [ [ 764225.040521524846554, 8979362.799376647919416 ], [ 764220.311945244669914, 8979361.174394682049751 ], [ 764221.936927213333547, 8979356.445818405598402 ], [ 764226.665503489784896, 8979358.070800371468067 ], [ 764225.040521524846554, 8979362.799376647919416 ] ] ] } },
{ "type": "Feature", "properties": { "LAYER": "Box", "GM_TYPE": "Unknown Line Type", "ELEVATION": 0 }, "geometry": { "type": "MultiLineString", "coordinates": [ [ [ 763825.103144465945661, 8979426.077170440927148 ], [ 763820.326656766235828, 8979424.59893998503685 ], [ 763821.804887224920094, 8979419.822452288120985 ], [ 763826.581374920904636, 8979421.300682745873928 ], [ 763825.103144465945661, 8979426.077170440927148 ] ] ] } },
{ "type": "Feature", "properties": { "LAYER": "Box", "GM_TYPE": "Unknown Line Type", "ELEVATION": 0 }, "geometry": { "type": "MultiLineString", "coordinates": [ [ [ 763653.566690847743303, 8979859.515761442482471 ], [ 763651.090445452835411, 8979855.172006295993924 ], [ 763655.434200597461313, 8979852.695760905742645 ], [ 763657.910445991437882, 8979857.039516048505902 ], [ 763653.566690847743303, 8979859.515761442482471 ] ] ] } },
{ "type": "Feature", "properties": { "LAYER": "Box", "GM_TYPE": "Unknown Line Type", "ELEVATION": 0 }, "geometry": { "type": "MultiLineString", "coordinates": [ [ [ 763574.616019954904914, 8979271.365418031811714 ], [ 763569.839532255195081, 8979269.887187575921416 ], [ 763571.317762713879347, 8979265.110699879005551 ], [ 763576.094250409863889, 8979266.588930336758494 ], [ 763574.616019954904914, 8979271.365418031811714 ] ] ] } },
{ "type": "Feature", "properties": { "LAYER": "Box", "GM_TYPE": "Unknown Line Type", "ELEVATION": 0 }, "geometry": { "type": "MultiLineString", "coordinates": [ [ [ 761359.069542041746899, 8979500.350992573425174 ], [ 761359.101941735949367, 8979500.321151431649923 ] ] ] } },
{ "type": "Feature", "properties": { "LAYER": "Box", "GM_TYPE": "Unknown Line Type", "ELEVATION": 0 }, "geometry": { "type": "MultiLineString", "coordinates": [ [ [ 761358.56263071927242, 8979496.865445045754313 ], [ 761361.930121224373579, 8979499.353978700935841 ] ] ] } },
{ "type": "Feature", "properties": { "LAYER": "Box", "GM_TYPE": "Unknown Line Type", "ELEVATION": 0 }, "geometry": { "type": "MultiLineString", "coordinates": [ [ [ 761361.474970019422472, 8979501.337481634691358 ], [ 761359.61220219405368, 8979503.858184117823839 ], [ 761355.591046921908855, 8979500.886600323021412 ], [ 761358.56263071927242, 8979496.865445045754313 ] ] ] } }
]
}
