{
"type": "FeatureCollection",
"name": "09_lo_li_asesories",
"crs": { "type": "name", "properties": { "name": "urn:ogc:def:crs:EPSG::32751" } },
"features": [
{ "type": "Feature", "properties": { "LAYER": "06.Asesories", "GM_TYPE": "Unknown Line Type", "ELEVATION": 0 }, "geometry": { "type": "MultiLineString", "coordinates": [ [ [ 763450.650848191813566, 8984574.696426600217819 ], [ 762857.99720907304436, 8984412.279858576133847 ] ] ] } },
{ "type": "Feature", "properties": { "LAYER": "06.Asesories", "GM_TYPE": "Unknown Line Type", "ELEVATION": 0 }, "geometry": { "type": "MultiLineString", "coordinates": [ [ [ 763626.519552424782887, 8984185.04775614477694 ], [ 763046.901579782599583, 8984053.992672653868794 ] ] ] } },
{ "type": "Feature", "properties": { "LAYER": "06.Asesories", "GM_TYPE": "Unknown Line Type", "ELEVATION": 0 }, "geometry": { "type": "MultiLineString", "coordinates": [ [ [ 764360.114012007252313, 8981785.128528818488121 ], [ 764363.918473313678987, 8981794.597483737394214 ], [ 764595.229877227218822, 8981877.194045698270202 ], [ 764610.053254264174029, 8981874.961401464417577 ] ] ] } },
{ "type": "Feature", "properties": { "LAYER": "06.Asesories", "GM_TYPE": "Unknown Line Type", "ELEVATION": 0 }, "geometry": { "type": "MultiLineString", "coordinates": [ [ [ 764353.003507943707518, 8981805.233340630307794 ], [ 764361.945111840846948, 8981800.315744383260608 ], [ 764593.256515754270367, 8981882.912306344136596 ], [ 764603.313092078897171, 8981894.029072048142552 ] ] ] } },
{ "type": "Feature", "properties": { "LAYER": "06.Asesories", "GM_TYPE": "Unknown Line Type", "ELEVATION": 0 }, "geometry": { "type": "MultiLineString", "coordinates": [ [ [ 763207.865103142918088, 8984120.803397009149194 ], [ 763268.241621004999615, 8984129.069213539361954 ], [ 763268.948662949958816, 8984129.149200920015574 ], [ 763270.371663936995901, 8984128.744903050363064 ], [ 763272.526254222961143, 8984126.314699599519372 ], [ 763273.06280836800579, 8984119.98576875962317 ], [ 763276.695473851985298, 8984102.836660860106349 ], [ 763287.112576529965736, 8984061.886353749781847 ], [ 763300.136047255015001, 8984013.699372060596943 ] ] ] } },
{ "type": "Feature", "properties": { "LAYER": "06.Asesories", "GM_TYPE": "Unknown Line Type", "ELEVATION": 0 }, "geometry": { "type": "MultiLineString", "coordinates": [ [ [ 763207.946486699394882, 8984120.208942035213113 ], [ 763268.316046743886545, 8984128.473806008696556 ], [ 763268.898519144509919, 8984128.539700884371996 ], [ 763270.039023768040352, 8984128.215664856135845 ], [ 763271.945217271219008, 8984126.065632870420814 ], [ 763272.468103752937168, 8984119.897919116541743 ], [ 763276.111007845262066, 8984102.700476737692952 ], [ 763286.532195033854805, 8984061.734113149344921 ], [ 763299.556829104665667, 8984013.542827069759369 ] ] ] } },
{ "type": "Feature", "properties": { "LAYER": "06.Asesories", "GM_TYPE": "Unknown Line Type", "ELEVATION": 0 }, "geometry": { "type": "MultiLineString", "coordinates": [ [ [ 763289.344164160895161, 8983993.591389419510961 ], [ 763287.991138852084987, 8983999.080816920846701 ] ] ] } },
{ "type": "Feature", "properties": { "LAYER": "06.Asesories", "GM_TYPE": "Unknown Line Type", "ELEVATION": 0 }, "geometry": { "type": "MultiLineString", "coordinates": [ [ [ 763284.492497885948978, 8984001.419994039461017 ], [ 763285.770822077058256, 8983995.828452698886395 ] ] ] } },
{ "type": "Feature", "properties": { "LAYER": "06.Asesories", "GM_TYPE": "Unknown Line Type", "ELEVATION": 0 }, "geometry": { "type": "MultiLineString", "coordinates": [ [ [ 763285.770822077058256, 8983995.828452698886395 ], [ 763284.020372071070597, 8983992.882763871923089 ] ] ] } },
{ "type": "Feature", "properties": { "LAYER": "06.Asesories", "GM_TYPE": "Unknown Line Type", "ELEVATION": 0 }, "geometry": { "type": "MultiLineString", "coordinates": [ [ [ 763284.492497885948978, 8984001.419994039461017 ], [ 763281.835098770097829, 8984003.13278791308403 ] ] ] } },
{ "type": "Feature", "properties": { "LAYER": "06.Asesories", "GM_TYPE": "Unknown Line Type", "ELEVATION": 0 }, "geometry": { "type": "MultiLineString", "coordinates": [ [ [ 763287.991138852084987, 8983999.080816920846701 ], [ 763288.724294302868657, 8984001.356616077944636 ] ] ] } },
{ "type": "Feature", "properties": { "LAYER": "06.Asesories", "GM_TYPE": "Unknown Line Type", "ELEVATION": 0 }, "geometry": { "type": "MultiLineString", "coordinates": [ [ [ 763289.344164160895161, 8983993.591389419510961 ], [ 763291.539229836547747, 8983991.36559646949172 ] ] ] } },
{ "type": "Feature", "properties": { "LAYER": "06.Asesories", "GM_TYPE": "Unknown Line Type", "ELEVATION": 0 }, "geometry": { "type": "MultiLineString", "coordinates": [ [ [ 762720.134053945890628, 8980060.07093988917768 ], [ 762729.044836650951765, 8980058.097484789788723 ], [ 762714.301548185991123, 8980004.226031640544534 ], [ 762705.835476113017648, 8980006.930316619575024 ], [ 762720.134053945890628, 8980060.07093988917768 ] ] ] } },
{ "type": "Feature", "properties": { "LAYER": "06.Asesories", "GM_TYPE": "Unknown Line Type", "ELEVATION": 0 }, "geometry": { "type": "MultiLineString", "coordinates": [ [ [ 762324.965511715970933, 8979603.307893499732018 ], [ 762342.606337215052918, 8979613.261429589241743 ], [ 762346.847658152924851, 8979606.197813699021935 ], [ 762328.926627851440571, 8979596.359698690474033 ] ] ] } },
{ "type": "Feature", "properties": { "LAYER": "06.Asesories", "GM_TYPE": "Unknown Line Type", "ELEVATION": 0 }, "geometry": { "type": "MultiLineString", "coordinates": [ [ [ 762333.896546527044848, 8979608.286940598860383 ], [ 762342.924268438015133, 8979592.289018329232931 ], [ 762334.148082573548891, 8979587.200743647292256 ], [ 762324.965511715970933, 8979603.307893499732018 ] ] ] } },
{ "type": "Feature", "properties": { "LAYER": "06.Asesories", "GM_TYPE": "Unknown Line Type", "ELEVATION": 0 }, "geometry": { "type": "MultiLineString", "coordinates": [ [ [ 762388.487594102974981, 8979621.921604780480266 ], [ 762380.962033297051676, 8979634.695349639281631 ], [ 762372.283536944072694, 8979629.886591689661145 ], [ 762363.54195446590893, 8979624.821023249998689 ], [ 762367.870811419095844, 8979618.275596400722861 ], [ 762372.281051731668413, 8979611.944876393303275 ], [ 762388.487594102974981, 8979621.921604780480266 ] ] ] } },
{ "type": "Feature", "properties": { "LAYER": "06.Asesories", "GM_TYPE": "Unknown Line Type", "ELEVATION": 0 }, "geometry": { "type": "MultiLineString", "coordinates": [ [ [ 765583.390445527154952, 8980427.832522274926305 ], [ 765680.340588280581869, 8980236.293515710160136 ], [ 765702.65192194993142, 8980247.586708793416619 ], [ 765661.468118746299297, 8980210.92585426568985 ], [ 765708.973288700217381, 8980223.220820631831884 ], [ 765689.656650574528612, 8980209.496203973889351 ], [ 765764.770998739055358, 8980059.795710859820247 ], [ 765754.658306549070403, 8980120.045893609523773 ], [ 765721.494182161171921, 8980101.430622724816203 ] ] ] } }
]
}
