{
"type": "FeatureCollection",
"name": "09_lo_li_kodebm",
"crs": { "type": "name", "properties": { "name": "urn:ogc:def:crs:EPSG::32751" } },
"features": [
{ "type": "Feature", "properties": { "LAYER": "kode bm", "GM_TYPE": "Unknown Line Type", "ELEVATION": 0 }, "geometry": { "type": "MultiLineString", "coordinates": [ [ [ 762885.86675774899777, 8981310.590983668342233 ], [ 762781.350991042330861, 8981451.162342481315136 ], [ 762442.394216691143811, 8981451.162342481315136 ] ] ] } },
{ "type": "Feature", "properties": { "LAYER": "kode bm", "GM_TYPE": "Unknown Line Type", "ELEVATION": 0 }, "geometry": { "type": "MultiLineString", "coordinates": [ [ [ 762893.087799636297859, 8981288.632896048948169 ], [ 762782.750642093247734, 8981345.162866400554776 ], [ 762443.793867742060684, 8981345.162866400554776 ] ] ] } },
{ "type": "Feature", "properties": { "LAYER": "kode bm", "GM_TYPE": "Unknown Line Type", "ELEVATION": 0 }, "geometry": { "type": "MultiLineString", "coordinates": [ [ [ 763222.369895434239879, 8981748.176652820780873 ], [ 763076.835744046024047, 8981895.328105552121997 ], [ 762737.878969694836996, 8981895.328105552121997 ] ] ] } },
{ "type": "Feature", "properties": { "LAYER": "kode bm", "GM_TYPE": "Unknown Line Type", "ELEVATION": 0 }, "geometry": { "type": "MultiLineString", "coordinates": [ [ [ 763263.386160845868289, 8981723.521223869174719 ], [ 763076.835744046024047, 8981784.40582849085331 ], [ 762737.878969694836996, 8981784.40582849085331 ] ] ] } },
{ "type": "Feature", "properties": { "LAYER": "kode bm", "GM_TYPE": "Unknown Line Type", "ELEVATION": 0 }, "geometry": { "type": "MultiLineString", "coordinates": [ [ [ 763295.336059696157463, 8982157.258953349664807 ], [ 763139.317040769034065, 8982301.269152142107487 ], [ 762800.360266417847015, 8982301.269152142107487 ] ] ] } },
{ "type": "Feature", "properties": { "LAYER": "kode bm", "GM_TYPE": "Unknown Line Type", "ELEVATION": 0 }, "geometry": { "type": "MultiLineString", "coordinates": [ [ [ 763284.851192174013704, 8982154.117699394002557 ], [ 763139.317040769034065, 8982190.346875080838799 ], [ 762800.360266417847015, 8982190.346875080838799 ] ] ] } },
{ "type": "Feature", "properties": { "LAYER": "kode bm", "GM_TYPE": "Unknown Line Type", "ELEVATION": 0 }, "geometry": { "type": "MultiLineString", "coordinates": [ [ [ 762745.955607125302777, 8980894.579410834237933 ], [ 762597.368621039902791, 8981034.38765131123364 ], [ 762258.411846688715741, 8981034.38765131123364 ] ] ] } },
{ "type": "Feature", "properties": { "LAYER": "kode bm", "GM_TYPE": "Unknown Line Type", "ELEVATION": 0 }, "geometry": { "type": "MultiLineString", "coordinates": [ [ [ 762731.282374165253714, 8980881.288642730563879 ], [ 762598.768272090819664, 8980928.38817523047328 ], [ 762259.811497739632614, 8980928.38817523047328 ] ] ] } },
{ "type": "Feature", "properties": { "LAYER": "kode bm", "GM_TYPE": "Unknown Line Type", "ELEVATION": 0 }, "geometry": { "type": "MultiLineString", "coordinates": [ [ [ 760558.31631178187672, 8979962.607037080451846 ], [ 760457.623211967642419, 8980043.381828084588051 ], [ 760118.666437616455369, 8980043.381828084588051 ] ] ] } },
{ "type": "Feature", "properties": { "LAYER": "kode bm", "GM_TYPE": "Unknown Line Type", "ELEVATION": 0 }, "geometry": { "type": "MultiLineString", "coordinates": [ [ [ 760588.261373308370821, 8979927.322729472070932 ], [ 760459.022863018559292, 8979958.224391037598252 ], [ 760120.066088667372242, 8979958.224391037598252 ] ] ] } },
{ "type": "Feature", "properties": { "LAYER": "kode bm", "GM_TYPE": "Unknown Line Type", "ELEVATION": 0 }, "geometry": { "type": "MultiLineString", "coordinates": [ [ [ 760915.055202575400472, 8979845.223694415763021 ], [ 760978.762368659256026, 8980036.247405219823122 ], [ 761317.719143010443076, 8980036.247405219823122 ] ] ] } },
{ "type": "Feature", "properties": { "LAYER": "kode bm", "GM_TYPE": "Unknown Line Type", "ELEVATION": 0 }, "geometry": { "type": "MultiLineString", "coordinates": [ [ [ 760948.589576189289801, 8979794.761331349611282 ], [ 760977.362717608339153, 8979951.089968172833323 ], [ 761316.319491959526204, 8979951.089968172833323 ] ] ] } },
{ "type": "Feature", "properties": { "LAYER": "kode bm", "GM_TYPE": "Unknown Line Type", "ELEVATION": 0 }, "geometry": { "type": "MultiLineString", "coordinates": [ [ [ 761631.695411589113064, 8979400.761599669232965 ], [ 761501.444483326515183, 8979511.101305345073342 ], [ 761162.487708975328133, 8979511.101305345073342 ] ] ] } },
{ "type": "Feature", "properties": { "LAYER": "kode bm", "GM_TYPE": "Unknown Line Type", "ELEVATION": 0 }, "geometry": { "type": "MultiLineString", "coordinates": [ [ [ 761599.170735844294541, 8979383.903545189648867 ], [ 761502.844134377432056, 8979425.943868298083544 ], [ 761163.887360026245005, 8979425.943868298083544 ] ] ] } },
{ "type": "Feature", "properties": { "LAYER": "kode bm", "GM_TYPE": "Unknown Line Type", "ELEVATION": 0 }, "geometry": { "type": "MultiLineString", "coordinates": [ [ [ 761481.428799519082531, 8979083.529608130455017 ], [ 761221.65270542667713, 8979234.785557337105274 ], [ 760882.69593107549008, 8979234.785557337105274 ] ] ] } },
{ "type": "Feature", "properties": { "LAYER": "kode bm", "GM_TYPE": "Unknown Line Type", "ELEVATION": 0 }, "geometry": { "type": "MultiLineString", "coordinates": [ [ [ 761438.640071040950716, 8979071.32743252068758 ], [ 761223.052356477594003, 8979149.628120290115476 ], [ 760884.095582126406953, 8979149.628120290115476 ] ] ] } },
{ "type": "Feature", "properties": { "LAYER": "kode bm", "GM_TYPE": "Unknown Line Type", "ELEVATION": 0 }, "geometry": { "type": "MultiLineString", "coordinates": [ [ [ 760985.497823699028231, 8978819.481998210772872 ], [ 760895.412226526532322, 8978970.665390586480498 ], [ 760556.455452175345272, 8978970.665390586480498 ] ] ] } },
{ "type": "Feature", "properties": { "LAYER": "kode bm", "GM_TYPE": "Unknown Line Type", "ELEVATION": 0 }, "geometry": { "type": "MultiLineString", "coordinates": [ [ [ 760939.515939050004818, 8978805.004210140556097 ], [ 760896.811877577449195, 8978885.5079535394907 ], [ 760557.855103226262145, 8978885.5079535394907 ] ] ] } },
{ "type": "Feature", "properties": { "LAYER": "kode bm", "GM_TYPE": "Unknown Line Type", "ELEVATION": 0 }, "geometry": { "type": "MultiLineString", "coordinates": [ [ [ 760428.913649499998428, 8978530.02448515035212 ], [ 760355.169138500234112, 8978678.970191342756152 ], [ 760016.212364149047062, 8978678.970191342756152 ] ] ] } },
{ "type": "Feature", "properties": { "LAYER": "kode bm", "GM_TYPE": "Unknown Line Type", "ELEVATION": 0 }, "geometry": { "type": "MultiLineString", "coordinates": [ [ [ 760428.530145509983413, 8978499.866576680913568 ], [ 760356.568789551150985, 8978593.812754295766354 ], [ 760017.612015199963935, 8978593.812754295766354 ] ] ] } },
{ "type": "Feature", "properties": { "LAYER": "kode bm", "GM_TYPE": "Unknown Line Type", "ELEVATION": 0 }, "geometry": { "type": "MultiLineString", "coordinates": [ [ [ 760192.599646639078856, 8978056.745732590556145 ], [ 760112.960877555422485, 8978215.282915258780122 ], [ 759774.004103204235435, 8978215.282915258780122 ] ] ] } },
{ "type": "Feature", "properties": { "LAYER": "kode bm", "GM_TYPE": "Unknown Line Type", "ELEVATION": 0 }, "geometry": { "type": "MultiLineString", "coordinates": [ [ [ 760183.350819537066855, 8978034.529090460389853 ], [ 760114.360528606339358, 8978130.125478211790323 ], [ 759775.403754255152307, 8978130.125478211790323 ] ] ] } },
{ "type": "Feature", "properties": { "LAYER": "kode bm", "GM_TYPE": "Unknown Line Type", "ELEVATION": 0 }, "geometry": { "type": "MultiLineString", "coordinates": [ [ [ 759758.464129330008291, 8977861.370312590152025 ], [ 759673.169102188083343, 8978046.734677197411656 ], [ 759334.212327836896293, 8978046.734677197411656 ] ] ] } },
{ "type": "Feature", "properties": { "LAYER": "kode bm", "GM_TYPE": "Unknown Line Type", "ELEVATION": 0 }, "geometry": { "type": "MultiLineString", "coordinates": [ [ [ 759766.981431114953011, 8977842.106857830658555 ], [ 759674.568753239000216, 8977961.577240150421858 ], [ 759335.611978887813166, 8977961.577240150421858 ] ] ] } },
{ "type": "Feature", "properties": { "LAYER": "kode bm", "GM_TYPE": "Unknown Line Type", "ELEVATION": 0 }, "geometry": { "type": "MultiLineString", "coordinates": [ [ [ 759489.411889799055643, 8977544.526310980319977 ], [ 759402.69342346303165, 8977719.702088488265872 ], [ 759063.736649111844599, 8977719.702088488265872 ] ] ] } },
{ "type": "Feature", "properties": { "LAYER": "kode bm", "GM_TYPE": "Unknown Line Type", "ELEVATION": 0 }, "geometry": { "type": "MultiLineString", "coordinates": [ [ [ 759497.025039579952136, 8977505.346561839804053 ], [ 759404.093074513948523, 8977634.544651441276073 ], [ 759065.136300162761472, 8977634.544651441276073 ] ] ] } },
{ "type": "Feature", "properties": { "LAYER": "kode bm", "GM_TYPE": "Unknown Line Type", "ELEVATION": 0 }, "geometry": { "type": "MultiLineString", "coordinates": [ [ [ 763319.320732565014623, 8983608.426773220300674 ], [ 763140.680012719589286, 8983849.994016341865063 ], [ 762801.723238368402235, 8983849.994016341865063 ] ] ] } },
{ "type": "Feature", "properties": { "LAYER": "kode bm", "GM_TYPE": "Unknown Line Type", "ELEVATION": 0 }, "geometry": { "type": "MultiLineString", "coordinates": [ [ [ 763295.253222029074095, 8983618.630250789225101 ], [ 763140.680012719589286, 8983754.165222039446235 ], [ 762801.723238368402235, 8983754.165222039446235 ] ] ] } },
{ "type": "Feature", "properties": { "LAYER": "kode bm", "GM_TYPE": "Unknown Line Type", "ELEVATION": 0 }, "geometry": { "type": "MultiLineString", "coordinates": [ [ [ 763383.660550914006308, 8984297.371132859960198 ], [ 763088.090154609642923, 8984508.646654838696122 ], [ 762749.133380258455873, 8984508.646654838696122 ] ] ] } },
{ "type": "Feature", "properties": { "LAYER": "kode bm", "GM_TYPE": "Unknown Line Type", "ELEVATION": 0 }, "geometry": { "type": "MultiLineString", "coordinates": [ [ [ 763157.431192922987975, 8984234.948866359889507 ], [ 763088.090154609642923, 8984412.817860536277294 ], [ 762749.133380258455873, 8984412.817860536277294 ] ] ] } },
{ "type": "Feature", "properties": { "LAYER": "kode bm", "GM_TYPE": "Unknown Line Type", "ELEVATION": 0 }, "geometry": { "type": "MultiLineString", "coordinates": [ [ [ 765386.264916314044967, 8979685.144586909562349 ], [ 765207.037708126357757, 8979835.561827206984162 ], [ 764868.080933775170706, 8979835.561827206984162 ] ] ] } },
{ "type": "Feature", "properties": { "LAYER": "kode bm", "GM_TYPE": "Unknown Line Type", "ELEVATION": 0 }, "geometry": { "type": "MultiLineString", "coordinates": [ [ [ 765374.501372900907882, 8979674.950452530756593 ], [ 765208.437359177274629, 8979750.404390159994364 ], [ 764869.480584826087579, 8979750.404390159994364 ] ] ] } },
{ "type": "Feature", "properties": { "LAYER": "kode bm", "GM_TYPE": "Unknown Line Type", "ELEVATION": 0 }, "geometry": { "type": "MultiLineString", "coordinates": [ [ [ 763729.510027391137555, 8982261.663539070636034 ], [ 763571.49904789053835, 8982468.826905535534024 ], [ 763232.542273539351299, 8982468.826905535534024 ] ] ] } },
{ "type": "Feature", "properties": { "LAYER": "kode bm", "GM_TYPE": "Unknown Line Type", "ELEVATION": 0 }, "geometry": { "type": "MultiLineString", "coordinates": [ [ [ 763704.196763485320844, 8982256.859760405495763 ], [ 763571.49904789053835, 8982372.998111233115196 ], [ 763232.542273539351299, 8982372.998111233115196 ] ] ] } },
{ "type": "Feature", "properties": { "LAYER": "kode bm", "GM_TYPE": "Unknown Line Type", "ELEVATION": 0 }, "geometry": { "type": "MultiLineString", "coordinates": [ [ [ 764285.621807153453119, 8981689.237300097942352 ], [ 764127.610827652853914, 8981896.400666562840343 ], [ 763788.654053301666863, 8981896.400666562840343 ] ] ] } },
{ "type": "Feature", "properties": { "LAYER": "kode bm", "GM_TYPE": "Unknown Line Type", "ELEVATION": 0 }, "geometry": { "type": "MultiLineString", "coordinates": [ [ [ 764270.151917239418253, 8981702.502172568812966 ], [ 764127.610827652853914, 8981800.571872260421515 ], [ 763788.654053301666863, 8981800.571872260421515 ] ] ] } },
{ "type": "Feature", "properties": { "LAYER": "kode bm", "GM_TYPE": "Unknown Line Type", "ELEVATION": 0 }, "geometry": { "type": "MultiLineString", "coordinates": [ [ [ 763846.890942979138345, 8981619.587693702429533 ], [ 763697.954724901006557, 8981801.629555845633149 ], [ 763358.997950549819507, 8981801.629555845633149 ] ] ] } },
{ "type": "Feature", "properties": { "LAYER": "kode bm", "GM_TYPE": "Unknown Line Type", "ELEVATION": 0 }, "geometry": { "type": "MultiLineString", "coordinates": [ [ [ 763851.930984295438975, 8981598.713372638449073 ], [ 763697.954724901006557, 8981705.800761543214321 ], [ 763358.997950549819507, 8981705.800761543214321 ] ] ] } },
{ "type": "Feature", "properties": { "LAYER": "kode bm", "GM_TYPE": "Unknown Line Type", "ELEVATION": 0 }, "geometry": { "type": "MultiLineString", "coordinates": [ [ [ 763456.71759266324807, 8981470.283531039953232 ], [ 763283.632401725044474, 8981554.008234094828367 ], [ 762944.675627373857424, 8981554.008234094828367 ] ] ] } },
{ "type": "Feature", "properties": { "LAYER": "kode bm", "GM_TYPE": "Unknown Line Type", "ELEVATION": 0 }, "geometry": { "type": "MultiLineString", "coordinates": [ [ [ 763448.962606751010753, 8981452.83264691196382 ], [ 763283.632401725044474, 8981458.179439792409539 ], [ 762944.675627373857424, 8981458.179439792409539 ] ] ] } },
{ "type": "Feature", "properties": { "LAYER": "kode bm", "GM_TYPE": "Unknown Line Type", "ELEVATION": 0 }, "geometry": { "type": "MultiLineString", "coordinates": [ [ [ 765747.873131392057985, 8977971.070152340456843 ], [ 765559.331829923437908, 8978117.653629431501031 ], [ 765220.375055572250858, 8978117.653629431501031 ] ] ] } },
{ "type": "Feature", "properties": { "LAYER": "kode bm", "GM_TYPE": "Unknown Line Type", "ELEVATION": 0 }, "geometry": { "type": "MultiLineString", "coordinates": [ [ [ 765758.705343839013949, 8977928.887273449450731 ], [ 765560.731480974354781, 8978032.496192384511232 ], [ 765221.774706623167731, 8978032.496192384511232 ] ] ] } },
{ "type": "Feature", "properties": { "LAYER": "kode bm", "GM_TYPE": "Unknown Line Type", "ELEVATION": 0 }, "geometry": { "type": "MultiLineString", "coordinates": [ [ [ 765573.076990659115836, 8978889.735655009746552 ], [ 765428.658845986588858, 8979008.863722875714302 ], [ 765089.702071635401808, 8979008.863722875714302 ] ] ] } },
{ "type": "Feature", "properties": { "LAYER": "kode bm", "GM_TYPE": "Unknown Line Type", "ELEVATION": 0 }, "geometry": { "type": "MultiLineString", "coordinates": [ [ [ 765580.178033140022308, 8978856.153752710670233 ], [ 765430.058497037505731, 8978923.706285828724504 ], [ 765091.101722686318681, 8978923.706285828724504 ] ] ] } },
{ "type": "Feature", "properties": { "LAYER": "kode bm", "GM_TYPE": "Unknown Line Type", "ELEVATION": 0 }, "geometry": { "type": "MultiLineString", "coordinates": [ [ [ 766190.064626464969479, 8978855.141176560893655 ], [ 766024.001726011512801, 8978991.424202704802155 ], [ 765685.044951660325751, 8978991.424202704802155 ] ] ] } },
{ "type": "Feature", "properties": { "LAYER": "kode bm", "GM_TYPE": "Unknown Line Type", "ELEVATION": 0 }, "geometry": { "type": "MultiLineString", "coordinates": [ [ [ 766189.858620745013468, 8978836.620339440181851 ], [ 766025.401377062429674, 8978906.266765657812357 ], [ 765686.444602711242624, 8978906.266765657812357 ] ] ] } },
{ "type": "Feature", "properties": { "LAYER": "kode bm", "GM_TYPE": "Unknown Line Type", "ELEVATION": 0 }, "geometry": { "type": "MultiLineString", "coordinates": [ [ [ 764978.282000808860175, 8978676.700287224724889 ], [ 764753.685929887578823, 8978869.560842718929052 ], [ 764414.729155536391772, 8978869.560842718929052 ] ] ] } },
{ "type": "Feature", "properties": { "LAYER": "kode bm", "GM_TYPE": "Unknown Line Type", "ELEVATION": 0 }, "geometry": { "type": "MultiLineString", "coordinates": [ [ [ 764903.676215039100498, 8978717.453254360705614 ], [ 764755.085580938495696, 8978784.403405671939254 ], [ 764416.128806587308645, 8978784.403405671939254 ] ] ] } },
{ "type": "Feature", "properties": { "LAYER": "kode bm", "GM_TYPE": "Unknown Line Type", "ELEVATION": 0 }, "geometry": { "type": "MultiLineString", "coordinates": [ [ [ 763455.490812720032409, 8978007.565667979419231 ], [ 763354.376886790967546, 8978127.314465954899788 ], [ 763015.420112439780496, 8978127.314465954899788 ] ] ] } },
{ "type": "Feature", "properties": { "LAYER": "kode bm", "GM_TYPE": "Unknown Line Type", "ELEVATION": 0 }, "geometry": { "type": "MultiLineString", "coordinates": [ [ [ 763492.607919113012031, 8977890.27332416921854 ], [ 763355.776537841884419, 8978042.157028907909989 ], [ 763016.819763490697369, 8978042.157028907909989 ] ] ] } },
{ "type": "Feature", "properties": { "LAYER": "kode bm", "GM_TYPE": "Unknown Line Type", "ELEVATION": 0 }, "geometry": { "type": "MultiLineString", "coordinates": [ [ [ 764272.953849971992895, 8978713.807969098910689 ], [ 764122.5675689636264, 8978888.141301350668073 ], [ 763783.610794612439349, 8978888.141301350668073 ] ] ] } },
{ "type": "Feature", "properties": { "LAYER": "kode bm", "GM_TYPE": "Unknown Line Type", "ELEVATION": 0 }, "geometry": { "type": "MultiLineString", "coordinates": [ [ [ 764275.987726175924763, 8978698.792033659294248 ], [ 764123.967220014543273, 8978802.983864303678274 ], [ 763785.010445663356222, 8978802.983864303678274 ] ] ] } },
{ "type": "Feature", "properties": { "LAYER": "kode bm", "GM_TYPE": "Unknown Line Type", "ELEVATION": 0 }, "geometry": { "type": "MultiLineString", "coordinates": [ [ [ 763364.872041192022152, 8978340.967483900487423 ], [ 763229.477253838791512, 8978519.686923775821924 ], [ 762890.520479487604462, 8978519.686923775821924 ] ] ] } },
{ "type": "Feature", "properties": { "LAYER": "kode bm", "GM_TYPE": "Unknown Line Type", "ELEVATION": 0 }, "geometry": { "type": "MultiLineString", "coordinates": [ [ [ 763335.022590434062295, 8978338.277983240783215 ], [ 763230.876904889708385, 8978434.529486728832126 ], [ 762891.920130538521335, 8978434.529486728832126 ] ] ] } },
{ "type": "Feature", "properties": { "LAYER": "kode bm", "GM_TYPE": "Unknown Line Type", "ELEVATION": 0 }, "geometry": { "type": "MultiLineString", "coordinates": [ [ [ 763159.93220729904715, 8978842.842155439779162 ], [ 763014.728611041326076, 8979029.981833733618259 ], [ 762675.771836690139025, 8979029.981833733618259 ] ] ] } },
{ "type": "Feature", "properties": { "LAYER": "kode bm", "GM_TYPE": "Unknown Line Type", "ELEVATION": 0 }, "geometry": { "type": "MultiLineString", "coordinates": [ [ [ 763129.516978602972813, 8978808.474011279642582 ], [ 763016.128262092242949, 8978944.824396686628461 ], [ 762677.171487741055898, 8978944.824396686628461 ] ] ] } },
{ "type": "Feature", "properties": { "LAYER": "kode bm", "GM_TYPE": "Unknown Line Type", "ELEVATION": 0 }, "geometry": { "type": "MultiLineString", "coordinates": [ [ [ 762046.147398706991225, 8978742.701381659135222 ], [ 761937.163245390518568, 8978932.94995335675776 ], [ 761598.206471039331518, 8978932.94995335675776 ] ] ] } },
{ "type": "Feature", "properties": { "LAYER": "kode bm", "GM_TYPE": "Unknown Line Type", "ELEVATION": 0 }, "geometry": { "type": "MultiLineString", "coordinates": [ [ [ 762052.841987140011042, 8978704.96289742924273 ], [ 761938.562896441435441, 8978847.792516309767962 ], [ 761599.606122090248391, 8978847.792516309767962 ] ] ] } },
{ "type": "Feature", "properties": { "LAYER": "kode bm", "GM_TYPE": "Unknown Line Type", "ELEVATION": 0 }, "geometry": { "type": "MultiLineString", "coordinates": [ [ [ 761100.724818977061659, 8978156.453662490472198 ], [ 760995.908273882349022, 8978323.115508267655969 ], [ 760656.951499531161971, 8978323.115508267655969 ] ] ] } },
{ "type": "Feature", "properties": { "LAYER": "kode bm", "GM_TYPE": "Unknown Line Type", "ELEVATION": 0 }, "geometry": { "type": "MultiLineString", "coordinates": [ [ [ 761090.619443495990708, 8978121.915782520547509 ], [ 760997.307924933265895, 8978237.95807122066617 ], [ 760658.351150582078844, 8978237.95807122066617 ] ] ] } },
{ "type": "Feature", "properties": { "LAYER": "kode bm", "GM_TYPE": "Unknown Line Type", "ELEVATION": 0 }, "geometry": { "type": "MultiLineString", "coordinates": [ [ [ 763918.084435244090855, 8980082.354947129264474 ], [ 763763.627440221025608, 8980269.011787863448262 ], [ 763424.670665869838558, 8980269.011787863448262 ] ] ] } },
{ "type": "Feature", "properties": { "LAYER": "kode bm", "GM_TYPE": "Unknown Line Type", "ELEVATION": 0 }, "geometry": { "type": "MultiLineString", "coordinates": [ [ [ 763904.873022060026415, 8980089.061237849295139 ], [ 763765.027091271942481, 8980183.854350816458464 ], [ 763426.070316920755431, 8980183.854350816458464 ] ] ] } },
{ "type": "Feature", "properties": { "LAYER": "kode bm", "GM_TYPE": "Unknown Line Type", "ELEVATION": 0 }, "geometry": { "type": "MultiLineString", "coordinates": [ [ [ 763668.054471450042911, 8979859.538193879649043 ], [ 763569.331476874300279, 8980081.949460234493017 ], [ 763230.374702523113228, 8980081.949460234493017 ] ] ] } },
{ "type": "Feature", "properties": { "LAYER": "kode bm", "GM_TYPE": "Unknown Line Type", "ELEVATION": 0 }, "geometry": { "type": "MultiLineString", "coordinates": [ [ [ 763647.589240755885839, 8979865.953670479357243 ], [ 763570.731127925217152, 8979996.792023187503219 ], [ 763231.774353574030101, 8979996.792023187503219 ] ] ] } },
{ "type": "Feature", "properties": { "LAYER": "kode bm", "GM_TYPE": "Unknown Line Type", "ELEVATION": 0 }, "geometry": { "type": "MultiLineString", "coordinates": [ [ [ 763205.740867399028502, 8980066.040999829769135 ], [ 763099.127892795950174, 8980272.312684334814548 ], [ 762760.171118444763124, 8980272.312684334814548 ] ] ] } },
{ "type": "Feature", "properties": { "LAYER": "kode bm", "GM_TYPE": "Unknown Line Type", "ELEVATION": 0 }, "geometry": { "type": "MultiLineString", "coordinates": [ [ [ 763171.19898094504606, 8980052.073822010308504 ], [ 763100.527543846867047, 8980187.15524728782475 ], [ 762761.570769495679997, 8980187.15524728782475 ] ] ] } },
{ "type": "Feature", "properties": { "LAYER": "kode bm", "GM_TYPE": "Unknown Line Type", "ELEVATION": 0 }, "geometry": { "type": "MultiLineString", "coordinates": [ [ [ 760858.703187984996475, 8977683.838756980374455 ], [ 760789.154446032247506, 8977828.450764697045088 ], [ 760450.197671681060456, 8977828.450764697045088 ] ] ] } },
{ "type": "Feature", "properties": { "LAYER": "kode bm", "GM_TYPE": "Unknown Line Type", "ELEVATION": 0 }, "geometry": { "type": "MultiLineString", "coordinates": [ [ [ 760889.812008857028559, 8977641.822571700438857 ], [ 760790.554097083164379, 8977743.293327650055289 ], [ 760451.597322731977329, 8977743.293327650055289 ] ] ] } },
{ "type": "Feature", "properties": { "LAYER": "kode bm", "GM_TYPE": "Unknown Line Type", "ELEVATION": 0 }, "geometry": { "type": "MultiLineString", "coordinates": [ [ [ 762792.135464764083736, 8979909.561871539801359 ], [ 762687.923804497928359, 8980129.995826706290245 ], [ 762348.967030146741308, 8980129.995826706290245 ] ] ] } },
{ "type": "Feature", "properties": { "LAYER": "kode bm", "GM_TYPE": "Unknown Line Type", "ELEVATION": 0 }, "geometry": { "type": "MultiLineString", "coordinates": [ [ [ 762741.305666952976026, 8979964.263618169352412 ], [ 762689.323455548845232, 8980044.838389659300447 ], [ 762350.366681197658181, 8980044.838389659300447 ] ] ] } },
{ "type": "Feature", "properties": { "LAYER": "kode bm", "GM_TYPE": "Unknown Line Type", "ELEVATION": 0 }, "geometry": { "type": "MultiLineString", "coordinates": [ [ [ 762284.632165774004534, 8979764.640369480475783 ], [ 762172.301328227855265, 8979991.613279160112143 ], [ 761833.344553876668215, 8979991.613279160112143 ] ] ] } },
{ "type": "Feature", "properties": { "LAYER": "kode bm", "GM_TYPE": "Unknown Line Type", "ELEVATION": 0 }, "geometry": { "type": "MultiLineString", "coordinates": [ [ [ 762272.336265261983499, 8979746.735508620738983 ], [ 762173.700979278772138, 8979906.455842113122344 ], [ 761834.744204927585088, 8979906.455842113122344 ] ] ] } }
]
}
