{
"type": "FeatureCollection",
"name": "09_lo_ar_kodebm",
"crs": { "type": "name", "properties": { "name": "urn:ogc:def:crs:EPSG::32751" } },
"features": [
{ "type": "Feature", "properties": { "LAYER": "kode bm", "GM_TYPE": "Unknown Area Type", "ELEVATION": 72.841 }, "geometry": { "type": "MultiPolygon", "coordinates": [ [ [ [ 763427.150641328771599, 8984155.717000000178814 ], [ 763427.15002739999909, 8984155.682023484259844 ], [ 763427.148186370148323, 8984155.647090060636401 ], [ 763427.1451205072226, 8984155.612242763862014 ], [ 763427.140833588317037, 8984155.577524527907372 ], [ 763427.135330895078368, 8984155.542978126555681 ], [ 763427.128619206603616, 8984155.508646117523313 ], [ 763427.12070679187309, 8984155.474570799618959 ], [ 763427.111603398807347, 8984155.44079415500164 ], [ 763427.101320242742077, 8984155.407357793301344 ], [ 763427.089869992458262, 8984155.374302910640836 ], [ 763427.07726675469894, 8984155.341670228168368 ], [ 763427.06352605659049, 8984155.309499951079488 ], [ 763427.048664826550521, 8984155.277831710875034 ], [ 763427.032701373565942, 8984155.246704524382949 ], [ 763427.015655364608392, 8984155.216156739741564 ], [ 763426.997547800070606, 8984155.186225991696119 ], [ 763426.978400988620706, 8984155.156949155032635 ], [ 763426.958238519029692, 8984155.128362299874425 ], [ 763426.937085231184028, 8984155.100500641390681 ], [ 763426.914967185934074, 8984155.073398508131504 ], [ 763426.891911632730626, 8984155.047089289873838 ], [ 763426.867946975631639, 8984155.021605396643281 ], [ 763426.843102739308961, 8984154.996978227049112 ], [ 763426.817409531446174, 8984154.973238121718168 ], [ 763426.790899006184191, 8984154.950414327904582 ], [ 763426.763603824307211, 8984154.928534962236881 ], [ 763426.735557613312267, 8984154.907626982778311 ], [ 763426.706794925965369, 8984154.887716148048639 ], [ 763426.677351197926328, 8984154.868826985359192 ], [ 763426.647262703510933, 8984154.850982770323753 ], [ 763426.616566511802375, 8984154.834205482155085 ], [ 763426.585300440201536, 8984154.818515794351697 ], [ 763426.553503008559346, 8984154.803933033719659 ], [ 763426.521213390980847, 8984154.790475169196725 ], [ 763426.488471368211322, 8984154.778158776462078 ], [ 763426.455317278159782, 8984154.76699903421104 ], [ 763426.421791966771707, 8984154.757009686902165 ], [ 763426.387936736806296, 8984154.748203044757247 ], [ 763426.353793297894299, 8984154.740589955821633 ], [ 763426.319403714616783, 8984154.734179798513651 ], [ 763426.284810354700312, 8984154.728980470448732 ], [ 763426.2500558369793, 8984154.724998379126191 ], [ 763426.215182978892699, 8984154.72223843075335 ], [ 763426.18023474374786, 8984154.720704020932317 ], [ 763426.145254187402315, 8984154.720397045835853 ], [ 763426.110284405993298, 8984154.721317879855633 ], [ 763426.075368481921032, 8984154.723465388640761 ], [ 763426.040549431461841, 8984154.726836929097772 ], [ 763426.005870151682757, 8984154.731428345665336 ], [ 763425.971373367123306, 8984154.737233981490135 ], [ 763425.937101577757858, 8984154.744246684014797 ], [ 763425.903097006259486, 8984154.752457816153765 ], [ 763425.869401546078734, 8984154.761857258155942 ], [ 763425.836056709871627, 8984154.772433431819081 ], [ 763425.803103578393348, 8984154.784173306077719 ], [ 763425.770582749624737, 8984154.797062421217561 ], [ 763425.73853428917937, 8984154.811084892600775 ], [ 763425.706997680594213, 8984154.826223447918892 ], [ 763425.67601177666802, 8984154.842459436506033 ], [ 763425.645614752196707, 8984154.85977285541594 ], [ 763425.615844055893831, 8984154.878142373636365 ], [ 763425.586736365337856, 8984154.897545360028744 ], [ 763425.558327540871687, 8984154.917957911267877 ], [ 763425.530652582179755, 8984154.939354877918959 ], [ 763425.50374558463227, 8984154.961709901690483 ], [ 763425.477639697492123, 8984154.984995437785983 ], [ 763425.452367083053105, 8984155.009182799607515 ], [ 763425.42795887729153, 8984155.034242190420628 ], [ 763425.404445150750689, 8984155.060142735019326 ], [ 763425.38185487233568, 8984155.08685252442956 ], [ 763425.360215873224661, 8984155.114338653162122 ], [ 763425.339554812409915, 8984155.142567258328199 ], [ 763425.319897144334391, 8984155.171503562480211 ], [ 763425.301267087110318, 8984155.201111914590001 ], [ 763425.283687592949718, 8984155.231355838477612 ], [ 763425.267180319642648, 8984155.262198073789477 ], [ 763425.251765604130924, 8984155.293600622564554 ], [ 763425.237462437129579, 8984155.325524797663093 ], [ 763425.224288440309465, 8984155.357931269332767 ], [ 763425.212259843712673, 8984155.390780109912157 ], [ 763425.20139146677684, 8984155.424030853435397 ], [ 763425.191696699010208, 8984155.457642532885075 ], [ 763425.183187484624796, 8984155.491573741659522 ], [ 763425.175874306703918, 8984155.525782672688365 ], [ 763425.169766175094992, 8984155.560227181762457 ], [ 763425.164870615117252, 8984155.594864835962653 ], [ 763425.161193657899275, 8984155.62965296022594 ], [ 763425.158739833626896, 8984155.664548693224788 ], [ 763425.157512165140361, 8984155.699509048834443 ], [ 763425.157512165140361, 8984155.734490951523185 ], [ 763425.158739833626896, 8984155.76945130713284 ], [ 763425.161193657899275, 8984155.804347040131688 ], [ 763425.164870615117252, 8984155.839135164394975 ], [ 763425.169766175094992, 8984155.873772818595171 ], [ 763425.175874306703918, 8984155.908217327669263 ], [ 763425.183187484624796, 8984155.942426258698106 ], [ 763425.191696699010208, 8984155.976357467472553 ], [ 763425.20139146677684, 8984156.009969146922231 ], [ 763425.212259843712673, 8984156.043219890445471 ], [ 763425.224288440309465, 8984156.076068731024861 ], [ 763425.237462437129579, 8984156.108475202694535 ], [ 763425.251765604130924, 8984156.140399377793074 ], [ 763425.267180319642648, 8984156.171801926568151 ], [ 763425.283687592949718, 8984156.202644161880016 ], [ 763425.301267087110318, 8984156.232888085767627 ], [ 763425.319897144334391, 8984156.262496437877417 ], [ 763425.339554812409915, 8984156.291432742029428 ], [ 763425.360215873224661, 8984156.319661347195506 ], [ 763425.38185487233568, 8984156.347147475928068 ], [ 763425.404445150750689, 8984156.373857265338302 ], [ 763425.42795887729153, 8984156.399757809937 ], [ 763425.452367083053105, 8984156.424817200750113 ], [ 763425.477639697492123, 8984156.449004562571645 ], [ 763425.50374558463227, 8984156.472290098667145 ], [ 763425.530652582179755, 8984156.494645122438669 ], [ 763425.558327540871687, 8984156.516042089089751 ], [ 763425.586736365337856, 8984156.536454640328884 ], [ 763425.615844055893831, 8984156.555857626721263 ], [ 763425.645614752196707, 8984156.574227144941688 ], [ 763425.67601177666802, 8984156.591540563851595 ], [ 763425.706997680594213, 8984156.607776552438736 ], [ 763425.73853428917937, 8984156.622915107756853 ], [ 763425.770582749624737, 8984156.636937579140067 ], [ 763425.803103578393348, 8984156.649826694279909 ], [ 763425.836056709871627, 8984156.661566568538547 ], [ 763425.869401546078734, 8984156.672142742201686 ], [ 763425.903097006259486, 8984156.681542184203863 ], [ 763425.937101577757858, 8984156.689753316342831 ], [ 763425.971373367123306, 8984156.696766018867493 ], [ 763426.005870151682757, 8984156.702571654692292 ], [ 763426.040549431461841, 8984156.707163071259856 ], [ 763426.075368481921032, 8984156.710534611716866 ], [ 763426.110284405993298, 8984156.712682120501995 ], [ 763426.145254187402315, 8984156.713602954521775 ], [ 763426.18023474374786, 8984156.713295979425311 ], [ 763426.215182978892699, 8984156.711761569604278 ], [ 763426.2500558369793, 8984156.709001621231437 ], [ 763426.284810354700312, 8984156.705019529908895 ], [ 763426.319403714616783, 8984156.699820201843977 ], [ 763426.353793297894299, 8984156.693410044535995 ], [ 763426.387936736806296, 8984156.685796955600381 ], [ 763426.421791966771707, 8984156.676990313455462 ], [ 763426.455317278159782, 8984156.667000966146588 ], [ 763426.488471368211322, 8984156.65584122389555 ], [ 763426.521213390980847, 8984156.643524831160903 ], [ 763426.553503008559346, 8984156.630066966637969 ], [ 763426.585300440201536, 8984156.615484206005931 ], [ 763426.616566511802375, 8984156.599794518202543 ], [ 763426.647262703510933, 8984156.583017230033875 ], [ 763426.677351197926328, 8984156.565173014998436 ], [ 763426.706794925965369, 8984156.546283852308989 ], [ 763426.735557613312267, 8984156.526373017579317 ], [ 763426.763603824307211, 8984156.505465038120747 ], [ 763426.790899006184191, 8984156.483585672453046 ], [ 763426.817409531446174, 8984156.46076187863946 ], [ 763426.843102739308961, 8984156.437021773308516 ], [ 763426.867946975631639, 8984156.412394603714347 ], [ 763426.891911632730626, 8984156.386910710483789 ], [ 763426.914967185934074, 8984156.360601492226124 ], [ 763426.937085231184028, 8984156.333499358966947 ], [ 763426.958238519029692, 8984156.305637700483203 ], [ 763426.978400988620706, 8984156.277050845324993 ], [ 763426.997547800070606, 8984156.247774008661509 ], [ 763427.015655364608392, 8984156.217843260616064 ], [ 763427.032701373565942, 8984156.187295475974679 ], [ 763427.048664826550521, 8984156.156168289482594 ], [ 763427.06352605659049, 8984156.12450004927814 ], [ 763427.07726675469894, 8984156.09232977218926 ], [ 763427.089869992458262, 8984156.059697089716792 ], [ 763427.101320242742077, 8984156.026642207056284 ], [ 763427.111603398807347, 8984155.993205845355988 ], [ 763427.12070679187309, 8984155.959429200738668 ], [ 763427.128619206603616, 8984155.925353882834315 ], [ 763427.135330895078368, 8984155.891021873801947 ], [ 763427.140833588317037, 8984155.856475472450256 ], [ 763427.1451205072226, 8984155.821757236495614 ], [ 763427.148186370148323, 8984155.786909939721227 ], [ 763427.15002739999909, 8984155.751976516097784 ], [ 763427.150641328771599, 8984155.717000000178814 ] ] ] ] } }
]
}
