{
"type": "FeatureCollection",
"name": "09_lo_li_pembuangutama",
"crs": { "type": "name", "properties": { "name": "urn:ogc:def:crs:EPSG::32751" } },
"features": [
{ "type": "Feature", "properties": { "LAYER": "Pembuang Utama", "GM_TYPE": "Unknown Line Type", "ELEVATION": 0 }, "geometry": { "type": "MultiLineString", "coordinates": [ [ [ 761332.425207352847792, 8978011.928920038044453 ], [ 761314.907330955029465, 8977984.039375182241201 ], [ 761303.648633820237592, 8977971.744424594566226 ], [ 761298.483251419616863, 8977950.861438626423478 ], [ 761305.725892721442506, 8977931.87102229706943 ], [ 762518.795830210321583, 8976346.55952894128859 ] ] ] } },
{ "type": "Feature", "properties": { "LAYER": "Pembuang Utama", "GM_TYPE": "Unknown Line Type", "ELEVATION": 0 }, "geometry": { "type": "MultiLineString", "coordinates": [ [ [ 764272.102054469054565, 8978692.938246505334973 ], [ 764300.588008712627925, 8978629.474893193691969 ], [ 764308.937841923674569, 8978590.358862830325961 ], [ 764315.636799912084825, 8978558.976601956412196 ], [ 764321.100667603313923, 8978535.977240828797221 ], [ 764327.916710334829986, 8978507.286094356328249 ], [ 764332.350860144710168, 8978431.763342710211873 ], [ 764334.794705071602948, 8978390.139603912830353 ], [ 764351.540327921044081, 8978331.735891414806247 ], [ 764397.334753457806073, 8978187.660496544092894 ], [ 764438.766667769290507, 8978007.00581861846149 ], [ 764437.32842133671511, 8977969.878432992845774 ], [ 764659.454756302991882, 8977274.030181504786015 ], [ 764755.171899288427085, 8976941.945630209520459 ], [ 764792.450001575052738, 8976688.348818980157375 ], [ 764765.430761637864634, 8976542.691341258585453 ], [ 764714.354240215034224, 8976075.688977688550949 ], [ 764681.47378196939826, 8975885.554944921284914 ] ] ] } },
{ "type": "Feature", "properties": { "LAYER": "Pembuang Utama", "GM_TYPE": "Unknown Line Type", "ELEVATION": 0 }, "geometry": { "type": "MultiLineString", "coordinates": [ [ [ 762261.005966393044218, 8978544.489957744255662 ], [ 762246.977875620359555, 8978514.133565459400415 ], [ 762288.32975529297255, 8978428.845530487596989 ], [ 762313.394089009612799, 8978392.80234245210886 ], [ 763182.285975839011371, 8976647.23916370421648 ], [ 763224.670974222710356, 8976590.595471110194921 ], [ 763207.582436433178373, 8976412.13020764105022 ] ] ] } },
{ "type": "Feature", "properties": { "LAYER": "Pembuang Utama", "GM_TYPE": "Unknown Line Type", "ELEVATION": 28 }, "geometry": { "type": "MultiLineString", "coordinates": [ [ [ 760204.184266154421493, 8978407.842873385176063 ], [ 760216.401231011957861, 8978393.72839742153883 ], [ 760220.855216355645098, 8978390.821192592382431 ], [ 760224.539147901930846, 8978389.284870455041528 ], [ 760230.877106003579684, 8978377.63245907984674 ], [ 760241.434913025586866, 8978360.84992797113955 ], [ 760254.354086393723264, 8978345.841029135510325 ], [ 760260.540995533578098, 8978334.922163030132651 ], [ 760267.058939923648722, 8978323.768397180363536 ], [ 760275.894270389690064, 8978309.342191020026803 ], [ 760279.508352207718417, 8978304.234980775043368 ], [ 760258.389081298722886, 8978289.248301420360804 ], [ 760247.167733325040899, 8978279.720579821616411 ], [ 760246.62558080535382, 8978276.960005348548293 ], [ 760247.187560657504946, 8978272.657932858914137 ], [ 760247.164834977476858, 8978260.526335906237364 ], [ 760249.9465240893187, 8978253.543332472443581 ], [ 760254.331526397843845, 8978249.039022874087095 ], [ 760257.09193900343962, 8978245.208537429571152 ], [ 760258.418789361719973, 8978242.803579077124596 ], [ 760260.780349814216606, 8978235.196164239197969 ], [ 760265.686527718906291, 8978230.366720292717218 ], [ 760272.878358775633387, 8978199.101621450856328 ], [ 760278.261272280011326, 8978195.155840462073684 ], [ 760286.148927666596137, 8978188.096224252134562 ], [ 760288.789651690516621, 8978184.988707160577178 ], [ 760289.810726376716048, 8978175.380574753507972 ], [ 760284.082669311901554, 8978166.969857482239604 ], [ 760273.255144523573108, 8978158.985616240650415 ], [ 760263.17596585105639, 8978145.751417268067598 ], [ 760253.787807840155438, 8978134.412723058834672 ], [ 760251.837630028603598, 8978129.370323972776532 ], [ 760251.227923087426461, 8978124.33471223898232 ], [ 760250.782837049337104, 8978105.800745708867908 ], [ 760248.96978094719816, 8978090.277704479172826 ], [ 760247.382672148407437, 8978067.03203721717 ], [ 760240.71887258568313, 8978040.352286079898477 ], [ 760234.928099865675904, 8978025.014824420213699 ], [ 760222.07265457266476, 8978010.40853956155479 ], [ 760206.950778089696541, 8977995.461524641141295 ], [ 760198.082240524585359, 8977987.60138981230557 ], [ 760200.506283599301241, 8977957.30517453327775 ], [ 760143.837886605761014, 8977792.669095749035478 ], [ 760122.638675038120709, 8977694.166368838399649 ], [ 760124.245771434740163, 8977614.463019201532006 ], [ 760201.154695502133109, 8977474.977368839085102 ], [ 760323.243692947900854, 8977366.297080252319574 ], [ 760422.563280529459007, 8977278.97742672637105 ], [ 760611.26061076624319, 8977169.987545454874635 ], [ 760702.312910973210819, 8977067.933622738346457 ], [ 760764.809585104347207, 8976994.519399426877499 ], [ 760844.943394613452256, 8976912.106376571580768 ], [ 760943.168140888563357, 8976870.610294772312045 ], [ 761032.773546121781692, 8976837.12629240565002 ], [ 762238.314129939069971, 8976713.109592853114009 ] ] ] } },
{ "type": "Feature", "properties": { "LAYER": "Pembuang Utama", "GM_TYPE": "Unknown Line Type", "ELEVATION": 0 }, "geometry": { "type": "MultiLineString", "coordinates": [ [ [ 760926.322507052915171, 8978951.545816235244274 ], [ 761011.352126129320823, 8978708.754165317863226 ], [ 761122.998430537059903, 8978632.835322439670563 ], [ 761332.430000000167638, 8978011.929999999701977 ] ] ] } }
]
}
