{
"type": "FeatureCollection",
"name": "09_lo_li_bataslaut",
"crs": { "type": "name", "properties": { "name": "urn:ogc:def:crs:EPSG::32751" } },
"features": [
{ "type": "Feature", "properties": { "LAYER": "BATAS LAUT", "GM_TYPE": "Unknown Line Type" }, "geometry": { "type": "MultiLineString", "coordinates": [ [ [ 769827.176680380478501, 8976379.604365047067404 ], [ 769817.718, 8976373.860999999567866 ], [ 769808.234000000054948, 8976367.370000001043081 ], [ 769800.800000000046566, 8976362.41300000064075 ], [ 769792.886999999987893, 8976357.527000000700355 ], [ 769785.741999999969266, 8976352.521999999880791 ], [ 769777.925999999977648, 8976346.821000000461936 ], [ 769769.773999999975786, 8976340.915000000968575 ], [ 769763.562000000034459, 8976336.829 ], [ 769755.025000000023283, 8976332.259999999776483 ], [ 769747.01, 8976328.765000000596046 ], [ 769737.540999999968335, 8976325.416999999433756 ], [ 769728.378000000026077, 8976322.229000000283122 ], [ 769720.62, 8976319.652000000700355 ], [ 769712.728, 8976316.907999999821186 ], [ 769703.494000000064261, 8976312.619000000879169 ], [ 769696.98499999998603, 8976309.273 ], [ 769690.964000000036322, 8976306.228000000119209 ], [ 769686.35999999998603, 8976303.640000000596046 ], [ 769677.04500000004191, 8976299.165000000968575 ], [ 769666.62, 8976293.683000000193715 ], [ 769656.153999999980442, 8976288.353000000119209 ], [ 769648.133000000030734, 8976284.511 ], [ 769638.827000000048429, 8976279.142000000923872 ], [ 769632.544, 8976274.254000000655651 ], [ 769627.829000000027008, 8976268.418999999761581 ], [ 769624.67000000004191, 8976261.348999999463558 ], [ 769622.591000000014901, 8976256.002000000327826 ], [ 769619.954000000027008, 8976250.939999999478459 ], [ 769615.466000000014901, 8976246.626000000163913 ], [ 769608.856000000028871, 8976243.394999999552965 ], [ 769601.974999999976717, 8976241.063000001013279 ], [ 769594.988000000012107, 8976239.015000000596046 ], [ 769587.334000000031665, 8976237.477 ], [ 769581.339000000036322, 8976236.228000000119209 ], [ 769573.191, 8976234.598999999463558 ], [ 769560.300000000046566, 8976228.679999999701977 ], [ 769549.383000000030734, 8976224.745999999344349 ], [ 769537.444000000017695, 8976220.927999999374151 ], [ 769527.586000000010245, 8976217.853000000119209 ], [ 769518.209000000031665, 8976214.371999999508262 ], [ 769508.685999999986961, 8976210.402000000700355 ], [ 769497.081, 8976204.98200000077486 ], [ 769486.569000000017695, 8976199.457000000402331 ], [ 769478.42000000004191, 8976195.60700000077486 ], [ 769470.231999999959953, 8976191.384999999776483 ], [ 769462.044, 8976188.023 ], [ 769454.115, 8976185.326999999582767 ], [ 769448.900000000023283, 8976183.950000001117587 ], [ 769437.859000000054948, 8976180.265000000596046 ], [ 769429.64000000001397, 8976176.528000000864267 ], [ 769421.548000000067987, 8976172.40400000102818 ], [ 769412.381000000052154, 8976169.007000001147389 ], [ 769402.305999999982305, 8976165.71000000089407 ], [ 769391.741999999969266, 8976162.427999999374151 ], [ 769381.441, 8976158.800000000745058 ], [ 769374.067999999970198, 8976156.46199999935925 ], [ 769363.733, 8976153.782999999821186 ], [ 769354.942000000039116, 8976151.655999999493361 ], [ 769345.347000000067055, 8976148.93099999986589 ], [ 769338.273000000044703, 8976146.594000000506639 ], [ 769329.538999999989755, 8976143.979000000283122 ], [ 769321.819000000017695, 8976142.104000000283122 ], [ 769313.864000000059605, 8976140.053999999538064 ], [ 769293.999000000068918, 8976132.405999999493361 ], [ 769285.128999999957159, 8976129.38399999961257 ], [ 769274.652, 8976126.411000000312924 ], [ 769265.25, 8976123.773 ], [ 769256.398999999975786, 8976121.407999999821186 ], [ 769247.440000000060536, 8976118.838999999687076 ], [ 769238.042000000015832, 8976116.001000000163913 ], [ 769228.445000000065193, 8976112.33500000089407 ], [ 769218.401000000070781, 8976108.825000001117587 ], [ 769209.101000000024214, 8976105.52900000102818 ], [ 769198.177000000025146, 8976101.525000000372529 ], [ 769190.878000000026077, 8976099.120000001043081 ], [ 769184.76500000001397, 8976097.020999999716878 ], [ 769178.299, 8976094.573000000789762 ], [ 769166.491000000038184, 8976089.96199999935925 ], [ 769155.202000000048429, 8976086.112999999895692 ], [ 769145.15300000004936, 8976083.126000000163913 ], [ 769135.054, 8976080.814000001177192 ], [ 769127.53000000002794, 8976078.582000000402331 ], [ 769119.236000000033528, 8976075.400000000372529 ], [ 769111.723, 8976072.068 ], [ 769102.579000000027008, 8976067.784 ], [ 769093.680999999982305, 8976063.938000001013279 ], [ 769082.022, 8976059.326999999582767 ], [ 769073.160999999963678, 8976055.464999999850988 ], [ 769064.826, 8976051.768999999389052 ], [ 769059.23499999998603, 8976048.81900000013411 ], [ 769041.518999999971129, 8976041.95299999974668 ], [ 769032.745, 8976038.552999999374151 ], [ 769024.751000000047497, 8976034.834000000730157 ], [ 769016.316, 8976031.992000000551343 ], [ 769007.097000000067055, 8976029.461000001057982 ], [ 768996.555999999982305, 8976026.350999999791384 ], [ 768988.495, 8976023.315999999642372 ], [ 768980.886000000056811, 8976020.287000000476837 ], [ 768971.332999999984168, 8976017.292999999597669 ], [ 768961.812000000034459, 8976015.486999999731779 ], [ 768950.90500000002794, 8976013.808000000193715 ], [ 768943.035999999963678, 8976012.311000000685453 ], [ 768929.611000000033528, 8976008.520999999716878 ], [ 768919.695000000065193, 8976005.653000000864267 ], [ 768909.947000000043772, 8976002.126000000163913 ], [ 768902.374000000068918, 8975998.801000000908971 ], [ 768894.805999999982305, 8975995.705 ], [ 768885.493000000016764, 8975992.183000000193715 ], [ 768874.468, 8975988.437000000849366 ], [ 768860.981000000028871, 8975984.782999999821186 ], [ 768848.386999999987893, 8975982.712999999523163 ], [ 768838.26, 8975980.829 ], [ 768829.125, 8975979.126000000163913 ], [ 768821.322000000043772, 8975976.756000000983477 ], [ 768813.456, 8975973.280000001192093 ], [ 768802.14000000001397, 8975967.446000000461936 ], [ 768785.476999999955297, 8975959.179999999701977 ], [ 768777.476999999955297, 8975954.716 ], [ 768768.026000000070781, 8975949.666000001132488 ], [ 768759.079000000027008, 8975945.411000000312924 ], [ 768748.993000000016764, 8975941.604000000283122 ], [ 768738.42000000004191, 8975938.17200000025332 ], [ 768729.23699999996461, 8975936.223000001162291 ], [ 768720.415999999968335, 8975934.814999999478459 ], [ 768712.920999999972992, 8975933.450000001117587 ], [ 768702.317000000039116, 8975930.748999999836087 ], [ 768694.790999999968335, 8975928.167999999597669 ], [ 768687.282, 8975925.839999999850988 ], [ 768678.229000000050291, 8975922.929999999701977 ], [ 768668.51500000001397, 8975919.709000000730157 ], [ 768657.530999999959022, 8975914.786000000312924 ], [ 768648.03000000002794, 8975911.071000000461936 ], [ 768640.616000000038184, 8975908.262000000104308 ], [ 768632.212999999988824, 8975905.515000000596046 ], [ 768621.991999999969266, 8975903.026000000536442 ], [ 768612.892, 8975901.117000000551343 ], [ 768605.253999999957159, 8975899.063000001013279 ], [ 768594.577999999979511, 8975895.120000001043081 ], [ 768586.669, 8975891.677999999374151 ], [ 768575.212999999988824, 8975887.473999999463558 ], [ 768567.066, 8975883.394999999552965 ], [ 768559.88800000003539, 8975879.410000000149012 ], [ 768551.777, 8975874.731000000610948 ], [ 768545.21999999997206, 8975869.96199999935925 ], [ 768538.520000000018626, 8975865.33500000089407 ], [ 768526.951, 8975859.345000000670552 ], [ 768517.550000000046566, 8975855.096000000834465 ], [ 768507.729999999981374, 8975851.339999999850988 ], [ 768496.957999999984168, 8975847.955 ], [ 768489.437000000034459, 8975845.786000000312924 ], [ 768482.37699999997858, 8975843.956000000238419 ], [ 768472.885, 8975840.856000000610948 ], [ 768465.363000000012107, 8975838.130000000819564 ], [ 768458.706, 8975835.721000000834465 ], [ 768451.243000000016764, 8975833.27900000102818 ], [ 768443.278999999980442, 8975830.981000000610948 ], [ 768437.233, 8975829.546 ], [ 768430.994000000064261, 8975827.574000000953674 ], [ 768424.304, 8975825.102 ], [ 768405.652, 8975818.177999999374151 ], [ 768398.263999999966472, 8975814.642000000923872 ], [ 768390.351000000024214, 8975809.997999999672174 ], [ 768385.179, 8975807.587999999523163 ], [ 768377.657, 8975805.007999999448657 ], [ 768369.369000000064261, 8975802.129000000655651 ], [ 768364.396000000066124, 8975800.359000001102686 ], [ 768355.476999999955297, 8975797.620999999344349 ], [ 768348.675000000046566, 8975795.513000000268221 ], [ 768342.410999999963678, 8975793.28800000064075 ], [ 768333.716000000014901, 8975789.575999999418855 ], [ 768329.01300000003539, 8975787.457000000402331 ], [ 768319.385, 8975782.456000000238419 ], [ 768313.753000000026077, 8975779.284 ], [ 768306.241999999969266, 8975774.191999999806285 ], [ 768301.077000000048429, 8975770.505000000819564 ], [ 768295.023999999975786, 8975765.653000000864267 ], [ 768290.38, 8975762.916999999433756 ], [ 768276.559, 8975756.312000000849366 ], [ 768268.50199999997858, 8975755.411000000312924 ], [ 768261.376000000047497, 8975754.211000001057982 ], [ 768254.214999999967404, 8975751.780000001192093 ], [ 768247.962999999988824, 8975749.478000000119209 ], [ 768241.638999999966472, 8975747.531999999657273 ], [ 768234.41800000006333, 8975745.751000000163913 ], [ 768228.495, 8975744.439999999478459 ], [ 768221.70499999995809, 8975742.25899999961257 ], [ 768213.677999999956228, 8975739.517000000923872 ], [ 768208.569000000017695, 8975737.300000000745058 ], [ 768202.15300000004936, 8975735.213999999687076 ], [ 768196.440000000060536, 8975733.739 ], [ 768186.883999999961816, 8975730.737999999895692 ], [ 768180.371000000042841, 8975728.046 ], [ 768175.636999999987893, 8975725.714999999850988 ], [ 768172.052999999956228, 8975723.426000000908971 ], [ 768165.942000000039116, 8975719.936000000685453 ], [ 768160.408999999985099, 8975716.638000000268221 ], [ 768151.057000000029802, 8975710.125 ], [ 768144.457999999984168, 8975705.436000000685453 ], [ 768138.564000000013039, 8975701.223999999463558 ], [ 768131.511999999987893, 8975696.440999999642372 ], [ 768127.158000000054017, 8975694.463999999687076 ], [ 768119.310999999986961, 8975692.223999999463558 ], [ 768111.425999999977648, 8975690.539000000804663 ], [ 768105.673000000067987, 8975689.699000000953674 ], [ 768098.761000000056811, 8975687.679999999701977 ], [ 768093.177000000025146, 8975685.11600000038743 ], [ 768087.67000000004191, 8975680.695000000298023 ], [ 768084.006000000052154, 8975676.729000000283122 ], [ 768080.837999999988824, 8975673.04700000025332 ], [ 768075.886000000056811, 8975669.354000000283122 ], [ 768071.535999999963678, 8975666.212999999523163 ], [ 768066.744000000064261, 8975662.296 ], [ 768062.087999999988824, 8975659.109999999403954 ], [ 768057.084000000031665, 8975656.898 ], [ 768045.636999999987893, 8975653.084000000730157 ], [ 768037.651000000070781, 8975650.268999999389052 ], [ 768029.847000000067055, 8975647.737999999895692 ], [ 768023.258999999961816, 8975645.211000001057982 ], [ 768017.214000000036322, 8975642.245999999344349 ], [ 768012.702000000048429, 8975640.268000001087785 ], [ 768001.700000000069849, 8975636.198000000789762 ], [ 767992.452000000048429, 8975633.042999999597669 ], [ 767987.392, 8975630.432 ], [ 767984.292000000015832, 8975627.494000000879169 ], [ 767982.604999999981374, 8975622.979000000283122 ], [ 767982.332999999984168, 8975619.280000001192093 ], [ 767982.17000000004191, 8975615.036000000312924 ], [ 767981.73499999998603, 8975613.024000000208616 ], [ 767980.973, 8975612.208000000566244 ], [ 767978.566, 8975612.496999999508262 ], [ 767975.410999999963678, 8975614.401000000536442 ], [ 767972.582000000053085, 8975616.523 ], [ 767967.631999999983236, 8975618.481000000610948 ], [ 767962.082999999984168, 8975619.025000000372529 ], [ 767956.207999999984168, 8975618.971000000834465 ], [ 767948.592000000062399, 8975618.589999999850988 ], [ 767939.832999999984168, 8975617.285000000149012 ], [ 767933.523000000044703, 8975616.304999999701977 ], [ 767926.070000000065193, 8975613.640000000596046 ], [ 767920.902, 8975611.02900000102818 ], [ 767911.435999999986961, 8975605.860999999567866 ], [ 767900.339000000036322, 8975601.997999999672174 ], [ 767890.709999999962747, 8975599.333000000566244 ], [ 767883.528999999980442, 8975597.809000000357628 ], [ 767877.76300000003539, 8975597.320000000298023 ], [ 767873.084000000031665, 8975595.905000001192093 ], [ 767868.677999999956228, 8975592.206000000238419 ], [ 767865.196, 8975589.051000000908971 ], [ 767859.376000000047497, 8975586.494000000879169 ], [ 767853.555000000051223, 8975585.787000000476837 ], [ 767847.843, 8975585.461000001057982 ], [ 767840.88, 8975584.699000000953674 ], [ 767832.611000000033528, 8975582.087999999523163 ], [ 767823.907, 8975578.171 ], [ 767816.726000000024214, 8975575.125 ], [ 767808.947000000043772, 8975571.860999999567866 ], [ 767801.440000000060536, 8975568.433000000193715 ], [ 767796.544, 8975565.605000000447035 ], [ 767791.376000000047497, 8975561.79700000025332 ], [ 767786.099000000045635, 8975557.118000000715256 ], [ 767782.400000000023283, 8975553.093000000342727 ], [ 767778.91800000006333, 8975548.632000001147389 ], [ 767775.979999999981374, 8975544.878000000491738 ], [ 767773.75, 8975542.321000000461936 ], [ 767771.628000000026077, 8975540.037000000476837 ], [ 767766.459999999962747, 8975537.370999999344349 ], [ 767761.292000000015832, 8975535.358000000938773 ], [ 767749.923000000067987, 8975531.550000000745058 ], [ 767739.369000000064261, 8975529.537000000476837 ], [ 767731.915999999968335, 8975528.558000000193715 ], [ 767726.802999999956228, 8975527.79700000025332 ], [ 767720.437999999965541, 8975524.58699999935925 ], [ 767714.018999999971129, 8975520.398 ], [ 767708.90500000002794, 8975516.644999999552965 ], [ 767701.832999999984168, 8975512.347000000998378 ], [ 767696.283999999985099, 8975510.280000001192093 ], [ 767689.756000000052154, 8975509.191999999806285 ], [ 767680.290999999968335, 8975508.321000000461936 ], [ 767672.294, 8975507.342000000178814 ], [ 767665.059, 8975504.731000000610948 ], [ 767658.368000000016764, 8975501.031999999657273 ], [ 767652.601000000024214, 8975498.20299999974668 ], [ 767645.312000000034459, 8975495.428999999538064 ], [ 767639.871999999973923, 8975494.286000000312924 ], [ 767631.16800000006333, 8975492.49100000038743 ], [ 767626.108, 8975490.968000000342727 ], [ 767619.961000000010245, 8975488.464999999850988 ], [ 767613.160999999963678, 8975484.766000000759959 ], [ 767607.231999999959953, 8975481.176000000908971 ], [ 767602.444000000017695, 8975478.292999999597669 ], [ 767595.915999999968335, 8975475.790000000968575 ], [ 767591.184, 8975474.811000000685453 ], [ 767584.275000000023283, 8975473.668999999761581 ], [ 767579.160999999963678, 8975471.438000001013279 ], [ 767574.483, 8975468.881000000983477 ], [ 767568.825000000069849, 8975466.977 ], [ 767556.312999999965541, 8975464.312000000849366 ], [ 767543.256999999983236, 8975459.688000001013279 ], [ 767535.532, 8975456.206000000238419 ], [ 767530.636000000056811, 8975453.213999999687076 ], [ 767526.175999999977648, 8975450.005000000819564 ], [ 767520.192000000039116, 8975446.251000000163913 ], [ 767514.643000000040047, 8975443.58500000089407 ], [ 767507.897, 8975441.02900000102818 ], [ 767500.552999999956228, 8975439.995000001043081 ], [ 767491.685999999986961, 8975439.016000000759959 ], [ 767483.307999999960884, 8975438.472000000998378 ], [ 767476.562999999965541, 8975437.872999999672174 ], [ 767463.616000000038184, 8975434.501000000163913 ], [ 767456.707000000053085, 8975432.597000000998378 ], [ 767448.709999999962747, 8975430.040000000968575 ], [ 767440.930999999982305, 8975427.592000000178814 ], [ 767431.084000000031665, 8975425.035000000149012 ], [ 767420.040999999968335, 8975422.804999999701977 ], [ 767409.76, 8975420.35700000077486 ], [ 767400.24, 8975417.200999999418855 ], [ 767392.243000000016764, 8975412.632000001147389 ], [ 767383.484000000054948, 8975406.267000000923872 ], [ 767375.651000000070781, 8975400.881000000983477 ], [ 767367.54500000004191, 8975394.896999999880791 ], [ 767360.473, 8975389.729000000283122 ], [ 767352.368000000016764, 8975383.200999999418855 ], [ 767344.261999999987893, 8975378.197000000625849 ], [ 767336.700000000069849, 8975374.714999999850988 ], [ 767327.88800000003539, 8975371.886 ], [ 767315.533000000054017, 8975370.472000000998378 ], [ 767282.202000000048429, 8975365.780000001192093 ], [ 767249.701, 8975349.79700000025332 ], [ 767224.407, 8975330.295 ], [ 767206.307000000029802, 8975315.766000000759959 ], [ 767187.65300000004936, 8975305.943 ], [ 767177.704716863110662, 8975300.0 ] ] ] } }
]
}
