{
"type": "FeatureCollection",
"name": "09_lo_ar_areal",
"crs": { "type": "name", "properties": { "name": "urn:ogc:def:crs:EPSG::32751" } },
"features": [
{ "type": "Feature", "properties": { "LAYER": "Luas Areal Topo", "GM_TYPE": "Unknown Area Type", "ELEVATION": 0 }, "geometry": { "type": "MultiPolygon", "coordinates": [ [ [ [ 763336.651003393344581, 8976368.682832265272737 ], [ 763104.50672192662023, 8976446.827805712819099 ], [ 762699.012027667136863, 8976428.413462216034532 ], [ 762496.265280536143109, 8976299.513616038486362 ], [ 762465.545349154155701, 8976109.232810972258449 ], [ 762477.833321707090363, 8975949.642206203192472 ], [ 761918.742570530157536, 8975753.223472736775875 ], [ 761531.679835099959746, 8975562.942667670547962 ], [ 761259.549805931514129, 8975499.126433258876204 ], [ 761092.493693921831436, 8975283.799141317605972 ], [ 760897.213928020559251, 8975073.055074635893106 ], [ 760757.705756996176206, 8975105.340811466798186 ], [ 760608.020710261422209, 8975218.095710009336472 ], [ 760483.666987282922491, 8975330.850631689652801 ], [ 760333.981940548168495, 8975471.21897996775806 ], [ 760122.120052711339667, 8975643.803023461252451 ], [ 759973.480460895574652, 8975809.803803030401468 ], [ 759838.673860477167182, 8975963.7530284114182 ], [ 759713.4962912958581, 8976088.836778370663524 ], [ 759665.351053561083972, 8976271.651479173451662 ], [ 759474.538446396356449, 8977572.221186436712742 ], [ 759492.038481012685224, 8977580.964656867086887 ], [ 759617.880449728341773, 8977616.811546437442303 ], [ 759677.734376198844984, 8977694.300619270652533 ], [ 759732.664323955192231, 8977852.012286480516195 ], [ 760030.165401723585092, 8978236.725054826587439 ], [ 760305.791354672983289, 8978468.427044365555048 ], [ 760563.91727300605271, 8978595.207388741895556 ], [ 760979.585934023023583, 8978823.745848940685391 ], [ 761098.023109129047953, 8978879.186524849385023 ], [ 761278.70444852206856, 8978986.635316640138626 ], [ 761296.44532886496745, 8979035.93184825964272 ], [ 761328.508423549006693, 8979085.432148220017552 ], [ 761256.3829296650365, 8979146.590723879635334 ], [ 761201.474032514961436, 8979285.31447166018188 ], [ 761211.757167645962909, 8979286.03237590007484 ], [ 761284.332446967018768, 8979341.878480549901724 ], [ 761284.332446965854615, 8979341.878480549901724 ], [ 761229.29879269504454, 8979424.238037209957838 ], [ 761254.363775019068271, 8979436.458420239388943 ], [ 761337.468113682931289, 8979493.17460010945797 ], [ 761375.220767564955167, 8979526.65599462017417 ], [ 761412.984503849060275, 8979559.389944890514016 ], [ 761452.976237887050956, 8979589.548086380586028 ], [ 761535.134183617075905, 8979646.98732247017324 ], [ 761571.797630482004024, 8979681.808911209926009 ], [ 761613.5386438179994, 8979709.72668725065887 ], [ 761652.481324790045619, 8979742.086828980594873 ], [ 761753.792076684068888, 8979815.508455090224743 ], [ 761777.966673312941566, 8979825.918842410668731 ], [ 761856.101370917982422, 8979888.634091949090362 ], [ 761972.156759915989824, 8979984.190655698999763 ], [ 762087.419570049969479, 8980080.464731330052018 ], [ 762128.148607796989381, 8980110.221881829202175 ], [ 762145.97920979000628, 8980127.468236470595002 ], [ 762199.246543455985375, 8980181.432629810646176 ], [ 762253.292607979965396, 8980235.702425330877304 ], [ 762304.089435000088997, 8980290.918569259345531 ], [ 762334.108275424106978, 8980330.830185409635305 ], [ 762362.6030556691112, 8980374.135353589430451 ], [ 762383.763360484968871, 8980426.745288498699665 ], [ 762383.023529549944215, 8980471.572444010525942 ], [ 762369.922453474951908, 8980504.887431630864739 ], [ 762358.40928098699078, 8980553.962663140147924 ], [ 762396.26044494798407, 8980579.336709009483457 ], [ 762435.539514239993878, 8980610.858590830117464 ], [ 762473.698229084955528, 8980644.657640589401126 ], [ 762517.32665734004695, 8980670.96798281930387 ], [ 762598.440834675915539, 8980678.675519550219178 ], [ 762704.418000605888665, 8980784.605304570868611 ], [ 762714.6844230130082, 8980798.97073788009584 ], [ 762732.975946555961855, 8980845.298826130107045 ], [ 762747.384636107948609, 8980894.034004550427198 ], [ 762809.015313724055886, 8981080.177367670461535 ], [ 762828.196848939987831, 8981126.5218600705266 ], [ 762844.990215900004841, 8981173.673445750027895 ], [ 762863.635959557024762, 8981221.354409189894795 ], [ 762874.875020872917958, 8981270.551468910649419 ], [ 762914.819112751982175, 8981415.23520977050066 ], [ 762985.656401152024046, 8981524.589153649285436 ], [ 762993.739710883004591, 8981598.394907159730792 ], [ 762984.0684905591188, 8981647.48522062972188 ], [ 762986.613761854008771, 8981674.88869545981288 ], [ 763002.852597859106027, 8981692.118660820648074 ], [ 763024.973680510884151, 8981706.839164769276977 ], [ 763049.113205330912024, 8981715.856617610901594 ], [ 763141.366012435988523, 8981617.249429909512401 ], [ 763154.636200359091163, 8981568.636342020705342 ], [ 763169.87187689403072, 8981577.21860002912581 ], [ 763200.316914887051098, 8981617.148495629429817 ], [ 763187.890253949095495, 8981647.540898159146309 ], [ 763186.266748722991906, 8981674.176352430135012 ], [ 763209.746841279091313, 8981716.498074909672141 ], [ 763270.623212304082699, 8981827.132075779139996 ], [ 763274.097527784062549, 8981852.34486011043191 ], [ 763275.276610860950314, 8981902.769966559484601 ], [ 763280.711012600921094, 8982002.630838250741363 ], [ 763283.674681122996844, 8982053.528511699289083 ], [ 763279.907954839989543, 8982104.034698599949479 ], [ 763284.844293152913451, 8982154.120633849874139 ], [ 763300.033065735013224, 8982158.908992080017924 ], [ 763314.693886345019564, 8982224.297645170241594 ], [ 763310.144701345940121, 8982249.980684790760279 ], [ 763296.024419932975434, 8982323.195347040891647 ], [ 763307.458890200941823, 8982398.192476840689778 ], [ 763300.884136717068031, 8982423.307032199576497 ], [ 763268.04612424201332, 8982456.715393269434571 ], [ 763219.638474375940859, 8982485.367444889619946 ], [ 763205.436917842016555, 8982527.424910860136151 ], [ 763238.818552719079889, 8982648.18834519945085 ], [ 763254.175614275969565, 8982668.82889362052083 ], [ 763330.209277925896458, 8982708.317297970876098 ], [ 763351.445801050984301, 8982754.567252989858389 ], [ 763351.392806275980547, 8982840.177989119663835 ], [ 763328.745869608013891, 8982885.216577850282192 ], [ 763313.659493312938139, 8982932.960626849904656 ], [ 763305.82615770411212, 8982982.584853310137987 ], [ 763306.100893894094042, 8983033.754004810005426 ], [ 763298.408753070048988, 8983058.103530619293451 ], [ 763280.955000652000308, 8983180.031671401113272 ], [ 763283.692194474977441, 8983230.220273159444332 ], [ 763273.661375680007041, 8983279.525903679430485 ], [ 763268.486547662061639, 8983329.329796601086855 ], [ 763276.206611942965537, 8983371.933661200106144 ], [ 763285.01591968908906, 8983422.354595420882106 ], [ 763260.404744115890935, 8983531.880140049383044 ], [ 763290.383453992079012, 8983600.668087309226394 ], [ 763301.400598980020732, 8983610.126182839274406 ], [ 763342.691081720986404, 8983584.748245570808649 ], [ 763350.957127325003967, 8983533.784948579967022 ], [ 763365.819144327077083, 8983485.428745269775391 ], [ 763378.645391250960529, 8983445.712335389107466 ], [ 763382.944205046980642, 8983395.861810309812427 ], [ 763432.054802807047963, 8983308.644730070605874 ], [ 763452.892714804038405, 8983262.914241289719939 ], [ 763453.602775732055306, 8983237.60094952955842 ], [ 763418.438048364012502, 8983170.78768315911293 ], [ 763400.24582609301433, 8983124.191982839256525 ], [ 763419.553768147947267, 8983081.887636039406061 ], [ 763431.453393872012384, 8983033.267838109284639 ], [ 763448.377900572959334, 8982985.434282450005412 ], [ 763501.287672065896913, 8982990.227246189489961 ], [ 763551.735458442009985, 8982981.987265009433031 ], [ 763603.416634220979176, 8982973.612021889537573 ], [ 763612.907632985967211, 8982963.312661690637469 ], [ 763618.336061370908283, 8982928.368801329284906 ], [ 763631.259799604071304, 8982879.42847565934062 ], [ 763639.243852215935476, 8982835.078920260071754 ], [ 763624.484681820031255, 8982786.221988260746002 ], [ 763627.302062232978642, 8982717.271608259528875 ], [ 763615.36635814094916, 8982704.776218209415674 ], [ 763611.340999552048743, 8982679.95776703953743 ], [ 763619.710556457052007, 8982605.076654190197587 ], [ 763634.120837204973213, 8982559.345777280628681 ], [ 763643.012745557003655, 8982509.748561330139637 ], [ 763654.909408224979416, 8982461.931662760674953 ], [ 763667.343936345889233, 8982413.288141520693898 ], [ 763676.826046389061958, 8982373.259967619553208 ], [ 763685.441109457984567, 8982324.019040759652853 ], [ 763707.73257288208697, 8982225.458315309137106 ], [ 763742.125665255007334, 8982078.551622249186039 ], [ 763774.276532670948654, 8981932.368612030521035 ], [ 763782.497011617058888, 8981891.069484189152718 ], [ 763799.76853982207831, 8981843.407783599570394 ], [ 763809.257779667968862, 8981792.960690079256892 ], [ 763819.673082815948874, 8981743.986391549929976 ], [ 763851.387428326997906, 8981611.73789780959487 ], [ 763851.387428327929229, 8981611.737897820770741 ], [ 764040.544213149114512, 8981678.130322229117155 ], [ 764249.057563564041629, 8981759.621098520234227 ], [ 764320.032730864011683, 8981638.268523020669818 ], [ 764356.226590605918318, 8981575.560666590929031 ], [ 764384.544616584083997, 8981526.537485340610147 ], [ 764352.251049225917086, 8981469.509491590783 ], [ 764417.936443974031135, 8981420.504241790622473 ], [ 764450.442736824974418, 8981390.17195731960237 ], [ 764482.348548830021173, 8981319.606908610090613 ], [ 764512.996895679971203, 8981308.228176379576325 ], [ 764550.191126574063674, 8981283.066831659525633 ], [ 764595.291277210926637, 8981252.449294880032539 ], [ 764663.372801137040369, 8981206.582630209624767 ], [ 764708.736230905051343, 8981232.901581240817904 ], [ 764751.51714494090993, 8981211.545940060168505 ], [ 764769.666956297005527, 8981197.818990100175142 ], [ 764782.038246812066063, 8981169.907591570168734 ], [ 764788.248546384042129, 8981145.655092179775238 ], [ 764805.078358754049987, 8981133.261390149593353 ], [ 764983.058869734639302, 8980987.617917703464627 ], [ 765059.412798955338076, 8980904.039041483774781 ], [ 765116.306752730044536, 8980791.432717619463801 ], [ 765120.031384202535264, 8980721.506514748558402 ], [ 765172.739022110472433, 8980684.645780017599463 ], [ 765192.816463544382714, 8980666.428027709946036 ], [ 765206.807682599406689, 8980640.876856541261077 ], [ 765225.446611639112234, 8980607.413776181638241 ], [ 765265.189108697813936, 8980535.119636673480272 ], [ 765326.332803702447563, 8980433.309120418503881 ], [ 765386.704847644898109, 8980153.224320847541094 ], [ 765473.083370804437436, 8980078.636612707749009 ], [ 765552.801456759916618, 8980008.745523057878017 ], [ 765616.25057421438396, 8979917.724579563364387 ], [ 765715.49148042651359, 8979916.099220041185617 ], [ 765889.569815909489989, 8979828.329018097370863 ], [ 766426.614813988679089, 8979314.483954735100269 ], [ 766584.99312244344037, 8979243.845673732459545 ], [ 766372.879307838040404, 8979012.152138156816363 ], [ 766314.86820874910336, 8978843.936158020049334 ], [ 766499.761132869054563, 8978773.107149370014668 ], [ 766554.487234760890715, 8978733.992878189310431 ], [ 766563.149563462939113, 8978734.510183850303292 ], [ 766661.959890125901438, 8978750.772359380498528 ], [ 766987.969146174029447, 8978395.966943429782987 ], [ 767127.980058820918202, 8978255.104221440851688 ], [ 766830.573571327026002, 8977940.064836470410228 ], [ 766847.081417264067568, 8977923.352026550099254 ], [ 767090.022624360979535, 8977787.203012019395828 ], [ 767164.519780242932029, 8977793.063600419089198 ], [ 767277.152349900919944, 8977738.476383740082383 ], [ 767313.815637396997772, 8977659.347126800566912 ], [ 767173.133892555022612, 8977503.401070490479469 ], [ 767393.947648587985896, 8977330.566407840698957 ], [ 767436.831178162945434, 8977331.119524210691452 ], [ 767485.821103245951235, 8977275.000223530456424 ], [ 767419.682811057078652, 8977195.614690089598298 ], [ 767364.079190402058885, 8977130.154272569343448 ], [ 767381.319011775893159, 8976913.726595310494304 ], [ 767436.819851880893111, 8976800.482263270765543 ], [ 767455.324314472964033, 8976744.713497880846262 ], [ 767459.020127232070081, 8976676.297222839668393 ], [ 767474.260161804035306, 8976652.137486470863223 ], [ 767483.132639151997864, 8976608.577469550073147 ], [ 767491.699497335939668, 8976551.846106959506869 ], [ 767459.409645770909265, 8976491.907032549381256 ], [ 767478.348822365980595, 8976463.535610990598798 ], [ 767485.415711049106903, 8976452.370825860649347 ], [ 767229.897252929979004, 8976120.245262609794736 ], [ 767207.285335207940079, 8976085.766322739422321 ], [ 767193.205684327986091, 8976036.587696570903063 ], [ 767177.141786457970738, 8975987.122186150401831 ], [ 767190.575746487942524, 8975965.313433280214667 ], [ 767129.641009909100831, 8975861.670480750501156 ], [ 767094.065647309995256, 8975793.875459890812635 ], [ 767060.463057933025993, 8975746.468960819765925 ], [ 767021.454619487049058, 8975762.837352979928255 ], [ 766917.204198668012396, 8975775.641099559143186 ], [ 766853.101190331974067, 8975742.481883069500327 ], [ 766750.778513715020381, 8975733.691998990252614 ], [ 766885.048026342061348, 8975816.269685950130224 ], [ 766937.585801011999138, 8975879.105393160134554 ], [ 766932.230184592073783, 8975949.995403939858079 ], [ 767007.852897763019428, 8976027.031638540327549 ], [ 767037.222889640950598, 8976040.999253660440445 ], [ 767063.685631235013716, 8976095.741679329425097 ], [ 767051.286654739058577, 8976162.459917150437832 ], [ 766976.794978125952184, 8976212.690115300938487 ], [ 766930.310581902973354, 8976224.251112839207053 ], [ 766908.037850355030969, 8976274.9410844091326 ], [ 766867.654720755992457, 8976295.292530169710517 ], [ 766823.983720990945585, 8976266.409421440213919 ], [ 766804.021495777997188, 8976244.92834234982729 ], [ 766754.797142284107395, 8976222.345803249627352 ], [ 766706.343622285057791, 8976197.02937176078558 ], [ 766667.253868467058055, 8976191.855354979634285 ], [ 766621.180480280891061, 8976163.55484277009964 ], [ 766571.861361724091694, 8976122.459201289340854 ], [ 766511.956006560008973, 8976077.482453009113669 ], [ 766455.048349032062106, 8976087.79310485906899 ], [ 766425.219818226993084, 8976113.790390279144049 ], [ 766408.174355954979546, 8976144.744546929374337 ], [ 766366.970284730894491, 8976158.163434559479356 ], [ 766328.76598722091876, 8976147.417047750204802 ], [ 766287.768932437989861, 8976099.694368049502373 ], [ 766277.790715979994275, 8976051.661602670326829 ], [ 766283.102435414097272, 8976004.824636219069362 ], [ 766295.970837650937028, 8975962.108945529907942 ], [ 766319.289512670016848, 8975946.702854059636593 ], [ 766355.386337892035954, 8975915.905848009511828 ], [ 766483.345174722606316, 8975755.417025646194816 ], [ 766359.264251878252253, 8975783.689237229526043 ], [ 766250.422094995388761, 8975768.465566899627447 ], [ 766154.400709475390613, 8975750.708898467943072 ], [ 766069.864498301176354, 8975735.549990709871054 ], [ 766026.513395133195445, 8975736.632530564442277 ], [ 765961.485540383961052, 8975735.549990709871054 ], [ 765881.284919525496662, 8975739.881266726180911 ], [ 765793.602315379306674, 8975776.151097403839231 ], [ 765760.391189561923966, 8975784.753353249281645 ], [ 765733.33005000744015, 8975793.355609096586704 ], [ 765709.9589022109285, 8975790.897981226444244 ], [ 765676.747776393545792, 8975784.753353249281645 ], [ 765618.935505527071655, 8975784.753353249281645 ], [ 765570.963212681235746, 8975790.897981226444244 ], [ 765545.132070379331708, 8975782.295167081058025 ], [ 765518.070930825080723, 8975783.524539314210415 ], [ 765494.699783028336242, 8975781.066353145986795 ], [ 765470.098637979244813, 8975779.837539210915565 ], [ 765451.647479192819446, 8975777.37991133891046 ], [ 765417.20635612285696, 8975779.837539210915565 ], [ 765371.436058358522132, 8975770.559184463694692 ], [ 765336.415336583275348, 8975778.057126833125949 ], [ 765251.363126561744139, 8975768.060242541134357 ], [ 765186.32447183644399, 8975778.057126833125949 ], [ 765117.873646851978265, 8975772.879586689174175 ], [ 765030.017744270036928, 8975773.444904020056129 ], [ 765023.686178070958704, 8975747.757947580888867 ], [ 764993.054323529009707, 8975736.381301490589976 ], [ 764946.180228559067473, 8975725.830504760146141 ], [ 764892.636387570993975, 8975768.965715900063515 ], [ 764717.960427125915885, 8975847.316051229834557 ], [ 764637.85464295593556, 8975931.268866069614887 ], [ 764655.701192480046302, 8975986.710546789690852 ], [ 764613.101735405041836, 8976062.857816999778152 ], [ 764590.856041404069401, 8976185.310472110286355 ], [ 764560.383509005885571, 8976225.518375730141997 ], [ 764595.243694385979325, 8976282.774818560108542 ], [ 764570.291661074035801, 8976319.087409479543567 ], [ 764496.75380543700885, 8976333.358016539365053 ], [ 764418.063960672938265, 8976286.195678329095244 ], [ 764339.899455840000883, 8976251.435079960152507 ], [ 764317.206870316993445, 8976246.953883020207286 ], [ 764214.110419834032655, 8976224.845063239336014 ], [ 764181.140056910924613, 8976181.547500079497695 ], [ 764177.061113275005482, 8976118.502101570367813 ], [ 764185.202127189957537, 8976108.921936750411987 ], [ 764169.437172132078558, 8976089.866798279806972 ], [ 764123.287477568024769, 8976059.782067440450191 ], [ 764089.022798257065006, 8976065.193726209923625 ], [ 764023.315390778006986, 8976119.311134029179811 ], [ 764021.699374535935931, 8976130.476332819089293 ], [ 763995.02992460411042, 8976218.600277850404382 ], [ 763963.824616624042392, 8976263.163463799282908 ], [ 763936.083264460554346, 8976264.951618995517492 ], [ 763897.103751527843997, 8976273.102770043537021 ], [ 763870.335411319276318, 8976260.995519246906042 ], [ 763833.529093532590196, 8976242.609648948535323 ], [ 763794.094781615771353, 8976221.597544778138399 ], [ 763712.59576365747489, 8976218.971310906112194 ], [ 763646.87071046535857, 8976221.597544778138399 ], [ 763565.372892504557967, 8976253.115701032802463 ], [ 763465.470715652685612, 8976297.766701543703675 ], [ 763397.117668330902234, 8976331.911649968475103 ], [ 763336.651003393344581, 8976368.682832265272737 ] ] ] ] } }
]
}
