{
"type": "FeatureCollection",
"name": "09_lo_li_crossline",
"crs": { "type": "name", "properties": { "name": "urn:ogc:def:crs:EPSG::32751" } },
"features": [
{ "type": "Feature", "properties": { "LAYER": "CROSS LINE", "GM_TYPE": "Unknown Line Type", "ELEVATION": 0 }, "geometry": { "type": "MultiLineString", "coordinates": [ [ [ 760410.873141633463092, 8978469.600016681477427 ], [ 760446.46808221063111, 8978487.848309895023704 ] ] ] } },
{ "type": "Feature", "properties": { "LAYER": "CROSS LINE", "GM_TYPE": "Unknown Line Type", "ELEVATION": 0 }, "geometry": { "type": "MultiLineString", "coordinates": [ [ [ 760433.467071359045804, 8978425.528520429506898 ], [ 760469.062011936679482, 8978443.776813643053174 ] ] ] } },
{ "type": "Feature", "properties": { "LAYER": "CROSS LINE", "GM_TYPE": "Unknown Line Type", "ELEVATION": 0 }, "geometry": { "type": "MultiLineString", "coordinates": [ [ [ 760456.121804912458174, 8978381.338420832529664 ], [ 760491.716745490091853, 8978399.58671404607594 ] ] ] } },
{ "type": "Feature", "properties": { "LAYER": "CROSS LINE", "GM_TYPE": "Unknown Line Type", "ELEVATION": 0 }, "geometry": { "type": "MultiLineString", "coordinates": [ [ [ 760479.450431470293552, 8978335.833832196891308 ], [ 760515.045372046995908, 8978354.082125410437584 ] ] ] } },
{ "type": "Feature", "properties": { "LAYER": "CROSS LINE", "GM_TYPE": "Unknown Line Type", "ELEVATION": 0 }, "geometry": { "type": "MultiLineString", "coordinates": [ [ [ 760497.42556403868366, 8978300.771716076880693 ], [ 760533.020504615851678, 8978319.020009292289615 ] ] ] } },
{ "type": "Feature", "properties": { "LAYER": "CROSS LINE", "GM_TYPE": "Unknown Line Type", "ELEVATION": 0 }, "geometry": { "type": "MultiLineString", "coordinates": [ [ [ 760502.015724899130873, 8978291.818193623796105 ], [ 760537.610665475483984, 8978310.066486839205027 ] ] ] } },
{ "type": "Feature", "properties": { "LAYER": "CROSS LINE", "GM_TYPE": "Unknown Line Type", "ELEVATION": 0 }, "geometry": { "type": "MultiLineString", "coordinates": [ [ [ 760524.894757558824494, 8978247.190578404814005 ], [ 760560.489698135177605, 8978265.438871620222926 ] ] ] } },
{ "type": "Feature", "properties": { "LAYER": "CROSS LINE", "GM_TYPE": "Unknown Line Type", "ELEVATION": 0 }, "geometry": { "type": "MultiLineString", "coordinates": [ [ [ 760546.914291157969274, 8978204.239493565633893 ], [ 760582.509231734904461, 8978222.487786781042814 ] ] ] } },
{ "type": "Feature", "properties": { "LAYER": "CROSS LINE", "GM_TYPE": "Unknown Line Type", "ELEVATION": 0 }, "geometry": { "type": "MultiLineString", "coordinates": [ [ [ 760570.685737013001926, 8978157.871145978569984 ], [ 760606.280677589820698, 8978176.119439193978906 ] ] ] } },
{ "type": "Feature", "properties": { "LAYER": "CROSS LINE", "GM_TYPE": "Unknown Line Type", "ELEVATION": 0 }, "geometry": { "type": "MultiLineString", "coordinates": [ [ [ 760593.302378629217856, 8978113.755348140373826 ], [ 760628.897319205338135, 8978132.003641355782747 ] ] ] } },
{ "type": "Feature", "properties": { "LAYER": "CROSS LINE", "GM_TYPE": "Unknown Line Type", "ELEVATION": 0 }, "geometry": { "type": "MultiLineString", "coordinates": [ [ [ 760597.902408494963311, 8978104.782575299963355 ], [ 760633.497349071782082, 8978123.030868513509631 ] ] ] } },
{ "type": "Feature", "properties": { "LAYER": "CROSS LINE", "GM_TYPE": "Unknown Line Type", "ELEVATION": 0 }, "geometry": { "type": "MultiLineString", "coordinates": [ [ [ 760616.464991846703924, 8978068.574583485722542 ], [ 760652.059932422940619, 8978086.822876699268818 ] ] ] } },
{ "type": "Feature", "properties": { "LAYER": "CROSS LINE", "GM_TYPE": "Unknown Line Type", "ELEVATION": 0 }, "geometry": { "type": "MultiLineString", "coordinates": [ [ [ 760639.82303080521524, 8978024.426675729453564 ], [ 760675.029397537582554, 8978043.41382247209549 ] ] ] } },
{ "type": "Feature", "properties": { "LAYER": "CROSS LINE", "GM_TYPE": "Unknown Line Type", "ELEVATION": 0 }, "geometry": { "type": "MultiLineString", "coordinates": [ [ [ 760663.847365366411395, 8977979.880249429494143 ], [ 760699.053732098545879, 8977998.867396170273423 ] ] ] } },
{ "type": "Feature", "properties": { "LAYER": "CROSS LINE", "GM_TYPE": "Unknown Line Type", "ELEVATION": 0 }, "geometry": { "type": "MultiLineString", "coordinates": [ [ [ 760687.491771606146358, 8977936.038294209167361 ], [ 760722.698138338513672, 8977955.025440949946642 ] ] ] } },
{ "type": "Feature", "properties": { "LAYER": "CROSS LINE", "GM_TYPE": "Unknown Line Type", "ELEVATION": 0 }, "geometry": { "type": "MultiLineString", "coordinates": [ [ [ 760711.106015233439393, 8977892.252267137169838 ], [ 760746.312381965923123, 8977911.239413881674409 ] ] ] } },
{ "type": "Feature", "properties": { "LAYER": "CROSS LINE", "GM_TYPE": "Unknown Line Type", "ELEVATION": 0 }, "geometry": { "type": "MultiLineString", "coordinates": [ [ [ 760719.484863571822643, 8977876.716030368581414 ], [ 760754.691230303957127, 8977895.70317711122334 ] ] ] } },
{ "type": "Feature", "properties": { "LAYER": "CROSS LINE", "GM_TYPE": "Unknown Line Type", "ELEVATION": 0 }, "geometry": { "type": "MultiLineString", "coordinates": [ [ [ 760734.997802283498459, 8977847.951613219454885 ], [ 760770.204169016098604, 8977866.938759960234165 ] ] ] } },
{ "type": "Feature", "properties": { "LAYER": "CROSS LINE", "GM_TYPE": "Unknown Line Type", "ELEVATION": 0 }, "geometry": { "type": "MultiLineString", "coordinates": [ [ [ 760758.87104847538285, 8977803.685338145121932 ], [ 760794.077415208448656, 8977822.672484889626503 ] ] ] } },
{ "type": "Feature", "properties": { "LAYER": "CROSS LINE", "GM_TYPE": "Unknown Line Type", "ELEVATION": 0 }, "geometry": { "type": "MultiLineString", "coordinates": [ [ [ 760785.809416038333438, 8977754.478662576526403 ], [ 760816.307022791239433, 8977781.453879088163376 ] ] ] } },
{ "type": "Feature", "properties": { "LAYER": "CROSS LINE", "GM_TYPE": "Unknown Line Type", "ELEVATION": 0 }, "geometry": { "type": "MultiLineString", "coordinates": [ [ [ 760809.334501475095749, 8977717.143142877146602 ], [ 760843.176646270207129, 8977738.467055173590779 ] ] ] } },
{ "type": "Feature", "properties": { "LAYER": "CROSS LINE", "GM_TYPE": "Unknown Line Type", "ELEVATION": 0 }, "geometry": { "type": "MultiLineString", "coordinates": [ [ [ 760837.594691730337217, 8977672.292768461629748 ], [ 760871.436836525565013, 8977693.616680759936571 ] ] ] } },
{ "type": "Feature", "properties": { "LAYER": "CROSS LINE", "GM_TYPE": "Unknown Line Type", "ELEVATION": 0 }, "geometry": { "type": "MultiLineString", "coordinates": [ [ [ 760865.884869805304334, 8977627.394801836460829 ], [ 760899.727014600299299, 8977648.718714134767652 ] ] ] } },
{ "type": "Feature", "properties": { "LAYER": "CROSS LINE", "GM_TYPE": "Unknown Line Type", "ELEVATION": 0 }, "geometry": { "type": "MultiLineString", "coordinates": [ [ [ 760892.831381017109379, 8977584.629303585737944 ], [ 760926.673525811289437, 8977605.953215882182121 ] ] ] } },
{ "type": "Feature", "properties": { "LAYER": "CROSS LINE", "GM_TYPE": "Unknown Line Type", "ELEVATION": 0 }, "geometry": { "type": "MultiLineString", "coordinates": [ [ [ 760919.433630016050301, 8977542.410167157649994 ], [ 760953.275774810113944, 8977563.734079455956817 ] ] ] } },
{ "type": "Feature", "properties": { "LAYER": "CROSS LINE", "GM_TYPE": "Unknown Line Type", "ELEVATION": 0 }, "geometry": { "type": "MultiLineString", "coordinates": [ [ [ 760946.099858062108979, 8977500.089492695406079 ], [ 760979.942002855823375, 8977521.413404991850257 ] ] ] } },
{ "type": "Feature", "properties": { "LAYER": "CROSS LINE", "GM_TYPE": "Unknown Line Type", "ELEVATION": 0 }, "geometry": { "type": "MultiLineString", "coordinates": [ [ [ 760974.318944029277191, 8977455.304352898150682 ], [ 761008.161088823806494, 8977476.62826519459486 ] ] ] } },
{ "type": "Feature", "properties": { "LAYER": "CROSS LINE", "GM_TYPE": "Unknown Line Type", "ELEVATION": 0 }, "geometry": { "type": "MultiLineString", "coordinates": [ [ [ 760425.099243347416632, 8978529.530156005173922 ], [ 760389.504302769550122, 8978511.281862791627645 ] ] ] } }
]
}
