{
"type": "FeatureCollection",
"name": "09_lo_li_asjalan",
"crs": { "type": "name", "properties": { "name": "urn:ogc:def:crs:EPSG::32751" } },
"features": [
{ "type": "Feature", "properties": { "LAYER": "AS_JALAN", "GM_TYPE": "Unknown Line Type", "ELEVATION": null }, "geometry": { "type": "MultiLineString", "coordinates": [ [ [ 764771.637999999918975, 8983921.792999999597669 ], [ 764763.951000000117347, 8983899.07799999974668 ], [ 764758.97600000014063, 8983882.965000001713634 ], [ 764750.692999999970198, 8983856.252999998629093 ], [ 764745.529000000096858, 8983839.782999999821186 ], [ 764738.41399999987334, 8983816.973999999463558 ], [ 764732.439999999827705, 8983799.457000000402331 ], [ 764726.419000000110827, 8983781.128999996930361 ], [ 764722.205999999889173, 8983769.229000002145767 ], [ 764716.609999999869615, 8983750.218000000342727 ], [ 764712.657000000122935, 8983734.997999999672174 ], [ 764709.17000000004191, 8983722.480000000447035 ], [ 764707.400000000023283, 8983712.391999999061227 ], [ 764704.645999999949709, 8983690.856999998912215 ], [ 764701.232000000076368, 8983666.531999999657273 ], [ 764695.667999999830499, 8983632.867000000551343 ], [ 764690.194999999948777, 8983597.862999998033047 ], [ 764683.802999999839813, 8983554.864 ], [ 764677.074999999953434, 8983509.924999998882413 ], [ 764672.434, 8983479.174999998882413 ], [ 764669.314000000013039, 8983455.997999999672174 ], [ 764666.21999999997206, 8983426.818999998271465 ], [ 764662.175000000046566, 8983399.46399999782443 ], [ 764660.319000000017695, 8983382.089999999850988 ], [ 764660.104999999981374, 8983373.236999999731779 ], [ 764660.337000000057742, 8983362.243999999016523 ], [ 764661.645999999949709, 8983344.989 ], [ 764662.716999999829568, 8983326.209999999031425 ], [ 764663.691000000108033, 8983311.455 ], [ 764664.124000000068918, 8983300.018999999389052 ], [ 764664.57999999995809, 8983291.683000000193715 ], [ 764665.109999999869615, 8983277.499000001698732 ], [ 764665.109999999869615, 8983252.083999998867512 ], [ 764665.906000000191852, 8983232.105999998748302 ], [ 764668.071, 8983215.398 ], [ 764671.472000000067055, 8983199.338999999687076 ], [ 764672.753000000142492, 8983195.377000000327826 ], [ 764676.687000000034459, 8983182.425999999046326 ], [ 764686.457999999984168, 8983157.087999999523163 ], [ 764698.560999999986961, 8983123.867000000551343 ], [ 764711.113999999826774, 8983091.986999997869134 ], [ 764724.682999999960884, 8983062.460999999195337 ], [ 764729.26500000001397, 8983052.306000001728535 ], [ 764735.740999999805354, 8983032.695000000298023 ], [ 764737.819999999948777, 8983024.927000001072884 ], [ 764739.20900000014808, 8983016.719000000506639 ], [ 764740.220999999903142, 8983005.266999999061227 ], [ 764740.244000000064261, 8982993.380999999120831 ], [ 764738.772000000113621, 8982981.089999999850988 ], [ 764735.392, 8982961.581999998539686 ], [ 764730.787000000011176, 8982941.152999997138977 ], [ 764723.832999999984168, 8982915.207000000402331 ], [ 764709.59499999997206, 8982869.252000000327826 ], [ 764694.410000000032596, 8982825.867999998852611 ], [ 764681.896999999880791, 8982795.416000001132488 ], [ 764673.098, 8982778.264000002294779 ], [ 764665.121999999857508, 8982767.065999999642372 ], [ 764650.407999999821186, 8982751.077999997884035 ], [ 764642.463999999803491, 8982740.651000002399087 ], [ 764636.983000000123866, 8982731.502000000327826 ], [ 764635.875, 8982726.098999999463558 ], [ 764636.99800000002142, 8982715.566000001505017 ], [ 764640.621999999973923, 8982703.800999999046326 ], [ 764645.26299999980256, 8982691.998999999836087 ], [ 764658.715999999898486, 8982660.550999997183681 ], [ 764672.992000000085682, 8982624.262999998405576 ], [ 764686.316000000108033, 8982591.905999999493361 ], [ 764696.895000000018626, 8982566.938999999314547 ], [ 764707.356000000145286, 8982542.30800000205636 ], [ 764720.731999999843538, 8982511.913999998942018 ], [ 764731.310999999986961, 8982488.041999999433756 ], [ 764740.904000000213273, 8982465.122999999672174 ], [ 764748.874000000068918, 8982444.515999998897314 ], [ 764762.042000000132248, 8982412.960999999195337 ], [ 764774.704999999841675, 8982384.785000000149012 ], [ 764784.047999999835156, 8982362.502999998629093 ], [ 764790.858000000123866, 8982345.901000000536442 ], [ 764797.465999999898486, 8982328.076999999582767 ], [ 764803.560000000055879, 8982314.06900000013411 ], [ 764807.807000000146218, 8982304.365000000223517 ], [ 764813.893999999854714, 8982292.636 ], [ 764820.630000000121072, 8982281.89299999922514 ], [ 764828.602000000071712, 8982269.262000000104308 ], [ 764835.550999999977648, 8982258.881999999284744 ], [ 764842.282999999937601, 8982253.376000000163913 ], [ 764854.500999999814667, 8982245.958999998867512 ], [ 764865.878000000142492, 8982238.243999999016523 ], [ 764876.848, 8982228.342000000178814 ], [ 764887.09499999997206, 8982218.217000002041459 ], [ 764894.460999999893829, 8982208.272000001743436 ], [ 764900.209000000031665, 8982197.085999999195337 ], [ 764903.973, 8982189.126000002026558 ], [ 764906.2589999998454, 8982180.234999999403954 ], [ 764907.592000000062399, 8982173.474999999627471 ], [ 764933.748000000137836, 8982161.360999999567866 ], [ 764960.910000000149012, 8982149.68099999986589 ], [ 764981.829999999841675, 8982139.589999999850988 ], [ 764996.044000000110827, 8982135.486999999731779 ], [ 765003.451000000117347, 8982135.023000001907349 ], [ 765008.54500000004191, 8982135.625999998301268 ], [ 765016.26099999982398, 8982137.282999999821186 ], [ 765070.005000000121072, 8982153.964999999850988 ], [ 765101.222000000067055, 8982162.989 ], [ 765145.326000000117347, 8982174.694000001996756 ], [ 765195.892, 8982189.225999999791384 ], [ 765235.424000000115484, 8982200.694000001996756 ], [ 765272.369000000180677, 8982211.899000002071261 ], [ 765287.437000000150874, 8982215.844999996945262 ], [ 765292.613999999826774, 8982216.003999998793006 ], [ 765298.571, 8982214.315999999642372 ], [ 765305.282, 8982210.14299999922514 ], [ 765312.772, 8982203.718000000342727 ], [ 765340.19400000013411, 8982172.607999999076128 ], [ 765351.483, 8982157.700999999418855 ] ] ] } },
{ "type": "Feature", "properties": { "LAYER": "AS_JALAN", "GM_TYPE": "Unknown Line Type", "ELEVATION": null }, "geometry": { "type": "MultiLineString", "coordinates": [ [ [ 764789.35288742207922, 8982182.626403503119946 ], [ 764785.988000000012107, 8982176.005999999120831 ], [ 764779.393999999854714, 8982167.995999999344349 ], [ 764763.805999999982305, 8982154.120999999344349 ], [ 764754.115000000107102, 8982143.390999998897314 ], [ 764747.542000000132248, 8982134.31699999794364 ], [ 764742.032000000122935, 8982122.705 ], [ 764732.867000000085682, 8982112.045 ], [ 764725.767000000108965, 8982104.71199999935925 ], [ 764718.035000000149012, 8982091.200999999418855 ], [ 764703.942999999853782, 8982062.299999998882413 ], [ 764693.39000000001397, 8982041.745999999344349 ], [ 764693.125, 8982034.823999999091029 ], [ 764693.618000000016764, 8982026.270999999716878 ], [ 764693.618000000016764, 8982016.972000000998378 ], [ 764692.652, 8982005.756999999284744 ], [ 764691.618000000133179, 8981995.81700000166893 ], [ 764691.652000000118278, 8981989.24100000038743 ], [ 764693.359000000054948, 8981983.492000000551343 ], [ 764696.572000000043772, 8981978.480999996885657 ], [ 764701.975999999907799, 8981973.249000001698732 ], [ 764708.619000000064261, 8981968.929999999701977 ], [ 764716.809, 8981964.490000002086163 ], [ 764725.155999999842606, 8981959.716 ], [ 764732.25400000018999, 8981954.36600000038743 ], [ 764737.581999999820255, 8981948.704 ], [ 764745.48904505232349, 8981932.986604262143373 ] ] ] } },
{ "type": "Feature", "properties": { "LAYER": "AS_JALAN", "GM_TYPE": "Unknown Line Type", "ELEVATION": null }, "geometry": { "type": "MultiLineString", "coordinates": [ [ [ 764907.592000000062399, 8982173.474999999627471 ], [ 764881.210999999893829, 8982183.969999998807907 ], [ 764862.705999999889173, 8982190.980999996885657 ], [ 764839.935999999986961, 8982201.051999997347593 ], [ 764822.488000000012107, 8982206.406999999657273 ], [ 764817.737999999895692, 8982207.106000000610948 ], [ 764813.007999999914318, 8982206.501000000163913 ], [ 764806.810000000055879, 8982203.231999998912215 ], [ 764801.518999999854714, 8982199.082999998703599 ], [ 764797.097000000067055, 8982194.538999998942018 ], [ 764791.371999999973923, 8982186.598999999463558 ], [ 764790.628238404286094, 8982185.135651821270585 ] ] ] } },
{ "type": "Feature", "properties": { "LAYER": "AS_JALAN", "GM_TYPE": "Unknown Line Type", "ELEVATION": null }, "geometry": { "type": "MultiLineString", "coordinates": [ [ [ 767677.880999999935739, 8978829.211000001057982 ], [ 767677.934, 8978878.372999999672174 ], [ 767678.473, 8978934.6739999987185 ], [ 767680.337999999872409, 8979037.451999999582767 ], [ 767679.174999999813735, 8979110.953000001609325 ], [ 767677.041434807004407, 8979237.960781088098884 ] ] ] } },
{ "type": "Feature", "properties": { "LAYER": "AS_JALAN", "GM_TYPE": "Unknown Line Type", "ELEVATION": null }, "geometry": { "type": "MultiLineString", "coordinates": [ [ [ 767677.880999999935739, 8978829.211000001057982 ], [ 767678.358999999822117, 8978777.24100000038743 ], [ 767678.312999999965541, 8978698.582000000402331 ], [ 767678.604000000050291, 8978668.031999999657273 ], [ 767679.032000000122935, 8978602.086000001057982 ], [ 767678.677999999956228, 8978572.93099999986589 ], [ 767678.580999999889173, 8978560.979000000283122 ], [ 767677.799000000115484, 8978491.493999999016523 ] ] ] } },
{ "type": "Feature", "properties": { "LAYER": "AS_JALAN", "GM_TYPE": "Unknown Line Type", "ELEVATION": null }, "geometry": { "type": "MultiLineString", "coordinates": [ [ [ 767678.580999999889173, 8978560.979000000283122 ], [ 767610.892999999807216, 8978560.456000000238419 ], [ 767552.80600000009872, 8978560.785000000149012 ], [ 767480.378000000142492, 8978560.803999999538064 ], [ 767416.949000000022352, 8978559.709999997168779 ], [ 767416.635999999940395, 8978613.034 ] ] ] } },
{ "type": "Feature", "properties": { "LAYER": "AS_JALAN", "GM_TYPE": "Unknown Line Type", "ELEVATION": null }, "geometry": { "type": "MultiLineString", "coordinates": [ [ [ 767554.334999999846332, 8978700.773999998345971 ], [ 767629.035999999963678, 8978699.676999999210238 ], [ 767678.312999999965541, 8978698.582000000402331 ] ] ] } },
{ "type": "Feature", "properties": { "LAYER": "AS_JALAN", "GM_TYPE": "Unknown Line Type", "ELEVATION": 12.33 }, "geometry": { "type": "MultiLineString", "coordinates": [ [ [ 767629.035999999963678, 8978699.676999999210238 ], [ 767629.237000000081025, 8978756.548999996855855 ], [ 767628.32999999995809, 8978828.586999997496605 ] ] ] } },
{ "type": "Feature", "properties": { "LAYER": "AS_JALAN", "GM_TYPE": "Unknown Line Type", "ELEVATION": null }, "geometry": { "type": "MultiLineString", "coordinates": [ [ [ 767936.623000000137836, 8978829.191999999806285 ], [ 767937.125999999814667, 8978899.099999999627471 ], [ 767937.410000000149012, 8979028.757000001147389 ], [ 767937.314000000013039, 8979113.960999999195337 ], [ 767934.62300000002142, 8979237.875 ] ] ] } },
{ "type": "Feature", "properties": { "LAYER": "AS_JALAN", "GM_TYPE": "Unknown Line Type", "ELEVATION": null }, "geometry": { "type": "MultiLineString", "coordinates": [ [ [ 768197.996999999973923, 8978829.771999999880791 ], [ 768196.881999999983236, 8978875.967000000178814 ], [ 768196.142999999923632, 8978943.733999999240041 ], [ 768196.581999999820255, 8979008.6739999987185 ], [ 768195.835999999893829, 8979055.855999996885657 ], [ 768194.804, 8979136.098999999463558 ], [ 768196.410000000032596, 8979203.439999999478459 ], [ 768196.861607527476735, 8979238.112294776365161 ] ] ] } },
{ "type": "Feature", "properties": { "LAYER": "AS_JALAN", "GM_TYPE": "Unknown Line Type", "ELEVATION": null }, "geometry": { "type": "MultiLineString", "coordinates": [ [ [ 768197.996999999973923, 8978829.771999999880791 ], [ 768199.064000000129454, 8978788.280999999493361 ], [ 768198.63599999982398, 8978748.810999998822808 ], [ 768198.262999999918975, 8978701.431000001728535 ], [ 768198.555999999982305, 8978648.667999999597669 ], [ 768198.869000000064261, 8978590.265999998897314 ], [ 768198.305999999982305, 8978546.276999998837709 ], [ 768196.881999999983236, 8978495.163999998942018 ], [ 768196.792000000132248, 8978453.217000002041459 ], [ 768196.53000000002794, 8978420.54700000025332 ] ] ] } },
{ "type": "Feature", "properties": { "LAYER": "AS_JALAN", "GM_TYPE": "Unknown Line Type", "ELEVATION": null }, "geometry": { "type": "MultiLineString", "coordinates": [ [ [ 767554.767999999923632, 8978829.878999998793006 ], [ 767554.567999999970198, 8978807.392000000923872 ], [ 767554.42000000004191, 8978730.769999999552965 ], [ 767554.334999999846332, 8978700.773999998345971 ], [ 767552.770999999949709, 8978645.632999999448657 ], [ 767553.374000000068918, 8978610.174999997019768 ], [ 767552.80600000009872, 8978560.785000000149012 ], [ 767553.170999999972992, 8978520.990000002086163 ], [ 767553.452965763746761, 8978489.000760266557336 ] ] ] } },
{ "type": "Feature", "properties": { "LAYER": "AS_JALAN", "GM_TYPE": "Unknown Line Type", "ELEVATION": null }, "geometry": { "type": "MultiLineString", "coordinates": [ [ [ 767468.487000000081025, 8979017.931000001728535 ], [ 767488.29500000004191, 8978973.354000000283122 ], [ 767506.503000000026077, 8978933.4510000012815 ], [ 767523.992000000085682, 8978897.562999999150634 ], [ 767543.545999999972992, 8978855.997999999672174 ], [ 767554.767999999923632, 8978829.878999998793006 ] ] ] } },
{ "type": "Feature", "properties": { "LAYER": "AS_JALAN", "GM_TYPE": "Unknown Line Type", "ELEVATION": null }, "geometry": { "type": "MultiLineString", "coordinates": [ [ [ 766806.081197263440117, 8980425.914675200358033 ], [ 766807.091999999829568, 8980424.208999997004867 ], [ 766819.613000000128523, 8980403.252999998629093 ], [ 766834.966999999829568, 8980374.435999998822808 ], [ 766847.776999999885447, 8980349.094999998807907 ], [ 766861.157999999937601, 8980321.958999998867512 ], [ 766877.827000000048429, 8980287.642999997362494 ], [ 766891.613000000128523, 8980258.803999999538064 ], [ 766907.841999999829568, 8980223.236999999731779 ], [ 766919.180000000051223, 8980198.753000000491738 ], [ 766931.699000000022352, 8980171.774000000208616 ], [ 766948.583000000100583, 8980134.469000000506639 ], [ 766962.482000000076368, 8980103.312999997287989 ], [ 766968.932999999960884, 8980090.158999998122454 ], [ 766979.960000000195578, 8980067.707999998703599 ], [ 766993.07999999995809, 8980039.556999998167157 ], [ 767002.197999999974854, 8980020.428000001236796 ], [ 767011.216000000131316, 8980000.423999996855855 ], [ 767022.348999999812804, 8979977.257999999448657 ], [ 767041.71999999997206, 8979936.211000001057982 ], [ 767054.340999999898486, 8979909.475000001490116 ], [ 767066.142999999923632, 8979884.05799999833107 ], [ 767077.532999999821186, 8979859.781999999657273 ], [ 767088.419000000110827, 8979835.234999999403954 ], [ 767106.992000000085682, 8979795.13399999961257 ], [ 767121.639000000199303, 8979764.473999999463558 ], [ 767133.91599999985192, 8979738.19199999794364 ], [ 767147.003000000026077, 8979710.434000000357628 ], [ 767165.243999999831431, 8979670.565000001341105 ], [ 767171.843, 8979655.06699999794364 ], [ 767183.767000000108965, 8979628.178999999538064 ], [ 767204.228000000119209, 8979585.671 ], [ 767218.326999999815598, 8979554.887000000104308 ], [ 767231.982000000076368, 8979525.619999999180436 ], [ 767252.871999999857508, 8979480.727 ], [ 767269.783000002149493, 8979441.993999993428588 ], [ 767280.499000000068918, 8979419.876000002026558 ], [ 767303.733000000123866, 8979372.559999998658895 ], [ 767332.535000000032596, 8979310.856999998912215 ], [ 767344.677000000141561, 8979283.678999999538064 ], [ 767368.439000000129454, 8979230.873999999836087 ], [ 767385.468000000109896, 8979196.128000000491738 ], [ 767424.077000000048429, 8979113.939999999478459 ], [ 767468.487000000081025, 8979017.931000001728535 ] ] ] } },
{ "type": "Feature", "properties": { "LAYER": "AS_JALAN", "GM_TYPE": "Unknown Line Type", "ELEVATION": null }, "geometry": { "type": "MultiLineString", "coordinates": [ [ [ 765990.163652466842905, 8981950.622615685686469 ], [ 765995.24, 8981941.126000000163913 ], [ 766015.564000000129454, 8981900.208999998867512 ], [ 766032.567999999853782, 8981866.04700000025332 ], [ 766048.961999999824911, 8981833.559000000357628 ], [ 766061.12099999981001, 8981809.424999998882413 ], [ 766075.134000000078231, 8981780.486999997869134 ], [ 766092.593000000109896, 8981746.632999999448657 ], [ 766105.261999999871477, 8981720.761 ], [ 766115.750999999814667, 8981701.00899999961257 ], [ 766128.039999999804422, 8981676.847999999299645 ], [ 766139.600999999907799, 8981654.49100000038743 ], [ 766153.363000000012107, 8981627.16299999691546 ], [ 766170.105999999912456, 8981594.33500000089407 ], [ 766188.905999999959022, 8981557.399999998509884 ], [ 766205.13599999982398, 8981524.377000000327826 ], [ 766220.184, 8981494.401999998837709 ], [ 766236.430000000051223, 8981463.528999999165535 ], [ 766253.805999999982305, 8981430.926999999210238 ], [ 766269.737000000081025, 8981401.454 ], [ 766284.544000000110827, 8981373.865000000223517 ], [ 766300.369000000064261, 8981343.967000000178814 ], [ 766318.459000000031665, 8981312.663999997079372 ], [ 766330.805999999982305, 8981289.987999999895692 ], [ 766348.813000000198372, 8981258.065999999642372 ], [ 766361.72600000014063, 8981234.571000000461936 ], [ 766369.212999999988824, 8981221.537000000476837 ], [ 766382.980999999912456, 8981196.203000001609325 ], [ 766399.191999999806285, 8981166.924999997019768 ], [ 766415.049000000115484, 8981137.868999999016523 ], [ 766428.844999999855645, 8981113.823999999091029 ], [ 766438.710999999893829, 8981096.638000000268221 ], [ 766451.660999999847263, 8981073.117000000551343 ], [ 766462.99800000002142, 8981052.685999998822808 ], [ 766478.853999999817461, 8981022.602000001817942 ], [ 766493.824000000138767, 8980994.053999999538064 ], [ 766512.718999999808148, 8980959.010000001639128 ], [ 766523.705999999889173, 8980939.352 ], [ 766538.34499999997206, 8980913.089000001549721 ], [ 766544.539000000106171, 8980902.075999999418855 ], [ 766559.694000000017695, 8980872.850999999791384 ], [ 766579.607000000076368, 8980837.995999999344349 ], [ 766600.984000000054948, 8980799.781999999657273 ], [ 766617.707999999984168, 8980769.787999998778105 ], [ 766634.093999999808148, 8980737.198999999091029 ], [ 766650.816000000108033, 8980708.862999999895692 ], [ 766669.550999999977648, 8980675.798000000417233 ], [ 766696.615, 8980626.090000001713634 ], [ 766719.317999999853782, 8980585.087999999523163 ], [ 766739.242000000085682, 8980548.197999998927116 ], [ 766756.728, 8980515.240000000223517 ], [ 766775.925000000046566, 8980480.619999999180436 ], [ 766797.804, 8980439.881999997422099 ], [ 766800.420667666825466, 8980435.466514172032475 ] ] ] } },
{ "type": "Feature", "properties": { "LAYER": "AS_JALAN", "GM_TYPE": "Unknown Line Type", "ELEVATION": null }, "geometry": { "type": "MultiLineString", "coordinates": [ [ [ 765798.725000000209548, 8982318.918999999761581 ], [ 765802.835999999893829, 8982311.628000000491738 ], [ 765810.316, 8982297.483999999240041 ], [ 765817.081999999820255, 8982286.36600000038743 ], [ 765822.282999999821186, 8982275.744999999180436 ], [ 765829.444999999832362, 8982261.292999999597669 ], [ 765836.006999999983236, 8982247.865000002086163 ], [ 765841.162000000127591, 8982237.100999999791384 ], [ 765846.359000000054948, 8982226.68099999986589 ], [ 765852.282, 8982216.168999999761581 ], [ 765858.655000000144355, 8982204.721999997273088 ], [ 765866.670999999972992, 8982188.435000000521541 ], [ 765876.875, 8982169.787000000476837 ], [ 765886.854999999981374, 8982150.583999998867512 ], [ 765895.402, 8982133.423000002279878 ], [ 765904.072000000043772, 8982116.151999998837709 ], [ 765913.956999999820255, 8982097.663999998942018 ], [ 765926.905999999842606, 8982073.183000000193715 ], [ 765938.072999999858439, 8982053.697999998927116 ], [ 765948.672000000136904, 8982033.707000000402331 ], [ 765961.216999999829568, 8982008.928999999538064 ], [ 765975.212999999988824, 8981980.076999999582767 ], [ 765985.723, 8981958.930000001564622 ], [ 765989.079545999644324, 8981952.650716092437506 ] ] ] } },
{ "type": "Feature", "properties": { "LAYER": "AS_JALAN", "GM_TYPE": "Unknown Line Type", "ELEVATION": null }, "geometry": { "type": "MultiLineString", "coordinates": [ [ [ 767385.468000000109896, 8979196.128000000491738 ], [ 767395.841999999829568, 8979198.271999998018146 ], [ 767410.767000000108965, 8979203.117000000551343 ], [ 767434.259000000194646, 8979210.94400000013411 ], [ 767458.837999999988824, 8979220.804999999701977 ], [ 767479.746999999973923, 8979227.526000000536442 ], [ 767503.689999999827705, 8979234.383000001311302 ], [ 767514.554999999818392, 8979237.343000000342727 ], [ 767520.240999999921769, 8979237.939999999478459 ], [ 767531.79500000004191, 8979238.279999999329448 ], [ 767564.314000000129454, 8979238.454 ], [ 767627.397999999811873, 8979238.462999999523163 ], [ 767677.041434807004407, 8979237.960781088098884 ], [ 767737.480999999912456, 8979238.045 ], [ 767797.973999999812804, 8979238.182000001892447 ], [ 767933.983, 8979237.955 ], [ 768066.485000000102445, 8979238.72099999897182 ], [ 768133.699999999837019, 8979239.403999999165535 ], [ 768196.861607527476735, 8979238.112294776365161 ] ] ] } },
{ "type": "Feature", "properties": { "LAYER": "AS_JALAN", "GM_TYPE": "Unknown Line Type", "ELEVATION": null }, "geometry": { "type": "MultiLineString", "coordinates": [ [ [ 765057.324444945901632, 8982043.865548247471452 ], [ 765051.912999999825843, 8982041.94400000013411 ], [ 764979.490999999921769, 8982016.726000001654029 ], [ 764914.15500000002794, 8981992.78999999910593 ], [ 764795.99800000002142, 8981951.422000002115965 ], [ 764745.48904505232349, 8981932.986604262143373 ], [ 764693.710999999893829, 8981914.087999999523163 ], [ 764667.03000000002794, 8981905.350999997928739 ] ] ] } },
{ "type": "Feature", "properties": { "LAYER": "AS_JALAN", "GM_TYPE": "Unknown Line Type", "ELEVATION": null }, "geometry": { "type": "MultiLineString", "coordinates": [ [ [ 765351.483, 8982157.700999999418855 ], [ 765329.544000000110827, 8982145.413999998942018 ], [ 765310.64400000020396, 8982137.014000000432134 ], [ 765253.223, 8982113.288999998942018 ], [ 765221.06900000013411, 8982102.306999998167157 ], [ 765140.729999999864958, 8982073.48200000077486 ], [ 765061.380248932517134, 8982045.305722381919622 ] ] ] } },
{ "type": "Feature", "properties": { "LAYER": "AS_JALAN", "GM_TYPE": "Unknown Line Type", "ELEVATION": null }, "geometry": { "type": "MultiLineString", "coordinates": [ [ [ 764388.022999999811873, 8981803.375 ], [ 764313.504000000073574, 8981777.262999998405576 ] ] ] } },
{ "type": "Feature", "properties": { "LAYER": "AS_JALAN", "GM_TYPE": "Unknown Line Type", "ELEVATION": null }, "geometry": { "type": "MultiLineString", "coordinates": [ [ [ 767554.767999999923632, 8978829.878999998793006 ], [ 767566.294000000110827, 8978828.47099999897182 ], [ 767599.880000000121072, 8978828.391999997198582 ], [ 767628.32999999995809, 8978828.586999997496605 ], [ 767652.848, 8978828.697999998927116 ], [ 767677.880999999935739, 8978829.211000001057982 ], [ 767770.31900000013411, 8978827.974999999627471 ], [ 767810.890000000130385, 8978827.69199999794364 ], [ 767853.37, 8978828.282999999821186 ], [ 767900.267999999807216, 8978828.703999998047948 ], [ 767936.623000000137836, 8978829.191999999806285 ], [ 767990.295999999856576, 8978828.814999999478459 ], [ 768029.949000000022352, 8978829.39299999922514 ], [ 768084.055999999982305, 8978830.372999999672174 ], [ 768175.297999999951571, 8978829.887000001966953 ], [ 768197.996999999973923, 8978829.771999999880791 ], [ 768257.932000000146218, 8978829.001000002026558 ], [ 768293.185999999986961, 8978828.902000000700355 ], [ 768330.112000000081025, 8978829.219000000506639 ], [ 768354.004000000073574, 8978829.861000001430511 ], [ 768382.287000000011176, 8978829.367000000551343 ], [ 768403.498000000137836, 8978829.725999999791384 ], [ 768427.311000000103377, 8978829.462000001221895 ], [ 768449.06900000013411, 8978829.753999998793006 ], [ 768477.113000000012107, 8978830.109999999403954 ], [ 768511.605999999912456, 8978829.63399999961257 ], [ 768553.744999999878928, 8978830.007999999448657 ], [ 768593.941, 8978830.666000001132488 ], [ 768628.407999999937601, 8978830.693 ], [ 768653.797999999951571, 8978830.167999999597669 ], [ 768676.970000000204891, 8978829.92200000025332 ], [ 768703.130000000121072, 8978830.01799999922514 ], [ 768741.139000000082888, 8978829.662000000476837 ], [ 768775.939000000013039, 8978829.858999999240041 ], [ 768785.758000000147149, 8978829.832999996840954 ], [ 768798.599000000045635, 8978829.737999998033047 ], [ 768822.51099999982398, 8978829.834999999031425 ], [ 768896.456000000122003, 8978829.57599999755621 ], [ 768935.203000000212342, 8978830.102999998256564 ], [ 768987.782999999937601, 8978829.779999999329448 ], [ 769043.40500000002794, 8978830.424999998882413 ], [ 769088.817000000039116, 8978830.498999999836087 ], [ 769136.590999999898486, 8978830.478000000119209 ], [ 769147.629000000073574, 8978830.298000000417233 ], [ 769207.074999999953434, 8978830.312999999150634 ], [ 769248.365999999805354, 8978830.365000002086163 ], [ 769288.822999999974854, 8978831.063999999314547 ], [ 769332.787999999942258, 8978829.823999999091029 ], [ 769371.621999999973923, 8978830.138000002130866 ], [ 769389.613999999826774, 8978829.526000000536442 ], [ 769425.439000000129454, 8978830.811999998986721 ], [ 769477.076999999815598, 8978829.875 ], [ 769527.057999999960884, 8978829.477000001817942 ], [ 769583.449999999953434, 8978829.71399999782443 ], [ 769621.76500000001397, 8978830.589999997988343 ], [ 769664.220999999903142, 8978831.512000001966953 ], [ 769698.535000000149012, 8978831.761 ], [ 769748.65500000002794, 8978831.227 ] ] ] } },
{ "type": "Feature", "properties": { "LAYER": "AS_JALAN", "GM_TYPE": "Unknown Line Type", "ELEVATION": 8.49 }, "geometry": { "type": "MultiLineString", "coordinates": [ [ [ 769809.879000000073574, 8978831.367999998852611 ], [ 769853.963999999803491, 8978832.509999999776483 ] ] ] } },
{ "type": "Feature", "properties": { "LAYER": "AS_JALAN", "GM_TYPE": "Unknown Line Type", "ELEVATION": 42.569 }, "geometry": { "type": "MultiLineString", "coordinates": [ [ [ 765351.483, 8982157.700999999418855 ], [ 765391.650000000139698, 8982174.905999999493361 ], [ 765414.211999999010004, 8982185.580000003799796 ] ] ] } },
{ "type": "Feature", "properties": { "LAYER": "AS_JALAN", "GM_TYPE": "Unknown Line Type", "ELEVATION": null }, "geometry": { "type": "MultiLineString", "coordinates": [ [ [ 765947.806492601870559, 8982454.310755230486393 ], [ 765974.730999999912456, 8982470.53600000217557 ], [ 766015.51, 8982494.211000001057982 ], [ 766041.914000000106171, 8982508.918999999761581 ], [ 766073.10100000014063, 8982523.272000001743436 ], [ 766127.650000000139698, 8982544.820000002160668 ], [ 766159.103000000119209, 8982555.662000000476837 ], [ 766183.117000000202097, 8982566.200999999418855 ], [ 766198.096000000135973, 8982574.53600000217557 ], [ 766239.541000000201166, 8982594.837999999523163 ], [ 766277.914000000106171, 8982616.869999999180436 ], [ 766302.287000000011176, 8982634.495999999344349 ] ] ] } },
{ "type": "Feature", "properties": { "LAYER": "AS_JALAN", "GM_TYPE": "Unknown Line Type", "ELEVATION": null }, "geometry": { "type": "MultiLineString", "coordinates": [ [ [ 765680.311098874895833, 8982275.920726627111435 ], [ 765701.054, 8982283.925999999046326 ], [ 765731.76900000020396, 8982295.735999999567866 ], [ 765765.152999999816529, 8982307.711000001057982 ], [ 765798.725000000209548, 8982318.918999999761581 ], [ 765815.569000000017695, 8982327.108999999240041 ], [ 765832.197999999974854, 8982335.938999999314547 ], [ 765841.246999999973923, 8982342.498999997973442 ], [ 765846.483999999822117, 8982348.400000000372529 ], [ 765859.272, 8982367.138000000268221 ], [ 765871.042999999830499, 8982383.497999999672174 ], [ 765885.422000000136904, 8982399.766000000759959 ], [ 765901.478999999817461, 8982417.426999999210238 ], [ 765914.426000000210479, 8982430.761999998241663 ], [ 765922.824999999837019, 8982438.775000000372529 ], [ 765931.946999999810942, 8982444.530999999493361 ], [ 765945.972022320958786, 8982453.190845748409629 ] ] ] } },
{ "type": "Feature", "properties": { "LAYER": "AS_JALAN", "GM_TYPE": "Unknown Line Type", "ELEVATION": null }, "geometry": { "type": "MultiLineString", "coordinates": [ [ [ 765448.912999999942258, 8982201.109999999403954 ], [ 765484.260000000125729, 8982217.764999998733401 ], [ 765503.099000000045635, 8982224.934000000357628 ], [ 765519.787000000127591, 8982229.339999997988343 ], [ 765558.728, 8982236.282999999821186 ], [ 765574.700999999884516, 8982239.228000000119209 ], [ 765594.677000000141561, 8982243.075999999418855 ], [ 765609.382999999914318, 8982247.668999997898936 ], [ 765626.817000000039116, 8982255.506999999284744 ], [ 765655.004000000073574, 8982266.153999999165535 ], [ 765677.936283370130695, 8982275.004218025133014 ] ] ] } },
{ "type": "Feature", "properties": { "LAYER": "AS_JALAN", "GM_TYPE": "Unknown Line Type", "ELEVATION": null }, "geometry": { "type": "MultiLineString", "coordinates": [ [ [ 764771.637999999918975, 8983921.792999999597669 ], [ 764763.951000000117347, 8983899.07799999974668 ], [ 764758.97600000014063, 8983882.965000001713634 ], [ 764750.692999999970198, 8983856.252999998629093 ], [ 764745.529000000096858, 8983839.782999999821186 ], [ 764738.41399999987334, 8983816.973999999463558 ], [ 764732.439999999827705, 8983799.457000000402331 ], [ 764726.419000000110827, 8983781.128999996930361 ], [ 764722.205999999889173, 8983769.229000002145767 ], [ 764716.609999999869615, 8983750.218000000342727 ], [ 764712.657000000122935, 8983734.997999999672174 ], [ 764709.17000000004191, 8983722.480000000447035 ], [ 764707.400000000023283, 8983712.391999999061227 ], [ 764704.645999999949709, 8983690.856999998912215 ], [ 764701.232000000076368, 8983666.531999999657273 ], [ 764695.667999999830499, 8983632.867000000551343 ], [ 764690.194999999948777, 8983597.862999998033047 ], [ 764683.802999999839813, 8983554.864 ], [ 764677.074999999953434, 8983509.924999998882413 ], [ 764672.434, 8983479.174999998882413 ], [ 764669.314000000013039, 8983455.997999999672174 ], [ 764666.21999999997206, 8983426.818999998271465 ], [ 764662.175000000046566, 8983399.46399999782443 ], [ 764660.319000000017695, 8983382.089999999850988 ], [ 764660.104999999981374, 8983373.236999999731779 ], [ 764660.337000000057742, 8983362.243999999016523 ], [ 764661.645999999949709, 8983344.989 ], [ 764662.716999999829568, 8983326.209999999031425 ], [ 764663.691000000108033, 8983311.455 ], [ 764664.124000000068918, 8983300.018999999389052 ], [ 764664.57999999995809, 8983291.683000000193715 ], [ 764665.109999999869615, 8983277.499000001698732 ], [ 764665.109999999869615, 8983252.083999998867512 ], [ 764665.906000000191852, 8983232.105999998748302 ], [ 764668.071, 8983215.398 ], [ 764671.472000000067055, 8983199.338999999687076 ], [ 764672.753000000142492, 8983195.377000000327826 ], [ 764676.687000000034459, 8983182.425999999046326 ], [ 764686.457999999984168, 8983157.087999999523163 ], [ 764698.560999999986961, 8983123.867000000551343 ], [ 764711.113999999826774, 8983091.986999997869134 ], [ 764724.682999999960884, 8983062.460999999195337 ], [ 764729.26500000001397, 8983052.306000001728535 ], [ 764735.740999999805354, 8983032.695000000298023 ], [ 764737.819999999948777, 8983024.927000001072884 ], [ 764739.20900000014808, 8983016.719000000506639 ], [ 764740.220999999903142, 8983005.266999999061227 ], [ 764740.244000000064261, 8982993.380999999120831 ], [ 764738.772000000113621, 8982981.089999999850988 ], [ 764735.392, 8982961.581999998539686 ], [ 764730.787000000011176, 8982941.152999997138977 ], [ 764723.832999999984168, 8982915.207000000402331 ], [ 764709.59499999997206, 8982869.252000000327826 ], [ 764694.410000000032596, 8982825.867999998852611 ], [ 764681.896999999880791, 8982795.416000001132488 ], [ 764673.098, 8982778.264000002294779 ], [ 764665.121999999857508, 8982767.065999999642372 ], [ 764650.407999999821186, 8982751.077999997884035 ], [ 764642.463999999803491, 8982740.651000002399087 ], [ 764636.983000000123866, 8982731.502000000327826 ], [ 764635.875, 8982726.098999999463558 ], [ 764636.99800000002142, 8982715.566000001505017 ], [ 764640.621999999973923, 8982703.800999999046326 ], [ 764645.26299999980256, 8982691.998999999836087 ], [ 764658.715999999898486, 8982660.550999997183681 ], [ 764672.992000000085682, 8982624.262999998405576 ], [ 764686.316000000108033, 8982591.905999999493361 ], [ 764696.895000000018626, 8982566.938999999314547 ], [ 764707.356000000145286, 8982542.30800000205636 ], [ 764720.731999999843538, 8982511.913999998942018 ], [ 764731.310999999986961, 8982488.041999999433756 ], [ 764740.904000000213273, 8982465.122999999672174 ], [ 764748.874000000068918, 8982444.515999998897314 ], [ 764762.042000000132248, 8982412.960999999195337 ], [ 764774.704999999841675, 8982384.785000000149012 ], [ 764784.047999999835156, 8982362.502999998629093 ], [ 764790.858000000123866, 8982345.901000000536442 ], [ 764797.465999999898486, 8982328.076999999582767 ], [ 764803.560000000055879, 8982314.06900000013411 ], [ 764807.807000000146218, 8982304.365000000223517 ], [ 764813.893999999854714, 8982292.636 ], [ 764820.630000000121072, 8982281.89299999922514 ], [ 764828.602000000071712, 8982269.262000000104308 ], [ 764835.550999999977648, 8982258.881999999284744 ], [ 764842.282999999937601, 8982253.376000000163913 ], [ 764854.500999999814667, 8982245.958999998867512 ], [ 764865.878000000142492, 8982238.243999999016523 ], [ 764876.848, 8982228.342000000178814 ], [ 764887.09499999997206, 8982218.217000002041459 ], [ 764894.460999999893829, 8982208.272000001743436 ], [ 764900.209000000031665, 8982197.085999999195337 ], [ 764903.973, 8982189.126000002026558 ], [ 764906.2589999998454, 8982180.234999999403954 ], [ 764907.592000000062399, 8982173.474999999627471 ], [ 764933.748000000137836, 8982161.360999999567866 ], [ 764960.910000000149012, 8982149.68099999986589 ], [ 764981.829999999841675, 8982139.589999999850988 ], [ 764996.044000000110827, 8982135.486999999731779 ], [ 765003.451000000117347, 8982135.023000001907349 ], [ 765008.54500000004191, 8982135.625999998301268 ], [ 765016.26099999982398, 8982137.282999999821186 ], [ 765070.005000000121072, 8982153.964999999850988 ], [ 765101.222000000067055, 8982162.989 ], [ 765145.326000000117347, 8982174.694000001996756 ], [ 765195.892, 8982189.225999999791384 ], [ 765235.424000000115484, 8982200.694000001996756 ], [ 765272.369000000180677, 8982211.899000002071261 ], [ 765287.437000000150874, 8982215.844999996945262 ], [ 765292.613999999826774, 8982216.003999998793006 ], [ 765298.571, 8982214.315999999642372 ], [ 765305.282, 8982210.14299999922514 ], [ 765312.772, 8982203.718000000342727 ], [ 765340.19400000013411, 8982172.607999999076128 ], [ 765351.483, 8982157.700999999418855 ] ] ] } },
{ "type": "Feature", "properties": { "LAYER": "AS_JALAN", "GM_TYPE": "Unknown Line Type", "ELEVATION": null }, "geometry": { "type": "MultiLineString", "coordinates": [ [ [ 767677.880999999935739, 8978829.211000001057982 ], [ 767677.934, 8978878.372999999672174 ], [ 767678.473, 8978934.6739999987185 ], [ 767680.337999999872409, 8979037.451999999582767 ], [ 767679.174999999813735, 8979110.953000001609325 ], [ 767677.041434807004407, 8979237.960781088098884 ] ] ] } },
{ "type": "Feature", "properties": { "LAYER": "AS_JALAN", "GM_TYPE": "Unknown Line Type", "ELEVATION": null }, "geometry": { "type": "MultiLineString", "coordinates": [ [ [ 767677.880999999935739, 8978829.211000001057982 ], [ 767678.358999999822117, 8978777.24100000038743 ], [ 767678.312999999965541, 8978698.582000000402331 ], [ 767678.604000000050291, 8978668.031999999657273 ], [ 767679.032000000122935, 8978602.086000001057982 ], [ 767678.677999999956228, 8978572.93099999986589 ], [ 767678.580999999889173, 8978560.979000000283122 ], [ 767677.799000000115484, 8978491.493999999016523 ] ] ] } },
{ "type": "Feature", "properties": { "LAYER": "AS_JALAN", "GM_TYPE": "Unknown Line Type", "ELEVATION": null }, "geometry": { "type": "MultiLineString", "coordinates": [ [ [ 767678.580999999889173, 8978560.979000000283122 ], [ 767610.892999999807216, 8978560.456000000238419 ], [ 767552.80600000009872, 8978560.785000000149012 ], [ 767480.378000000142492, 8978560.803999999538064 ], [ 767416.949000000022352, 8978559.709999997168779 ], [ 767416.635999999940395, 8978613.034 ] ] ] } },
{ "type": "Feature", "properties": { "LAYER": "AS_JALAN", "GM_TYPE": "Unknown Line Type", "ELEVATION": null }, "geometry": { "type": "MultiLineString", "coordinates": [ [ [ 767554.334999999846332, 8978700.773999998345971 ], [ 767629.035999999963678, 8978699.676999999210238 ], [ 767678.312999999965541, 8978698.582000000402331 ] ] ] } },
{ "type": "Feature", "properties": { "LAYER": "AS_JALAN", "GM_TYPE": "Unknown Line Type", "ELEVATION": 12.33 }, "geometry": { "type": "MultiLineString", "coordinates": [ [ [ 767629.035999999963678, 8978699.676999999210238 ], [ 767629.237000000081025, 8978756.548999996855855 ], [ 767628.32999999995809, 8978828.586999997496605 ] ] ] } },
{ "type": "Feature", "properties": { "LAYER": "AS_JALAN", "GM_TYPE": "Unknown Line Type", "ELEVATION": null }, "geometry": { "type": "MultiLineString", "coordinates": [ [ [ 767936.623000000137836, 8978829.191999999806285 ], [ 767937.125999999814667, 8978899.099999999627471 ], [ 767937.410000000149012, 8979028.757000001147389 ], [ 767937.314000000013039, 8979113.960999999195337 ], [ 767934.62300000002142, 8979237.875 ] ] ] } },
{ "type": "Feature", "properties": { "LAYER": "AS_JALAN", "GM_TYPE": "Unknown Line Type", "ELEVATION": null }, "geometry": { "type": "MultiLineString", "coordinates": [ [ [ 768197.996999999973923, 8978829.771999999880791 ], [ 768196.881999999983236, 8978875.967000000178814 ], [ 768196.142999999923632, 8978943.733999999240041 ], [ 768196.581999999820255, 8979008.6739999987185 ], [ 768195.835999999893829, 8979055.855999996885657 ], [ 768194.804, 8979136.098999999463558 ], [ 768196.410000000032596, 8979203.439999999478459 ], [ 768196.861607527476735, 8979238.112294776365161 ] ] ] } },
{ "type": "Feature", "properties": { "LAYER": "AS_JALAN", "GM_TYPE": "Unknown Line Type", "ELEVATION": null }, "geometry": { "type": "MultiLineString", "coordinates": [ [ [ 768197.996999999973923, 8978829.771999999880791 ], [ 768199.064000000129454, 8978788.280999999493361 ], [ 768198.63599999982398, 8978748.810999998822808 ], [ 768198.262999999918975, 8978701.431000001728535 ], [ 768198.555999999982305, 8978648.667999999597669 ], [ 768198.869000000064261, 8978590.265999998897314 ], [ 768198.305999999982305, 8978546.276999998837709 ], [ 768196.881999999983236, 8978495.163999998942018 ], [ 768196.792000000132248, 8978453.217000002041459 ], [ 768196.53000000002794, 8978420.54700000025332 ] ] ] } },
{ "type": "Feature", "properties": { "LAYER": "AS_JALAN", "GM_TYPE": "Unknown Line Type", "ELEVATION": null }, "geometry": { "type": "MultiLineString", "coordinates": [ [ [ 767554.767999999923632, 8978829.878999998793006 ], [ 767554.567999999970198, 8978807.392000000923872 ], [ 767554.42000000004191, 8978730.769999999552965 ], [ 767554.334999999846332, 8978700.773999998345971 ], [ 767552.770999999949709, 8978645.632999999448657 ], [ 767553.374000000068918, 8978610.174999997019768 ], [ 767552.80600000009872, 8978560.785000000149012 ], [ 767553.170999999972992, 8978520.990000002086163 ], [ 767553.452965763746761, 8978489.000760266557336 ] ] ] } },
{ "type": "Feature", "properties": { "LAYER": "AS_JALAN", "GM_TYPE": "Unknown Line Type", "ELEVATION": null }, "geometry": { "type": "MultiLineString", "coordinates": [ [ [ 767468.487000000081025, 8979017.931000001728535 ], [ 767488.29500000004191, 8978973.354000000283122 ], [ 767506.503000000026077, 8978933.4510000012815 ], [ 767523.992000000085682, 8978897.562999999150634 ], [ 767543.545999999972992, 8978855.997999999672174 ], [ 767554.767999999923632, 8978829.878999998793006 ] ] ] } },
{ "type": "Feature", "properties": { "LAYER": "AS_JALAN", "GM_TYPE": "Unknown Line Type", "ELEVATION": null }, "geometry": { "type": "MultiLineString", "coordinates": [ [ [ 767385.468000000109896, 8979196.128000000491738 ], [ 767395.841999999829568, 8979198.271999998018146 ], [ 767410.767000000108965, 8979203.117000000551343 ], [ 767434.259000000194646, 8979210.94400000013411 ], [ 767458.837999999988824, 8979220.804999999701977 ], [ 767479.746999999973923, 8979227.526000000536442 ], [ 767503.689999999827705, 8979234.383000001311302 ], [ 767514.554999999818392, 8979237.343000000342727 ], [ 767520.240999999921769, 8979237.939999999478459 ], [ 767531.79500000004191, 8979238.279999999329448 ], [ 767564.314000000129454, 8979238.454 ], [ 767627.397999999811873, 8979238.462999999523163 ], [ 767677.041434807004407, 8979237.960781088098884 ], [ 767737.480999999912456, 8979238.045 ], [ 767797.973999999812804, 8979238.182000001892447 ], [ 767933.983, 8979237.955 ], [ 768066.485000000102445, 8979238.72099999897182 ], [ 768133.699999999837019, 8979239.403999999165535 ], [ 768196.861607527476735, 8979238.112294776365161 ] ] ] } },
{ "type": "Feature", "properties": { "LAYER": "AS_JALAN", "GM_TYPE": "Unknown Line Type", "ELEVATION": null }, "geometry": { "type": "MultiLineString", "coordinates": [ [ [ 764388.022999999811873, 8981803.375 ], [ 764313.504000000073574, 8981777.262999998405576 ] ] ] } },
{ "type": "Feature", "properties": { "LAYER": "AS_JALAN", "GM_TYPE": "Unknown Line Type", "ELEVATION": null }, "geometry": { "type": "MultiLineString", "coordinates": [ [ [ 767554.767999999923632, 8978829.878999998793006 ], [ 767566.294000000110827, 8978828.47099999897182 ], [ 767599.880000000121072, 8978828.391999997198582 ], [ 767628.32999999995809, 8978828.586999997496605 ], [ 767652.848, 8978828.697999998927116 ], [ 767677.880999999935739, 8978829.211000001057982 ], [ 767770.31900000013411, 8978827.974999999627471 ], [ 767810.890000000130385, 8978827.69199999794364 ], [ 767853.37, 8978828.282999999821186 ], [ 767900.267999999807216, 8978828.703999998047948 ], [ 767936.623000000137836, 8978829.191999999806285 ], [ 767990.295999999856576, 8978828.814999999478459 ], [ 768029.949000000022352, 8978829.39299999922514 ], [ 768084.055999999982305, 8978830.372999999672174 ], [ 768175.297999999951571, 8978829.887000001966953 ], [ 768197.996999999973923, 8978829.771999999880791 ], [ 768257.932000000146218, 8978829.001000002026558 ], [ 768293.185999999986961, 8978828.902000000700355 ], [ 768330.112000000081025, 8978829.219000000506639 ], [ 768354.004000000073574, 8978829.861000001430511 ], [ 768382.287000000011176, 8978829.367000000551343 ], [ 768403.498000000137836, 8978829.725999999791384 ], [ 768427.311000000103377, 8978829.462000001221895 ], [ 768449.06900000013411, 8978829.753999998793006 ], [ 768477.113000000012107, 8978830.109999999403954 ], [ 768511.605999999912456, 8978829.63399999961257 ], [ 768553.744999999878928, 8978830.007999999448657 ], [ 768593.941, 8978830.666000001132488 ], [ 768628.407999999937601, 8978830.693 ], [ 768653.797999999951571, 8978830.167999999597669 ], [ 768676.970000000204891, 8978829.92200000025332 ], [ 768703.130000000121072, 8978830.01799999922514 ], [ 768741.139000000082888, 8978829.662000000476837 ], [ 768775.939000000013039, 8978829.858999999240041 ], [ 768785.758000000147149, 8978829.832999996840954 ], [ 768798.599000000045635, 8978829.737999998033047 ], [ 768822.51099999982398, 8978829.834999999031425 ], [ 768896.456000000122003, 8978829.57599999755621 ], [ 768935.203000000212342, 8978830.102999998256564 ], [ 768987.782999999937601, 8978829.779999999329448 ], [ 769043.40500000002794, 8978830.424999998882413 ], [ 769088.817000000039116, 8978830.498999999836087 ], [ 769136.590999999898486, 8978830.478000000119209 ], [ 769147.629000000073574, 8978830.298000000417233 ], [ 769207.074999999953434, 8978830.312999999150634 ], [ 769248.365999999805354, 8978830.365000002086163 ], [ 769288.822999999974854, 8978831.063999999314547 ], [ 769332.787999999942258, 8978829.823999999091029 ], [ 769371.621999999973923, 8978830.138000002130866 ], [ 769389.613999999826774, 8978829.526000000536442 ], [ 769425.439000000129454, 8978830.811999998986721 ], [ 769477.076999999815598, 8978829.875 ], [ 769527.057999999960884, 8978829.477000001817942 ], [ 769583.449999999953434, 8978829.71399999782443 ], [ 769621.76500000001397, 8978830.589999997988343 ], [ 769664.220999999903142, 8978831.512000001966953 ], [ 769698.535000000149012, 8978831.761 ], [ 769748.65500000002794, 8978831.227 ] ] ] } },
{ "type": "Feature", "properties": { "LAYER": "AS_JALAN", "GM_TYPE": "Unknown Line Type", "ELEVATION": 8.49 }, "geometry": { "type": "MultiLineString", "coordinates": [ [ [ 769809.879000000073574, 8978831.367999998852611 ], [ 769853.963999999803491, 8978832.509999999776483 ] ] ] } },
{ "type": "Feature", "properties": { "LAYER": "AS_JALAN", "GM_TYPE": "Unknown Line Type", "ELEVATION": 42.569 }, "geometry": { "type": "MultiLineString", "coordinates": [ [ [ 765351.483, 8982157.700999999418855 ], [ 765391.650000000139698, 8982174.905999999493361 ], [ 765414.211999999010004, 8982185.580000003799796 ] ] ] } },
{ "type": "Feature", "properties": { "LAYER": "AS_JALAN", "GM_TYPE": "Unknown Line Type", "ELEVATION": null }, "geometry": { "type": "MultiLineString", "coordinates": [ [ [ 765947.806492601870559, 8982454.310755230486393 ], [ 765974.730999999912456, 8982470.53600000217557 ], [ 766015.51, 8982494.211000001057982 ], [ 766041.914000000106171, 8982508.918999999761581 ], [ 766073.10100000014063, 8982523.272000001743436 ], [ 766127.650000000139698, 8982544.820000002160668 ], [ 766159.103000000119209, 8982555.662000000476837 ], [ 766183.117000000202097, 8982566.200999999418855 ], [ 766198.096000000135973, 8982574.53600000217557 ], [ 766239.541000000201166, 8982594.837999999523163 ], [ 766277.914000000106171, 8982616.869999999180436 ], [ 766302.287000000011176, 8982634.495999999344349 ] ] ] } },
{ "type": "Feature", "properties": { "LAYER": "AS_JALAN", "GM_TYPE": "Unknown Line Type", "ELEVATION": null }, "geometry": { "type": "MultiLineString", "coordinates": [ [ [ 765448.912999999942258, 8982201.109999999403954 ], [ 765484.260000000125729, 8982217.764999998733401 ], [ 765503.099000000045635, 8982224.934000000357628 ], [ 765519.787000000127591, 8982229.339999997988343 ], [ 765558.728, 8982236.282999999821186 ], [ 765574.700999999884516, 8982239.228000000119209 ], [ 765594.677000000141561, 8982243.075999999418855 ], [ 765609.382999999914318, 8982247.668999997898936 ], [ 765626.817000000039116, 8982255.506999999284744 ], [ 765655.004000000073574, 8982266.153999999165535 ], [ 765677.936283370130695, 8982275.004218025133014 ] ] ] } },
{ "type": "Feature", "properties": { "LAYER": "AS_JALAN", "GM_TYPE": "Unknown Line Type", "ELEVATION": null }, "geometry": { "type": "MultiLineString", "coordinates": [ [ [ 765680.311098874895833, 8982275.920726627111435 ], [ 765701.054, 8982283.925999999046326 ], [ 765731.76900000020396, 8982295.735999999567866 ], [ 765765.152999999816529, 8982307.711000001057982 ], [ 765798.725000000209548, 8982318.918999999761581 ], [ 765815.569000000017695, 8982327.108999999240041 ], [ 765832.197999999974854, 8982335.938999999314547 ], [ 765841.246999999973923, 8982342.498999997973442 ], [ 765846.483999999822117, 8982348.400000000372529 ], [ 765859.272, 8982367.138000000268221 ], [ 765871.042999999830499, 8982383.497999999672174 ], [ 765885.422000000136904, 8982399.766000000759959 ], [ 765901.478999999817461, 8982417.426999999210238 ], [ 765914.426000000210479, 8982430.761999998241663 ], [ 765922.824999999837019, 8982438.775000000372529 ], [ 765931.946999999810942, 8982444.530999999493361 ], [ 765945.972022320958786, 8982453.190845748409629 ] ] ] } },
{ "type": "Feature", "properties": { "LAYER": "AS_JALAN", "GM_TYPE": "Unknown Line Type", "ELEVATION": null }, "geometry": { "type": "MultiLineString", "coordinates": [ [ [ 765798.725000000209548, 8982318.918999999761581 ], [ 765802.835999999893829, 8982311.628000000491738 ], [ 765810.316, 8982297.483999999240041 ], [ 765817.081999999820255, 8982286.36600000038743 ], [ 765822.282999999821186, 8982275.744999999180436 ], [ 765829.444999999832362, 8982261.292999999597669 ], [ 765836.006999999983236, 8982247.865000002086163 ], [ 765841.162000000127591, 8982237.100999999791384 ], [ 765846.359000000054948, 8982226.68099999986589 ], [ 765852.282, 8982216.168999999761581 ], [ 765858.655000000144355, 8982204.721999997273088 ], [ 765866.670999999972992, 8982188.435000000521541 ], [ 765876.875, 8982169.787000000476837 ], [ 765886.854999999981374, 8982150.583999998867512 ], [ 765895.402, 8982133.423000002279878 ], [ 765904.072000000043772, 8982116.151999998837709 ], [ 765913.956999999820255, 8982097.663999998942018 ], [ 765926.905999999842606, 8982073.183000000193715 ], [ 765938.072999999858439, 8982053.697999998927116 ], [ 765948.672000000136904, 8982033.707000000402331 ], [ 765961.216999999829568, 8982008.928999999538064 ], [ 765975.212999999988824, 8981980.076999999582767 ], [ 765985.723, 8981958.930000001564622 ], [ 765989.079545999644324, 8981952.650716092437506 ] ] ] } },
{ "type": "Feature", "properties": { "LAYER": "AS_JALAN", "GM_TYPE": "Unknown Line Type", "ELEVATION": null }, "geometry": { "type": "MultiLineString", "coordinates": [ [ [ 765990.163652466842905, 8981950.622615685686469 ], [ 765995.24, 8981941.126000000163913 ], [ 766015.564000000129454, 8981900.208999998867512 ], [ 766032.567999999853782, 8981866.04700000025332 ], [ 766048.961999999824911, 8981833.559000000357628 ], [ 766061.12099999981001, 8981809.424999998882413 ], [ 766075.134000000078231, 8981780.486999997869134 ], [ 766092.593000000109896, 8981746.632999999448657 ], [ 766105.261999999871477, 8981720.761 ], [ 766115.750999999814667, 8981701.00899999961257 ], [ 766128.039999999804422, 8981676.847999999299645 ], [ 766139.600999999907799, 8981654.49100000038743 ], [ 766153.363000000012107, 8981627.16299999691546 ], [ 766170.105999999912456, 8981594.33500000089407 ], [ 766188.905999999959022, 8981557.399999998509884 ], [ 766205.13599999982398, 8981524.377000000327826 ], [ 766220.184, 8981494.401999998837709 ], [ 766236.430000000051223, 8981463.528999999165535 ], [ 766253.805999999982305, 8981430.926999999210238 ], [ 766269.737000000081025, 8981401.454 ], [ 766284.544000000110827, 8981373.865000000223517 ], [ 766300.369000000064261, 8981343.967000000178814 ], [ 766318.459000000031665, 8981312.663999997079372 ], [ 766330.805999999982305, 8981289.987999999895692 ], [ 766348.813000000198372, 8981258.065999999642372 ], [ 766361.72600000014063, 8981234.571000000461936 ], [ 766369.212999999988824, 8981221.537000000476837 ], [ 766382.980999999912456, 8981196.203000001609325 ], [ 766399.191999999806285, 8981166.924999997019768 ], [ 766415.049000000115484, 8981137.868999999016523 ], [ 766428.844999999855645, 8981113.823999999091029 ], [ 766438.710999999893829, 8981096.638000000268221 ], [ 766451.660999999847263, 8981073.117000000551343 ], [ 766462.99800000002142, 8981052.685999998822808 ], [ 766478.853999999817461, 8981022.602000001817942 ], [ 766493.824000000138767, 8980994.053999999538064 ], [ 766512.718999999808148, 8980959.010000001639128 ], [ 766523.705999999889173, 8980939.352 ], [ 766538.34499999997206, 8980913.089000001549721 ], [ 766544.539000000106171, 8980902.075999999418855 ], [ 766559.694000000017695, 8980872.850999999791384 ], [ 766579.607000000076368, 8980837.995999999344349 ], [ 766600.984000000054948, 8980799.781999999657273 ], [ 766617.707999999984168, 8980769.787999998778105 ], [ 766634.093999999808148, 8980737.198999999091029 ], [ 766650.816000000108033, 8980708.862999999895692 ], [ 766669.550999999977648, 8980675.798000000417233 ], [ 766696.615, 8980626.090000001713634 ], [ 766719.317999999853782, 8980585.087999999523163 ], [ 766739.242000000085682, 8980548.197999998927116 ], [ 766756.728, 8980515.240000000223517 ], [ 766775.925000000046566, 8980480.619999999180436 ], [ 766797.804, 8980439.881999997422099 ], [ 766800.420667666825466, 8980435.466514172032475 ] ] ] } },
{ "type": "Feature", "properties": { "LAYER": "AS_JALAN", "GM_TYPE": "Unknown Line Type", "ELEVATION": null }, "geometry": { "type": "MultiLineString", "coordinates": [ [ [ 766806.081197263440117, 8980425.914675200358033 ], [ 766807.091999999829568, 8980424.208999997004867 ], [ 766819.613000000128523, 8980403.252999998629093 ], [ 766834.966999999829568, 8980374.435999998822808 ], [ 766847.776999999885447, 8980349.094999998807907 ], [ 766861.157999999937601, 8980321.958999998867512 ], [ 766877.827000000048429, 8980287.642999997362494 ], [ 766891.613000000128523, 8980258.803999999538064 ], [ 766907.841999999829568, 8980223.236999999731779 ], [ 766919.180000000051223, 8980198.753000000491738 ], [ 766931.699000000022352, 8980171.774000000208616 ], [ 766948.583000000100583, 8980134.469000000506639 ], [ 766962.482000000076368, 8980103.312999997287989 ], [ 766968.932999999960884, 8980090.158999998122454 ], [ 766979.960000000195578, 8980067.707999998703599 ], [ 766993.07999999995809, 8980039.556999998167157 ], [ 767002.197999999974854, 8980020.428000001236796 ], [ 767011.216000000131316, 8980000.423999996855855 ], [ 767022.348999999812804, 8979977.257999999448657 ], [ 767041.71999999997206, 8979936.211000001057982 ], [ 767054.340999999898486, 8979909.475000001490116 ], [ 767066.142999999923632, 8979884.05799999833107 ], [ 767077.532999999821186, 8979859.781999999657273 ], [ 767088.419000000110827, 8979835.234999999403954 ], [ 767106.992000000085682, 8979795.13399999961257 ], [ 767121.639000000199303, 8979764.473999999463558 ], [ 767133.91599999985192, 8979738.19199999794364 ], [ 767147.003000000026077, 8979710.434000000357628 ], [ 767165.243999999831431, 8979670.565000001341105 ], [ 767171.843, 8979655.06699999794364 ], [ 767183.767000000108965, 8979628.178999999538064 ], [ 767204.228000000119209, 8979585.671 ], [ 767218.326999999815598, 8979554.887000000104308 ], [ 767231.982000000076368, 8979525.619999999180436 ], [ 767252.871999999857508, 8979480.727 ], [ 767269.783000002149493, 8979441.993999993428588 ], [ 767280.499000000068918, 8979419.876000002026558 ], [ 767303.733000000123866, 8979372.559999998658895 ], [ 767332.535000000032596, 8979310.856999998912215 ], [ 767344.677000000141561, 8979283.678999999538064 ], [ 767368.439000000129454, 8979230.873999999836087 ], [ 767385.468000000109896, 8979196.128000000491738 ], [ 767424.077000000048429, 8979113.939999999478459 ], [ 767468.487000000081025, 8979017.931000001728535 ] ] ] } },
{ "type": "Feature", "properties": { "LAYER": "AS_JALAN", "GM_TYPE": "Unknown Line Type", "ELEVATION": null }, "geometry": { "type": "MultiLineString", "coordinates": [ [ [ 765351.483, 8982157.700999999418855 ], [ 765329.544000000110827, 8982145.413999998942018 ], [ 765310.64400000020396, 8982137.014000000432134 ], [ 765253.223, 8982113.288999998942018 ], [ 765221.06900000013411, 8982102.306999998167157 ], [ 765140.729999999864958, 8982073.48200000077486 ], [ 765061.380248932517134, 8982045.305722381919622 ] ] ] } },
{ "type": "Feature", "properties": { "LAYER": "AS_JALAN", "GM_TYPE": "Unknown Line Type", "ELEVATION": null }, "geometry": { "type": "MultiLineString", "coordinates": [ [ [ 765057.324444945901632, 8982043.865548247471452 ], [ 765051.912999999825843, 8982041.94400000013411 ], [ 764979.490999999921769, 8982016.726000001654029 ], [ 764914.15500000002794, 8981992.78999999910593 ], [ 764795.99800000002142, 8981951.422000002115965 ], [ 764745.48904505232349, 8981932.986604262143373 ], [ 764693.710999999893829, 8981914.087999999523163 ], [ 764667.03000000002794, 8981905.350999997928739 ] ] ] } },
{ "type": "Feature", "properties": { "LAYER": "AS_JALAN", "GM_TYPE": "Unknown Line Type", "ELEVATION": null }, "geometry": { "type": "MultiLineString", "coordinates": [ [ [ 764907.592000000062399, 8982173.474999999627471 ], [ 764881.210999999893829, 8982183.969999998807907 ], [ 764862.705999999889173, 8982190.980999996885657 ], [ 764839.935999999986961, 8982201.051999997347593 ], [ 764822.488000000012107, 8982206.406999999657273 ], [ 764817.737999999895692, 8982207.106000000610948 ], [ 764813.007999999914318, 8982206.501000000163913 ], [ 764806.810000000055879, 8982203.231999998912215 ], [ 764801.518999999854714, 8982199.082999998703599 ], [ 764797.097000000067055, 8982194.538999998942018 ], [ 764791.371999999973923, 8982186.598999999463558 ], [ 764790.628238404286094, 8982185.135651821270585 ] ] ] } },
{ "type": "Feature", "properties": { "LAYER": "AS_JALAN", "GM_TYPE": "Unknown Line Type", "ELEVATION": null }, "geometry": { "type": "MultiLineString", "coordinates": [ [ [ 764789.35288742207922, 8982182.626403503119946 ], [ 764785.988000000012107, 8982176.005999999120831 ], [ 764779.393999999854714, 8982167.995999999344349 ], [ 764763.805999999982305, 8982154.120999999344349 ], [ 764754.115000000107102, 8982143.390999998897314 ], [ 764747.542000000132248, 8982134.31699999794364 ], [ 764742.032000000122935, 8982122.705 ], [ 764732.867000000085682, 8982112.045 ], [ 764725.767000000108965, 8982104.71199999935925 ], [ 764718.035000000149012, 8982091.200999999418855 ], [ 764703.942999999853782, 8982062.299999998882413 ], [ 764693.39000000001397, 8982041.745999999344349 ], [ 764693.125, 8982034.823999999091029 ], [ 764693.618000000016764, 8982026.270999999716878 ], [ 764693.618000000016764, 8982016.972000000998378 ], [ 764692.652, 8982005.756999999284744 ], [ 764691.618000000133179, 8981995.81700000166893 ], [ 764691.652000000118278, 8981989.24100000038743 ], [ 764693.359000000054948, 8981983.492000000551343 ], [ 764696.572000000043772, 8981978.480999996885657 ], [ 764701.975999999907799, 8981973.249000001698732 ], [ 764708.619000000064261, 8981968.929999999701977 ], [ 764716.809, 8981964.490000002086163 ], [ 764725.155999999842606, 8981959.716 ], [ 764732.25400000018999, 8981954.36600000038743 ], [ 764737.581999999820255, 8981948.704 ], [ 764745.48904505232349, 8981932.986604262143373 ] ] ] } }
]
}
