{
"type": "FeatureCollection",
"name": "09_lo_li_textgcp",
"crs": { "type": "name", "properties": { "name": "urn:ogc:def:crs:EPSG::32751" } },
"features": [
{ "type": "Feature", "properties": { "LAYER": "TEXT_GCP", "GM_TYPE": "Unknown Line Type", "ELEVATION": 3.259 }, "geometry": { "type": "MultiLineString", "coordinates": [ [ [ 768378.736000000033528, 8975844.357999999076128 ], [ 768307.783683486864902, 8975926.015169274061918 ], [ 768307.783683486864902, 8975960.805384671315551 ], [ 768180.136414130683988, 8975960.805384671315551 ], [ 768180.136414130683988, 8975904.733303854241967 ], [ 768307.783683486864902, 8975904.733303854241967 ], [ 768378.736000000033528, 8975844.357999999076128 ] ] ] } },
{ "type": "Feature", "properties": { "LAYER": "TEXT_GCP", "GM_TYPE": "Unknown Line Type", "ELEVATION": 3.044 }, "geometry": { "type": "MultiLineString", "coordinates": [ [ [ 767346.044, 8976025.936000000685453 ], [ 767336.341935385135002, 8976107.593169275671244 ], [ 767336.341935385135002, 8976160.842099945992231 ], [ 767218.276151655358262, 8976160.842099945992231 ], [ 767218.276151655358262, 8976086.311303855851293 ], [ 767326.19844713085331, 8976086.311303855851293 ], [ 767346.044, 8976025.936000000685453 ] ] ] } },
{ "type": "Feature", "properties": { "LAYER": "TEXT_GCP", "GM_TYPE": "Unknown Line Type", "ELEVATION": 3.829 }, "geometry": { "type": "MultiLineString", "coordinates": [ [ [ 768368.111000000033528, 8976658.131999999284744 ], [ 768358.408935385174118, 8976739.789169274270535 ], [ 768358.408935385174118, 8976793.038099944591522 ], [ 768240.343151655397378, 8976793.038099944591522 ], [ 768240.343151655397378, 8976718.507303854450583 ], [ 768348.265447130892426, 8976718.507303854450583 ], [ 768368.111000000033528, 8976658.131999999284744 ] ] ] } },
{ "type": "Feature", "properties": { "LAYER": "TEXT_GCP", "GM_TYPE": "Unknown Line Type", "ELEVATION": -0.942 }, "geometry": { "type": "MultiLineString", "coordinates": [ [ [ 768390.067999999970198, 8977708.106000000610948 ], [ 768341.00252841913607, 8977791.5082345623523 ], [ 768341.00252841913607, 8977804.820467229932547 ], [ 768311.486082486691885, 8977804.820467229932547 ], [ 768311.486082486691885, 8977786.187768206000328 ], [ 768338.466656355652958, 8977786.187768206000328 ], [ 768390.067999999970198, 8977708.106000000610948 ] ] ] } },
{ "type": "Feature", "properties": { "LAYER": "TEXT_GCP", "GM_TYPE": "Unknown Line Type", "ELEVATION": 6.186 }, "geometry": { "type": "MultiLineString", "coordinates": [ [ [ 767597.908999999985099, 8976995.892000000923872 ], [ 767588.206935385125689, 8977077.549169275909662 ], [ 767588.206935385125689, 8977130.79809994623065 ], [ 767470.141151655348949, 8977130.79809994623065 ], [ 767470.141151655348949, 8977056.267303856089711 ], [ 767578.063447130843997, 8977056.267303856089711 ], [ 767597.908999999985099, 8976995.892000000923872 ] ] ] } },
{ "type": "Feature", "properties": { "LAYER": "TEXT_GCP", "GM_TYPE": "Unknown Line Type", "ELEVATION": 7.848 }, "geometry": { "type": "MultiLineString", "coordinates": [ [ [ 769644.981999986805022, 8978851.827000055462122 ], [ 769635.5672403764911, 8978931.066074397414923 ], [ 769635.5672403764911, 8978982.738156739622355 ], [ 769520.997711502946913, 8978982.738156739622355 ], [ 769520.997711502946913, 8978910.414423953741789 ], [ 769625.724128903355449, 8978910.414423953741789 ], [ 769644.981999986805022, 8978851.827000055462122 ] ] ] } },
{ "type": "Feature", "properties": { "LAYER": "TEXT_GCP", "GM_TYPE": "Unknown Line Type", "ELEVATION": 9.144 }, "geometry": { "type": "MultiLineString", "coordinates": [ [ [ 768387.743242315482348, 8978827.496051725000143 ], [ 768432.685564079787582, 8979006.642597816884518 ], [ 768432.685564079787582, 8979038.533901464194059 ], [ 768503.39631286682561, 8979038.533901464194059 ], [ 768503.39631286682561, 8978993.896681159734726 ], [ 768438.760598074179143, 8978993.896681159734726 ], [ 768387.743242315482348, 8978827.496051725000143 ] ] ] } },
{ "type": "Feature", "properties": { "LAYER": "TEXT_GCP", "GM_TYPE": "Unknown Line Type", "ELEVATION": 10.111 }, "geometry": { "type": "MultiLineString", "coordinates": [ [ [ 767550.301615167176351, 8978440.123424578458071 ], [ 767547.876099013490602, 8978460.537716899067163 ], [ 767547.876099013490602, 8978473.849949564784765 ], [ 767518.359653081046417, 8978473.849949564784765 ], [ 767518.359653081046417, 8978455.217250542715192 ], [ 767545.340226949891075, 8978455.217250542715192 ], [ 767550.301615167176351, 8978440.123424578458071 ] ] ] } },
{ "type": "Feature", "properties": { "LAYER": "TEXT_GCP", "GM_TYPE": "Unknown Line Type", "ELEVATION": -0.942 }, "geometry": { "type": "MultiLineString", "coordinates": [ [ [ 767365.907, 8979218.471000000834465 ], [ 767336.583461873000488, 8979274.084641221910715 ], [ 767336.583461873000488, 8979287.396873889490962 ], [ 767307.067015940556303, 8979287.396873889490962 ], [ 767307.067015940556303, 8979268.764174867421389 ], [ 767334.047589809400961, 8979268.764174867421389 ], [ 767365.907, 8979218.471000000834465 ] ] ] } },
{ "type": "Feature", "properties": { "LAYER": "TEXT_GCP", "GM_TYPE": "Unknown Line Type", "ELEVATION": 19.815 }, "geometry": { "type": "MultiLineString", "coordinates": [ [ [ 767497.720999999903142, 8980547.998999997973442 ], [ 767484.698327947407961, 8980657.603973619639874 ], [ 767484.698327947407961, 8980729.077766954898834 ], [ 767326.223607039544731, 8980729.077766954898834 ], [ 767326.223607039544731, 8980629.038223437964916 ], [ 767471.083151566330343, 8980629.038223437964916 ], [ 767497.720999999903142, 8980547.998999997973442 ] ] ] } },
{ "type": "Feature", "properties": { "LAYER": "TEXT_GCP", "GM_TYPE": "Unknown Line Type", "ELEVATION": 0.0 }, "geometry": { "type": "MultiLineString", "coordinates": [ [ [ 766793.700000000186265, 8980469.428999999538064 ], [ 766759.513852820033208, 8980454.202244982123375 ], [ 766759.513852820033208, 8980440.890012312680483 ], [ 766729.997406887589023, 8980440.890012312680483 ], [ 766729.997406887589023, 8980459.522711336612701 ], [ 766756.977980756433681, 8980459.522711336612701 ], [ 766793.700000000186265, 8980469.428999999538064 ] ] ] } },
{ "type": "Feature", "properties": { "LAYER": "TEXT_GCP", "GM_TYPE": "Unknown Line Type", "ELEVATION": -0.942 }, "geometry": { "type": "MultiLineString", "coordinates": [ [ [ 765807.263999999966472, 8981487.676999999210238 ], [ 765801.956939718453214, 8981445.964236419647932 ], [ 765801.956939718453214, 8981432.652003752067685 ], [ 765772.440493786009029, 8981432.652003752067685 ], [ 765772.440493786009029, 8981451.284702774137259 ], [ 765799.421067654853687, 8981451.284702774137259 ], [ 765807.263999999966472, 8981487.676999999210238 ] ] ] } },
{ "type": "Feature", "properties": { "LAYER": "TEXT_GCP", "GM_TYPE": "Unknown Line Type", "ELEVATION": 41.752 }, "geometry": { "type": "MultiLineString", "coordinates": [ [ [ 764341.475947266444564, 8981739.126052746549249 ], [ 764339.050431112758815, 8981759.540345065295696 ], [ 764339.050431112758815, 8981772.852577732875943 ], [ 764309.53398518031463, 8981772.852577732875943 ], [ 764309.53398518031463, 8981754.21987871080637 ], [ 764336.514559049159288, 8981754.21987871080637 ], [ 764341.475947266444564, 8981739.126052746549249 ] ] ] } },
{ "type": "Feature", "properties": { "LAYER": "TEXT_GCP", "GM_TYPE": "Unknown Line Type", "ELEVATION": 0.0 }, "geometry": { "type": "MultiLineString", "coordinates": [ [ [ 765147.60999999998603, 8982006.418999999761581 ], [ 765122.823003718745895, 8982114.310264252126217 ], [ 765122.823003718745895, 8982127.622496917843819 ], [ 765093.30655778630171, 8982127.622496917843819 ], [ 765093.30655778630171, 8982108.989797895774245 ], [ 765120.287131655146368, 8982108.989797895774245 ], [ 765147.60999999998603, 8982006.418999999761581 ] ] ] } },
{ "type": "Feature", "properties": { "LAYER": "TEXT_GCP", "GM_TYPE": "Unknown Line Type", "ELEVATION": 37.736 }, "geometry": { "type": "MultiLineString", "coordinates": [ [ [ 765800.340754804667085, 8982285.942754808813334 ], [ 765735.833478759042919, 8982212.260280326008797 ], [ 765735.833478759042919, 8982165.183271877467632 ], [ 765631.452342310454696, 8982165.183271877467632 ], [ 765631.452342310454696, 8982231.075429201126099 ], [ 765726.865691495593637, 8982231.075429201126099 ], [ 765800.340754804667085, 8982285.942754808813334 ] ] ] } },
{ "type": "Feature", "properties": { "LAYER": "TEXT_GCP", "GM_TYPE": "Unknown Line Type", "ELEVATION": 47.565 }, "geometry": { "type": "MultiLineString", "coordinates": [ [ [ 764530.033999999985099, 8982524.971000000834465 ], [ 764520.919571389909834, 8982601.682346440851688 ], [ 764520.919571389909834, 8982651.706088431179523 ], [ 764410.00481254607439, 8982651.706088431179523 ], [ 764410.00481254607439, 8982581.689484015107155 ], [ 764511.390455349814147, 8982581.689484015107155 ], [ 764530.033999999985099, 8982524.971000000834465 ] ] ] } },
{ "type": "Feature", "properties": { "LAYER": "TEXT_GCP", "GM_TYPE": "Unknown Line Type", "ELEVATION": 59.796 }, "geometry": { "type": "MultiLineString", "coordinates": [ [ [ 763773.387000013957731, 8983445.472999978810549 ], [ 763770.961483860271983, 8983465.887292295694351 ], [ 763770.961483860271983, 8983479.199524965137243 ], [ 763741.445037927827798, 8983479.199524965137243 ], [ 763741.445037927827798, 8983460.566825941205025 ], [ 763768.425611796672456, 8983460.566825941205025 ], [ 763773.387000013957731, 8983445.472999978810549 ] ] ] } },
{ "type": "Feature", "properties": { "LAYER": "TEXT_GCP", "GM_TYPE": "Unknown Line Type", "ELEVATION": 70.19 }, "geometry": { "type": "MultiLineString", "coordinates": [ [ [ 763284.042999944882467, 8983994.279999982565641 ], [ 763286.468516098568216, 8983973.865707663819194 ], [ 763286.468516098568216, 8983960.553474996238947 ], [ 763315.984962031012401, 8983960.553474996238947 ], [ 763315.984962031012401, 8983979.18617401830852 ], [ 763289.004388162167743, 8983979.18617401830852 ], [ 763284.042999944882467, 8983994.279999982565641 ] ] ] } },
{ "type": "Feature", "properties": { "LAYER": "TEXT_GCP", "GM_TYPE": "Unknown Line Type", "ELEVATION": 72.921 }, "geometry": { "type": "MultiLineString", "coordinates": [ [ [ 763426.03906880132854, 8984155.695612801238894 ], [ 763327.902597587788478, 8984277.310867277905345 ], [ 763327.902597587788478, 8984290.623099945485592 ], [ 763298.386151655344293, 8984290.623099945485592 ], [ 763298.386151655344293, 8984271.990400923416018 ], [ 763325.366725524188951, 8984271.990400923416018 ], [ 763426.03906880132854, 8984155.695612801238894 ] ] ] } },
{ "type": "Feature", "properties": { "LAYER": "TEXT_GCP", "GM_TYPE": "Unknown Line Type", "ELEVATION": 72.867 }, "geometry": { "type": "MultiLineString", "coordinates": [ [ [ 763269.260161809739657, 8984126.517161810770631 ], [ 763278.957388234324753, 8984209.701265748590231 ], [ 763278.957388234324753, 8984223.013498418033123 ], [ 763308.473834166768938, 8984223.013498418033123 ], [ 763308.473834166768938, 8984204.380799394100904 ], [ 763281.49326029792428, 8984204.380799394100904 ], [ 763269.260161809739657, 8984126.517161810770631 ] ] ] } },
{ "type": "Feature", "properties": { "LAYER": "TEXT_GCP", "GM_TYPE": "Unknown Line Type", "ELEVATION": 0.0 }, "geometry": { "type": "MultiLineString", "coordinates": [ [ [ 766314.630950472550467, 8980691.628634817898273 ], [ 766518.725619971053675, 8980999.399038217961788 ], [ 766518.725619971053675, 8981044.760059207677841 ], [ 766953.406223494326696, 8981044.760059207677841 ], [ 766953.406223494326696, 8980981.269713710993528 ], [ 766529.999296332010999, 8980981.269713710993528 ], [ 766314.630950472550467, 8980691.628634817898273 ] ] ] } },
{ "type": "Feature", "properties": { "LAYER": "TEXT_GCP", "GM_TYPE": "Unknown Line Type", "ELEVATION": 0.069 }, "geometry": { "type": "MultiLineString", "coordinates": [ [ [ 766883.406061936751939, 8980281.49066774174571 ], [ 766817.941628919332288, 8980170.234880652278662 ], [ 766817.941628919332288, 8980145.465020507574081 ], [ 766580.579737090156414, 8980145.465020507574081 ], [ 766580.579737090156414, 8980180.134587995707989 ], [ 766811.785519980476238, 8980180.134587995707989 ], [ 766883.406061936751939, 8980281.49066774174571 ] ] ] } },
{ "type": "Feature", "properties": { "LAYER": "TEXT_GCP", "GM_TYPE": "Unknown Line Type", "ELEVATION": 6.004 }, "geometry": { "type": "MultiLineString", "coordinates": [ [ [ 767303.383414668147452, 8979649.455833138898015 ], [ 767353.123402248718776, 8979701.589517688378692 ], [ 767353.123402248718776, 8979714.901750354096293 ], [ 767480.690401509171352, 8979714.901750354096293 ], [ 767480.690401509171352, 8979696.26905133202672 ], [ 767356.431921313866042, 8979696.26905133202672 ], [ 767303.383414668147452, 8979649.455833138898015 ] ] ] } },
{ "type": "Feature", "properties": { "LAYER": "TEXT_GCP", "GM_TYPE": "Unknown Line Type", "ELEVATION": 0.0 }, "geometry": { "type": "MultiLineString", "coordinates": [ [ [ 766876.756526127224788, 8980012.02404023334384 ], [ 766750.615237772697583, 8979709.848708979785442 ], [ 766750.615237772697583, 8979667.739749483764172 ], [ 766347.098131473874673, 8979667.739749483764172 ], [ 766347.098131473874673, 8979726.678290300071239 ], [ 766740.149803553475067, 8979726.678290300071239 ], [ 766876.756526127224788, 8980012.02404023334384 ] ] ] } },
{ "type": "Feature", "properties": { "LAYER": "TEXT_GCP", "GM_TYPE": "Unknown Line Type", "ELEVATION": -2.155 }, "geometry": { "type": "MultiLineString", "coordinates": [ [ [ 764284.513778751017526, 8982589.150844231247902 ], [ 764364.949235837673768, 8982714.65106014162302 ], [ 764364.949235837673768, 8982746.69543930888176 ], [ 764672.020588575862348, 8982746.69543930888176 ], [ 764672.020588575862348, 8982701.84396418184042 ], [ 764372.913297317456454, 8982701.84396418184042 ], [ 764284.513778751017526, 8982589.150844231247902 ] ] ] } },
{ "type": "Feature", "properties": { "LAYER": "TEXT_GCP", "GM_TYPE": "Unknown Line Type", "ELEVATION": 0.0 }, "geometry": { "type": "MultiLineString", "coordinates": [ [ [ 765240.83399999991525, 8981961.400999998673797 ], [ 765168.155741397407837, 8981850.840467130765319 ], [ 765168.155741397407837, 8981837.528234461322427 ], [ 765040.588742137071677, 8981837.528234461322427 ], [ 765040.588742137071677, 8981856.160933485254645 ], [ 765164.847222332260571, 8981856.160933485254645 ], [ 765240.83399999991525, 8981961.400999998673797 ] ] ] } },
{ "type": "Feature", "properties": { "LAYER": "TEXT_GCP", "GM_TYPE": "Unknown Line Type", "ELEVATION": -0.08 }, "geometry": { "type": "MultiLineString", "coordinates": [ [ [ 765670.263841550564393, 8981625.445661243051291 ], [ 765742.942100153071806, 8981736.006194110959768 ], [ 765742.942100153071806, 8981749.31842678040266 ], [ 765870.509099413407966, 8981749.31842678040266 ], [ 765870.509099413407966, 8981730.685727756470442 ], [ 765746.250619218219072, 8981730.685727756470442 ], [ 765670.263841550564393, 8981625.445661243051291 ] ] ] } },
{ "type": "Feature", "properties": { "LAYER": "TEXT_GCP", "GM_TYPE": "Unknown Line Type", "ELEVATION": 28.092 }, "geometry": { "type": "MultiLineString", "coordinates": [ [ [ 766367.226834747008979, 8981223.135003920644522 ], [ 766508.304624824784696, 8981419.312838066369295 ], [ 766508.304624824784696, 8981470.201190453022718 ], [ 766621.136434441432357, 8981470.201190453022718 ], [ 766621.136434441432357, 8981398.974418994039297 ], [ 766517.998442113865167, 8981398.974418994039297 ], [ 766367.226834747008979, 8981223.135003920644522 ] ] ] } },
{ "type": "Feature", "properties": { "LAYER": "TEXT_GCP", "GM_TYPE": "Unknown Line Type", "ELEVATION": -0.942 }, "geometry": { "type": "MultiLineString", "coordinates": [ [ [ 767053.000600766623393, 8980137.801575457677245 ], [ 767192.783603126415983, 8980284.311522582545877 ], [ 767192.783603126415983, 8980321.722546199336648 ], [ 767551.281846210593358, 8980321.722546199336648 ], [ 767551.281846210593358, 8980269.359553406015038 ], [ 767202.081448799232021, 8980269.359553406015038 ], [ 767053.000600766623393, 8980137.801575457677245 ] ] ] } },
{ "type": "Feature", "properties": { "LAYER": "TEXT_GCP", "GM_TYPE": "Unknown Line Type", "ELEVATION": -0.942 }, "geometry": { "type": "MultiLineString", "coordinates": [ [ [ 766987.95713758666534, 8980146.126039635390043 ], [ 766711.192625665222295, 8980237.080178365111351 ], [ 766711.192625665222295, 8980249.981565594673157 ], [ 766463.93263603572268, 8980249.981565594673157 ], [ 766463.93263603572268, 8980213.866261530667543 ], [ 766704.779804210760631, 8980213.866261530667543 ], [ 766987.95713758666534, 8980146.126039635390043 ] ] ] } },
{ "type": "Feature", "properties": { "LAYER": "TEXT_GCP", "GM_TYPE": "Unknown Line Type", "ELEVATION": 14.459 }, "geometry": { "type": "MultiLineString", "coordinates": [ [ [ 766964.21488762460649, 8978762.512940725311637 ], [ 766867.654607382370159, 8978993.826058330014348 ], [ 766867.654607382370159, 8979026.060174399986863 ], [ 766558.765064751729369, 8979026.060174399986863 ], [ 766558.765064751729369, 8978980.943130703642964 ], [ 766859.643390165176243, 8978980.943130703642964 ], [ 766964.21488762460649, 8978762.512940725311637 ] ] ] } },
{ "type": "Feature", "properties": { "LAYER": "TEXT_GCP", "GM_TYPE": "Unknown Line Type", "ELEVATION": 0.0 }, "geometry": { "type": "MultiLineString", "coordinates": [ [ [ 767079.76387396955397, 8979424.410471681505442 ], [ 767119.641899924492463, 8979328.881435472518206 ], [ 767119.641899924492463, 8979315.569202803075314 ], [ 767247.208899184828624, 8979315.569202803075314 ], [ 767247.208899184828624, 8979334.201901827007532 ], [ 767122.950418989639729, 8979334.201901827007532 ], [ 767079.76387396955397, 8979424.410471681505442 ] ] ] } },
{ "type": "Feature", "properties": { "LAYER": "TEXT_GCP", "GM_TYPE": "Unknown Line Type", "ELEVATION": 0.0 }, "geometry": { "type": "MultiLineString", "coordinates": [ [ [ 767173.179581, 8978540.622326027601957 ], [ 767331.049597329460084, 8978873.378954093903303 ], [ 767331.049597329460084, 8978915.394636351615191 ], [ 767733.672856722492725, 8978915.394636351615191 ], [ 767733.672856722492725, 8978856.586652658879757 ], [ 767341.491849145852029, 8978856.586652658879757 ], [ 767173.179581, 8978540.622326027601957 ] ] ] } },
{ "type": "Feature", "properties": { "LAYER": "TEXT_GCP", "GM_TYPE": "Unknown Line Type", "ELEVATION": 0.0 }, "geometry": { "type": "MultiLineString", "coordinates": [ [ [ 767431.704399563721381, 8979365.288128163665533 ], [ 767481.444387144292705, 8979417.42181271314621 ], [ 767481.444387144292705, 8979430.734045378863811 ], [ 767609.011386404745281, 8979430.734045378863811 ], [ 767609.011386404745281, 8979412.101346356794238 ], [ 767484.752906209439971, 8979412.101346356794238 ], [ 767431.704399563721381, 8979365.288128163665533 ] ] ] } },
{ "type": "Feature", "properties": { "LAYER": "TEXT_GCP", "GM_TYPE": "Unknown Line Type", "ELEVATION": 0.0 }, "geometry": { "type": "MultiLineString", "coordinates": [ [ [ 767718.602399961091578, 8979242.530637644231319 ], [ 767752.859427090617828, 8979151.66281845420599 ], [ 767752.859427090617828, 8979138.350585788488388 ], [ 767880.426426351070404, 8979138.350585788488388 ], [ 767880.426426351070404, 8979156.983284810557961 ], [ 767756.167946155765094, 8979156.983284810557961 ], [ 767718.602399961091578, 8979242.530637644231319 ] ] ] } },
{ "type": "Feature", "properties": { "LAYER": "TEXT_GCP", "GM_TYPE": "Unknown Line Type", "ELEVATION": 0.0 }, "geometry": { "type": "MultiLineString", "coordinates": [ [ [ 768268.131003156653605, 8979242.530637644231319 ], [ 768302.388030286179855, 8979151.66281845420599 ], [ 768302.388030286179855, 8979138.350585788488388 ], [ 768429.955029546632431, 8979138.350585788488388 ], [ 768429.955029546632431, 8979156.983284810557961 ], [ 768305.696549351327121, 8979156.983284810557961 ], [ 768268.131003156653605, 8979242.530637644231319 ] ] ] } },
{ "type": "Feature", "properties": { "LAYER": "TEXT_GCP", "GM_TYPE": "Unknown Line Type", "ELEVATION": 0.0 }, "geometry": { "type": "MultiLineString", "coordinates": [ [ [ 768804.682022463064641, 8979120.678225725889206 ], [ 768900.764382776338607, 8979375.539644706994295 ], [ 768900.764382776338607, 8979412.877115081995726 ], [ 769258.557787928264588, 8979412.877115081995726 ], [ 769258.557787928264588, 8979360.617072366178036 ], [ 768910.043948096688837, 8979360.617072366178036 ], [ 768804.682022463064641, 8979120.678225725889206 ] ] ] } },
{ "type": "Feature", "properties": { "LAYER": "TEXT_GCP", "GM_TYPE": "Unknown Line Type", "ELEVATION": 0.0 }, "geometry": { "type": "MultiLineString", "coordinates": [ [ [ 769065.140260784770362, 8978598.873621413484216 ], [ 769099.397287914296612, 8978689.741440603509545 ], [ 769099.397287914296612, 8978703.053673269227147 ], [ 769226.964287174749188, 8978703.053673269227147 ], [ 769226.964287174749188, 8978684.420974247157574 ], [ 769102.705806979443878, 8978684.420974247157574 ], [ 769065.140260784770362, 8978598.873621413484216 ] ] ] } },
{ "type": "Feature", "properties": { "LAYER": "TEXT_GCP", "GM_TYPE": "Unknown Line Type", "ELEVATION": 0.0 }, "geometry": { "type": "MultiLineString", "coordinates": [ [ [ 769533.18722738372162, 8978414.791089069098234 ], [ 769404.411712808534503, 8978369.445413999259472 ], [ 769404.411712808534503, 8978356.13318133354187 ], [ 769276.844713548081927, 8978356.13318133354187 ], [ 769276.844713548081927, 8978374.765880355611444 ], [ 769401.103193743387237, 8978374.765880355611444 ], [ 769533.18722738372162, 8978414.791089069098234 ] ] ] } },
{ "type": "Feature", "properties": { "LAYER": "TEXT_GCP", "GM_TYPE": "Unknown Line Type", "ELEVATION": -0.08 }, "geometry": { "type": "MultiLineString", "coordinates": [ [ [ 767272.179830195265822, 8978442.801029175519943 ], [ 767232.301804240327328, 8978347.271992966532707 ], [ 767232.301804240327328, 8978333.959760297089815 ], [ 767104.734804979991168, 8978333.959760297089815 ], [ 767104.734804979991168, 8978352.592459321022034 ], [ 767228.993285175180063, 8978352.592459321022034 ], [ 767272.179830195265822, 8978442.801029175519943 ] ] ] } },
{ "type": "Feature", "properties": { "LAYER": "TEXT_GCP", "GM_TYPE": "Unknown Line Type", "ELEVATION": 0.0 }, "geometry": { "type": "MultiLineString", "coordinates": [ [ [ 763793.769940245663747, 8983428.974077628925443 ], [ 764088.145872335880995, 8983066.694502556696534 ], [ 764088.145872335880995, 8983030.41600270755589 ], [ 764435.791491094045341, 8983030.41600270755589 ], [ 764435.791491094045341, 8983081.193838817998767 ], [ 764097.162249331828207, 8983081.193838817998767 ], [ 763793.769940245663747, 8983428.974077628925443 ] ] ] } }
]
}
