{
"type": "FeatureCollection",
"name": "09_lo_li_desaindrain",
"crs": { "type": "name", "properties": { "name": "urn:ogc:def:crs:EPSG::32751" } },
"features": [
{ "type": "Feature", "properties": { "LAYER": "DESAIN DRAIN", "GM_TYPE": "Unknown Line Type", "ELEVATION": 0 }, "geometry": { "type": "MultiLineString", "coordinates": [ [ [ 764278.161844830377959, 8978713.650355948135257 ], [ 764308.102454950218089, 8978640.265424456447363 ], [ 764308.13748461403884, 8978640.179452100768685 ], [ 764308.172434449312277, 8978640.093447260558605 ], [ 764308.2073044286808, 8978640.007410012185574 ], [ 764308.242094519548118, 8978639.921340430155396 ], [ 764308.276804692577571, 8978639.835238587111235 ], [ 764308.311434918548912, 8978639.749104557558894 ], [ 764308.345985166495666, 8978639.662938417866826 ], [ 764308.380455407314003, 8978639.576740238815546 ], [ 764308.414845611783676, 8978639.49051009863615 ], [ 764308.44915575068444, 8978639.404248068109155 ], [ 764308.48338579304982, 8978639.31795422360301 ], [ 764308.517535709543154, 8978639.231628637760878 ], [ 764308.551605469430797, 8978639.145271386951208 ], [ 764308.585595046752132, 8978639.058882543817163 ], [ 764308.619504410889931, 8978638.972462184727192 ], [ 764308.653333530528471, 8978638.886010382324457 ], [ 764308.687082378426567, 8978638.799527212977409 ], [ 764308.720750927110203, 8978638.713012749329209 ], [ 764308.754339143750258, 8978638.626467067748308 ], [ 764308.787847000989132, 8978638.539890240877867 ], [ 764308.821274471236393, 8978638.453282343223691 ], [ 764308.854621525504626, 8978638.366643453016877 ], [ 764308.887888132594526, 8978638.279973641037941 ], [ 764308.921074267011136, 8978638.193272983655334 ], [ 764308.95417989755515, 8978638.106541555374861 ], [ 764308.987204996985383, 8978638.019779430702329 ], [ 764309.020149535965174, 8978637.932986684143543 ], [ 764309.053013488883153, 8978637.846163392066956 ], [ 764309.085796822793782, 8978637.759309627115726 ], [ 764309.118499513948336, 8978637.672425465658307 ], [ 764309.15112153138034, 8978637.585510984063148 ], [ 764309.183662847499363, 8978637.498566253110766 ], [ 764309.216123434831388, 8978637.411591349169612 ], [ 764309.248503264389001, 8978637.324586348608136 ], [ 764309.280802310211584, 8978637.23755132779479 ], [ 764309.313020543195307, 8978637.15048635751009 ], [ 764309.345157934119925, 8978637.063391515985131 ], [ 764309.377214457257651, 8978636.976266875863075 ], [ 764309.409190085134469, 8978636.889112515375018 ], [ 764309.441084790276363, 8978636.801928507164121 ], [ 764309.472898543579504, 8978636.714714927598834 ], [ 764309.504631319083273, 8978636.627471849322319 ], [ 764309.536283087800257, 8978636.540199352428317 ], [ 764309.567853824002668, 8978636.452897507697344 ], [ 764309.599343500100076, 8978636.36556639149785 ], [ 764309.630752088618465, 8978636.278206080198288 ], [ 764309.662079562200233, 8978636.190816648304462 ], [ 764309.693325895234011, 8978636.10339817032218 ], [ 764309.724491060012951, 8978636.015950724482536 ], [ 764309.755575029179454, 8978635.928474383428693 ], [ 764309.786577777005732, 8978635.840969221666455 ], [ 764309.81749927601777, 8978635.75343531742692 ], [ 764309.848339498857968, 8978635.665872745215893 ], [ 764309.879098419682123, 8978635.57828157953918 ], [ 764309.90977601276245, 8978635.490661898627877 ], [ 764309.940372250741348, 8978635.403013773262501 ], [ 764309.970887108007446, 8978635.315337283536792 ], [ 764310.001320556853898, 8978635.227632502093911 ], [ 764310.031672573415563, 8978635.139899507164955 ], [ 764310.061943128472194, 8978635.052138371393085 ], [ 764310.092132198042236, 8978634.96434917114675 ], [ 764310.122239754768088, 8978634.876531984657049 ], [ 764310.152265774668194, 8978634.788686884567142 ], [ 764310.182210230268538, 8978634.700813947245479 ], [ 764310.212073095724918, 8978634.612913249060512 ], [ 764310.241854347288609, 8978634.524984866380692 ], [ 764310.271553957369179, 8978634.437028873711824 ], [ 764310.301171900238842, 8978634.349045347422361 ], [ 764310.330708150286227, 8978634.261034362018108 ], [ 764310.360162683646195, 8978634.172995995730162 ], [ 764310.389535472611897, 8978634.084930323064327 ], [ 764310.418826495064422, 8978633.996837422251701 ], [ 764310.448035722016357, 8978633.9087173640728 ], [ 764310.477163132745773, 8978633.820570228621364 ], [ 764310.506208698148839, 8978633.732396090403199 ], [ 764310.535172394244, 8978633.644195027649403 ], [ 764310.5640541970497, 8978633.555967113003135 ], [ 764310.592854081070982, 8978633.467712422832847 ], [ 764310.62157202034723, 8978633.379431035369635 ], [ 764310.650207992875949, 8978633.29112302698195 ], [ 764310.678761971183121, 8978633.202788470312953 ], [ 764310.707233932917006, 8978633.114427445456386 ], [ 764310.735623852582648, 8978633.026040025055408 ], [ 764310.763931704335846, 8978632.937626287341118 ], [ 764310.792157466057688, 8978632.849186308681965 ], [ 764310.820301112020388, 8978632.760720165446401 ], [ 764310.848362618358806, 8978632.672227932140231 ], [ 764310.876341960974969, 8978632.583709686994553 ], [ 764310.904239116120152, 8978632.495165504515171 ], [ 764310.932054059696384, 8978632.406595461070538 ], [ 764310.959786766208708, 8978632.317999634891748 ], [ 764310.987437213188969, 8978632.229378102347255 ], [ 764311.015005377004854, 8978632.140730937942863 ], [ 764311.042491233441979, 8978632.052058218047023 ], [ 764311.069894758868031, 8978631.963360020890832 ], [ 764311.097215929068625, 8978631.874636420980096 ], [ 764311.124454722041264, 8978631.785887496545911 ], [ 764311.151611112058163, 8978631.697113322094083 ], [ 764311.178685076883994, 8978631.608313975855708 ], [ 764311.205676594516262, 8978631.519489534199238 ], [ 764311.232585638994351, 8978631.430640073493123 ], [ 764311.259412190178409, 8978631.341765670105815 ], [ 764311.286156222224236, 8978631.252866400405765 ], [ 764311.312817713012919, 8978631.163942340761423 ], [ 764311.339396640425548, 8978631.074993567541242 ], [ 764311.365892980480567, 8978630.986020158976316 ], [ 764311.392306709196419, 8978630.897022191435099 ], [ 764311.418637808063067, 8978630.807999741286039 ], [ 764311.444886249490082, 8978630.718952883034945 ], [ 764311.471052014967427, 8978630.629881698638201 ], [ 764311.497135078767315, 8978630.540786258876324 ], [ 764311.52313542063348, 8978630.451666643843055 ], [ 764311.549053016351536, 8978630.362522929906845 ], [ 764311.574887843918987, 8978630.273355195298791 ], [ 764311.600639881216921, 8978630.184163512662053 ], [ 764311.626309107872657, 8978630.094947963953018 ], [ 764311.65189549990464, 8978630.005708623677492 ], [ 764311.677399035077542, 8978629.916445566341281 ], [ 764311.702819693251513, 8978629.827158873900771 ], [ 764311.728157450328581, 8978629.737848618999124 ], [ 764311.753412285936065, 8978629.64851488173008 ], [ 764311.778584176208824, 8978629.559157736599445 ], [ 764311.803673102520406, 8978629.469777261838317 ], [ 764311.828679041005671, 8978629.380373533815145 ], [ 764311.853601971175522, 8978629.290946630761027 ], [ 764311.878441870911047, 8978629.201496629044414 ], [ 764311.903198719955981, 8978629.1120236068964 ], [ 764311.927872496074997, 8978629.022527638822794 ], [ 764311.952463177149184, 8978628.93300880305469 ], [ 764311.976970742689446, 8978628.843467177823186 ], [ 764312.001395172555931, 8978628.753902839496732 ], [ 764312.025736444513313, 8978628.664315866306424 ], [ 764312.049994538072497, 8978628.574706332758069 ], [ 764312.07416943309363, 8978628.485074318945408 ], [ 764312.098261107224971, 8978628.395419901236892 ], [ 764312.12226954032667, 8978628.305743156000972 ], [ 764312.146194711793214, 8978628.216044161468744 ], [ 764312.170036601368338, 8978628.12632299400866 ], [ 764312.19379518693313, 8978628.036579733714461 ], [ 764312.217470449977554, 8978627.946814453229308 ], [ 764312.241062368266284, 8978627.857027234509587 ], [ 764312.264570923172869, 8978627.767218152061105 ], [ 764312.287996094557457, 8978627.677387284114957 ], [ 764312.311337861814536, 8978627.587534707039595 ], [ 764312.334596202941611, 8978627.49766050092876 ], [ 764312.357771099428646, 8978627.407764742150903 ], [ 764312.380862532532774, 8978627.317847507074475 ], [ 764312.403870480251499, 8978627.227908872067928 ], [ 764312.426794924074784, 8978627.137948919087648 ], [ 764312.449635843513533, 8978627.047967720776796 ], [ 764312.472393218195066, 8978626.957965359091759 ], [ 764312.49506703147199, 8978626.867941908538342 ], [ 764312.517657259479165, 8978626.777897445484996 ], [ 764312.540163886966184, 8978626.687832051888108 ], [ 764312.562586892046966, 8978626.59774580411613 ], [ 764312.584926255978644, 8978626.507638776674867 ], [ 764312.607181958621368, 8978626.41751104965806 ], [ 764312.6293539829785, 8978626.327362701296806 ], [ 764312.651442307163961, 8978626.237193807959557 ], [ 764312.673446914297529, 8978626.147004447877407 ], [ 764312.695367785752751, 8978626.056794697418809 ], [ 764312.717204901273362, 8978625.966564636677504 ], [ 764312.738958240486681, 8978625.876314342021942 ], [ 764312.760627788491547, 8978625.786043891683221 ], [ 764312.782213524915278, 8978625.695753363892436 ], [ 764312.803715429385193, 8978625.605442836880684 ], [ 764312.825133485137485, 8978625.51511238515377 ], [ 764312.846467675408348, 8978625.424762090668082 ], [ 764312.867717978195287, 8978625.334392027929425 ], [ 764312.88888437661808, 8978625.244002278894186 ], [ 764312.90996685216669, 8978625.153592916205525 ], [ 764312.930965388193727, 8978625.06316402181983 ], [ 764312.951879965956323, 8978624.972715672105551 ], [ 764312.972710567060858, 8978624.882247947156429 ], [ 764312.993457172997296, 8978624.791760921478271 ], [ 764313.01411976700183, 8978624.701254675164819 ], [ 764313.034698330448009, 8978624.610729284584522 ], [ 764313.055192844825797, 8978624.520184829831123 ], [ 764313.075603295234032, 8978624.429621387273073 ], [ 764313.095929661300033, 8978624.339039037004113 ], [ 764337.128234383882955, 8978517.008382480591536 ], [ 764337.146884895395488, 8978516.924920072779059 ], [ 764337.16546402440872, 8978516.841441746801138 ], [ 764337.183971756254323, 8978516.757947562262416 ], [ 764337.20240807486698, 8978516.674437580630183 ], [ 764337.220772967441007, 8978516.590911861509085 ], [ 764337.23906642338261, 8978516.50737046636641 ], [ 764337.257288426393643, 8978516.423813458532095 ], [ 764337.275438963784836, 8978516.340240897610784 ], [ 764337.29351802309975, 8978516.256652845069766 ], [ 764337.31152558978647, 8978516.173049360513687 ], [ 764337.329461651155725, 8978516.089430507272482 ], [ 764337.347326196730137, 8978516.005796344950795 ], [ 764337.365119209978729, 8978515.922146935015917 ], [ 764337.382840678445064, 8978515.838482340797782 ], [ 764337.400490589323454, 8978515.75480262003839 ], [ 764337.418068932136521, 8978515.671107836067677 ], [ 764337.435575690353289, 8978515.587398048490286 ], [ 764337.453010853379965, 8978515.503673320636153 ], [ 764337.470374406781048, 8978515.419933712109923 ], [ 764337.487666341476142, 8978515.336179286241531 ], [ 764337.50488664128352, 8978515.252410100772977 ], [ 764337.522035293513909, 8978515.16862622089684 ], [ 764337.539112287573516, 8978515.084827704355121 ], [ 764337.556117610773072, 8978515.001014614477754 ], [ 764337.573051250423305, 8978514.917187012732029 ], [ 764337.589913192205131, 8978514.833344958722591 ], [ 764337.606703427038155, 8978514.749488515779376 ], [ 764337.623421938740648, 8978514.665617743507028 ], [ 764337.64006872032769, 8978514.581732705235481 ], [ 764337.656643753522076, 8978514.497833460569382 ], [ 764337.67314703122247, 8978514.413920072838664 ], [ 764337.689578538993374, 8978514.329992599785328 ], [ 764337.705938266240992, 8978514.246051106601954 ], [ 764337.722226198296994, 8978514.162095652893186 ], [ 764337.738442326313816, 8978514.078126300126314 ], [ 764337.754586637718603, 8978513.994143109768629 ], [ 764337.770659118075855, 8978513.91014614328742 ], [ 764337.786659758305177, 8978513.826135462149978 ], [ 764337.802588547812775, 8978513.742111127823591 ], [ 764337.818445470300503, 8978513.658073203638196 ], [ 764337.834230518550612, 8978513.574021747335792 ], [ 764337.849943680106662, 8978513.489956822246313 ], [ 764337.865584942162968, 8978513.40587848983705 ], [ 764337.881154294125736, 8978513.321786811575294 ], [ 764337.89665172516834, 8978513.237681850790977 ], [ 764337.912077222601511, 8978513.153563665226102 ], [ 764337.927430775715038, 8978513.069432318210602 ], [ 764337.942712373798713, 8978512.985287873074412 ], [ 764337.957922004163265, 8978512.901130389422178 ], [ 764337.97305965796113, 8978512.816959928721189 ], [ 764337.988125322503038, 8978512.732776552438736 ], [ 764338.003118987078778, 8978512.648580323904753 ], [ 764338.018040640745312, 8978512.564371302723885 ], [ 764338.032890272908844, 8978512.480149550363421 ], [ 764338.047667872859165, 8978512.395915130153298 ], [ 764338.062373429536819, 8978512.311668103560805 ], [ 764338.077006930601783, 8978512.227408530190587 ], [ 764338.091568368836306, 8978512.143136473372579 ], [ 764338.106057729921304, 8978512.05885199457407 ], [ 764338.120475006522611, 8978511.974555155262351 ], [ 764338.134820184321143, 8978511.890246016904712 ], [ 764338.14909325633198, 8978511.805924640968442 ], [ 764338.163294211612083, 8978511.721591088920832 ], [ 764338.177423037588596, 8978511.637245424091816 ], [ 764338.191479725413956, 8978511.55288770608604 ], [ 764338.205464264145121, 8978511.468517998233438 ], [ 764338.219376645050943, 8978511.384136360138655 ], [ 764338.233216857304797, 8978511.299742856994271 ], [ 764338.246984889963642, 8978511.215337546542287 ], [ 764338.260680734296329, 8978511.130920493975282 ], [ 764338.274304377613589, 8978511.046491758897901 ], [ 764338.287855812697671, 8978510.962051402777433 ], [ 764338.301335029071197, 8978510.877599488943815 ], [ 764338.314742017537355, 8978510.793136078864336 ], [ 764338.328076765639707, 8978510.708661234006286 ], [ 764338.341339264297858, 8978510.624175015836954 ], [ 764338.354529506526887, 8978510.539677485823631 ], [ 764338.367647481500171, 8978510.455168707296252 ], [ 764338.380693178507499, 8978510.370648739859462 ], [ 764338.393666586722247, 8978510.286117646843195 ], [ 764338.406567700905725, 8978510.201575489714742 ], [ 764338.419396508368663, 8978510.117022331804037 ], [ 764338.432153000379913, 8978510.032458232715726 ], [ 764338.444837167859077, 8978509.947883253917098 ], [ 764338.457449001842178, 8978509.863297458738089 ], [ 764338.469988491619006, 8978509.778700910508633 ], [ 764338.48245562997181, 8978509.69409366697073 ], [ 764338.494850406423211, 8978509.60947579331696 ], [ 764338.507172813522629, 8978509.524847351014614 ], [ 764338.519422840792686, 8978509.440208401530981 ], [ 764338.531600479152985, 8978509.355559006333351 ], [ 764338.543705719639547, 8978509.270899226889014 ], [ 764338.555738555267453, 8978509.186229126527905 ], [ 764338.567698975210078, 8978509.101548766717315 ], [ 764338.579586972366087, 8978509.016858208924532 ], [ 764338.591402535908855, 8978508.932157516479492 ], [ 764338.603145658853464, 8978508.84744674898684 ], [ 764338.614816332235932, 8978508.762725969776511 ], [ 764338.626414547092281, 8978508.67799524217844 ], [ 764338.637940294574946, 8978508.593254623934627 ], [ 764338.649393569212407, 8978508.508504182100296 ], [ 764338.660774358664639, 8978508.423743974417448 ], [ 764338.672082655713893, 8978508.338974066078663 ], [ 764338.683318453258835, 8978508.25419451855123 ], [ 764338.694481744314544, 8978508.169405391439795 ], [ 764338.705572517937981, 8978508.084606749936938 ], [ 764338.71659076528158, 8978507.999798653647304 ], [ 764338.727536481106654, 8978507.914981164038181 ], [ 764338.738409656449221, 8978507.830154346302152 ], [ 764338.749210284324363, 8978507.745318261906505 ], [ 764338.759938353789039, 8978507.66047296859324 ], [ 764338.770593859720975, 8978507.575618533417583 ], [ 764338.781176793156192, 8978507.490755015984178 ], [ 764338.791687146993354, 8978507.40588247962296 ], [ 764338.802124914247543, 8978507.32100098580122 ], [ 764338.812490085838363, 8978507.236110595986247 ], [ 764338.822782654664479, 8978507.151211373507977 ], [ 764338.833002611994743, 8978507.066303379833698 ], [ 764338.843149952357635, 8978506.981386676430702 ], [ 764338.853224668768235, 8978506.896461326628923 ], [ 764338.863226750516333, 8978506.811527391895652 ], [ 764338.87315619410947, 8978506.726584933698177 ], [ 764338.883012988837436, 8978506.641634015366435 ], [ 764338.892797131207772, 8978506.556674698367715 ], [ 764338.902508610626683, 8978506.471707044169307 ], [ 764338.912147421622649, 8978506.386731116101146 ], [ 764338.921713557210751, 8978506.301746975630522 ], [ 764338.931207010406069, 8978506.21675468608737 ], [ 764338.940627773990855, 8978506.13175430893898 ], [ 764338.949975840863772, 8978506.046745905652642 ], [ 764338.959251204156317, 8978505.961729537695646 ], [ 764338.968453858280554, 8978505.876705270260572 ], [ 764338.977583794621751, 8978505.791673162952065 ], [ 764338.986641007824801, 8978505.70663327910006 ], [ 764338.99562549078837, 8978505.621585680171847 ], [ 764339.004537236411124, 8978505.536530427634716 ], [ 764339.013376239454374, 8978505.451467586681247 ], [ 764339.022142492933199, 8978505.366397216916084 ], [ 764339.03083598962985, 8978505.281319381669164 ], [ 764339.039456724422053, 8978505.196234142407775 ], [ 764339.048004692071117, 8978505.111141562461853 ], [ 764339.05647988175042, 8978505.026041701436043 ], [ 764339.064882291830145, 8978504.940934624522924 ], [ 764339.073211915325373, 8978504.855820393189788 ], [ 764339.081468743388541, 8978504.770699068903923 ], [ 764339.089652772527188, 8978504.685570714995265 ], [ 764339.097763997502625, 8978504.600435392931104 ], [ 764339.105802409467287, 8978504.515293166041374 ], [ 764339.113768004928716, 8978504.430144095793366 ], [ 764339.12166077690199, 8978504.34498824365437 ], [ 764339.129480721894652, 8978504.259825672954321 ], [ 764339.13722782919649, 8978504.174656445160508 ], [ 764339.144902099156752, 8978504.089480623602867 ], [ 764339.152503520948812, 8978504.004298269748688 ], [ 764339.160032093059272, 8978503.91910944506526 ], [ 764339.16748780652415, 8978503.833914214745164 ], [ 764339.174870657967404, 8978503.74871264025569 ], [ 764339.182180642150342, 8978503.663504781201482 ], [ 764339.189417753950693, 8978503.578290702775121 ], [ 764339.196581986150704, 8978503.493070464581251 ], [ 764339.203673333511688, 8978503.407844131812453 ], [ 764339.210691794636659, 8978503.322611765936017 ], [ 764339.217637360561639, 8978503.237373430281878 ], [ 764339.224510027794167, 8978503.152129184454679 ], [ 764339.231309789349325, 8978503.066879091784358 ], [ 764339.238036643713713, 8978502.981623215600848 ], [ 764339.244690583785996, 8978502.89636161737144 ], [ 764339.251271604327485, 8978502.811094360426068 ], [ 764339.257779700099491, 8978502.725821506232023 ], [ 764339.264214869472198, 8978502.640543116256595 ], [ 764339.270577105577104, 8978502.555259255692363 ], [ 764339.276866403175518, 8978502.469969984143972 ], [ 764339.283082758658566, 8978502.384675366804004 ], [ 764339.289226167020388, 8978502.299375463277102 ], [ 764339.295296623022296, 8978502.214070336893201 ], [ 764339.301294125034474, 8978502.128760050982237 ], [ 764339.307218665955588, 8978502.043444665148854 ], [ 764339.313070240663365, 8978501.958124246448278 ], [ 764339.318848847644404, 8978501.872798852622509 ], [ 764339.324554483522661, 8978501.787468548864126 ], [ 764345.950243520201184, 8978402.056721903383732 ], [ 764345.958427891135216, 8978401.934658536687493 ], [ 764345.966761585790664, 8978401.812605274841189 ], [ 764345.97524459019769, 8978401.690562300384045 ], [ 764345.983876892947592, 8978401.568529793992639 ], [ 764345.992658480186947, 8978401.446507938206196 ], [ 764346.001589340274222, 8978401.324496919289231 ], [ 764346.010669457609765, 8978401.202496916055679 ], [ 764346.019898820435628, 8978401.08050811290741 ], [ 764346.029277413384989, 8978400.958530692383647 ], [ 764346.038805224467069, 8978400.836564835160971 ], [ 764346.048482238315046, 8978400.714610727503896 ], [ 764346.058308439445682, 8978400.592668548226357 ], [ 764346.068283814121969, 8978400.470738481730223 ], [ 764346.07840834883973, 8978400.348820710554719 ], [ 764346.088682026253082, 8978400.226915415376425 ], [ 764346.099104830645956, 8978400.10502278059721 ], [ 764346.109676748630591, 8978399.983142988756299 ], [ 764346.120397764490917, 8978399.861276220530272 ], [ 764346.131267859134823, 8978399.739422660320997 ], [ 764346.1422870188253, 8978399.617582488805056 ], [ 764346.153455226332881, 8978399.495755888521671 ], [ 764346.164772464311682, 8978399.373943043872714 ], [ 764346.176238717045635, 8978399.252144133672118 ], [ 764346.187853967421688, 8978399.130359344184399 ], [ 764346.199618197861128, 8978399.00858885422349 ], [ 764346.21153138927184, 8978398.886832848191261 ], [ 764346.223593524307944, 8978398.765091506764293 ], [ 764346.235804587369785, 8978398.643365012481809 ], [ 764346.248164557502605, 8978398.521653549745679 ], [ 764346.260673415381461, 8978398.399957297369838 ], [ 764346.273331145523116, 8978398.278276439756155 ], [ 764346.286137728719041, 8978398.156611159443855 ], [ 764346.299093142035417, 8978398.034961635246873 ], [ 764346.312197369872592, 8978397.913328053429723 ], [ 764346.325450391275808, 8978397.791710592806339 ], [ 764346.338852187036537, 8978397.670109435915947 ], [ 764346.352402734220959, 8978397.548524767160416 ], [ 764346.366102017229423, 8978397.42695676535368 ], [ 764346.379950011265464, 8978397.305405614897609 ], [ 764346.393946699099615, 8978397.183871496468782 ], [ 764346.408092057681642, 8978397.062354592606425 ], [ 764346.422386065940373, 8978396.940855083987117 ], [ 764346.436828702921048, 8978396.819373153150082 ], [ 764346.451419947319664, 8978396.697908980771899 ], [ 764346.466159776435234, 8978396.576462751254439 ], [ 764346.481048169080168, 8978396.455034645274282 ], [ 764346.496085102437064, 8978396.333624843508005 ], [ 764346.511270553339273, 8978396.212233528494835 ], [ 764346.526604500948451, 8978396.090860882773995 ], [ 764346.542086920351721, 8978395.969507087022066 ], [ 764346.557717790594324, 8978395.848172321915627 ], [ 764346.573497086763382, 8978395.726856769993901 ], [ 764346.58942478406243, 8978395.605560613796115 ], [ 764346.605500861536711, 8978395.484284032136202 ], [ 764346.621725292527117, 8978395.363027209416032 ], [ 764346.638098054216243, 8978395.241790326312184 ], [ 764346.654619121458381, 8978395.120573563501239 ], [ 764346.671288469922729, 8978394.99937710352242 ], [ 764346.688106074463576, 8978394.878201125189662 ], [ 764346.705071910633706, 8978394.757045812904835 ], [ 764346.722185951541178, 8978394.635911347344518 ], [ 764346.739448174252175, 8978394.51479790918529 ], [ 764346.756858548731543, 8978394.393705679103732 ], [ 764346.774417051812634, 8978394.272634839639068 ], [ 764346.792123658815399, 8978394.151585571467876 ], [ 764346.809978339355439, 8978394.030558055266738 ], [ 764346.827981068636291, 8978393.909552473574877 ], [ 764346.846131818252616, 8978393.788569005206227 ], [ 764346.864430563524365, 8978393.667607832700014 ], [ 764346.882877275813371, 8978393.546669138595462 ], [ 764346.901471928576939, 8978393.42575309984386 ], [ 764346.92021449143067, 8978393.304859900847077 ], [ 764346.939104939810932, 8978393.183989722281694 ], [ 764346.958143241237849, 8978393.063142742961645 ], [ 764346.977329371264204, 8978392.942319145426154 ], [ 764346.996663297526538, 8978392.821519110351801 ], [ 764347.016144995228387, 8978392.700742818415165 ], [ 764347.035774430609308, 8978392.579990450292826 ], [ 764347.055551578640006, 8978392.459262186661363 ], [ 764347.075476407306269, 8978392.338558208197355 ], [ 764347.095548886223696, 8978392.217878695577383 ], [ 764347.115768987103365, 8978392.097223829478025 ], [ 764347.136136677581817, 8978391.976593788713217 ], [ 764347.156651929253712, 8978391.855988757684827 ], [ 764347.177314711967483, 8978391.735408913344145 ], [ 764347.198124991497025, 8978391.614854438230395 ], [ 764347.21908273966983, 8978391.494325513020158 ], [ 764347.240187924006023, 8978391.373822316527367 ], [ 764347.261440514470451, 8978391.253345029428601 ], [ 764347.28284047706984, 8978391.132893832400441 ], [ 764347.304387779557146, 8978391.012468906119466 ], [ 764347.326082389801741, 8978390.89207042939961 ], [ 764347.34792427753564, 8978390.771698582917452 ], [ 764347.369913408765569, 8978390.651353549212217 ], [ 764347.392049751360901, 8978390.531035505235195 ], [ 764347.41433326958213, 8978390.41074463352561 ], [ 764347.436763933044858, 8978390.290481111034751 ], [ 764347.459341707872227, 8978390.170245122164488 ], [ 764347.482066558091901, 8978390.050036842003465 ], [ 764347.504938451689668, 8978389.929856453090906 ], [ 764347.527957352926023, 8978389.809704136103392 ], [ 764347.551123227574863, 8978389.689580069854856 ], [ 764347.574436043854803, 8978389.569484433159232 ], [ 764347.597895761951804, 8978389.449417406693101 ], [ 764347.621502351830713, 8978389.329379169270396 ], [ 764347.645255773910321, 8978389.209369903430343 ], [ 764347.669155996059999, 8978389.089389786124229 ], [ 764347.693202978698537, 8978388.969438996165991 ], [ 764347.717396689928137, 8978388.849517716094851 ], [ 764347.741737090167589, 8978388.729626120999455 ], [ 764347.766224145423621, 8978388.609764395281672 ], [ 764347.790857818210497, 8978388.489932715892792 ], [ 764347.815638072439469, 8978388.370131263509393 ], [ 764347.840564868994989, 8978388.250360215082765 ], [ 764347.865638171788305, 8978388.130619751289487 ], [ 764347.890857941587456, 8978388.010910049080849 ], [ 764347.916224144282751, 8978387.89123129285872 ], [ 764347.941736740525812, 8978387.771583655849099 ], [ 764347.9673956889892, 8978387.651967322453856 ], [ 764347.99320095567964, 8978387.532382467761636 ], [ 764348.019152499386109, 8978387.412829270586371 ], [ 764348.045250282390043, 8978387.293307913467288 ], [ 764348.071494265343063, 8978387.173818573355675 ], [ 764348.097884408663958, 8978387.054361427202821 ], [ 764348.124420673120767, 8978386.934936655685306 ], [ 764348.151103019132279, 8978386.815544437617064 ], [ 764348.177931405371055, 8978386.696184951812029 ], [ 764348.204905794234946, 8978386.576858377084136 ], [ 764348.232026142766699, 8978386.457564890384674 ], [ 764348.259292411501519, 8978386.338304670527577 ], [ 764348.286704560858198, 8978386.219077898189425 ], [ 764348.314262547763065, 8978386.099884750321507 ], [ 764348.341966332867742, 8978385.980725405737758 ], [ 764348.36981587309856, 8978385.861600041389465 ], [ 764348.39781112712808, 8978385.742508836090565 ], [ 764348.425952053628862, 8978385.623451970517635 ], [ 764348.454238609643653, 8978385.504429619759321 ], [ 764348.482670753845014, 8978385.385441962629557 ], [ 764348.51124844327569, 8978385.266489177942276 ], [ 764348.539971634629183, 8978385.147571444511414 ], [ 764348.568840284948237, 8978385.028688937425613 ], [ 764348.597854352905415, 8978384.9098418392241 ], [ 764348.627013791934587, 8978384.791030323132873 ], [ 764348.656318562454544, 8978384.672254567965865 ], [ 764348.685768616036512, 8978384.553514754399657 ], [ 764348.715363911236636, 8978384.434811057522893 ], [ 764348.745104403351434, 8978384.316143654286861 ], [ 764348.774990049307235, 8978384.197512725368142 ], [ 764348.805020800442435, 8978384.078918445855379 ], [ 764348.83519661554601, 8978383.960360992699862 ], [ 764348.865517449798062, 8978383.841840546578169 ], [ 764348.895983254536986, 8978383.723357282578945 ], [ 764348.926593984942883, 8978383.60491137765348 ], [ 764348.957349598058499, 8978383.486503008753061 ], [ 764348.988250045105815, 8978383.36813235655427 ], [ 764349.019295279635116, 8978383.249799594283104 ], [ 764349.050485256593674, 8978383.131504898890853 ], [ 764349.08181992941536, 8978383.013248451054096 ], [ 764349.113299251301214, 8978382.895030425861478 ], [ 764349.144923173706047, 8978382.776851000264287 ], [ 764349.176691650063731, 8978382.658710349351168 ], [ 764349.208604633575305, 8978382.540608653798699 ], [ 764349.240662073949352, 8978382.422546086832881 ], [ 764349.272863926249556, 8978382.304522825405002 ], [ 764349.305210142047144, 8978382.186539050191641 ], [ 764349.337700670934282, 8978382.068594932556152 ], [ 764349.370335464482196, 8978381.95069065131247 ], [ 764349.403114476008341, 8978381.832826383411884 ], [ 764349.436037655104883, 8978381.715002303943038 ], [ 764349.469104951596819, 8978381.597218591719866 ], [ 764349.502316316822544, 8978381.479475419968367 ], [ 764349.535671702353284, 8978381.36177296563983 ], [ 764349.56917105615139, 8978381.244111407548189 ], [ 764349.602814329555258, 8978381.126490918919444 ], [ 764349.636601470527239, 8978381.008911674842238 ], [ 764349.670532430638559, 8978380.891373855993152 ], [ 764349.704607157618739, 8978380.773877633735538 ], [ 764349.738825601292774, 8978380.656423185020685 ], [ 764349.773187709390186, 8978380.539010686799884 ], [ 764349.807693431852385, 8978380.421640314161777 ], [ 764414.866557492525317, 8978159.624696353450418 ], [ 764414.8756980067119, 8978159.593656729906797 ], [ 764414.884828476351686, 8978159.562614150345325 ], [ 764414.893948902375996, 8978159.531568616628647 ], [ 764414.903059280361049, 8978159.500520134344697 ], [ 764414.912159612867981, 8978159.469468707218766 ], [ 764414.921249897335656, 8978159.438414335250854 ], [ 764414.930330132949166, 8978159.407357024028897 ], [ 764414.939400318777189, 8978159.376296777278185 ], [ 764414.948460452258587, 8978159.345233594998717 ], [ 764414.957510536070913, 8978159.314167484641075 ], [ 764414.96655056567397, 8978159.283098448067904 ], [ 764414.975580542115495, 8978159.252026487141848 ], [ 764414.984600464464165, 8978159.220951605588198 ], [ 764414.993610331905074, 8978159.189873807132244 ], [ 764415.00261014176067, 8978159.158793095499277 ], [ 764415.011599894962274, 8978159.127709472551942 ], [ 764415.020579588948749, 8978159.096622942015529 ], [ 764415.029549224418588, 8978159.065533509477973 ], [ 764415.038508798927069, 8978159.034441174939275 ], [ 764415.047458311542869, 8978159.003345942124724 ], [ 764415.05639776319731, 8978158.972247816622257 ], [ 764415.065327152959071, 8978158.941146798431873 ], [ 764415.074246476404369, 8978158.910042893141508 ], [ 764415.083155736443587, 8978158.878936104476452 ], [ 764415.092054930166341, 8978158.84782643429935 ], [ 764415.100944056874141, 8978158.816713886335492 ], [ 764415.109823115635663, 8978158.785598462447524 ], [ 764415.11869210738223, 8978158.754480168223381 ], [ 764415.12755102769006, 8978158.723359005525708 ], [ 764415.136399879236706, 8978158.692234978079796 ], [ 764415.145238657598384, 8978158.661108089610934 ], [ 764415.154067365569063, 8978158.629978341981769 ], [ 764415.162885998608544, 8978158.598845738917589 ], [ 764415.171694557648152, 8978158.567710284143686 ], [ 764415.180493041872978, 8978158.53657198138535 ], [ 764415.1892814503517, 8978158.505430832505226 ], [ 764415.198059782385826, 8978158.474286843091249 ], [ 764415.206828035064973, 8978158.44314001314342 ], [ 764415.215586209553294, 8978158.411990348249674 ], [ 764415.224334304803051, 8978158.380837852135301 ], [ 764415.233072318369523, 8978158.349682524800301 ], [ 764415.241800250951201, 8978158.318524371832609 ], [ 764415.250518101849593, 8978158.287363398820162 ], [ 764415.259225868387148, 8978158.256199603900313 ], [ 764415.267923551378772, 8978158.225032994523644 ], [ 764415.276611148263328, 8978158.1938635725528 ], [ 764415.285288659972139, 8978158.162691339850426 ], [ 764415.293956083944067, 8978158.131516302004457 ], [ 764415.302613420877606, 8978158.100338460877538 ], [ 764415.311260668328032, 8978158.06915782019496 ], [ 764415.319897826993838, 8978158.037974383682013 ], [ 764415.328524894546717, 8978158.006788153201342 ], [ 764415.337141869822517, 8978157.975599134340882 ], [ 764415.345748752122745, 8978157.944407327100635 ], [ 764415.354345542378724, 8978157.913212737068534 ], [ 764415.362932237796485, 8978157.882015366107225 ], [ 764415.371508839423768, 8978157.850815219804645 ], [ 764415.38007534283679, 8978157.819612298160791 ], [ 764415.388631750713103, 8978157.788406608626246 ], [ 764415.397178060375154, 8978157.75719815120101 ], [ 764415.405714272754267, 8978157.725986929610372 ], [ 764415.414240383426659, 8978157.694772947579622 ], [ 764415.422756395069882, 8978157.663556208834052 ], [ 764415.43126230337657, 8978157.632336715236306 ], [ 764415.43975811090786, 8978157.601114470511675 ], [ 764415.448243814986199, 8978157.569889480248094 ], [ 764415.456719415029511, 8978157.538661744445562 ], [ 764415.465184909873642, 8978157.507431268692017 ], [ 764415.473640298703685, 8978157.476198054850101 ], [ 764415.482085582567379, 8978157.444962106645107 ], [ 764415.490520756924525, 8978157.413723427802324 ], [ 764415.498945822706446, 8978157.382482020184398 ], [ 764415.50736078096088, 8978157.351237889379263 ], [ 764415.51576562714763, 8978157.319991037249565 ], [ 764415.524160362081602, 8978157.288741465657949 ], [ 764415.532544986926951, 8978157.257489182054996 ], [ 764415.540919497027062, 8978157.226234184578061 ], [ 764415.54928389354609, 8978157.194976480677724 ], [ 764415.55763817531988, 8978157.163716070353985 ], [ 764415.565982343512587, 8978157.132452959194779 ], [ 764415.574316393584013, 8978157.101187149062753 ], [ 764415.582640326581895, 8978157.06991864554584 ], [ 764415.590954141458496, 8978157.038647448644042 ], [ 764415.599257837398909, 8978157.007373563945293 ], [ 764415.607551413704641, 8978156.97609699331224 ], [ 764415.615834869327955, 8978156.944817740470171 ], [ 764415.624108201591298, 8978156.913535811007023 ], [ 764415.632371413405053, 8978156.882251204922795 ], [ 764415.640624501975253, 8978156.850963925942779 ], [ 764415.648867464624345, 8978156.819673977792263 ], [ 764415.657100304262713, 8978156.788381366059184 ], [ 764415.665323016233742, 8978156.757086090743542 ], [ 764415.673535601468757, 8978156.725788155570626 ], [ 764415.681738061131909, 8978156.694487566128373 ], [ 764415.689930390450172, 8978156.663184324279428 ], [ 764415.698112590704113, 8978156.63187843374908 ], [ 764415.70628466072958, 8978156.600569896399975 ], [ 764415.714446599828079, 8978156.569258715957403 ], [ 764415.72259840706829, 8978156.537944896146655 ], [ 764415.730740081518888, 8978156.506628440693021 ], [ 764415.738871620735154, 8978156.475309351459146 ], [ 764415.746993027278222, 8978156.443987634032965 ], [ 764415.755104298586957, 8978156.412663290277123 ], [ 764415.763205433730036, 8978156.381336323916912 ], [ 764415.771296430029906, 8978156.350006736814976 ], [ 764415.779377290280536, 8978156.318674532696605 ], [ 764415.787448011804372, 8978156.287339717149734 ], [ 764415.795508591923863, 8978156.256002290174365 ], [ 764415.803559033432975, 8978156.224662259221077 ], [ 764415.811599333537742, 8978156.193319622427225 ], [ 764415.819629489677027, 8978156.16197438724339 ], [ 764415.827649504644796, 8978156.130626553669572 ], [ 764415.835659375647083, 8978156.099276127293706 ], [ 764415.84365910186898, 8978156.067923111841083 ], [ 764415.851648682495579, 8978156.036567509174347 ], [ 764415.859628116479144, 8978156.005209321156144 ], [ 764415.867597405100241, 8978155.973848555237055 ], [ 764415.875556543585844, 8978155.942485211417079 ], [ 764415.883505534846336, 8978155.911119293421507 ], [ 764415.891444374341518, 8978155.879750804975629 ], [ 764415.899373064748943, 8978155.848379749804735 ], [ 764415.907291603623889, 8978155.817006129771471 ], [ 764415.915199991664849, 8978155.785629950463772 ], [ 764415.923098224564455, 8978155.754251213744283 ], [ 764415.93098630500026, 8978155.722869921475649 ], [ 764415.938864230294712, 8978155.691486081108451 ], [ 764415.946732001379132, 8978155.660099690780044 ], [ 764415.954589615692385, 8978155.628710757941008 ], [ 764415.962437072186731, 8978155.597319282591343 ], [ 764415.970274370163679, 8978155.565925270318985 ], [ 764415.978101510554552, 8978155.534528724849224 ], [ 764415.985918490565382, 8978155.50312964618206 ], [ 764415.993725311360322, 8978155.471728041768074 ], [ 764416.001521970028989, 8978155.440323911607265 ], [ 764416.009308467619121, 8978155.40891726128757 ], [ 764416.017084801453166, 8978155.377508092671633 ], [ 764416.024850972462445, 8978155.346096409484744 ], [ 764416.032606978085823, 8978155.314682215452194 ], [ 764416.040352819138207, 8978155.283265512436628 ], [ 764416.048088494804688, 8978155.251846306025982 ], [ 764416.055814002407715, 8978155.2204245980829 ], [ 764416.06352934287861, 8978155.189000390470028 ], [ 764416.071234515402466, 8978155.157573688775301 ], [ 764416.078929517185315, 8978155.12614449672401 ], [ 764416.086614349391311, 8978155.094712814316154 ], [ 764416.094289010972716, 8978155.063278649002314 ], [ 764416.101953501114622, 8978155.03184200078249 ], [ 764416.109607818885706, 8978155.000402873381972 ], [ 764416.117251961841248, 8978154.968961272388697 ], [ 764416.124885932542384, 8978154.937517199665308 ], [ 764416.132509726448916, 8978154.906070657074451 ], [ 764416.140123346587643, 8978154.874621650204062 ], [ 764416.147726788185537, 8978154.843170180916786 ], [ 764416.15532005415298, 8978154.811716252937913 ], [ 764416.162903141812421, 8978154.780259869992733 ], [ 764416.170476050232537, 8978154.748801035806537 ], [ 764416.178038778714836, 8978154.717339750379324 ], [ 764416.185591327957809, 8978154.685876023024321 ], [ 764416.19313369365409, 8978154.654409850016236 ], [ 764416.200665878481232, 8978154.622941240668297 ], [ 764416.208187881740741, 8978154.591470194980502 ], [ 764416.215699700522237, 8978154.559996716678143 ], [ 764416.223201334127225, 8978154.528520809486508 ], [ 764416.230692783370614, 8978154.49704247713089 ], [ 764416.238174045691267, 8978154.465561721473932 ], [ 764416.245645122020505, 8978154.434078546240926 ], [ 764416.253106009680778, 8978154.402592957019806 ], [ 764416.260556709603406, 8978154.371104953810573 ], [ 764416.267997220857069, 8978154.339614542201161 ], [ 764416.275427542626858, 8978154.308121724054217 ], [ 764416.282847672468051, 8978154.276626503095031 ], [ 764416.290257612708956, 8978154.245128884911537 ], [ 764416.29765735915862, 8978154.213628867641091 ], [ 764416.305046912748367, 8978154.182126460596919 ], [ 764416.312426272546872, 8978154.150621661916375 ], [ 764416.319795437739231, 8978154.119114477187395 ], [ 764416.327154409140348, 8978154.087604911997914 ], [ 764416.334503182442859, 8978154.056092964485288 ], [ 764416.341841760324314, 8978154.024578642100096 ], [ 764416.349170140107162, 8978153.993061946704984 ], [ 764482.809252607519738, 8977867.962647570297122 ], [ 764482.819202968617901, 8977867.919865898787975 ], [ 764482.82917212031316, 8977867.877088602632284 ], [ 764482.839160060393624, 8977867.834315691143274 ], [ 764482.849166786530986, 8977867.791547168046236 ], [ 764482.859192298259586, 8977867.748783046379685 ], [ 764482.869236591621302, 8977867.706023331731558 ], [ 764482.879299666266888, 8977867.663268031552434 ], [ 764482.889381519751623, 8977867.620517157018185 ], [ 764482.899482148117386, 8977867.577770715579391 ], [ 764482.90960155276116, 8977867.535028712823987 ], [ 764482.919739731354639, 8977867.49229116179049 ], [ 764482.929896678077057, 8977867.44955806620419 ], [ 764482.940072396188043, 8977867.406829435378313 ], [ 764482.950266879866831, 8977867.364105278626084 ], [ 764482.960480128414929, 8977867.32138560526073 ], [ 764482.970712141599506, 8977867.278670420870185 ], [ 764482.980962915346026, 8977867.235959734767675 ], [ 764482.991232447442599, 8977867.193253554403782 ], [ 764483.001520735560916, 8977867.150551890954375 ], [ 764483.011827781097963, 8977867.107854750007391 ], [ 764483.022153578349389, 8977867.06516213901341 ], [ 764483.032498126616701, 8977867.022474069148302 ], [ 764483.042861425550655, 8977866.979790546 ], [ 764483.053243469446898, 8977866.937111578881741 ], [ 764483.063644259469584, 8977866.894437177106738 ], [ 764483.074063793523237, 8977866.851767348125577 ], [ 764483.084502067416906, 8977866.809102099388838 ], [ 764483.094959080917761, 8977866.766441438347101 ], [ 764483.105434831581078, 8977866.723785376176238 ], [ 764483.115929317311384, 8977866.681133918464184 ], [ 764483.12644253578037, 8977866.638487074524164 ], [ 764483.136974484776147, 8977866.59584485180676 ], [ 764483.147525163833052, 8977866.553207261487842 ], [ 764483.15809456887655, 8977866.5105743072927 ], [ 764483.168682699557394, 8977866.467946000397205 ], [ 764483.179289553547278, 8977866.425322348251939 ], [ 764483.189915126888081, 8977866.382703360170126 ], [ 764483.200559420976788, 8977866.340089041739702 ], [ 764483.2112224297598, 8977866.297479404136539 ], [ 764483.221904154750519, 8977866.25487445294857 ], [ 764483.232604591874406, 8977866.212274199351668 ], [ 764483.243323738919571, 8977866.169678648933768 ], [ 764483.254061593674123, 8977866.127087809145451 ], [ 764483.264818157302216, 8977866.084501693025231 ], [ 764483.275593422469683, 8977866.041920302435756 ], [ 764483.286387392086908, 8977865.999343652278185 ], [ 764483.297200060333125, 8977865.956771744415164 ], [ 764483.308031426859088, 8977865.914204591885209 ], [ 764483.31888149108272, 8977865.871642200276256 ], [ 764483.329750247416086, 8977865.829084578901529 ], [ 764483.340637695160694, 8977865.786531735211611 ], [ 764483.351543834083714, 8977865.743983676657081 ], [ 764483.362468659877777, 8977865.70144041441381 ], [ 764483.373412170563824, 8977865.658901954069734 ], [ 764483.384374365559779, 8977865.616368304938078 ], [ 764483.395355242770165, 8977865.573839474469423 ], [ 764483.406354797887616, 8977865.531315471976995 ], [ 764483.417373028816655, 8977865.48879630304873 ], [ 764483.428409935208037, 8977865.446281978860497 ], [ 764483.439465516479686, 8977865.403772508725524 ], [ 764483.450539766810834, 8977865.3612678963691 ], [ 764483.461632684106007, 8977865.318768152967095 ], [ 764483.472744269529358, 8977865.276273285970092 ], [ 764483.483874519006349, 8977865.23378330282867 ], [ 764483.495023430557922, 8977865.191298212856054 ], [ 764483.506191001739353, 8977865.148818025365472 ], [ 764483.517377230338752, 8977865.106342745944858 ], [ 764483.528582115890458, 8977865.063872385770082 ], [ 764483.539805652573705, 8977865.021406948566437 ], [ 764483.551047841901891, 8977864.978946447372437 ], [ 764483.56230868131388, 8977864.936490887776017 ], [ 764483.573588167084381, 8977864.894040277227759 ], [ 764483.584886296768673, 8977864.851594626903534 ], [ 764483.596203068154864, 8977864.809153942391276 ], [ 764483.607538482639939, 8977864.766718233004212 ], [ 764483.618892532656901, 8977864.724287506192923 ], [ 764483.630265219369903, 8977864.681861769407988 ], [ 764483.641656540683471, 8977864.639441033825278 ], [ 764483.653066494269297, 8977864.59702530503273 ], [ 764483.66449507616926, 8977864.554614592343569 ], [ 764483.67594228417147, 8977864.512208903208375 ], [ 764483.687408119440079, 8977864.469808246940374 ], [ 764483.698892576387152, 8977864.427412630990148 ], [ 764483.710395652567968, 8977864.385022062808275 ], [ 764483.72191734937951, 8977864.342636551707983 ], [ 764483.733457661117427, 8977864.300256105139852 ], [ 764483.745016587083228, 8977864.257880730554461 ], [ 764483.756594125297852, 8977864.215510439127684 ], [ 764483.768190271570347, 8977864.173145236447453 ], [ 764483.779805025551468, 8977864.130785129964352 ], [ 764483.791438384796493, 8977864.088430130854249 ], [ 764483.803090347326361, 8977864.046080244705081 ], [ 764483.81476090895012, 8977864.003735480830073 ], [ 764483.82645006920211, 8977863.961395848542452 ], [ 764483.838157825986855, 8977863.919061351567507 ], [ 764483.849884175113402, 8977863.876732002943754 ], [ 764483.861629117978737, 8977863.834407810121775 ], [ 764483.873392648762092, 8977863.792088778689504 ], [ 764483.885174765251577, 8977863.749774917960167 ], [ 764483.89697546872776, 8977863.70746623724699 ], [ 764483.908794753369875, 8977863.665162744000554 ], [ 764483.920632616966031, 8977863.622864445671439 ], [ 764483.932489059050567, 8977863.580571351572871 ], [ 764483.944364077411592, 8977863.538283469155431 ], [ 764483.956257669837214, 8977863.496000807732344 ], [ 764483.968169830273837, 8977863.453723372891545 ], [ 764483.98010056221392, 8977863.411451175808907 ], [ 764483.992049859487452, 8977863.369184222072363 ], [ 764484.004017720115371, 8977863.32692252099514 ], [ 764484.016004141652957, 8977863.284666081890464 ], [ 764484.028009123867378, 8977863.24241491034627 ], [ 764484.040032664313912, 8977863.200169017538428 ], [ 764484.052074757171795, 8977863.15792840719223 ], [ 764484.064135403954424, 8977863.115693092346191 ], [ 764484.076214600470848, 8977863.073463078588247 ], [ 764484.088312344625592, 8977863.031238375231624 ], [ 764484.100428633973934, 8977862.989018989726901 ], [ 764484.112563466420397, 8977862.946804927662015 ], [ 764484.124716841499321, 8977862.904596202075481 ], [ 764484.13688875338994, 8977862.862392818555236 ], [ 764484.149079199763946, 8977862.820194784551859 ], [ 764484.161288182018325, 8977862.778002111241221 ], [ 764484.173515696078539, 8977862.735814802348614 ], [ 764484.185761737986468, 8977862.693632869049907 ], [ 764484.19802630553022, 8977862.651456318795681 ], [ 764484.21030939812772, 8977862.609285159036517 ], [ 764484.22261101368349, 8977862.567119399085641 ], [ 764484.234931148006581, 8977862.524959046393633 ], [ 764484.2472697988851, 8977862.482804110273719 ], [ 764484.259626965969801, 8977862.440654596313834 ], [ 764484.272002645302564, 8977862.398510513827205 ], [ 764484.284396832576022, 8977862.356371872127056 ], [ 764484.296809529187158, 8977862.314238678663969 ], [ 764484.309240731294267, 8977862.272110940888524 ], [ 764484.321690434706397, 8977862.229988668113947 ], [ 764484.334158640936948, 8977862.187871867790818 ], [ 764484.346645342069678, 8977862.145760547369719 ], [ 764484.359150541480631, 8977862.103654714301229 ], [ 764484.37167423334904, 8977862.061554379761219 ], [ 764484.384216415230185, 8977862.019459551200271 ], [ 764484.396777085145004, 8977861.977370232343674 ], [ 764484.409356242395006, 8977861.935286438092589 ], [ 764484.42195388127584, 8977861.893208170309663 ], [ 764484.43457000318449, 8977861.85113544203341 ], [ 764484.447204602183774, 8977861.809068258851767 ], [ 764484.459857677924447, 8977861.767006628215313 ], [ 764484.472529227961786, 8977861.724950559437275 ], [ 764484.485219248570502, 8977861.682900061830878 ], [ 764484.497927739052102, 8977861.640855140984058 ], [ 764484.510654695448466, 8977861.598815806210041 ], [ 764484.523400115547702, 8977861.556782066822052 ], [ 764484.536163997137919, 8977861.514753928408027 ], [ 764484.548946337890811, 8977861.472731402143836 ], [ 764484.561747135478072, 8977861.430714493617415 ], [ 764484.574566386174411, 8977861.388703210279346 ], [ 764484.58740408916492, 8977861.346697563305497 ], [ 764484.60026024247054, 8977861.304697558283806 ], [ 764484.613134840270504, 8977861.262703204527497 ], [ 764484.626027883612551, 8977861.220714509487152 ], [ 764484.638939368771389, 8977861.178731482475996 ], [ 764484.651869291672483, 8977861.136754129081964 ], [ 764484.664817653479986, 8977861.094782460480928 ], [ 764484.677784448605962, 8977861.052816482260823 ], [ 764484.690769674489275, 8977861.01085620559752 ], [ 764484.703773329267278, 8977860.968901634216309 ], [ 764484.716795412125066, 8977860.92695277929306 ], [ 764484.729835919337347, 8977860.885009648278356 ], [ 764484.74289484671317, 8977860.843072248622775 ], [ 764484.75597219564952, 8977860.80114059150219 ], [ 764484.769067958346568, 8977860.759214678779244 ], [ 764484.78218213643413, 8977860.717294525355101 ], [ 764484.795314727467485, 8977860.675380134955049 ], [ 764484.80846572574228, 8977860.633471516892314 ], [ 764484.821635130792856, 8977860.591568678617477 ], [ 764484.834822940290906, 8977860.549671629443765 ], [ 764484.848029150161892, 8977860.507780376821756 ], [ 764484.861253760172985, 8977860.465894928202033 ], [ 764484.874496766133234, 8977860.42401529289782 ], [ 764484.887758165714331, 8977860.382141478359699 ], [ 764484.901037956937216, 8977860.340273493900895 ], [ 764660.157777025247924, 8977308.218717886134982 ], [ 764660.164187837741338, 8977308.19851410202682 ], [ 764660.170594368944876, 8977308.178308958187699 ], [ 764660.176996616646647, 8977308.158102456480265 ], [ 764660.183394580497406, 8977308.137894600629807 ], [ 764660.189788262243383, 8977308.117685386911035 ], [ 764660.19617765781004, 8977308.097474819049239 ], [ 764660.202562770689838, 8977308.07726289704442 ], [ 764660.20894360053353, 8977308.057049622759223 ], [ 764660.215320143499412, 8977308.036834996193647 ], [ 764660.221692402847111, 8977308.016619017347693 ], [ 764660.228060376597568, 8977307.996401689946651 ], [ 764660.234424066264182, 8977307.976183012127876 ], [ 764660.240783467888832, 8977307.955962985754013 ], [ 764660.247138584847562, 8977307.935741612687707 ], [ 764660.253489415044896, 8977307.915518892928958 ], [ 764660.25983595836442, 8977307.895294826477766 ], [ 764660.266178214456886, 8977307.875069417059422 ], [ 764660.272516184719279, 8977307.854842662811279 ], [ 764660.278849865309894, 8977307.834614565595984 ], [ 764660.28517925972119, 8977307.814385125413537 ], [ 764660.291504365741275, 8977307.794154345989227 ], [ 764660.297825183253735, 8977307.773922223597765 ], [ 764660.304141711792909, 8977307.753688763827085 ], [ 764660.31045395298861, 8977307.733453964814544 ], [ 764660.316761902999133, 8977307.71321783028543 ], [ 764660.323065564967692, 8977307.692980356514454 ], [ 764660.329364935285412, 8977307.672741547226906 ], [ 764660.335660017211922, 8977307.652501404285431 ], [ 764660.34195080853533, 8977307.632259927690029 ], [ 764660.348237309139222, 8977307.612017117440701 ], [ 764660.354519518674351, 8977307.59177297540009 ], [ 764660.360797436791472, 8977307.571527501568198 ], [ 764660.367071063374169, 8977307.551280699670315 ], [ 764660.373340399935842, 8977307.53103256598115 ], [ 764660.379605442518368, 8977307.510783104225993 ], [ 764660.385866192751564, 8977307.49053231626749 ], [ 764660.392122652032413, 8977307.470280200242996 ], [ 764660.398374816635624, 8977307.450026759877801 ], [ 764660.404622688074596, 8977307.429771993309259 ], [ 764660.410866267746314, 8977307.409515904262662 ], [ 764660.417105551809072, 8977307.389258490875363 ], [ 764660.42334054375533, 8977307.368999756872654 ], [ 764660.429571241256781, 8977307.348739700391889 ], [ 764660.43579764245078, 8977307.328478325158358 ], [ 764660.442019750713371, 8977307.308215629309416 ], [ 764660.448237561970018, 8977307.287951614707708 ], [ 764660.454451079596765, 8977307.26768628321588 ], [ 764660.460660299868323, 8977307.247419634833932 ], [ 764660.466865225927904, 8977307.227151671424508 ], [ 764660.473065854050219, 8977307.206882392987609 ], [ 764660.479262187494896, 8977307.18661180138588 ], [ 764660.485454222420231, 8977307.16633989661932 ], [ 764660.491641960339621, 8977307.14606667868793 ], [ 764660.497825402766466, 8977307.125792151317 ], [ 764660.504004545859061, 8977307.10551631078124 ], [ 764660.510179391130805, 8977307.085239162668586 ], [ 764660.516349938348867, 8977307.064960706979036 ], [ 764660.522516187164001, 8977307.044680943712592 ], [ 764660.528678139089607, 8977307.024399872869253 ], [ 764660.534835790400393, 8977307.00411749817431 ], [ 764660.5409891406307, 8977306.983833815902472 ], [ 764660.547138193389401, 8977306.963548831641674 ], [ 764660.553282946231775, 8977306.943262543529272 ], [ 764660.559423399274237, 8977306.922974955290556 ], [ 764660.565559550188482, 8977306.902686063200235 ], [ 764660.571691402350552, 8977306.882395872846246 ], [ 764660.577818951918744, 8977306.862104382365942 ], [ 764660.5839422022691, 8977306.841811593621969 ], [ 764660.5900611494435, 8977306.821517508476973 ], [ 764660.596175795071758, 8977306.801222125068307 ], [ 764660.602286138804629, 8977306.780925447121263 ], [ 764660.608392180292867, 8977306.760627474635839 ], [ 764660.614493919420056, 8977306.740328207612038 ], [ 764660.62059135583695, 8977306.720027647912502 ], [ 764660.626684489310719, 8977306.699725797399879 ], [ 764660.632773319608532, 8977306.679422654211521 ], [ 764660.638857844518498, 8977306.659118220210075 ], [ 764660.644938065670431, 8977306.638812499120831 ], [ 764660.65101398457773, 8977306.618505489081144 ], [ 764660.657085597398691, 8977306.598197190091014 ], [ 764660.663152905646712, 8977306.577887605875731 ], [ 764660.669215908972546, 8977306.557576736435294 ], [ 764660.67527460725978, 8977306.537264581769705 ], [ 764660.681329000042751, 8977306.516951143741608 ], [ 764660.687379085458815, 8977306.496636422351003 ], [ 764660.693424866651185, 8977306.476320419460535 ], [ 764660.69946633989457, 8977306.456003135070205 ], [ 764660.705503506585956, 8977306.435684569180012 ], [ 764660.711536368355155, 8977306.415364727377892 ], [ 764660.717564921360463, 8977306.395043604075909 ], [ 764660.723589166998863, 8977306.374721204861999 ], [ 764660.729609103291295, 8977306.354397529736161 ], [ 764660.735624733497389, 8977306.334072578698397 ], [ 764660.741636055638082, 8977306.313746351748705 ], [ 764660.747643067734316, 8977306.293418852612376 ], [ 764660.753645772812888, 8977306.273090079426765 ], [ 764660.759644167148508, 8977306.252760035917163 ], [ 764660.765638252487406, 8977306.232428720220923 ], [ 764660.77162802813109, 8977306.212096134200692 ], [ 764660.777613494195975, 8977306.191762279719114 ], [ 764660.783594650216401, 8977306.17142715677619 ], [ 764660.789571494213305, 8977306.151090767234564 ], [ 764660.795544029446319, 8977306.130753109231591 ], [ 764660.801512253819965, 8977306.110414188355207 ], [ 764660.807476165355183, 8977306.090074000880122 ], [ 764660.813435765448958, 8977306.069732550531626 ], [ 764660.819391054101288, 8977306.049389837309718 ], [ 764660.825342030613683, 8977306.029045861214399 ], [ 764660.831288695102558, 8977306.00870062597096 ], [ 764660.83723104710225, 8977305.988354129716754 ], [ 764660.843169086496346, 8977305.968006374314427 ], [ 764660.849102812819183, 8977305.947657361626625 ], [ 764660.855032224091701, 8977305.927307089790702 ], [ 764660.860957323689945, 8977305.906955564394593 ], [ 764660.866878107655793, 8977305.886602781713009 ], [ 764660.872794579365291, 8977305.866248743608594 ], [ 764660.878706734976731, 8977305.845893453806639 ], [ 764660.884614575887099, 8977305.825536910444498 ], [ 764660.890518101979978, 8977305.805179115384817 ], [ 764660.896417314652354, 8977305.784820068627596 ], [ 764660.902312210295349, 8977305.764459773898125 ], [ 764660.908202788326889, 8977305.744098227471113 ], [ 764660.914089052123018, 8977305.723735434934497 ], [ 764660.919970999821089, 8977305.703371394425631 ], [ 764660.925848630955443, 8977305.683006107807159 ], [ 764660.931721945409663, 8977305.662639575079083 ], [ 764660.937590940971859, 8977305.642271798104048 ], [ 764660.943455620901659, 8977305.621902778744698 ], [ 764660.949315983336419, 8977305.601532515138388 ], [ 764660.955172026180662, 8977305.581161011010408 ], [ 764660.961023752577603, 8977305.56078826636076 ], [ 764660.966871158918366, 8977305.540414279326797 ], [ 764660.97271424822975, 8977305.520039055496454 ], [ 764660.978553016902879, 8977305.499662593007088 ], [ 764660.984387468197383, 8977305.479284893721342 ], [ 764660.990217598155141, 8977305.458905957639217 ], [ 764660.996043410152197, 8977305.438525786623359 ], [ 764661.001864900346845, 8977305.418144382536411 ], [ 764661.007682070252486, 8977305.39776174351573 ], [ 764661.013494921382517, 8977305.37737787142396 ], [ 764661.019303449895233, 8977305.356992768123746 ], [ 764661.025107659166679, 8977305.336606433615088 ], [ 764661.030907546984963, 8977305.316218869760633 ], [ 764661.036703111371025, 8977305.295830076560378 ], [ 764661.042494355584495, 8977305.275440057739615 ], [ 764661.048281277646311, 8977305.255048809573054 ], [ 764661.054063875460997, 8977305.234656335785985 ], [ 764661.059842152404599, 8977305.214262636378407 ], [ 764661.065616106265225, 8977305.193867713212967 ], [ 764661.071385736926459, 8977305.173471566289663 ], [ 764661.07715104392264, 8977305.153074195608497 ], [ 764661.082912027253769, 8977305.132675604894757 ], [ 764661.088668686337769, 8977305.1122757922858 ], [ 764661.094421023037285, 8977305.091874761506915 ], [ 764661.10016903327778, 8977305.071472510695457 ], [ 764661.105912720318884, 8977305.051069043576717 ], [ 764661.111652080435306, 8977305.03066435828805 ], [ 764661.117387116886675, 8977305.0102584566921 ], [ 764661.123117827810347, 8977304.989851340651512 ], [ 764661.128844212507829, 8977304.969443010166287 ], [ 764661.134566271095537, 8977304.949033465236425 ], [ 764661.140284004970454, 8977304.928622709587216 ], [ 764661.145997410174459, 8977304.908210741356015 ], [ 764661.151706490200013, 8977304.887797562405467 ], [ 764661.157411242835224, 8977304.867383174598217 ], [ 764661.163111667847261, 8977304.846967577934265 ], [ 764661.168807765003294, 8977304.826550772413611 ], [ 764661.174499535816722, 8977304.806132759898901 ], [ 764661.180186976445839, 8977304.785713542252779 ], [ 764661.185870090150274, 8977304.765293119475245 ], [ 764661.191548874950968, 8977304.744871493428946 ], [ 764661.197223332244903, 8977304.724448662251234 ], [ 764661.202893458306789, 8977304.704024629667401 ], [ 764661.208559256396256, 8977304.683599395677447 ], [ 764661.214220726164058, 8977304.663172962144017 ], [ 764661.219877863884903, 8977304.642745327204466 ], [ 764661.225530672818422, 8977304.622316494584084 ], [ 764661.231179150869139, 8977304.60188646428287 ], [ 764661.236823297804222, 8977304.581455238163471 ], [ 764661.24246311513707, 8977304.561022814363241 ], [ 764765.044491005712189, 8976928.342467345297337 ], [ 764765.061482231831178, 8976928.280807694420218 ], [ 764765.078434017836116, 8976928.219137189909816 ], [ 764765.095346356392838, 8976928.157455855980515 ], [ 764765.112219241913408, 8976928.09576371870935 ], [ 764765.129052667296492, 8976928.03406080044806 ], [ 764765.145846624975093, 8976927.972347129136324 ], [ 764765.162601109710522, 8976927.910622730851173 ], [ 764765.179316112189554, 8976927.84888762794435 ], [ 764765.195991627057083, 8976927.787141848355532 ], [ 764765.212627646862529, 8976927.72538541443646 ], [ 764765.229224166250788, 8976927.663618354126811 ], [ 764765.245781176025048, 8976927.601840691640973 ], [ 764765.26229867071379, 8976927.540052451193333 ], [ 764765.278776644729078, 8976927.478253660723567 ], [ 764765.295215089106932, 8976927.416444342583418 ], [ 764765.311613998259418, 8976927.354624524712563 ], [ 764765.327973366831429, 8976927.292794229462743 ], [ 764765.344293185393326, 8976927.230953484773636 ], [ 764765.360573448706418, 8976927.169102314859629 ], [ 764765.376814149436541, 8976927.107240745797753 ], [ 764765.393015281995758, 8976927.045368801802397 ], [ 764765.409176839166321, 8976926.983486507087946 ], [ 764765.425298815360293, 8976926.921593889594078 ], [ 764765.441381201613694, 8976926.85969097353518 ], [ 764765.45742399408482, 8976926.797777783125639 ], [ 764765.473427183693275, 8976926.735854346305132 ], [ 764765.489390764851123, 8976926.673920685425401 ], [ 764765.505314732319675, 8976926.611976828426123 ], [ 764765.521199078531936, 8976926.550022799521685 ], [ 764765.537043796270154, 8976926.488058622926474 ], [ 764765.552848880179226, 8976926.426084326580167 ], [ 764765.568614324554801, 8976926.364099932834506 ], [ 764765.584340120316483, 8976926.302105469629169 ], [ 764765.600026261992753, 8976926.240100961178541 ], [ 764765.615672745974734, 8976926.178086431697011 ], [ 764765.631279561202973, 8976926.116061909124255 ], [ 764765.646846704185009, 8976926.054027415812016 ], [ 764765.662374169100076, 8976925.991982979699969 ], [ 764765.67786194710061, 8976925.929928625002503 ], [ 764765.693310034461319, 8976925.86786437779665 ], [ 764765.70871842384804, 8976925.805790262296796 ], [ 764765.724087107926607, 8976925.743706306442618 ], [ 764765.739416081109084, 8976925.681612530723214 ], [ 764765.754705338040367, 8976925.619508966803551 ], [ 764765.76995487138629, 8976925.557395635172725 ], [ 764765.785164673812687, 8976925.495272561907768 ], [ 764765.800334741710685, 8976925.433139774948359 ], [ 764765.815465069375932, 8976925.370997298508883 ], [ 764765.830555646098219, 8976925.308845156803727 ], [ 764765.845606469898485, 8976925.24668337777257 ], [ 764765.860617533442564, 8976925.184511983767152 ], [ 764765.875588829512708, 8976925.122331002727151 ], [ 764765.890520354383625, 8976925.060140458866954 ], [ 764765.905412098974921, 8976924.997940376400948 ], [ 764765.920264059444889, 8976924.935730783268809 ], [ 764765.935076228575781, 8976924.873511703684926 ], [ 764765.949848601012491, 8976924.81128316372633 ], [ 764765.964581169188023, 8976924.749045187607408 ], [ 764765.979273929609917, 8976924.686797803267837 ], [ 764765.993926874944009, 8976924.624541033059359 ], [ 764766.008539997739717, 8976924.562274903059006 ], [ 764766.023113294504583, 8976924.499999441206455 ], [ 764766.037646757788025, 8976924.437714669853449 ], [ 764766.052140382118523, 8976924.375420616939664 ], [ 764766.066594162140973, 8976924.313117306679487 ], [ 764766.081008090288378, 8976924.250804765149951 ], [ 764766.09538216306828, 8976924.188483018428087 ], [ 764766.109716371283866, 8976924.126152088865638 ], [ 764766.124010713072494, 8976924.063812006264925 ], [ 764766.138265179353766, 8976924.001462792977691 ], [ 764766.152479766518809, 8976923.939104475080967 ], [ 764766.166654465137981, 8976923.876737078651786 ], [ 764766.180789275444113, 8976923.814360629767179 ], [ 764766.194884186494164, 8976923.75197515450418 ], [ 764766.208939192583784, 8976923.689580675214529 ], [ 764766.222954292083159, 8976923.627177219837904 ], [ 764766.236929475679062, 8976923.564764814451337 ], [ 764766.250864739762619, 8976923.502343481406569 ], [ 764766.264760075137019, 8976923.439913250505924 ], [ 764766.278615481918678, 8976923.377474144101143 ], [ 764766.292430949048139, 8976923.315026190131903 ], [ 764766.306206472800113, 8976923.252569410949945 ], [ 764766.319942047819495, 8976923.190103836357594 ], [ 764766.333637670380995, 8976923.127629488706589 ], [ 764766.347293331287801, 8976923.065146394073963 ], [ 764766.360909025068395, 8976923.002654576674104 ], [ 764766.37448474986013, 8976922.940154066309333 ], [ 764766.388020496582612, 8976922.877644885331392 ], [ 764766.401516261394136, 8976922.815127057954669 ], [ 764766.414972039056011, 8976922.752600613981485 ], [ 764766.428387822117656, 8976922.690065575763583 ], [ 764766.441763606853783, 8976922.62752197124064 ], [ 764766.45509938779287, 8976922.564969822764397 ], [ 764766.468395157717168, 8976922.502409160137177 ], [ 764766.481650914647616, 8976922.439840003848076 ], [ 764766.49486664950382, 8976922.377262383699417 ], [ 764766.508042356814258, 8976922.314676323905587 ], [ 764766.521178034716286, 8976922.252081850543618 ], [ 764766.534273675759323, 8976922.189478987827897 ], [ 764766.547329274588265, 8976922.126867761835456 ], [ 764766.560344823985361, 8976922.064248198643327 ], [ 764766.57332032371778, 8976922.001620326191187 ], [ 764766.586255762842484, 8976921.938984164968133 ], [ 764766.599151139613241, 8976921.876339744776487 ], [ 764766.612006446695887, 8976921.813687087967992 ], [ 764766.62482168211136, 8976921.751026224344969 ], [ 764766.637596836895682, 8976921.688357174396515 ], [ 764766.650331905460916, 8976921.625679967924953 ], [ 764766.663026887690648, 8976921.562994631007314 ], [ 764766.675681772874668, 8976921.50030118599534 ], [ 764766.6882965589175, 8976921.437599658966064 ], [ 764766.700871238601394, 8976921.374890077859163 ], [ 764766.713405810063705, 8976921.312172466889024 ], [ 764766.725900264107622, 8976921.249446850270033 ], [ 764766.738354598986916, 8976921.186713257804513 ], [ 764766.750768807251006, 8976921.123971711844206 ], [ 764766.763142885407433, 8976921.061222238466144 ], [ 764766.77547682786826, 8976920.998464863747358 ], [ 764766.787770629161969, 8976920.935699613764882 ], [ 764766.800024285446852, 8976920.872926512733102 ], [ 764766.812237789621577, 8976920.810145588591695 ], [ 764766.824411137960851, 8976920.747356865555048 ], [ 764766.836544326739386, 8976920.684560367837548 ], [ 764766.84863734873943, 8976920.621756125241518 ], [ 764766.860690200119279, 8976920.558944160118699 ], [ 764766.872702875523828, 8976920.496124498546124 ], [ 764766.884675371227786, 8976920.433297166600823 ], [ 764766.896607679896988, 8976920.370462192222476 ], [ 764766.908499799785204, 8976920.307619597762823 ], [ 764766.920351723441854, 8976920.244769409298897 ], [ 764766.932163447258063, 8976920.181911654770374 ], [ 764766.94393496750854, 8976920.119046356528997 ], [ 764766.95566627511289, 8976920.056173544377089 ], [ 764766.967357370071113, 8976919.993293240666389 ], [ 764766.979008246795274, 8976919.930405473336577 ], [ 764766.990618898067623, 8976919.867510268464684 ], [ 764767.00218932016287, 8976919.804607648402452 ], [ 764767.013719509355724, 8976919.741697641089559 ], [ 764767.02520946029108, 8976919.678780272603035 ], [ 764767.036659167381003, 8976919.615855569019914 ], [ 764767.048068626900204, 8976919.552923554554582 ], [ 764767.059437835356221, 8976919.489984255284071 ], [ 764767.070766785298474, 8976919.427037699148059 ], [ 764767.082055474864319, 8976919.364083908498287 ], [ 764767.093303898582235, 8976919.301122911274433 ], [ 764767.104512049118057, 8976919.238154731690884 ], [ 764767.1156799265882, 8976919.175179397687316 ], [ 764767.126807523542084, 8976919.112196933478117 ], [ 764767.137894834391773, 8976919.049207365140319 ], [ 764767.148941857507452, 8976918.986210718750954 ], [ 764767.159948587301187, 8976918.923207020387053 ], [ 764767.170915018301457, 8976918.860196294263005 ], [ 764767.181841146782972, 8976918.797178566455841 ], [ 764767.192726969136856, 8976918.734153864905238 ], [ 764767.203572479775175, 8976918.671122213825583 ], [ 764767.214377673342824, 8976918.608083637431264 ], [ 764767.225142547860742, 8976918.545038165524602 ], [ 764767.235867096111178, 8976918.481985818594694 ], [ 764767.246551316231489, 8976918.418926628306508 ], [ 764767.257195202750154, 8976918.35586061514914 ], [ 764767.267798751825467, 8976918.292787808924913 ], [ 764767.278361958218738, 8976918.229708233848214 ], [ 764767.288884818088263, 8976918.16662191413343 ], [ 764767.299367326078936, 8976918.103528877720237 ], [ 764767.309809480095282, 8976918.040429150685668 ], [ 764767.320211274898611, 8976917.97732275724411 ], [ 764767.330572705017403, 8976917.914209723472595 ], [ 764767.340893768356182, 8976917.851090077310801 ], [ 764767.351174459676258, 8976917.787963841110468 ], [ 764767.361414773273282, 8976917.724831042811275 ], [ 764767.371614707517438, 8976917.661691708490252 ], [ 764767.381774256704375, 8976917.598545864224434 ], [ 764767.391893417341635, 8976917.535393534228206 ], [ 764767.401972183957696, 8976917.4722347445786 ], [ 764767.412010554457083, 8976917.409069523215294 ], [ 764767.422008523601107, 8976917.345897892490029 ], [ 764767.431966087664478, 8976917.282719882205129 ], [ 764767.441883242921904, 8976917.219535514712334 ], [ 764767.451759983901866, 8976917.156344817951322 ], [ 764767.461596306995489, 8976917.093147816136479 ], [ 764799.776401837356389, 8976709.03724230453372 ], [ 764799.800492079230025, 8976708.881328647956252 ], [ 764799.824336315738037, 8976708.7253771815449 ], [ 764799.847934488439932, 8976708.569388290867209 ], [ 764799.871286536450498, 8976708.413362363353372 ], [ 764799.894392405054532, 8976708.257299790158868 ], [ 764799.917252033483237, 8976708.101200958713889 ], [ 764799.939865366904996, 8976707.945066256448627 ], [ 764799.962232348159887, 8976707.788896074518561 ], [ 764799.984352920786478, 8976707.63269079849124 ], [ 764800.006227031350136, 8976707.476450819522142 ], [ 764800.027854623040184, 8976707.320176525041461 ], [ 764800.049235646496527, 8976707.163868304342031 ], [ 764800.070370043045841, 8976707.00752654671669 ], [ 764800.091257764957845, 8976706.851151641458273 ], [ 764800.111898757400922, 8976706.694743977859616 ], [ 764800.132292969035916, 8976706.538303945213556 ], [ 764800.152440348640084, 8976706.381831930950284 ], [ 764800.172340848483145, 8976706.225328328087926 ], [ 764800.191994417458773, 8976706.068793524056673 ], [ 764800.2114010079531, 8976705.912227908149362 ], [ 764800.23056056862697, 8976705.755631869658828 ], [ 764800.249473053961992, 8976705.599005799740553 ], [ 764800.268138417974114, 8976705.442350087687373 ], [ 764800.286556611419655, 8976705.285665122792125 ], [ 764800.304727590526454, 8976705.128951298072934 ], [ 764800.322651309426874, 8976704.972208999097347 ], [ 764800.340327724348754, 8976704.815438617020845 ], [ 764800.357756789657287, 8976704.658640544861555 ], [ 764800.374938463210128, 8976704.501815171912313 ], [ 764800.391872701351531, 8976704.344962885603309 ], [ 764800.408559462055564, 8976704.18808407895267 ], [ 764800.424998705042526, 8976704.031179143115878 ], [ 764800.441190388519317, 8976703.874248465523124 ], [ 764800.457134470460005, 8976703.717292441055179 ], [ 764800.47283091454301, 8976703.560311455279589 ], [ 764800.488279680488631, 8976703.403305903077126 ], [ 764800.503480728133582, 8976703.246276173740625 ], [ 764800.518434021389112, 8976703.08922265842557 ], [ 764800.533139523584396, 8976702.932145746424794 ], [ 764800.547597194556147, 8976702.775045830756426 ], [ 764800.561807003803551, 8976702.617923300713301 ], [ 764800.575768910930492, 8976702.460778549313545 ], [ 764800.589482883340679, 8976702.303611965849996 ], [ 764800.602948888321407, 8976702.146423943340778 ], [ 764800.616166889551096, 8976701.98921487107873 ], [ 764800.629136856179684, 8976701.831985142081976 ], [ 764800.641858753631823, 8976701.674735145643353 ], [ 764800.654332553036511, 8976701.517465274780989 ], [ 764800.666558223543689, 8976701.360175922513008 ], [ 764800.678535730578005, 8976701.202867476269603 ], [ 764800.690265048993751, 8976701.045540329068899 ], [ 764800.701746147824451, 8976700.888194873929024 ], [ 764800.71297899633646, 8976700.730831502005458 ], [ 764800.723963569384068, 8976700.573450604453683 ], [ 764800.73469983972609, 8976700.41605257242918 ], [ 764800.745187778491527, 8976700.258637798950076 ], [ 764800.755427362280898, 8976700.101206675171852 ], [ 764800.765418564085849, 8976699.94375959224999 ], [ 764800.775161356665194, 8976699.786296943202615 ], [ 764800.78465572046116, 8976699.628819119185209 ], [ 764800.793901628348976, 8976699.471326513215899 ], [ 764800.802899058908224, 8976699.313819516450167 ], [ 764800.811647990485653, 8976699.156298520043492 ], [ 764800.8201483997982, 8976698.998763918876648 ], [ 764800.828400265425444, 8976698.84121610224247 ], [ 764800.836403567460366, 8976698.683655463159084 ], [ 764800.844158284598961, 8976698.526082392781973 ], [ 764800.851664400892332, 8976698.368497285991907 ], [ 764800.858921894803643, 8976698.210900532081723 ], [ 764800.865930750500411, 8976698.053292525932193 ], [ 764800.872690948075615, 8976697.895673656836152 ], [ 764800.879202471929602, 8976697.738044319674373 ], [ 764800.885465305880643, 8976697.580404905602336 ], [ 764800.89147943421267, 8976697.422755807638168 ], [ 764800.897244842606597, 8976697.265097418799996 ], [ 764800.902761515462771, 8976697.107430128380656 ], [ 764800.908029440324754, 8976696.949754333123565 ], [ 764800.913048603222705, 8976696.792070420458913 ], [ 764800.917818990070373, 8976696.634378787130117 ], [ 764800.922340592369437, 8976696.47667982429266 ], [ 764800.926613398012705, 8976696.318973923102021 ], [ 764800.930637394776568, 8976696.161261478438973 ], [ 764800.934412572300062, 8976696.003542881458998 ], [ 764800.937938923947513, 8976695.845818525180221 ], [ 764800.941216439357959, 8976695.688088800758123 ], [ 764800.944245110149495, 8976695.530354103073478 ], [ 764800.947024929570034, 8976695.372614823281765 ], [ 764800.949555889237672, 8976695.214871354401112 ], [ 764800.951837984495796, 8976695.057124087586999 ], [ 764800.953871208592318, 8976694.899373417720199 ], [ 764800.955655556754209, 8976694.741619735956192 ], [ 764800.957191024324857, 8976694.583863437175751 ], [ 764800.958477608393878, 8976694.426104910671711 ], [ 764800.959515304188244, 8976694.268344551324844 ], [ 764800.960304110660218, 8976694.110582750290632 ], [ 764800.960844024899416, 8976693.952819902449846 ], [ 764800.961135046090931, 8976693.795056398957968 ], [ 764800.961177174816839, 8976693.637292630970478 ], [ 764800.960970408283174, 8976693.479528995230794 ], [ 764800.960514747304842, 8976693.321765881031752 ], [ 764800.959810194675811, 8976693.164003681391478 ], [ 764800.958856752957217, 8976693.006242789328098 ], [ 764800.95765442121774, 8976692.848483599722385 ], [ 764800.956203203997575, 8976692.690726501867175 ], [ 764800.95450310583692, 8976692.532971890643239 ], [ 764800.952554129413329, 8976692.375220157206059 ], [ 764800.950356281362474, 8976692.21747169457376 ], [ 764800.947909565875307, 8976692.05972689576447 ], [ 764800.945213989703916, 8976691.901986153796315 ], [ 764800.942269559134729, 8976691.744249859824777 ], [ 764800.939076280570589, 8976691.586518408730626 ], [ 764800.935634164256044, 8976691.428792191669345 ], [ 764800.931943216593936, 8976691.271071599796414 ], [ 764800.928003449458629, 8976691.113357029855251 ], [ 764800.923814869485795, 8976690.955648869276047 ], [ 764800.919377488549799, 8976690.797947512939572 ], [ 764800.914691316895187, 8976690.6402533557266 ], [ 764800.909756366512738, 8976690.48256678506732 ], [ 764800.904572651139461, 8976690.32488819770515 ], [ 764800.899140182998963, 8976690.16721798479557 ], [ 764800.893458974082023, 8976690.009556539356709 ], [ 764800.887529041850939, 8976689.8519042506814 ], [ 764800.88135039655026, 8976689.694261515513062 ], [ 764800.8749230557587, 8976689.536628723144531 ], [ 764800.868247037171386, 8976689.379006266593933 ], [ 764800.861322354525328, 8976689.221394538879395 ], [ 764800.854149027378298, 8976689.063793933019042 ], [ 764800.846727073309012, 8976688.906204838305712 ], [ 764800.839056508149952, 8976688.748627651482821 ], [ 764800.831137353088707, 8976688.591062759980559 ], [ 764800.822969629662111, 8976688.4335105586797 ], [ 764800.814553353353404, 8976688.275971438735723 ], [ 764800.805888549424708, 8976688.118445793166757 ], [ 764800.796975239063613, 8976687.960934013128281 ], [ 764800.787813441827893, 8976687.803436491638422 ], [ 764800.778403182863258, 8976687.645953619852662 ], [ 764800.768744483357295, 8976687.488485790789127 ], [ 764800.758837370318361, 8976687.331033393740654 ], [ 764800.748681866796687, 8976687.173596823588014 ], [ 764800.73827799630817, 8976687.016176471486688 ], [ 764800.727625789120793, 8976686.858772728592157 ], [ 764800.716725266887806, 8976686.701385987922549 ], [ 764800.705576460110024, 8976686.5440166387707 ], [ 764800.6941793957958, 8976686.386665074154735 ], [ 764800.682534100720659, 8976686.229331685230136 ], [ 764800.670640605734661, 8976686.07201686501503 ], [ 764800.658498941338621, 8976685.914721004664898 ], [ 764800.646109134540893, 8976685.757444495335221 ], [ 764800.633471217821352, 8976685.600187728181481 ], [ 764800.620585223776288, 8976685.442951094359159 ], [ 764800.607451183022931, 8976685.285734985023737 ], [ 764800.59406912792474, 8976685.12853979319334 ], [ 764800.580439093173482, 8976684.971365908160806 ], [ 764800.566561111016199, 8976684.81421372294426 ], [ 764800.552435217890888, 8976684.657083626836538 ], [ 764800.538061448023655, 8976684.499976010993123 ], [ 764800.523439837852493, 8976684.34289126843214 ], [ 764800.508570421487093, 8976684.185829790309072 ], [ 764800.493453239207156, 8976684.028791964054108 ], [ 764800.478088327101432, 8976683.87177818454802 ], [ 764800.462475721491501, 8976683.714788839221001 ], [ 764800.446615464170463, 8976683.55782431922853 ], [ 764800.43050759320613, 8976683.400885017588735 ], [ 764800.414152150508016, 8976683.243971325457096 ], [ 764800.397549174260348, 8976683.08708362840116 ], [ 764800.38069870613981, 8976682.930222321301699 ], [ 764800.363600788172334, 8976682.773387793451548 ], [ 764800.346255465759896, 8976682.616580436006188 ], [ 764800.328662777203135, 8976682.459800638258457 ], [ 764800.310822771629319, 8976682.30304878950119 ], [ 764800.292735489201732, 8976682.146325280889869 ], [ 764800.274400977184996, 8976681.989630501717329 ], [ 764800.255819279351272, 8976681.832964845001698 ], [ 764800.23699044319801, 8976681.67632869631052 ], [ 764800.217914516106248, 8976681.519722448661923 ], [ 764800.198591543594375, 8976681.363146491348743 ], [ 764800.179021577001549, 8976681.206601211801171 ], [ 764800.159204661846161, 8976681.050087003037333 ], [ 764800.139140849118121, 8976680.893604252487421 ], [ 764800.118830188410357, 8976680.73715334944427 ], [ 764696.086048048455268, 8975884.304816886782646 ] ] ] } }
]
}
