{
"type": "FeatureCollection",
"name": "09_lo_po_design",
"crs": { "type": "name", "properties": { "name": "urn:ogc:def:crs:EPSG::32751" } },
"features": [
{ "type": "Feature", "properties": { "NAME": "IP.1", "LAYER": "DESIGN", "GM_TYPE": "Text", "ELEVATION": 0 }, "geometry": { "type": "Point", "coordinates": [ 765332.63247866963502, 8978585.25057489797473 ] } },
{ "type": "Feature", "properties": { "NAME": "IP.2", "LAYER": "DESIGN", "GM_TYPE": "Text", "ELEVATION": 0 }, "geometry": { "type": "Point", "coordinates": [ 765337.485109517001547, 8978679.303319217637181 ] } },
{ "type": "Feature", "properties": { "NAME": "IP.3", "LAYER": "DESIGN", "GM_TYPE": "Text", "ELEVATION": 0 }, "geometry": { "type": "Point", "coordinates": [ 764380.574000000022352, 8978734.802000001072884 ] } },
{ "type": "Feature", "properties": { "NAME": "IP.1", "LAYER": "DESIGN", "GM_TYPE": "Text", "ELEVATION": 0 }, "geometry": { "type": "Point", "coordinates": [ 765332.631999999983236, 8978585.251000000163913 ] } },
{ "type": "Feature", "properties": { "NAME": "HL.II.1", "LAYER": "DESIGN", "GM_TYPE": "Text", "ELEVATION": 0 }, "geometry": { "type": "Point", "coordinates": [ 764646.437999999965541, 8977301.861999999731779 ] } },
{ "type": "Feature", "properties": { "NAME": "IP.1", "LAYER": "DESIGN", "GM_TYPE": "Text", "ELEVATION": 0 }, "geometry": { "type": "Point", "coordinates": [ 765332.631999999983236, 8978585.251000000163913 ] } },
{ "type": "Feature", "properties": { "NAME": "IP.2", "LAYER": "DESIGN", "GM_TYPE": "Text", "ELEVATION": 0 }, "geometry": { "type": "Point", "coordinates": [ 765337.48499999998603, 8978679.302999999374151 ] } },
{ "type": "Feature", "properties": { "NAME": "IP.3", "LAYER": "DESIGN", "GM_TYPE": "Text", "ELEVATION": 0 }, "geometry": { "type": "Point", "coordinates": [ 764380.574000000022352, 8978734.802000001072884 ] } },
{ "type": "Feature", "properties": { "NAME": "IP.4 (HL.II.1)", "LAYER": "DESIGN", "GM_TYPE": "Text", "ELEVATION": 0 }, "geometry": { "type": "Point", "coordinates": [ 764269.260999999940395, 8978695.75899999961257 ] } },
{ "type": "Feature", "properties": { "NAME": "IP.5", "LAYER": "DESIGN", "GM_TYPE": "Text", "ELEVATION": 0 }, "geometry": { "type": "Point", "coordinates": [ 764296.902999999932945, 8978628.007999999448657 ] } },
{ "type": "Feature", "properties": { "NAME": "IP.6", "LAYER": "DESIGN", "GM_TYPE": "Text", "ELEVATION": 0 }, "geometry": { "type": "Point", "coordinates": [ 764323.922999999951571, 8978507.333999998867512 ] } },
{ "type": "Feature", "properties": { "NAME": "IP.7", "LAYER": "DESIGN", "GM_TYPE": "Text", "ELEVATION": 0 }, "geometry": { "type": "Point", "coordinates": [ 764331.825999999884516, 8978388.377000000327826 ] } },
{ "type": "Feature", "properties": { "NAME": "IP.8", "LAYER": "DESIGN", "GM_TYPE": "Text", "ELEVATION": 0 }, "geometry": { "type": "Point", "coordinates": [ 764401.177999999956228, 8978153.009999999776483 ] } },
{ "type": "Feature", "properties": { "NAME": "IP.9", "LAYER": "DESIGN", "GM_TYPE": "Text", "ELEVATION": 0 }, "geometry": { "type": "Point", "coordinates": [ 764435.322999999974854, 8978006.057 ] } },
{ "type": "Feature", "properties": { "NAME": "HL.II.1", "LAYER": "DESIGN", "GM_TYPE": "Text", "ELEVATION": 0 }, "geometry": { "type": "Point", "coordinates": [ 764646.437999999965541, 8977301.861999999731779 ] } },
{ "type": "Feature", "properties": { "NAME": "P.48", "LAYER": "DESIGN", "GM_TYPE": "Text", "ELEVATION": 0 }, "geometry": { "type": "Point", "coordinates": [ 763296.572000000043772, 8982159.337999999523163 ] } },
{ "type": "Feature", "properties": { "NAME": "IP.1", "LAYER": "DESIGN", "GM_TYPE": "Text", "ELEVATION": 0 }, "geometry": { "type": "Point", "coordinates": [ 763283.200999999884516, 8982148.502999998629093 ] } },
{ "type": "Feature", "properties": { "NAME": "IP.2", "LAYER": "DESIGN", "GM_TYPE": "Text", "ELEVATION": 0 }, "geometry": { "type": "Point", "coordinates": [ 763266.692000000039116, 8981829.017000000923872 ] } },
{ "type": "Feature", "properties": { "NAME": "IP.3", "LAYER": "DESIGN", "GM_TYPE": "Text", "ELEVATION": 0 }, "geometry": { "type": "Point", "coordinates": [ 763175.552999999956228, 8981667.747000001370907 ] } },
{ "type": "Feature", "properties": { "NAME": "IP.4", "LAYER": "DESIGN", "GM_TYPE": "Text", "ELEVATION": 0 }, "geometry": { "type": "Point", "coordinates": [ 763193.103, 8981617.832999998703599 ] } },
{ "type": "Feature", "properties": { "NAME": "IP.5", "LAYER": "DESIGN", "GM_TYPE": "Text", "ELEVATION": 0 }, "geometry": { "type": "Point", "coordinates": [ 763159.733, 8981549.582000000402331 ] } },
{ "type": "Feature", "properties": { "NAME": "IP.7", "LAYER": "DESIGN", "GM_TYPE": "Text", "ELEVATION": 0 }, "geometry": { "type": "Point", "coordinates": [ 762991.150999999954365, 8981539.657999999821186 ] } },
{ "type": "Feature", "properties": { "NAME": "IP.8", "LAYER": "DESIGN", "GM_TYPE": "Text", "ELEVATION": 0 }, "geometry": { "type": "Point", "coordinates": [ 762911.694999999948777, 8981420.582999998703599 ] } },
{ "type": "Feature", "properties": { "NAME": "IP.9", "LAYER": "DESIGN", "GM_TYPE": "Text", "ELEVATION": 0 }, "geometry": { "type": "Point", "coordinates": [ 762857.430000000051223, 8981223.784 ] } },
{ "type": "Feature", "properties": { "NAME": "IP.10", "LAYER": "DESIGN", "GM_TYPE": "Text", "ELEVATION": 0 }, "geometry": { "type": "Point", "coordinates": [ 762715.912000000011176, 8980807.923000000417233 ] } },
{ "type": "Feature", "properties": { "NAME": "IP.11", "LAYER": "DESIGN", "GM_TYPE": "Text", "ELEVATION": 0 }, "geometry": { "type": "Point", "coordinates": [ 762674.446, 8980754.854000000283122 ] } },
{ "type": "Feature", "properties": { "NAME": "IP.12", "LAYER": "DESIGN", "GM_TYPE": "Text", "ELEVATION": 0 }, "geometry": { "type": "Point", "coordinates": [ 762597.74, 8980681.092000000178814 ] } },
{ "type": "Feature", "properties": { "NAME": "IP.13", "LAYER": "DESIGN", "GM_TYPE": "Text", "ELEVATION": 0 }, "geometry": { "type": "Point", "coordinates": [ 762516.455999999889173, 8980675.966 ] } },
{ "type": "Feature", "properties": { "NAME": "IP.14", "LAYER": "DESIGN", "GM_TYPE": "Text", "ELEVATION": 0 }, "geometry": { "type": "Point", "coordinates": [ 762344.584000000031665, 8980555.586000001057982 ] } },
{ "type": "Feature", "properties": { "NAME": "IP.15", "LAYER": "DESIGN", "GM_TYPE": "Text", "ELEVATION": 0 }, "geometry": { "type": "Point", "coordinates": [ 762398.995, 8980414.92200000025332 ] } },
{ "type": "Feature", "properties": { "NAME": "IP.16", "LAYER": "DESIGN", "GM_TYPE": "Text", "ELEVATION": 0 }, "geometry": { "type": "Point", "coordinates": [ 762131.717000000062399, 8980124.778999999165535 ] } },
{ "type": "Feature", "properties": { "NAME": "IP.17", "LAYER": "DESIGN", "GM_TYPE": "Text", "ELEVATION": 0 }, "geometry": { "type": "Point", "coordinates": [ 761814.865999999921769, 8979859.690999999642372 ] } },
{ "type": "Feature", "properties": { "NAME": "IP.18", "LAYER": "DESIGN", "GM_TYPE": "Text", "ELEVATION": 0 }, "geometry": { "type": "Point", "coordinates": [ 761610.974999999976717, 8979714.218000000342727 ] } },
{ "type": "Feature", "properties": { "NAME": "IP.19", "LAYER": "DESIGN", "GM_TYPE": "Text", "ELEVATION": 0 }, "geometry": { "type": "Point", "coordinates": [ 761332.503000000026077, 8979500.949999999254942 ] } },
{ "type": "Feature", "properties": { "NAME": "IP.20", "LAYER": "DESIGN", "GM_TYPE": "Text", "ELEVATION": 0 }, "geometry": { "type": "Point", "coordinates": [ 761231.29500000004191, 8979430.603000000119209 ] } },
{ "type": "Feature", "properties": { "NAME": "IP.21", "LAYER": "DESIGN", "GM_TYPE": "Text", "ELEVATION": 0 }, "geometry": { "type": "Point", "coordinates": [ 761445.197000000043772, 8979144.157999999821186 ] } },
{ "type": "Feature", "properties": { "NAME": "IP.22", "LAYER": "DESIGN", "GM_TYPE": "Text", "ELEVATION": 0 }, "geometry": { "type": "Point", "coordinates": [ 761485.335999999893829, 8979083.876000000163913 ] } },
{ "type": "Feature", "properties": { "NAME": "IP.23", "LAYER": "DESIGN", "GM_TYPE": "Text", "ELEVATION": 0 }, "geometry": { "type": "Point", "coordinates": [ 761482.017, 8979039.729000000283122 ] } },
{ "type": "Feature", "properties": { "NAME": "IP.24", "LAYER": "DESIGN", "GM_TYPE": "Text", "ELEVATION": 0 }, "geometry": { "type": "Point", "coordinates": [ 761471.757999999914318, 8978976.552999999374151 ] } },
{ "type": "Feature", "properties": { "NAME": "IP.25", "LAYER": "DESIGN", "GM_TYPE": "Text", "ELEVATION": 0 }, "geometry": { "type": "Point", "coordinates": [ 761423.737000000081025, 8978890.076999999582767 ] } },
{ "type": "Feature", "properties": { "NAME": "IP.26", "LAYER": "DESIGN", "GM_TYPE": "Text", "ELEVATION": 0 }, "geometry": { "type": "Point", "coordinates": [ 761636.825999999884516, 8978589.411000000312924 ] } },
{ "type": "Feature", "properties": { "NAME": "IP.27", "LAYER": "DESIGN", "GM_TYPE": "Text", "ELEVATION": 0 }, "geometry": { "type": "Point", "coordinates": [ 761764.670999999972992, 8978512.711000001057982 ] } },
{ "type": "Feature", "properties": { "NAME": "IP.28", "LAYER": "DESIGN", "GM_TYPE": "Text", "ELEVATION": 0 }, "geometry": { "type": "Point", "coordinates": [ 762038.095999999903142, 8978010.235999999567866 ] } },
{ "type": "Feature", "properties": { "NAME": "Kb.5", "LAYER": "DESIGN", "GM_TYPE": "Text", "ELEVATION": 0 }, "geometry": { "type": "Point", "coordinates": [ 762069.805000000051223, 8977626.58500000089407 ] } },
{ "type": "Feature", "properties": { "NAME": "KOLBOLU SEC. CANAL", "LAYER": "DESIGN", "GM_TYPE": "Text", "ELEVATION": 0 }, "geometry": { "type": "Point", "coordinates": [ 759688.367951465537772, 8979693.020034527406096 ] } },
{ "type": "Feature", "properties": { "NAME": "IP.1", "LAYER": "DESIGN", "GM_TYPE": "Text", "ELEVATION": 0 }, "geometry": { "type": "Point", "coordinates": [ 763292.859000000054948, 8982118.027000000700355 ] } },
{ "type": "Feature", "properties": { "NAME": "IP.2", "LAYER": "DESIGN", "GM_TYPE": "Text", "ELEVATION": 0 }, "geometry": { "type": "Point", "coordinates": [ 763619.614000000059605, 8980706.118999999016523 ] } },
{ "type": "Feature", "properties": { "NAME": "IP.3", "LAYER": "DESIGN", "GM_TYPE": "Text", "ELEVATION": 0 }, "geometry": { "type": "Point", "coordinates": [ 763712.322000000043772, 8980460.697000000625849 ] } },
{ "type": "Feature", "properties": { "NAME": "IP.4", "LAYER": "DESIGN", "GM_TYPE": "Text", "ELEVATION": 0 }, "geometry": { "type": "Point", "coordinates": [ 763811.066, 8980368.867000000551343 ] } },
{ "type": "Feature", "properties": { "NAME": "IP.5", "LAYER": "DESIGN", "GM_TYPE": "Text", "ELEVATION": 0 }, "geometry": { "type": "Point", "coordinates": [ 763877.869000000064261, 8980262.972999999299645 ] } },
{ "type": "Feature", "properties": { "NAME": "IP.6", "LAYER": "DESIGN", "GM_TYPE": "Text", "ELEVATION": 0 }, "geometry": { "type": "Point", "coordinates": [ 763915.26500000001397, 8980171.45299999974668 ] } },
{ "type": "Feature", "properties": { "NAME": "IP.7", "LAYER": "DESIGN", "GM_TYPE": "Text", "ELEVATION": 0 }, "geometry": { "type": "Point", "coordinates": [ 763918.474999999976717, 8980086.622000001370907 ] } },
{ "type": "Feature", "properties": { "NAME": "IP.8", "LAYER": "DESIGN", "GM_TYPE": "Text", "ELEVATION": 0 }, "geometry": { "type": "Point", "coordinates": [ 763925.566, 8980062.264000000432134 ] } },
{ "type": "Feature", "properties": { "NAME": "IP.9", "LAYER": "DESIGN", "GM_TYPE": "Text", "ELEVATION": 0 }, "geometry": { "type": "Point", "coordinates": [ 763928.029000000096858, 8980010.636 ] } },
{ "type": "Feature", "properties": { "NAME": "IP.10", "LAYER": "DESIGN", "GM_TYPE": "Text", "ELEVATION": 0 }, "geometry": { "type": "Point", "coordinates": [ 763918.968, 8979994.64299999922514 ] } },
{ "type": "Feature", "properties": { "NAME": "IP.11", "LAYER": "DESIGN", "GM_TYPE": "Text", "ELEVATION": 0 }, "geometry": { "type": "Point", "coordinates": [ 763864.735999999917112, 8979676.473999999463558 ] } },
{ "type": "Feature", "properties": { "NAME": "IP.12", "LAYER": "DESIGN", "GM_TYPE": "Text", "ELEVATION": 0 }, "geometry": { "type": "Point", "coordinates": [ 763866.082000000053085, 8979623.862999999895692 ] } },
{ "type": "Feature", "properties": { "NAME": "IP.13", "LAYER": "DESIGN", "GM_TYPE": "Text", "ELEVATION": 0 }, "geometry": { "type": "Point", "coordinates": [ 763853.343, 8979523.653999999165535 ] } },
{ "type": "Feature", "properties": { "NAME": "IP.14", "LAYER": "DESIGN", "GM_TYPE": "Text", "ELEVATION": 0 }, "geometry": { "type": "Point", "coordinates": [ 763818.477000000071712, 8979504.599999999627471 ] } },
{ "type": "Feature", "properties": { "NAME": "IP.15", "LAYER": "DESIGN", "GM_TYPE": "Text", "ELEVATION": 0 }, "geometry": { "type": "Point", "coordinates": [ 763819.272, 8979441.748999999836087 ] } },
{ "type": "Feature", "properties": { "NAME": "IP.16", "LAYER": "DESIGN", "GM_TYPE": "Text", "ELEVATION": 0 }, "geometry": { "type": "Point", "coordinates": [ 763734.360999999917112, 8979321.456000000238419 ] } },
{ "type": "Feature", "properties": { "NAME": "IP.17", "LAYER": "DESIGN", "GM_TYPE": "Text", "ELEVATION": 0 }, "geometry": { "type": "Point", "coordinates": [ 763546.37300000002142, 8979263.074999999254942 ] } },
{ "type": "Feature", "properties": { "NAME": "P.48", "LAYER": "DESIGN", "GM_TYPE": "Text", "ELEVATION": 0 }, "geometry": { "type": "Point", "coordinates": [ 763296.572000000043772, 8982159.337999999523163 ] } },
{ "type": "Feature", "properties": { "NAME": "HD.4", "LAYER": "DESIGN", "GM_TYPE": "Text", "ELEVATION": 0 }, "geometry": { "type": "Point", "coordinates": [ 763273.960999999893829, 8984006.525000000372529 ] } },
{ "type": "Feature", "properties": { "NAME": "IP.1", "LAYER": "DESIGN", "GM_TYPE": "Text", "ELEVATION": 0 }, "geometry": { "type": "Point", "coordinates": [ 763309.821, 8983658.532999999821186 ] } },
{ "type": "Feature", "properties": { "NAME": "IP.2", "LAYER": "DESIGN", "GM_TYPE": "Text", "ELEVATION": 0 }, "geometry": { "type": "Point", "coordinates": [ 763253.080999999889173, 8983534.63399999961257 ] } },
{ "type": "Feature", "properties": { "NAME": "IP.3", "LAYER": "DESIGN", "GM_TYPE": "Text", "ELEVATION": 0 }, "geometry": { "type": "Point", "coordinates": [ 763282.407999999937601, 8983422.17200000025332 ] } },
{ "type": "Feature", "properties": { "NAME": "IP.4", "LAYER": "DESIGN", "GM_TYPE": "Text", "ELEVATION": 0 }, "geometry": { "type": "Point", "coordinates": [ 763265.020000000018626, 8983330.332000000402331 ] } },
{ "type": "Feature", "properties": { "NAME": "IP.5", "LAYER": "DESIGN", "GM_TYPE": "Text", "ELEVATION": 0 }, "geometry": { "type": "Point", "coordinates": [ 763277.712000000057742, 8983229.61600000038743 ] } },
{ "type": "Feature", "properties": { "NAME": "IP.6", "LAYER": "DESIGN", "GM_TYPE": "Text", "ELEVATION": 0 }, "geometry": { "type": "Point", "coordinates": [ 763280.460999999893829, 8983128.650000000372529 ] } },
{ "type": "Feature", "properties": { "NAME": "IP.7", "LAYER": "DESIGN", "GM_TYPE": "Text", "ELEVATION": 0 }, "geometry": { "type": "Point", "coordinates": [ 763303.514000000082888, 8983032.857999999076128 ] } },
{ "type": "Feature", "properties": { "NAME": "IP.8", "LAYER": "DESIGN", "GM_TYPE": "Text", "ELEVATION": 0 }, "geometry": { "type": "Point", "coordinates": [ 763299.939000000013039, 8982979.732999999076128 ] } },
{ "type": "Feature", "properties": { "NAME": "IP.9", "LAYER": "DESIGN", "GM_TYPE": "Text", "ELEVATION": 0 }, "geometry": { "type": "Point", "coordinates": [ 763325.187999999965541, 8982883.160000000149012 ] } },
{ "type": "Feature", "properties": { "NAME": "IP.10", "LAYER": "DESIGN", "GM_TYPE": "Text", "ELEVATION": 0 }, "geometry": { "type": "Point", "coordinates": [ 763351.142999999923632, 8982841.211000001057982 ] } },
{ "type": "Feature", "properties": { "NAME": "IP.11 (MK.2)", "LAYER": "DESIGN", "GM_TYPE": "Text", "ELEVATION": 0 }, "geometry": { "type": "Point", "coordinates": [ 763344.560999999986961, 8982756.074999999254942 ] } },
{ "type": "Feature", "properties": { "NAME": "IP.12", "LAYER": "DESIGN", "GM_TYPE": "Text", "ELEVATION": 0 }, "geometry": { "type": "Point", "coordinates": [ 763329.740999999921769, 8982715.123999999836087 ] } },
{ "type": "Feature", "properties": { "NAME": "IP.13", "LAYER": "DESIGN", "GM_TYPE": "Text", "ELEVATION": 0 }, "geometry": { "type": "Point", "coordinates": [ 763237.279000000096858, 8982666.662000000476837 ] } },
{ "type": "Feature", "properties": { "NAME": "IP.14", "LAYER": "DESIGN", "GM_TYPE": "Text", "ELEVATION": 0 }, "geometry": { "type": "Point", "coordinates": [ 763190.363000000012107, 8982500.300000000745058 ] } },
{ "type": "Feature", "properties": { "NAME": "IP.15", "LAYER": "DESIGN", "GM_TYPE": "Text", "ELEVATION": 0 }, "geometry": { "type": "Point", "coordinates": [ 763308.642999999923632, 8982417.179999999701977 ] } },
{ "type": "Feature", "properties": { "NAME": "IP.16", "LAYER": "DESIGN", "GM_TYPE": "Text", "ELEVATION": 0 }, "geometry": { "type": "Point", "coordinates": [ 763290.404000000096858, 8982323.837999999523163 ] } },
{ "type": "Feature", "properties": { "NAME": "IP.17", "LAYER": "DESIGN", "GM_TYPE": "Text", "ELEVATION": 0 }, "geometry": { "type": "Point", "coordinates": [ 763311.202999999979511, 8982231.693 ] } },
{ "type": "Feature", "properties": { "NAME": "P.48", "LAYER": "DESIGN", "GM_TYPE": "Text", "ELEVATION": 0 }, "geometry": { "type": "Point", "coordinates": [ 763296.572000000043772, 8982159.337999999523163 ] } },
{ "type": "Feature", "properties": { "NAME": "L.60a (HL.2)", "LAYER": "DESIGN", "GM_TYPE": "Text", "ELEVATION": 0 }, "geometry": { "type": "Point", "coordinates": [ 763854.697000000043772, 8981602.888000000268221 ] } },
{ "type": "Feature", "properties": { "NAME": "IP.1", "LAYER": "DESIGN", "GM_TYPE": "Text", "ELEVATION": 0 }, "geometry": { "type": "Point", "coordinates": [ 764089.804854774032719, 8980565.900466920807958 ] } },
{ "type": "Feature", "properties": { "NAME": "HL.I.2", "LAYER": "DESIGN", "GM_TYPE": "Text", "ELEVATION": 0 }, "geometry": { "type": "Point", "coordinates": [ 764122.067999999970198, 8980465.979000000283122 ] } },
{ "type": "Feature", "properties": { "NAME": "MAIN CANAL", "LAYER": "DESIGN", "GM_TYPE": "Text", "ELEVATION": 0 }, "geometry": { "type": "Point", "coordinates": [ 762044.112748577375896, 8983599.643585985526443 ] } },
{ "type": "Feature", "properties": { "NAME": "ADENTUY SEC", "LAYER": "DESIGN", "GM_TYPE": "Text", "ELEVATION": 0 }, "geometry": { "type": "Point", "coordinates": [ 758850.903150166617706, 8978353.563649078831077 ] } },
{ "type": "Feature", "properties": { "NAME": "ADENTUY I SEC", "LAYER": "DESIGN", "GM_TYPE": "Text", "ELEVATION": 0 }, "geometry": { "type": "Point", "coordinates": [ 759279.468183397664689, 8978912.617854975163937 ] } },
{ "type": "Feature", "properties": { "NAME": "HALIK SEC", "LAYER": "DESIGN", "GM_TYPE": "Text", "ELEVATION": 0 }, "geometry": { "type": "Point", "coordinates": [ 765312.017384838778526, 8980295.619357915595174 ] } },
{ "type": "Feature", "properties": { "NAME": "HALIK II SEC. CANAL", "LAYER": "DESIGN", "GM_TYPE": "Text", "ELEVATION": 21 }, "geometry": { "type": "Point", "coordinates": [ 764616.817114047240466, 8977872.743348326534033 ] } },
{ "type": "Feature", "properties": { "NAME": "MAUKOLA SECONDARY CANAL", "LAYER": "DESIGN", "GM_TYPE": "Text", "ELEVATION": 0 }, "geometry": { "type": "Point", "coordinates": [ 764121.679291336564347, 8979582.071840243414044 ] } },
{ "type": "Feature", "properties": { "NAME": "HALIK I SEC CANAL", "LAYER": "DESIGN", "GM_TYPE": "Text", "ELEVATION": 0 }, "geometry": { "type": "Point", "coordinates": [ 764072.430137534160167, 8981100.619226211681962 ] } }
]
}
