{
"type": "FeatureCollection",
"name": "09_lo_salkwarter",
"crs": { "type": "name", "properties": { "name": "urn:ogc:def:crs:EPSG::32751" } },
"features": [
{ "type": "Feature", "properties": { "LAYER": "SAL KWARTER", "GM_TYPE": "Unknown Area Type", "ELEVATION": -5.925 }, "geometry": { "type": "MultiPolygon", "coordinates": [ [ [ [ 769010.792150517809205, 8978614.86257635243237 ], [ 769006.135995190707035, 8978614.86257635243237 ], [ 769006.136349768261425, 8978614.903206910938025 ], [ 769006.137413392774761, 8978614.943825090304017 ], [ 769006.139185740263201, 8978614.984418522566557 ], [ 769006.1416662709089, 8978615.024974841624498 ], [ 769006.144854229060002, 8978615.065481690689921 ], [ 769006.148748643696308, 8978615.105926733464003 ], [ 769006.15334832854569, 8978615.14629764854908 ], [ 769006.158651882549748, 8978615.186582140624523 ], [ 769006.164657689980231, 8978615.226767936721444 ], [ 769006.171363921603188, 8978615.266842795535922 ], [ 769006.17876853456255, 8978615.306794513016939 ], [ 769006.186869273311459, 8978615.3466109149158 ], [ 769006.195663670427166, 8978615.386279877275229 ], [ 769006.205149046843871, 8978615.425789313390851 ], [ 769006.215322513482533, 8978615.465127190575004 ], [ 769006.226180971134454, 8978615.504281524568796 ], [ 769006.237721112323925, 8978615.543240386992693 ], [ 769006.249939421890303, 8978615.581991914659739 ], [ 769006.262832177919336, 8978615.620524300262332 ], [ 769006.276395453256555, 8978615.658825809136033 ], [ 769006.290625116205774, 8978615.696884771808982 ], [ 769006.305516832391731, 8978615.73468959517777 ], [ 769006.321066065691411, 8978615.772228764370084 ], [ 769006.337268079631031, 8978615.809490846469998 ], [ 769006.354117938899435, 8978615.846464488655329 ], [ 769006.371610510977916, 8978615.883138427510858 ], [ 769006.389740467187949, 8978615.91950149461627 ], [ 769006.408502285252325, 8978615.955542610958219 ], [ 769006.427890249993652, 8978615.991250799968839 ], [ 769006.447898455662653, 8978616.026615183800459 ], [ 769006.468520807567984, 8978616.061624990776181 ], [ 769006.489751023938879, 8978616.096269555389881 ], [ 769006.511582637904212, 8978616.130538323894143 ], [ 769006.534008999355137, 8978616.164420859888196 ], [ 769006.557023276924156, 8978616.197906842455268 ], [ 769006.580618460197002, 8978616.230986069887877 ], [ 769006.604787362040952, 8978616.263648465275764 ], [ 769006.629522620118223, 8978616.295884082093835 ], [ 769006.654816700029187, 8978616.327683098614216 ], [ 769006.680661896942183, 8978616.359035829082131 ], [ 769006.707050338038243, 8978616.389932723715901 ], [ 769006.733973985305056, 8978616.420364370569587 ], [ 769006.761424637399614, 8978616.450321501120925 ], [ 769006.789393932558596, 8978616.479794988408685 ], [ 769006.817873351275921, 8978616.508775856345892 ], [ 769006.84685421816539, 8978616.537255274131894 ], [ 769006.876327705569565, 8978616.565224569290876 ], [ 769006.906284835538827, 8978616.592675222083926 ], [ 769006.936716482858174, 8978616.619598869234324 ], [ 769006.967613377724774, 8978616.645987309515476 ], [ 769006.998966108658351, 8978616.671832507476211 ], [ 769007.030765125295147, 8978616.697126585990191 ], [ 769007.06300074129831, 8978616.721861844882369 ], [ 769007.09566313738469, 8978616.746030746027827 ], [ 769007.128742364468053, 8978616.769625930115581 ], [ 769007.162228346103802, 8978616.792640207335353 ], [ 769007.196110882097855, 8978616.815066568553448 ], [ 769007.23037965176627, 8978616.836898183450103 ], [ 769007.26502421614714, 8978616.858128398656845 ], [ 769007.300034022540785, 8978616.878750750795007 ], [ 769007.33539840625599, 8978616.898758957162499 ], [ 769007.37110659526661, 8978616.91814692132175 ], [ 769007.407147712307051, 8978616.936908738687634 ], [ 769007.443510779063217, 8978616.955038696527481 ], [ 769007.480184718850069, 8978616.972531268373132 ], [ 769007.517158360569738, 8978616.98938112705946 ], [ 769007.554420441621915, 8978617.005583140999079 ], [ 769007.591959611512721, 8978617.021132374182343 ], [ 769007.62976443558, 8978617.036024089902639 ], [ 769007.667823398136534, 8978617.050253752619028 ], [ 769007.706124905846082, 8978617.063817027956247 ], [ 769007.744657292030752, 8978617.076709784567356 ], [ 769007.783408818999305, 8978617.088928094133735 ], [ 769007.822367682936601, 8978617.100468235090375 ], [ 769007.861522016464733, 8978617.11132669262588 ], [ 769007.900859892833978, 8978617.121500160545111 ], [ 769007.940369329298846, 8978617.130985535681248 ], [ 769007.980038290843368, 8978617.139779932796955 ], [ 769008.019854694139212, 8978617.147880671545863 ], [ 769008.059806410572492, 8978617.155285285785794 ], [ 769008.099881270434707, 8978617.161991516128182 ], [ 769008.140067066531628, 8978617.167997324839234 ], [ 769008.180351558024995, 8978617.173300877213478 ], [ 769008.220722473692149, 8978617.17790056206286 ], [ 769008.261167516349815, 8978617.181794976815581 ], [ 769008.301674365880899, 8978617.184982934966683 ], [ 769008.342230683541857, 8978617.187463466078043 ], [ 769008.382824115571566, 8978617.18923581391573 ], [ 769008.423442296683788, 8978617.19029943831265 ], [ 769008.46407285425812, 8978617.190654015168548 ], [ 769008.504703411832452, 8978617.19029943831265 ], [ 769008.545321592944674, 8978617.18923581391573 ], [ 769008.585915024974383, 8978617.187463466078043 ], [ 769008.626471342635341, 8978617.184982934966683 ], [ 769008.666978192166425, 8978617.181794976815581 ], [ 769008.707423234824091, 8978617.17790056206286 ], [ 769008.747794150491245, 8978617.173300877213478 ], [ 769008.788078641984612, 8978617.167997324839234 ], [ 769008.828264438081533, 8978617.161991516128182 ], [ 769008.868339297943749, 8978617.155285285785794 ], [ 769008.908291014377028, 8978617.147880671545863 ], [ 769008.948107417672873, 8978617.139779932796955 ], [ 769008.987776379217394, 8978617.130985535681248 ], [ 769009.027285815682262, 8978617.121500160545111 ], [ 769009.066623692051508, 8978617.11132669262588 ], [ 769009.105778025579639, 8978617.100468235090375 ], [ 769009.144736889516935, 8978617.088928094133735 ], [ 769009.183488416485488, 8978617.076709784567356 ], [ 769009.222020802670158, 8978617.063817027956247 ], [ 769009.260322310379706, 8978617.050253752619028 ], [ 769009.29838127293624, 8978617.036024089902639 ], [ 769009.33618609700352, 8978617.021132374182343 ], [ 769009.373725266894326, 8978617.005583140999079 ], [ 769009.410987347946502, 8978616.98938112705946 ], [ 769009.447960989666171, 8978616.972531268373132 ], [ 769009.484634929453023, 8978616.955038696527481 ], [ 769009.520997996209189, 8978616.936908738687634 ], [ 769009.55703911324963, 8978616.91814692132175 ], [ 769009.59274730226025, 8978616.898758957162499 ], [ 769009.62811168609187, 8978616.878750750795007 ], [ 769009.6631214923691, 8978616.858128398656845 ], [ 769009.69776605674997, 8978616.836898183450103 ], [ 769009.732034826418385, 8978616.815066568553448 ], [ 769009.765917362412438, 8978616.792640207335353 ], [ 769009.799403344048187, 8978616.769625930115581 ], [ 769009.83248257113155, 8978616.746030746027827 ], [ 769009.86514496721793, 8978616.721861844882369 ], [ 769009.897380583221093, 8978616.697126585990191 ], [ 769009.929179599857889, 8978616.671832507476211 ], [ 769009.960532330791466, 8978616.645987309515476 ], [ 769009.991429225658067, 8978616.619598869234324 ], [ 769010.021860872977413, 8978616.592675222083926 ], [ 769010.051818002946675, 8978616.565224569290876 ], [ 769010.08129149035085, 8978616.537255274131894 ], [ 769010.110272357240319, 8978616.508775856345892 ], [ 769010.138751775957644, 8978616.479794988408685 ], [ 769010.166721071116626, 8978616.450321501120925 ], [ 769010.194171723211184, 8978616.420364370569587 ], [ 769010.221095370477997, 8978616.389932723715901 ], [ 769010.247483811574057, 8978616.359035829082131 ], [ 769010.273329008487053, 8978616.327683098614216 ], [ 769010.298623088398017, 8978616.295884082093835 ], [ 769010.323358346475288, 8978616.263648465275764 ], [ 769010.347527248319238, 8978616.230986069887877 ], [ 769010.371122431592084, 8978616.197906842455268 ], [ 769010.394136709161103, 8978616.164420859888196 ], [ 769010.416563070612028, 8978616.130538323894143 ], [ 769010.438394684577361, 8978616.096269555389881 ], [ 769010.459624900948256, 8978616.061624990776181 ], [ 769010.480247252853587, 8978616.026615183800459 ], [ 769010.500255458522588, 8978615.991250799968839 ], [ 769010.519643423263915, 8978615.955542610958219 ], [ 769010.538405241328292, 8978615.91950149461627 ], [ 769010.556535197538324, 8978615.883138427510858 ], [ 769010.574027769616805, 8978615.846464488655329 ], [ 769010.59087762888521, 8978615.809490846469998 ], [ 769010.607079642824829, 8978615.772228764370084 ], [ 769010.622628876124509, 8978615.73468959517777 ], [ 769010.637520592310466, 8978615.696884771808982 ], [ 769010.651750255259685, 8978615.658825809136033 ], [ 769010.665313530596904, 8978615.620524300262332 ], [ 769010.678206286625937, 8978615.581991914659739 ], [ 769010.690424596192315, 8978615.543240386992693 ], [ 769010.701964737381786, 8978615.504281524568796 ], [ 769010.712823195033707, 8978615.465127190575004 ], [ 769010.722996661672369, 8978615.425789313390851 ], [ 769010.732482038089074, 8978615.386279877275229 ], [ 769010.741276435204782, 8978615.3466109149158 ], [ 769010.74937717395369, 8978615.306794513016939 ], [ 769010.756781786913052, 8978615.266842795535922 ], [ 769010.763488018536009, 8978615.226767936721444 ], [ 769010.769493825966492, 8978615.186582140624523 ], [ 769010.774797379970551, 8978615.14629764854908 ], [ 769010.779397064819932, 8978615.105926733464003 ], [ 769010.783291479456238, 8978615.065481690689921 ], [ 769010.786479437607341, 8978615.024974841624498 ], [ 769010.788959968253039, 8978614.984418522566557 ], [ 769010.790732315741479, 8978614.943825090304017 ], [ 769010.791795940254815, 8978614.903206910938025 ], [ 769010.792150517809205, 8978614.86257635243237 ] ] ] ] } },
{ "type": "Feature", "properties": { "LAYER": "SAL KWARTER", "GM_TYPE": "Unknown Area Type", "ELEVATION": -5.925 }, "geometry": { "type": "MultiPolygon", "coordinates": [ [ [ [ 769006.227151544298977, 8978614.86257635243237 ], [ 769006.227492238278501, 8978614.90161601267755 ], [ 769006.228514216374606, 8978614.940643779933453 ], [ 769006.230217167176306, 8978614.97964776866138 ], [ 769006.232600572169758, 8978615.01861609518528 ], [ 769006.2356637052726, 8978615.057536890730262 ], [ 769006.239405633299612, 8978615.096398299559951 ], [ 769006.243825216544792, 8978615.135188484564424 ], [ 769006.248921108664945, 8978615.173895627260208 ], [ 769006.254691757610999, 8978615.2125079408288 ], [ 769006.261135405278765, 8978615.251013660803437 ], [ 769006.268250089138746, 8978615.28940105997026 ], [ 769006.276033641886897, 8978615.327658444643021 ], [ 769006.284483692608774, 8978615.365774160251021 ], [ 769006.293597667245194, 8978615.403736596927047 ], [ 769006.30337278963998, 8978615.441534189507365 ], [ 769006.313806082122028, 8978615.479155426844954 ], [ 769006.324894366785884, 8978615.516588849946856 ], [ 769006.3366342659574, 8978615.553823051974177 ], [ 769006.349022203590721, 8978615.590846695005894 ], [ 769006.362054405966774, 8978615.627648498862982 ], [ 769006.37572690367233, 8978615.664217256009579 ], [ 769006.390035531716421, 8978615.700541824102402 ], [ 769006.404975931625813, 8978615.73661114089191 ], [ 769006.420543552492745, 8978615.772414216771722 ], [ 769006.436733652022667, 8978615.807940147817135 ], [ 769006.453541298862547, 8978615.843178112059832 ], [ 769006.470961372950114, 8978615.878117375075817 ], [ 769006.488988568191417, 8978615.912747295573354 ], [ 769006.507617393275723, 8978615.947057323530316 ], [ 769006.526842173538171, 8978615.981037007644773 ], [ 769006.546657053171657, 8978616.014675997197628 ], [ 769006.567055996041745, 8978616.047964047640562 ], [ 769006.588032788829878, 8978616.080891016870737 ], [ 769006.609581041499041, 8978616.113446874544024 ], [ 769006.631694190320559, 8978616.145621705800295 ], [ 769006.654365499387495, 8978616.177405709400773 ], [ 769006.677588062942959, 8978616.208789201453328 ], [ 769006.70135480700992, 8978616.239762626588345 ], [ 769006.72565849206876, 8978616.270316546782851 ], [ 769006.750491715036333, 8978616.300441654399037 ], [ 769006.775846911477856, 8978616.330128774046898 ], [ 769006.801716357818805, 8978616.359368864446878 ], [ 769006.828092174022458, 8978616.38815301656723 ], [ 769006.854966325801797, 8978616.416472464799881 ], [ 769006.882330626947805, 8978616.444318579509854 ], [ 769006.910176742239855, 8978616.471682880073786 ], [ 769006.938496189308353, 8978616.498557033017278 ], [ 769006.967280341777951, 8978616.524932848289609 ], [ 769006.99652043171227, 8978616.550802296027541 ], [ 769007.026207552407868, 8978616.576157491654158 ], [ 769007.056332660722546, 8978616.600990714505315 ], [ 769007.086886580334976, 8978616.625294400379062 ], [ 769007.11786000430584, 8978616.649061143398285 ], [ 769007.149243497755378, 8978616.67228370718658 ], [ 769007.181027500890195, 8978616.694955015555024 ], [ 769007.213202332146466, 8978616.717068165540695 ], [ 769007.24575819063466, 8978616.738616418093443 ], [ 769007.278685159515589, 8978616.759593211114407 ], [ 769007.311973209027201, 8978616.779992153868079 ], [ 769007.345612199278548, 8978616.799807032570243 ], [ 769007.37959188350942, 8978616.819031814113259 ], [ 769007.413901911000721, 8978616.837660638615489 ], [ 769007.448531830916181, 8978616.855687834322453 ], [ 769007.483471094281413, 8978616.873107908293605 ], [ 769007.518709058640525, 8978616.889915553852916 ], [ 769007.554234989802353, 8978616.90610565431416 ], [ 769007.590038066497073, 8978616.921673275530338 ], [ 769007.626107382588089, 8978616.9366136752069 ], [ 769007.662431951146573, 8978616.950922302901745 ], [ 769007.699000707245432, 8978616.964594800025225 ], [ 769007.735802511684597, 8978616.977627003565431 ], [ 769007.772826154367067, 8978616.990014940500259 ], [ 769007.810060357558541, 8978617.001754838973284 ], [ 769007.847493779263459, 8978617.012843124568462 ], [ 769007.885115016833879, 8978617.023276416584849 ], [ 769007.922912610694766, 8978617.033051539212465 ], [ 769007.960875047137961, 8978617.042165514081717 ], [ 769007.998990762513131, 8978617.050615563988686 ], [ 769008.037248146370985, 8978617.058399116620421 ], [ 769008.075635545188561, 8978617.065513800829649 ], [ 769008.114141265745275, 8978617.071957448497415 ], [ 769008.152753578964621, 8978617.077728098258376 ], [ 769008.191460722940974, 8978617.082823989912868 ], [ 769008.230250907246955, 8978617.087243573740125 ], [ 769008.269112316076644, 8978617.09098550118506 ], [ 769008.308033111621626, 8978617.094048634171486 ], [ 769008.347001438494772, 8978617.096432039514184 ], [ 769008.386005426407792, 8978617.098134990781546 ], [ 769008.425033194362186, 8978617.099156968295574 ], [ 769008.46407285425812, 8978617.099497662857175 ], [ 769008.503112514154054, 8978617.099156968295574 ], [ 769008.542140282108448, 8978617.098134990781546 ], [ 769008.581144270021468, 8978617.096432039514184 ], [ 769008.620112596894614, 8978617.094048634171486 ], [ 769008.659033392439596, 8978617.09098550118506 ], [ 769008.697894801269285, 8978617.087243573740125 ], [ 769008.736684985575266, 8978617.082823989912868 ], [ 769008.775392129551619, 8978617.077728098258376 ], [ 769008.814004442770965, 8978617.071957448497415 ], [ 769008.852510163327679, 8978617.065513800829649 ], [ 769008.890897562145256, 8978617.058399116620421 ], [ 769008.929154946003109, 8978617.050615563988686 ], [ 769008.967270661378279, 8978617.042165514081717 ], [ 769009.005233097821474, 8978617.033051539212465 ], [ 769009.043030691682361, 8978617.023276416584849 ], [ 769009.080651929252781, 8978617.012843124568462 ], [ 769009.118085350957699, 8978617.001754838973284 ], [ 769009.155319554149173, 8978616.990014940500259 ], [ 769009.192343196831644, 8978616.977627003565431 ], [ 769009.229145001270808, 8978616.964594800025225 ], [ 769009.265713757369667, 8978616.950922302901745 ], [ 769009.302038325928152, 8978616.9366136752069 ], [ 769009.338107642019168, 8978616.921673275530338 ], [ 769009.373910718713887, 8978616.90610565431416 ], [ 769009.409436649875715, 8978616.889915553852916 ], [ 769009.444674614234827, 8978616.873107908293605 ], [ 769009.479613877600059, 8978616.855687834322453 ], [ 769009.514243797515519, 8978616.837660638615489 ], [ 769009.54855382500682, 8978616.819031814113259 ], [ 769009.582533509237692, 8978616.799807032570243 ], [ 769009.616172499489039, 8978616.779992153868079 ], [ 769009.649460549000651, 8978616.759593211114407 ], [ 769009.68238751788158, 8978616.738616418093443 ], [ 769009.714943376369774, 8978616.717068165540695 ], [ 769009.747118207626045, 8978616.694955015555024 ], [ 769009.778902210760862, 8978616.67228370718658 ], [ 769009.810285704210401, 8978616.649061143398285 ], [ 769009.841259128181264, 8978616.625294400379062 ], [ 769009.871813047793694, 8978616.600990714505315 ], [ 769009.901938156108372, 8978616.576157491654158 ], [ 769009.93162527680397, 8978616.550802296027541 ], [ 769009.96086536673829, 8978616.524932848289609 ], [ 769009.989649519207887, 8978616.498557033017278 ], [ 769010.017968966276385, 8978616.471682880073786 ], [ 769010.045815081568435, 8978616.444318579509854 ], [ 769010.073179382714443, 8978616.416472464799881 ], [ 769010.100053534493782, 8978616.38815301656723 ], [ 769010.126429350697435, 8978616.359368864446878 ], [ 769010.152298797038384, 8978616.330128774046898 ], [ 769010.177653993479908, 8978616.300441654399037 ], [ 769010.20248721644748, 8978616.270316546782851 ], [ 769010.22679090150632, 8978616.239762626588345 ], [ 769010.250557645573281, 8978616.208789201453328 ], [ 769010.273780209128745, 8978616.177405709400773 ], [ 769010.296451518195681, 8978616.145621705800295 ], [ 769010.318564667017199, 8978616.113446874544024 ], [ 769010.340112919686362, 8978616.080891016870737 ], [ 769010.361089712474495, 8978616.047964047640562 ], [ 769010.381488655344583, 8978616.014675997197628 ], [ 769010.401303534978069, 8978615.981037007644773 ], [ 769010.420528315240517, 8978615.947057323530316 ], [ 769010.439157140324824, 8978615.912747295573354 ], [ 769010.457184335566126, 8978615.878117375075817 ], [ 769010.474604409653693, 8978615.843178112059832 ], [ 769010.491412056493573, 8978615.807940147817135 ], [ 769010.507602156023495, 8978615.772414216771722 ], [ 769010.523169776890427, 8978615.73661114089191 ], [ 769010.538110176799819, 8978615.700541824102402 ], [ 769010.55241880484391, 8978615.664217256009579 ], [ 769010.566091302549466, 8978615.627648498862982 ], [ 769010.579123504925519, 8978615.590846695005894 ], [ 769010.59151144255884, 8978615.553823051974177 ], [ 769010.603251341730356, 8978615.516588849946856 ], [ 769010.614339626394212, 8978615.479155426844954 ], [ 769010.624772918876261, 8978615.441534189507365 ], [ 769010.634548041271046, 8978615.403736596927047 ], [ 769010.643662015907466, 8978615.365774160251021 ], [ 769010.652112066629343, 8978615.327658444643021 ], [ 769010.659895619377494, 8978615.28940105997026 ], [ 769010.667010303237475, 8978615.251013660803437 ], [ 769010.673453950905241, 8978615.2125079408288 ], [ 769010.679224599851295, 8978615.173895627260208 ], [ 769010.684320491971448, 8978615.135188484564424 ], [ 769010.688740075216629, 8978615.096398299559951 ], [ 769010.69248200324364, 8978615.057536890730262 ], [ 769010.695545136346482, 8978615.01861609518528 ], [ 769010.697928541339934, 8978614.97964776866138 ], [ 769010.699631492141634, 8978614.940643779933453 ], [ 769010.700653470237739, 8978614.90161601267755 ], [ 769010.700994164217263, 8978614.86257635243237 ], [ 769006.227151544298977, 8978614.86257635243237 ] ] ] ] } },
{ "type": "Feature", "properties": { "LAYER": "SAL KWARTER", "GM_TYPE": "Unknown Area Type", "ELEVATION": -6.004 }, "geometry": { "type": "MultiPolygon", "coordinates": [ [ [ [ 769010.792150517809205, 8978614.86257635243237 ], [ 769006.135995190707035, 8978614.86257635243237 ], [ 769006.136349768261425, 8978614.903206910938025 ], [ 769006.137413392774761, 8978614.943825090304017 ], [ 769006.139185740263201, 8978614.984418522566557 ], [ 769006.1416662709089, 8978615.024974841624498 ], [ 769006.144854229060002, 8978615.065481690689921 ], [ 769006.148748643696308, 8978615.105926733464003 ], [ 769006.15334832854569, 8978615.14629764854908 ], [ 769006.158651882549748, 8978615.186582140624523 ], [ 769006.164657689980231, 8978615.226767936721444 ], [ 769006.171363921603188, 8978615.266842795535922 ], [ 769006.17876853456255, 8978615.306794513016939 ], [ 769006.186869273311459, 8978615.3466109149158 ], [ 769006.195663670427166, 8978615.386279877275229 ], [ 769006.205149046843871, 8978615.425789313390851 ], [ 769006.215322513482533, 8978615.465127190575004 ], [ 769006.226180971134454, 8978615.504281524568796 ], [ 769006.237721112323925, 8978615.543240386992693 ], [ 769006.249939421890303, 8978615.581991914659739 ], [ 769006.262832177919336, 8978615.620524300262332 ], [ 769006.276395453256555, 8978615.658825809136033 ], [ 769006.290625116205774, 8978615.696884771808982 ], [ 769006.305516832391731, 8978615.73468959517777 ], [ 769006.321066065691411, 8978615.772228764370084 ], [ 769006.337268079631031, 8978615.809490846469998 ], [ 769006.354117938899435, 8978615.846464488655329 ], [ 769006.371610510977916, 8978615.883138427510858 ], [ 769006.389740467187949, 8978615.91950149461627 ], [ 769006.408502285252325, 8978615.955542610958219 ], [ 769006.427890249993652, 8978615.991250799968839 ], [ 769006.447898455662653, 8978616.026615183800459 ], [ 769006.468520807567984, 8978616.061624990776181 ], [ 769006.489751023938879, 8978616.096269555389881 ], [ 769006.511582637904212, 8978616.130538323894143 ], [ 769006.534008999355137, 8978616.164420859888196 ], [ 769006.557023276924156, 8978616.197906842455268 ], [ 769006.580618460197002, 8978616.230986069887877 ], [ 769006.604787362040952, 8978616.263648465275764 ], [ 769006.629522620118223, 8978616.295884082093835 ], [ 769006.654816700029187, 8978616.327683098614216 ], [ 769006.680661896942183, 8978616.359035829082131 ], [ 769006.707050338038243, 8978616.389932723715901 ], [ 769006.733973985305056, 8978616.420364370569587 ], [ 769006.761424637399614, 8978616.450321501120925 ], [ 769006.789393932558596, 8978616.479794988408685 ], [ 769006.817873351275921, 8978616.508775856345892 ], [ 769006.84685421816539, 8978616.537255274131894 ], [ 769006.876327705569565, 8978616.565224569290876 ], [ 769006.906284835538827, 8978616.592675222083926 ], [ 769006.936716482858174, 8978616.619598869234324 ], [ 769006.967613377724774, 8978616.645987309515476 ], [ 769006.998966108658351, 8978616.671832507476211 ], [ 769007.030765125295147, 8978616.697126585990191 ], [ 769007.06300074129831, 8978616.721861844882369 ], [ 769007.09566313738469, 8978616.746030746027827 ], [ 769007.128742364468053, 8978616.769625930115581 ], [ 769007.162228346103802, 8978616.792640207335353 ], [ 769007.196110882097855, 8978616.815066568553448 ], [ 769007.23037965176627, 8978616.836898183450103 ], [ 769007.26502421614714, 8978616.858128398656845 ], [ 769007.300034022540785, 8978616.878750750795007 ], [ 769007.33539840625599, 8978616.898758957162499 ], [ 769007.37110659526661, 8978616.91814692132175 ], [ 769007.407147712307051, 8978616.936908738687634 ], [ 769007.443510779063217, 8978616.955038696527481 ], [ 769007.480184718850069, 8978616.972531268373132 ], [ 769007.517158360569738, 8978616.98938112705946 ], [ 769007.554420441621915, 8978617.005583140999079 ], [ 769007.591959611512721, 8978617.021132374182343 ], [ 769007.62976443558, 8978617.036024089902639 ], [ 769007.667823398136534, 8978617.050253752619028 ], [ 769007.706124905846082, 8978617.063817027956247 ], [ 769007.744657292030752, 8978617.076709784567356 ], [ 769007.783408818999305, 8978617.088928094133735 ], [ 769007.822367682936601, 8978617.100468235090375 ], [ 769007.861522016464733, 8978617.11132669262588 ], [ 769007.900859892833978, 8978617.121500160545111 ], [ 769007.940369329298846, 8978617.130985535681248 ], [ 769007.980038290843368, 8978617.139779932796955 ], [ 769008.019854694139212, 8978617.147880671545863 ], [ 769008.059806410572492, 8978617.155285285785794 ], [ 769008.099881270434707, 8978617.161991516128182 ], [ 769008.140067066531628, 8978617.167997324839234 ], [ 769008.180351558024995, 8978617.173300877213478 ], [ 769008.220722473692149, 8978617.17790056206286 ], [ 769008.261167516349815, 8978617.181794976815581 ], [ 769008.301674365880899, 8978617.184982934966683 ], [ 769008.342230683541857, 8978617.187463466078043 ], [ 769008.382824115571566, 8978617.18923581391573 ], [ 769008.423442296683788, 8978617.19029943831265 ], [ 769008.46407285425812, 8978617.190654015168548 ], [ 769008.504703411832452, 8978617.19029943831265 ], [ 769008.545321592944674, 8978617.18923581391573 ], [ 769008.585915024974383, 8978617.187463466078043 ], [ 769008.626471342635341, 8978617.184982934966683 ], [ 769008.666978192166425, 8978617.181794976815581 ], [ 769008.707423234824091, 8978617.17790056206286 ], [ 769008.747794150491245, 8978617.173300877213478 ], [ 769008.788078641984612, 8978617.167997324839234 ], [ 769008.828264438081533, 8978617.161991516128182 ], [ 769008.868339297943749, 8978617.155285285785794 ], [ 769008.908291014377028, 8978617.147880671545863 ], [ 769008.948107417672873, 8978617.139779932796955 ], [ 769008.987776379217394, 8978617.130985535681248 ], [ 769009.027285815682262, 8978617.121500160545111 ], [ 769009.066623692051508, 8978617.11132669262588 ], [ 769009.105778025579639, 8978617.100468235090375 ], [ 769009.144736889516935, 8978617.088928094133735 ], [ 769009.183488416485488, 8978617.076709784567356 ], [ 769009.222020802670158, 8978617.063817027956247 ], [ 769009.260322310379706, 8978617.050253752619028 ], [ 769009.29838127293624, 8978617.036024089902639 ], [ 769009.33618609700352, 8978617.021132374182343 ], [ 769009.373725266894326, 8978617.005583140999079 ], [ 769009.410987347946502, 8978616.98938112705946 ], [ 769009.447960989666171, 8978616.972531268373132 ], [ 769009.484634929453023, 8978616.955038696527481 ], [ 769009.520997996209189, 8978616.936908738687634 ], [ 769009.55703911324963, 8978616.91814692132175 ], [ 769009.59274730226025, 8978616.898758957162499 ], [ 769009.62811168609187, 8978616.878750750795007 ], [ 769009.6631214923691, 8978616.858128398656845 ], [ 769009.69776605674997, 8978616.836898183450103 ], [ 769009.732034826418385, 8978616.815066568553448 ], [ 769009.765917362412438, 8978616.792640207335353 ], [ 769009.799403344048187, 8978616.769625930115581 ], [ 769009.83248257113155, 8978616.746030746027827 ], [ 769009.86514496721793, 8978616.721861844882369 ], [ 769009.897380583221093, 8978616.697126585990191 ], [ 769009.929179599857889, 8978616.671832507476211 ], [ 769009.960532330791466, 8978616.645987309515476 ], [ 769009.991429225658067, 8978616.619598869234324 ], [ 769010.021860872977413, 8978616.592675222083926 ], [ 769010.051818002946675, 8978616.565224569290876 ], [ 769010.08129149035085, 8978616.537255274131894 ], [ 769010.110272357240319, 8978616.508775856345892 ], [ 769010.138751775957644, 8978616.479794988408685 ], [ 769010.166721071116626, 8978616.450321501120925 ], [ 769010.194171723211184, 8978616.420364370569587 ], [ 769010.221095370477997, 8978616.389932723715901 ], [ 769010.247483811574057, 8978616.359035829082131 ], [ 769010.273329008487053, 8978616.327683098614216 ], [ 769010.298623088398017, 8978616.295884082093835 ], [ 769010.323358346475288, 8978616.263648465275764 ], [ 769010.347527248319238, 8978616.230986069887877 ], [ 769010.371122431592084, 8978616.197906842455268 ], [ 769010.394136709161103, 8978616.164420859888196 ], [ 769010.416563070612028, 8978616.130538323894143 ], [ 769010.438394684577361, 8978616.096269555389881 ], [ 769010.459624900948256, 8978616.061624990776181 ], [ 769010.480247252853587, 8978616.026615183800459 ], [ 769010.500255458522588, 8978615.991250799968839 ], [ 769010.519643423263915, 8978615.955542610958219 ], [ 769010.538405241328292, 8978615.91950149461627 ], [ 769010.556535197538324, 8978615.883138427510858 ], [ 769010.574027769616805, 8978615.846464488655329 ], [ 769010.59087762888521, 8978615.809490846469998 ], [ 769010.607079642824829, 8978615.772228764370084 ], [ 769010.622628876124509, 8978615.73468959517777 ], [ 769010.637520592310466, 8978615.696884771808982 ], [ 769010.651750255259685, 8978615.658825809136033 ], [ 769010.665313530596904, 8978615.620524300262332 ], [ 769010.678206286625937, 8978615.581991914659739 ], [ 769010.690424596192315, 8978615.543240386992693 ], [ 769010.701964737381786, 8978615.504281524568796 ], [ 769010.712823195033707, 8978615.465127190575004 ], [ 769010.722996661672369, 8978615.425789313390851 ], [ 769010.732482038089074, 8978615.386279877275229 ], [ 769010.741276435204782, 8978615.3466109149158 ], [ 769010.74937717395369, 8978615.306794513016939 ], [ 769010.756781786913052, 8978615.266842795535922 ], [ 769010.763488018536009, 8978615.226767936721444 ], [ 769010.769493825966492, 8978615.186582140624523 ], [ 769010.774797379970551, 8978615.14629764854908 ], [ 769010.779397064819932, 8978615.105926733464003 ], [ 769010.783291479456238, 8978615.065481690689921 ], [ 769010.786479437607341, 8978615.024974841624498 ], [ 769010.788959968253039, 8978614.984418522566557 ], [ 769010.790732315741479, 8978614.943825090304017 ], [ 769010.791795940254815, 8978614.903206910938025 ], [ 769010.792150517809205, 8978614.86257635243237 ] ] ] ] } },
{ "type": "Feature", "properties": { "LAYER": "SAL KWARTER", "GM_TYPE": "Unknown Area Type", "ELEVATION": -6.004 }, "geometry": { "type": "MultiPolygon", "coordinates": [ [ [ [ 769006.227151544298977, 8978614.86257635243237 ], [ 769006.227492238278501, 8978614.90161601267755 ], [ 769006.228514216374606, 8978614.940643779933453 ], [ 769006.230217167176306, 8978614.97964776866138 ], [ 769006.232600572169758, 8978615.01861609518528 ], [ 769006.2356637052726, 8978615.057536890730262 ], [ 769006.239405633299612, 8978615.096398299559951 ], [ 769006.243825216544792, 8978615.135188484564424 ], [ 769006.248921108664945, 8978615.173895627260208 ], [ 769006.254691757610999, 8978615.2125079408288 ], [ 769006.261135405278765, 8978615.251013660803437 ], [ 769006.268250089138746, 8978615.28940105997026 ], [ 769006.276033641886897, 8978615.327658444643021 ], [ 769006.284483692608774, 8978615.365774160251021 ], [ 769006.293597667245194, 8978615.403736596927047 ], [ 769006.30337278963998, 8978615.441534189507365 ], [ 769006.313806082122028, 8978615.479155426844954 ], [ 769006.324894366785884, 8978615.516588849946856 ], [ 769006.3366342659574, 8978615.553823051974177 ], [ 769006.349022203590721, 8978615.590846695005894 ], [ 769006.362054405966774, 8978615.627648498862982 ], [ 769006.37572690367233, 8978615.664217256009579 ], [ 769006.390035531716421, 8978615.700541824102402 ], [ 769006.404975931625813, 8978615.73661114089191 ], [ 769006.420543552492745, 8978615.772414216771722 ], [ 769006.436733652022667, 8978615.807940147817135 ], [ 769006.453541298862547, 8978615.843178112059832 ], [ 769006.470961372950114, 8978615.878117375075817 ], [ 769006.488988568191417, 8978615.912747295573354 ], [ 769006.507617393275723, 8978615.947057323530316 ], [ 769006.526842173538171, 8978615.981037007644773 ], [ 769006.546657053171657, 8978616.014675997197628 ], [ 769006.567055996041745, 8978616.047964047640562 ], [ 769006.588032788829878, 8978616.080891016870737 ], [ 769006.609581041499041, 8978616.113446874544024 ], [ 769006.631694190320559, 8978616.145621705800295 ], [ 769006.654365499387495, 8978616.177405709400773 ], [ 769006.677588062942959, 8978616.208789201453328 ], [ 769006.70135480700992, 8978616.239762626588345 ], [ 769006.72565849206876, 8978616.270316546782851 ], [ 769006.750491715036333, 8978616.300441654399037 ], [ 769006.775846911477856, 8978616.330128774046898 ], [ 769006.801716357818805, 8978616.359368864446878 ], [ 769006.828092174022458, 8978616.38815301656723 ], [ 769006.854966325801797, 8978616.416472464799881 ], [ 769006.882330626947805, 8978616.444318579509854 ], [ 769006.910176742239855, 8978616.471682880073786 ], [ 769006.938496189308353, 8978616.498557033017278 ], [ 769006.967280341777951, 8978616.524932848289609 ], [ 769006.99652043171227, 8978616.550802296027541 ], [ 769007.026207552407868, 8978616.576157491654158 ], [ 769007.056332660722546, 8978616.600990714505315 ], [ 769007.086886580334976, 8978616.625294400379062 ], [ 769007.11786000430584, 8978616.649061143398285 ], [ 769007.149243497755378, 8978616.67228370718658 ], [ 769007.181027500890195, 8978616.694955015555024 ], [ 769007.213202332146466, 8978616.717068165540695 ], [ 769007.24575819063466, 8978616.738616418093443 ], [ 769007.278685159515589, 8978616.759593211114407 ], [ 769007.311973209027201, 8978616.779992153868079 ], [ 769007.345612199278548, 8978616.799807032570243 ], [ 769007.37959188350942, 8978616.819031814113259 ], [ 769007.413901911000721, 8978616.837660638615489 ], [ 769007.448531830916181, 8978616.855687834322453 ], [ 769007.483471094281413, 8978616.873107908293605 ], [ 769007.518709058640525, 8978616.889915553852916 ], [ 769007.554234989802353, 8978616.90610565431416 ], [ 769007.590038066497073, 8978616.921673275530338 ], [ 769007.626107382588089, 8978616.9366136752069 ], [ 769007.662431951146573, 8978616.950922302901745 ], [ 769007.699000707245432, 8978616.964594800025225 ], [ 769007.735802511684597, 8978616.977627003565431 ], [ 769007.772826154367067, 8978616.990014940500259 ], [ 769007.810060357558541, 8978617.001754838973284 ], [ 769007.847493779263459, 8978617.012843124568462 ], [ 769007.885115016833879, 8978617.023276416584849 ], [ 769007.922912610694766, 8978617.033051539212465 ], [ 769007.960875047137961, 8978617.042165514081717 ], [ 769007.998990762513131, 8978617.050615563988686 ], [ 769008.037248146370985, 8978617.058399116620421 ], [ 769008.075635545188561, 8978617.065513800829649 ], [ 769008.114141265745275, 8978617.071957448497415 ], [ 769008.152753578964621, 8978617.077728098258376 ], [ 769008.191460722940974, 8978617.082823989912868 ], [ 769008.230250907246955, 8978617.087243573740125 ], [ 769008.269112316076644, 8978617.09098550118506 ], [ 769008.308033111621626, 8978617.094048634171486 ], [ 769008.347001438494772, 8978617.096432039514184 ], [ 769008.386005426407792, 8978617.098134990781546 ], [ 769008.425033194362186, 8978617.099156968295574 ], [ 769008.46407285425812, 8978617.099497662857175 ], [ 769008.503112514154054, 8978617.099156968295574 ], [ 769008.542140282108448, 8978617.098134990781546 ], [ 769008.581144270021468, 8978617.096432039514184 ], [ 769008.620112596894614, 8978617.094048634171486 ], [ 769008.659033392439596, 8978617.09098550118506 ], [ 769008.697894801269285, 8978617.087243573740125 ], [ 769008.736684985575266, 8978617.082823989912868 ], [ 769008.775392129551619, 8978617.077728098258376 ], [ 769008.814004442770965, 8978617.071957448497415 ], [ 769008.852510163327679, 8978617.065513800829649 ], [ 769008.890897562145256, 8978617.058399116620421 ], [ 769008.929154946003109, 8978617.050615563988686 ], [ 769008.967270661378279, 8978617.042165514081717 ], [ 769009.005233097821474, 8978617.033051539212465 ], [ 769009.043030691682361, 8978617.023276416584849 ], [ 769009.080651929252781, 8978617.012843124568462 ], [ 769009.118085350957699, 8978617.001754838973284 ], [ 769009.155319554149173, 8978616.990014940500259 ], [ 769009.192343196831644, 8978616.977627003565431 ], [ 769009.229145001270808, 8978616.964594800025225 ], [ 769009.265713757369667, 8978616.950922302901745 ], [ 769009.302038325928152, 8978616.9366136752069 ], [ 769009.338107642019168, 8978616.921673275530338 ], [ 769009.373910718713887, 8978616.90610565431416 ], [ 769009.409436649875715, 8978616.889915553852916 ], [ 769009.444674614234827, 8978616.873107908293605 ], [ 769009.479613877600059, 8978616.855687834322453 ], [ 769009.514243797515519, 8978616.837660638615489 ], [ 769009.54855382500682, 8978616.819031814113259 ], [ 769009.582533509237692, 8978616.799807032570243 ], [ 769009.616172499489039, 8978616.779992153868079 ], [ 769009.649460549000651, 8978616.759593211114407 ], [ 769009.68238751788158, 8978616.738616418093443 ], [ 769009.714943376369774, 8978616.717068165540695 ], [ 769009.747118207626045, 8978616.694955015555024 ], [ 769009.778902210760862, 8978616.67228370718658 ], [ 769009.810285704210401, 8978616.649061143398285 ], [ 769009.841259128181264, 8978616.625294400379062 ], [ 769009.871813047793694, 8978616.600990714505315 ], [ 769009.901938156108372, 8978616.576157491654158 ], [ 769009.93162527680397, 8978616.550802296027541 ], [ 769009.96086536673829, 8978616.524932848289609 ], [ 769009.989649519207887, 8978616.498557033017278 ], [ 769010.017968966276385, 8978616.471682880073786 ], [ 769010.045815081568435, 8978616.444318579509854 ], [ 769010.073179382714443, 8978616.416472464799881 ], [ 769010.100053534493782, 8978616.38815301656723 ], [ 769010.126429350697435, 8978616.359368864446878 ], [ 769010.152298797038384, 8978616.330128774046898 ], [ 769010.177653993479908, 8978616.300441654399037 ], [ 769010.20248721644748, 8978616.270316546782851 ], [ 769010.22679090150632, 8978616.239762626588345 ], [ 769010.250557645573281, 8978616.208789201453328 ], [ 769010.273780209128745, 8978616.177405709400773 ], [ 769010.296451518195681, 8978616.145621705800295 ], [ 769010.318564667017199, 8978616.113446874544024 ], [ 769010.340112919686362, 8978616.080891016870737 ], [ 769010.361089712474495, 8978616.047964047640562 ], [ 769010.381488655344583, 8978616.014675997197628 ], [ 769010.401303534978069, 8978615.981037007644773 ], [ 769010.420528315240517, 8978615.947057323530316 ], [ 769010.439157140324824, 8978615.912747295573354 ], [ 769010.457184335566126, 8978615.878117375075817 ], [ 769010.474604409653693, 8978615.843178112059832 ], [ 769010.491412056493573, 8978615.807940147817135 ], [ 769010.507602156023495, 8978615.772414216771722 ], [ 769010.523169776890427, 8978615.73661114089191 ], [ 769010.538110176799819, 8978615.700541824102402 ], [ 769010.55241880484391, 8978615.664217256009579 ], [ 769010.566091302549466, 8978615.627648498862982 ], [ 769010.579123504925519, 8978615.590846695005894 ], [ 769010.59151144255884, 8978615.553823051974177 ], [ 769010.603251341730356, 8978615.516588849946856 ], [ 769010.614339626394212, 8978615.479155426844954 ], [ 769010.624772918876261, 8978615.441534189507365 ], [ 769010.634548041271046, 8978615.403736596927047 ], [ 769010.643662015907466, 8978615.365774160251021 ], [ 769010.652112066629343, 8978615.327658444643021 ], [ 769010.659895619377494, 8978615.28940105997026 ], [ 769010.667010303237475, 8978615.251013660803437 ], [ 769010.673453950905241, 8978615.2125079408288 ], [ 769010.679224599851295, 8978615.173895627260208 ], [ 769010.684320491971448, 8978615.135188484564424 ], [ 769010.688740075216629, 8978615.096398299559951 ], [ 769010.69248200324364, 8978615.057536890730262 ], [ 769010.695545136346482, 8978615.01861609518528 ], [ 769010.697928541339934, 8978614.97964776866138 ], [ 769010.699631492141634, 8978614.940643779933453 ], [ 769010.700653470237739, 8978614.90161601267755 ], [ 769010.700994164217263, 8978614.86257635243237 ], [ 769006.227151544298977, 8978614.86257635243237 ] ] ] ] } }
]
}
