{
"type": "FeatureCollection",
"name": "09_lo_li_jalanlain",
"crs": { "type": "name", "properties": { "name": "urn:ogc:def:crs:EPSG::32751" } },
"features": [
{ "type": "Feature", "properties": { "LAYER": "JALAN_LAIN", "GM_TYPE": "Unknown Line Type" }, "geometry": { "type": "MultiLineString", "coordinates": [ [ [ 767936.623000000137836, 8978829.191999999806285 ], [ 767935.444999999832362, 8978768.97099999897182 ], [ 767936.045999999856576, 8978716.219000002369285 ], [ 767937.380999999935739, 8978669.414999997243285 ], [ 767937.446999999810942, 8978626.319000001996756 ], [ 767938.989000000059605, 8978609.871999999508262 ], [ 767941.292999999830499, 8978600.491999998688698 ], [ 767946.980999999912456, 8978594.120999999344349 ], [ 767955.356000000145286, 8978586.280999999493361 ], [ 767962.927999999956228, 8978577.732999999076128 ], [ 767970.757000000099652, 8978565.640999998897314 ], [ 767981.740000000107102, 8978544.909000001847744 ], [ 767992.062000000034459, 8978531.322999998927116 ], [ 768000.15500000002794, 8978522.417999999597669 ], [ 768010.084999999846332, 8978512.402999999001622 ], [ 768016.88, 8978504.453000001609325 ], [ 768024.659000000101514, 8978491.178999999538064 ], [ 768031.032000000122935, 8978482.578000001609325 ], [ 768040.109000000054948, 8978475.013000000268221 ], [ 768065.468, 8978459.132999999448657 ], [ 768093.24, 8978443.576999999582767 ], [ 768119.779000000096858, 8978429.386 ], [ 768141.634000000078231, 8978423.566999999806285 ], [ 768196.53000000002794, 8978420.54700000025332 ] ] ] } },
{ "type": "Feature", "properties": { "LAYER": "JALAN_LAIN", "GM_TYPE": "Unknown Line Type" }, "geometry": { "type": "MultiLineString", "coordinates": [ [ [ 767553.452965763746761, 8978489.000760266557336 ], [ 767553.271999999880791, 8978440.940999999642372 ], [ 767553.275999999954365, 8978385.385000001639128 ], [ 767553.582999999984168, 8978319.733999999240041 ], [ 767555.860000000102445, 8978266.273 ], [ 767557.280000000144355, 8978210.109999999403954 ], [ 767559.482000000076368, 8978165.798000000417233 ], [ 767560.437999999965541, 8978154.023 ], [ 767563.307999999960884, 8978146.722999999299645 ], [ 767567.748999999836087, 8978139.810000000521541 ], [ 767575.340999999898486, 8978129.028999999165535 ], [ 767581.079000000143424, 8978118.416999999433756 ], [ 767590.625999999814667, 8978101.953999998047948 ], [ 767593.074000000138767, 8978094.365000000223517 ], [ 767593.659999999799766, 8978085.224999999627471 ], [ 767593.232000000076368, 8978077.574999999254942 ], [ 767593.110999999917112, 8978071.266999997198582 ], [ 767593.907999999821186, 8978065.78799999691546 ], [ 767597.665999999968335, 8978059.897999998182058 ], [ 767604.397999999928288, 8978056.653999999165535 ], [ 767610.885, 8978053.777999999001622 ], [ 767614.180999999982305, 8978048.610999999567866 ], [ 767616.924000000115484, 8978044.117000000551343 ], [ 767621.446, 8978040.520999999716878 ], [ 767626.292000000015832, 8978038.367999996989965 ], [ 767632.911000000196509, 8978036.747999999672174 ], [ 767638.742000000202097, 8978035.048999996855855 ], [ 767642.479999999864958, 8978031.921999998390675 ], [ 767645.623000000137836, 8978027.217000002041459 ], [ 767648.515000000130385, 8978022.23199999704957 ], [ 767652.797000000136904, 8978016.083999998867512 ], [ 767658.24800000002142, 8978012.605999996885657 ] ] ] } },
{ "type": "Feature", "properties": { "LAYER": "JALAN_LAIN", "GM_TYPE": "Unknown Line Type" }, "geometry": { "type": "MultiLineString", "coordinates": [ [ [ 768196.53000000002794, 8978420.54700000025332 ], [ 768216.537999999825843, 8978418.677999997511506 ], [ 768252.030999999959022, 8978417.123999997973442 ], [ 768286.160000000149012, 8978418.889999996870756 ], [ 768334.902999999816529, 8978418.937999999150634 ], [ 768359.125999999931082, 8978419.284 ], [ 768370.364000000059605, 8978417.816999999806285 ], [ 768375.305999999982305, 8978414.776999998837709 ], [ 768377.077999999979511, 8978410.893000001087785 ], [ 768377.915999999968335, 8978403.445000002160668 ], [ 768379.589999999850988, 8978387.496999999508262 ], [ 768379.542999999830499, 8978376.092000002041459 ], [ 768379.542999999830499, 8978363.173999996855855 ], [ 768379.12300000002142, 8978351.266999997198582 ], [ 768378.863000000128523, 8978338.744999999180436 ], [ 768378.365999999921769, 8978332.867000002413988 ], [ 768378.164000000106171, 8978315.569000001996756 ], [ 768377.334999999962747, 8978289.44200000166893 ], [ 768377.334999999962747, 8978260.399000002071261 ], [ 768376.537999999942258, 8978218.345000000670552 ], [ 768376.270999999833293, 8978171.299999998882413 ], [ 768376.645000000018626, 8978147.174000000581145 ], [ 768376.637999999918975, 8978116.927000001072884 ], [ 768375.177999999956228, 8978075.063999999314547 ], [ 768374.655000000144355, 8978013.808000000193715 ], [ 768375.057000000029802, 8977964.859999999403954 ], [ 768376.335999999893829, 8977937.551000000908971 ], [ 768375.889000000082888, 8977906.593000000342727 ], [ 768375.112000000081025, 8977867.292999999597669 ], [ 768376.560000000055879, 8977820.543999999761581 ], [ 768375.812000000034459, 8977774.934000000357628 ], [ 768375.929000000120141, 8977724.159 ], [ 768374.861000000149943, 8977674.249000001698732 ], [ 768373.419999999809079, 8977593.585999999195337 ], [ 768373.992000000085682, 8977530.412999998778105 ], [ 768376.549000000115484, 8977496.951999999582767 ], [ 768375.846999999834225, 8977443.140000000596046 ], [ 768375.057999999960884, 8977385.847999999299645 ], [ 768373.37300000002142, 8977289.283000001683831 ], [ 768373.672999999835156, 8977259.237999999895692 ], [ 768374.067000000039116, 8977222.748999999836087 ], [ 768373.650000000139698, 8977178.435000000521541 ], [ 768373.87700000021141, 8977138.280999999493361 ], [ 768373.437000000034459, 8977096.736999999731779 ], [ 768371.34499999997206, 8977021.649000000208616 ], [ 768371.34499999997206, 8976999.722999999299645 ], [ 768371.846999999834225, 8976983.686000000685453 ], [ 768373.199000000138767, 8976970.497999999672174 ], [ 768374.159000000101514, 8976958.655999999493361 ], [ 768374.239999999874271, 8976945.523000001907349 ], [ 768373.465999999898486, 8976928.001000000163913 ], [ 768374.147999999811873, 8976885.820000002160668 ], [ 768372.786000000196509, 8976851.816999999806285 ], [ 768372.334000000031665, 8976826.701999999582767 ], [ 768371.75199999997858, 8976806.831000002101064 ], [ 768371.35999999998603, 8976778.043999997898936 ], [ 768371.929999999818392, 8976736.699999999254942 ], [ 768373.920999999972992, 8976691.46399999782443 ], [ 768371.564999999827705, 8976650.303999999538064 ], [ 768371.107000000076368, 8976624.423000000417233 ], [ 768371.348, 8976608.570000002160668 ], [ 768372.557999999844469, 8976594.440999999642372 ], [ 768373.170999999972992, 8976574.955000001937151 ], [ 768373.246999999857508, 8976551.368999999016523 ], [ 768373.095000000204891, 8976514.947000000625849 ], [ 768371.135, 8976466.323999997228384 ], [ 768370.075999999884516, 8976428.272999998182058 ], [ 768369.822999999974854, 8976356.607999999076128 ], [ 768369.993000000016764, 8976310.424000000581145 ], [ 768370.304, 8976256.604000000283122 ], [ 768371.962999999988824, 8976181.525000000372529 ], [ 768374.413999999989755, 8976096.311000000685453 ], [ 768372.858, 8976050.994000000879169 ], [ 768373.065000000060536, 8975953.826999999582767 ], [ 768372.050000000046566, 8975931.823000000789762 ], [ 768371.598, 8975920.310000000521541 ], [ 768366.831, 8975905.348000001162291 ], [ 768361.964000000036322, 8975895.217000000178814 ], [ 768354.226999999955297, 8975887.006000000983477 ], [ 768351.09499999997206, 8975883.456000000238419 ], [ 768350.035000000032596, 8975879.049000000581145 ], [ 768350.035000000032596, 8975876.094000000506639 ], [ 768355.913000000058673, 8975864.290000000968575 ], [ 768363.771000000066124, 8975851.189000001177192 ], [ 768374.966293573845178, 8975832.958563674241304 ] ] ] } }
]
}
