{
"type": "FeatureCollection",
"name": "09_lo_li_profile",
"crs": { "type": "name", "properties": { "name": "urn:ogc:def:crs:EPSG::32751" } },
"features": [
{ "type": "Feature", "properties": { "LAYER": "profile", "GM_TYPE": "Unknown Line Type", "ELEVATION": 0 }, "geometry": { "type": "MultiLineString", "coordinates": [ [ [ 762994.356129624997266, 8984969.730592360720038 ], [ 763007.653031182009727, 8984921.220721539109945 ], [ 763020.950662630028091, 8984872.713716130703688 ], [ 763034.185834283009171, 8984824.437298970296979 ], [ 763047.461028814082965, 8984776.014894939959049 ], [ 763060.777781497919932, 8984727.454779030755162 ], [ 763074.011494830017909, 8984679.195603530853987 ], [ 763087.233293150900863, 8984630.989048199728131 ], [ 763100.538561086985283, 8984582.479997120797634 ], [ 763113.731679602060467, 8984534.375254979357123 ], [ 763116.346641452051699, 8984524.840571079403162 ], [ 763118.821442337008193, 8984515.818379450589418 ], [ 763121.581629210966639, 8984505.754579249769449 ], [ 763124.346372728003189, 8984495.6747329197824 ], [ 763127.0, 8984486.0 ], [ 763129.75702844094485, 8984475.9486637506634 ], [ 763132.452690820908174, 8984466.120294980704784 ], [ 763135.055303770932369, 8984456.632110880687833 ], [ 763137.664704030030407, 8984447.118803920224309 ], [ 763140.329546469962224, 8984437.403366789221764 ], [ 763231.848032719106413, 8984462.503064660355449 ], [ 763245.321491685928777, 8984413.371486650779843 ], [ 763258.265054647927172, 8984366.17036728002131 ], [ 763271.95974701596424, 8984316.228321889415383 ], [ 763284.719089183025062, 8984269.699034230783582 ], [ 763298.037609060993418, 8984221.126013850793242 ], [ 763311.178515025880188, 8984173.209871970117092 ], [ 763324.567699885927141, 8984124.383747098967433 ], [ 763325.952888422063552, 8984117.087839260697365 ], [ 763337.787987777031958, 8984076.21025169081986 ], [ 763351.093984805978835, 8984027.667302630841732 ], [ 763364.082185807987116, 8983980.305239759385586 ], [ 763377.540458115050569, 8983931.249237289652228 ], [ 763390.691999474074692, 8983883.293369550257921 ], [ 763403.938360540894791, 8983834.991750599816442 ], [ 763417.057548872078769, 8983787.153855150565505 ] ] ] } },
{ "type": "Feature", "properties": { "LAYER": "profile", "GM_TYPE": "Unknown Line Type", "ELEVATION": 0 }, "geometry": { "type": "MultiLineString", "coordinates": [ [ [ 763244.079817832214758, 8984258.578836377710104 ], [ 763302.503964505740441, 8984274.579576525837183 ] ] ] } },
{ "type": "Feature", "properties": { "LAYER": "profile", "GM_TYPE": "Unknown Line Type", "ELEVATION": 0 }, "geometry": { "type": "MultiLineString", "coordinates": [ [ [ 763270.641243044985458, 8984127.52254899032414 ], [ 763259.152195469010621, 8984126.653366150334477 ] ] ] } }
]
}
