{
"type": "FeatureCollection",
"name": "09_lo_po_kodebm",
"crs": { "type": "name", "properties": { "name": "urn:ogc:def:crs:EPSG::32751" } },
"features": [
{ "type": "Feature", "properties": { "NAME": "BM MK.30", "LAYER": "kode bm", "GM_TYPE": "Text", "ELEVATION": 0 }, "geometry": { "type": "Point", "coordinates": [ 762448.649299848708324, 8981486.976374724879861 ] } },
{ "type": "Feature", "properties": { "NAME": "Cp.30", "LAYER": "kode bm", "GM_TYPE": "Text", "ELEVATION": 0 }, "geometry": { "type": "Point", "coordinates": [ 762450.048950899625197, 8981380.976898644119501 ] } },
{ "type": "Feature", "properties": { "NAME": "Cp.27", "LAYER": "kode bm", "GM_TYPE": "Text", "ELEVATION": 0 }, "geometry": { "type": "Point", "coordinates": [ 762744.13405285240151, 8981931.142137795686722 ] } },
{ "type": "Feature", "properties": { "NAME": "BM MK.27", "LAYER": "kode bm", "GM_TYPE": "Text", "ELEVATION": 0 }, "geometry": { "type": "Point", "coordinates": [ 762744.13405285240151, 8981820.219860734418035 ] } },
{ "type": "Feature", "properties": { "NAME": "BM MK.3", "LAYER": "kode bm", "GM_TYPE": "Text", "ELEVATION": 0 }, "geometry": { "type": "Point", "coordinates": [ 762806.615349575411528, 8982337.083184385672212 ] } },
{ "type": "Feature", "properties": { "NAME": "Cp.3", "LAYER": "kode bm", "GM_TYPE": "Text", "ELEVATION": 0 }, "geometry": { "type": "Point", "coordinates": [ 762806.615349575411528, 8982226.160907324403524 ] } },
{ "type": "Feature", "properties": { "NAME": "BM MK.11", "LAYER": "kode bm", "GM_TYPE": "Text", "ELEVATION": 0 }, "geometry": { "type": "Point", "coordinates": [ 762264.666929846280254, 8981070.201683554798365 ] } },
{ "type": "Feature", "properties": { "NAME": "Cp.11", "LAYER": "kode bm", "GM_TYPE": "Text", "ELEVATION": 0 }, "geometry": { "type": "Point", "coordinates": [ 762266.066580897197127, 8980964.202207474038005 ] } },
{ "type": "Feature", "properties": { "NAME": "BM MK.7", "LAYER": "kode bm", "GM_TYPE": "Text", "ELEVATION": 0 }, "geometry": { "type": "Point", "coordinates": [ 760124.921520774019882, 8980079.195860328152776 ] } },
{ "type": "Feature", "properties": { "NAME": "Cp.7", "LAYER": "kode bm", "GM_TYPE": "Text", "ELEVATION": 0 }, "geometry": { "type": "Point", "coordinates": [ 760126.321171824936755, 8979994.038423281162977 ] } },
{ "type": "Feature", "properties": { "NAME": "BM MK.7", "LAYER": "kode bm", "GM_TYPE": "Text", "ELEVATION": 0 }, "geometry": { "type": "Point", "coordinates": [ 761007.852190821547993, 8980072.061437463387847 ] } },
{ "type": "Feature", "properties": { "NAME": "Cp.7", "LAYER": "kode bm", "GM_TYPE": "Text", "ELEVATION": 0 }, "geometry": { "type": "Point", "coordinates": [ 761154.820547956158407, 8979986.904000416398048 ] } },
{ "type": "Feature", "properties": { "NAME": "BM MK.24", "LAYER": "kode bm", "GM_TYPE": "Text", "ELEVATION": 0 }, "geometry": { "type": "Point", "coordinates": [ 761168.742792132892646, 8979546.915337588638067 ] } },
{ "type": "Feature", "properties": { "NAME": "Cp.24", "LAYER": "kode bm", "GM_TYPE": "Text", "ELEVATION": 0 }, "geometry": { "type": "Point", "coordinates": [ 761170.142443183809519, 8979461.757900541648269 ] } },
{ "type": "Feature", "properties": { "NAME": "BM MK.8", "LAYER": "kode bm", "GM_TYPE": "Text", "ELEVATION": 0 }, "geometry": { "type": "Point", "coordinates": [ 760888.951014233054593, 8979270.599589580669999 ] } },
{ "type": "Feature", "properties": { "NAME": "Cp.8", "LAYER": "kode bm", "GM_TYPE": "Text", "ELEVATION": 0 }, "geometry": { "type": "Point", "coordinates": [ 760890.350665283971466, 8979185.442152533680201 ] } },
{ "type": "Feature", "properties": { "NAME": "BM MK.18", "LAYER": "kode bm", "GM_TYPE": "Text", "ELEVATION": 0 }, "geometry": { "type": "Point", "coordinates": [ 760562.710535332909785, 8979006.479422830045223 ] } },
{ "type": "Feature", "properties": { "NAME": "Cp.18", "LAYER": "kode bm", "GM_TYPE": "Text", "ELEVATION": 0 }, "geometry": { "type": "Point", "coordinates": [ 760564.110186383826658, 8978921.321985783055425 ] } },
{ "type": "Feature", "properties": { "NAME": "BM MK.19", "LAYER": "kode bm", "GM_TYPE": "Text", "ELEVATION": 0 }, "geometry": { "type": "Point", "coordinates": [ 760022.467447306611575, 8978714.784223586320877 ] } },
{ "type": "Feature", "properties": { "NAME": "Cp.19", "LAYER": "kode bm", "GM_TYPE": "Text", "ELEVATION": 0 }, "geometry": { "type": "Point", "coordinates": [ 760023.867098357528448, 8978629.626786539331079 ] } },
{ "type": "Feature", "properties": { "NAME": "Cp.26", "LAYER": "kode bm", "GM_TYPE": "Text", "ELEVATION": 0 }, "geometry": { "type": "Point", "coordinates": [ 759780.259186361799948, 8978251.096947502344847 ] } },
{ "type": "Feature", "properties": { "NAME": "BM MK.26", "LAYER": "kode bm", "GM_TYPE": "Text", "ELEVATION": 0 }, "geometry": { "type": "Point", "coordinates": [ 759781.658837412716821, 8978165.939510455355048 ] } },
{ "type": "Feature", "properties": { "NAME": "BM MK.34", "LAYER": "kode bm", "GM_TYPE": "Text", "ELEVATION": 0 }, "geometry": { "type": "Point", "coordinates": [ 759340.467410994460806, 8978082.548709440976381 ] } },
{ "type": "Feature", "properties": { "NAME": "Cp.34", "LAYER": "kode bm", "GM_TYPE": "Text", "ELEVATION": 0 }, "geometry": { "type": "Point", "coordinates": [ 759341.867062045377679, 8977997.391272393986583 ] } },
{ "type": "Feature", "properties": { "NAME": "BM MK.36", "LAYER": "kode bm", "GM_TYPE": "Text", "ELEVATION": 0 }, "geometry": { "type": "Point", "coordinates": [ 759069.991732269409113, 8977755.516120731830597 ] } },
{ "type": "Feature", "properties": { "NAME": "Cp.36", "LAYER": "kode bm", "GM_TYPE": "Text", "ELEVATION": 0 }, "geometry": { "type": "Point", "coordinates": [ 759071.391383320325986, 8977670.358683684840798 ] } },
{ "type": "Feature", "properties": { "NAME": "Cp.2", "LAYER": "kode bm", "GM_TYPE": "Text", "ELEVATION": 0 }, "geometry": { "type": "Point", "coordinates": [ 762807.978321525966749, 8983885.808048585429788 ] } },
{ "type": "Feature", "properties": { "NAME": "BM MK.2", "LAYER": "kode bm", "GM_TYPE": "Text", "ELEVATION": 0 }, "geometry": { "type": "Point", "coordinates": [ 762807.978321525966749, 8983789.97925428301096 ] } },
{ "type": "Feature", "properties": { "NAME": "Cp.1", "LAYER": "kode bm", "GM_TYPE": "Text", "ELEVATION": 0 }, "geometry": { "type": "Point", "coordinates": [ 762755.388463416020386, 8984544.460687082260847 ] } },
{ "type": "Feature", "properties": { "NAME": "BM MK.1", "LAYER": "kode bm", "GM_TYPE": "Text", "ELEVATION": 0 }, "geometry": { "type": "Point", "coordinates": [ 762755.388463416020386, 8984448.631892779842019 ] } },
{ "type": "Feature", "properties": { "NAME": "BM MK.14", "LAYER": "kode bm", "GM_TYPE": "Text", "ELEVATION": 0 }, "geometry": { "type": "Point", "coordinates": [ 764874.33601693273522, 8979871.375859450548887 ] } },
{ "type": "Feature", "properties": { "NAME": "Cp.14", "LAYER": "kode bm", "GM_TYPE": "Text", "ELEVATION": 0 }, "geometry": { "type": "Point", "coordinates": [ 764875.735667983652093, 8979786.218422403559089 ] } },
{ "type": "Feature", "properties": { "NAME": "Cp.31", "LAYER": "kode bm", "GM_TYPE": "Text", "ELEVATION": 0 }, "geometry": { "type": "Point", "coordinates": [ 763238.797356696915813, 8982504.640937779098749 ] } },
{ "type": "Feature", "properties": { "NAME": "BM MK.31", "LAYER": "kode bm", "GM_TYPE": "Text", "ELEVATION": 0 }, "geometry": { "type": "Point", "coordinates": [ 763238.797356696915813, 8982408.812143476679921 ] } },
{ "type": "Feature", "properties": { "NAME": "Cp.10", "LAYER": "kode bm", "GM_TYPE": "Text", "ELEVATION": 0 }, "geometry": { "type": "Point", "coordinates": [ 763794.909136459231377, 8981932.214698806405067 ] } },
{ "type": "Feature", "properties": { "NAME": "BM MK.10", "LAYER": "kode bm", "GM_TYPE": "Text", "ELEVATION": 0 }, "geometry": { "type": "Point", "coordinates": [ 763794.909136459231377, 8981836.385904503986239 ] } },
{ "type": "Feature", "properties": { "NAME": "BM MK.9", "LAYER": "kode bm", "GM_TYPE": "Text", "ELEVATION": 0 }, "geometry": { "type": "Point", "coordinates": [ 763365.25303370738402, 8981837.443588089197874 ] } },
{ "type": "Feature", "properties": { "NAME": "Cp.9", "LAYER": "kode bm", "GM_TYPE": "Text", "ELEVATION": 0 }, "geometry": { "type": "Point", "coordinates": [ 763365.25303370738402, 8981741.614793786779046 ] } },
{ "type": "Feature", "properties": { "NAME": "Cp.4", "LAYER": "kode bm", "GM_TYPE": "Text", "ELEVATION": 0 }, "geometry": { "type": "Point", "coordinates": [ 762950.930710531421937, 8981589.822266338393092 ] } },
{ "type": "Feature", "properties": { "NAME": "BM MK.4", "LAYER": "kode bm", "GM_TYPE": "Text", "ELEVATION": 0 }, "geometry": { "type": "Point", "coordinates": [ 762950.930710531421937, 8981493.993472035974264 ] } },
{ "type": "Feature", "properties": { "NAME": "Cp.23", "LAYER": "kode bm", "GM_TYPE": "Text", "ELEVATION": 0 }, "geometry": { "type": "Point", "coordinates": [ 765226.630138729815371, 8978153.467661675065756 ] } },
{ "type": "Feature", "properties": { "NAME": "BM MK.23", "LAYER": "kode bm", "GM_TYPE": "Text", "ELEVATION": 0 }, "geometry": { "type": "Point", "coordinates": [ 765228.029789780732244, 8978068.310224628075957 ] } },
{ "type": "Feature", "properties": { "NAME": "BM MK.15", "LAYER": "kode bm", "GM_TYPE": "Text", "ELEVATION": 0 }, "geometry": { "type": "Point", "coordinates": [ 765095.957154792966321, 8979044.677755119279027 ] } },
{ "type": "Feature", "properties": { "NAME": "Cp.15", "LAYER": "kode bm", "GM_TYPE": "Text", "ELEVATION": 0 }, "geometry": { "type": "Point", "coordinates": [ 765097.356805843883194, 8978959.520318072289228 ] } },
{ "type": "Feature", "properties": { "NAME": "Cp.33", "LAYER": "kode bm", "GM_TYPE": "Text", "ELEVATION": 0 }, "geometry": { "type": "Point", "coordinates": [ 765691.300034817890264, 8979027.23823494836688 ] } },
{ "type": "Feature", "properties": { "NAME": "BM MK.33", "LAYER": "kode bm", "GM_TYPE": "Text", "ELEVATION": 0 }, "geometry": { "type": "Point", "coordinates": [ 765692.699685868807137, 8978942.080797901377082 ] } },
{ "type": "Feature", "properties": { "NAME": "Cp.22", "LAYER": "kode bm", "GM_TYPE": "Text", "ELEVATION": 0 }, "geometry": { "type": "Point", "coordinates": [ 764420.984238693956286, 8978905.374874962493777 ] } },
{ "type": "Feature", "properties": { "NAME": "BM MK.22", "LAYER": "kode bm", "GM_TYPE": "Text", "ELEVATION": 0 }, "geometry": { "type": "Point", "coordinates": [ 764422.383889744873159, 8978820.217437915503979 ] } },
{ "type": "Feature", "properties": { "NAME": "BM MK.13", "LAYER": "kode bm", "GM_TYPE": "Text", "ELEVATION": 0 }, "geometry": { "type": "Point", "coordinates": [ 763021.675195597345009, 8978163.128498198464513 ] } },
{ "type": "Feature", "properties": { "NAME": "Cp.20", "LAYER": "kode bm", "GM_TYPE": "Text", "ELEVATION": 0 }, "geometry": { "type": "Point", "coordinates": [ 763023.074846648261882, 8978077.971061151474714 ] } },
{ "type": "Feature", "properties": { "NAME": "Cp.21", "LAYER": "kode bm", "GM_TYPE": "Text", "ELEVATION": 0 }, "geometry": { "type": "Point", "coordinates": [ 763789.865877770003863, 8978923.955333594232798 ] } },
{ "type": "Feature", "properties": { "NAME": "BM MK.21", "LAYER": "kode bm", "GM_TYPE": "Text", "ELEVATION": 0 }, "geometry": { "type": "Point", "coordinates": [ 763791.265528820920736, 8978838.797896547242999 ] } },
{ "type": "Feature", "properties": { "NAME": "Cp.13", "LAYER": "kode bm", "GM_TYPE": "Text", "ELEVATION": 0 }, "geometry": { "type": "Point", "coordinates": [ 762896.775562645168975, 8978555.500956019386649 ] } },
{ "type": "Feature", "properties": { "NAME": "BM MK.13", "LAYER": "kode bm", "GM_TYPE": "Text", "ELEVATION": 0 }, "geometry": { "type": "Point", "coordinates": [ 762898.175213696085848, 8978470.343518972396851 ] } },
{ "type": "Feature", "properties": { "NAME": "BM MK.12", "LAYER": "kode bm", "GM_TYPE": "Text", "ELEVATION": 0 }, "geometry": { "type": "Point", "coordinates": [ 762682.026919847703539, 8979065.795865977182984 ] } },
{ "type": "Feature", "properties": { "NAME": "Cp.12", "LAYER": "kode bm", "GM_TYPE": "Text", "ELEVATION": 0 }, "geometry": { "type": "Point", "coordinates": [ 762683.426570898620412, 8978980.638428930193186 ] } },
{ "type": "Feature", "properties": { "NAME": "Cp.17", "LAYER": "kode bm", "GM_TYPE": "Text", "ELEVATION": 0 }, "geometry": { "type": "Point", "coordinates": [ 761604.461554196896031, 8978968.763985600322485 ] } },
{ "type": "Feature", "properties": { "NAME": "BM MK.17", "LAYER": "kode bm", "GM_TYPE": "Text", "ELEVATION": 0 }, "geometry": { "type": "Point", "coordinates": [ 761605.861205247812904, 8978883.606548553332686 ] } },
{ "type": "Feature", "properties": { "NAME": "Cp.25", "LAYER": "kode bm", "GM_TYPE": "Text", "ELEVATION": 0 }, "geometry": { "type": "Point", "coordinates": [ 760663.206582688726485, 8978358.929540511220694 ] } },
{ "type": "Feature", "properties": { "NAME": "BM MK.25", "LAYER": "kode bm", "GM_TYPE": "Text", "ELEVATION": 0 }, "geometry": { "type": "Point", "coordinates": [ 760664.606233739643358, 8978273.772103464230895 ] } },
{ "type": "Feature", "properties": { "NAME": "BM MK.5", "LAYER": "kode bm", "GM_TYPE": "Text", "ELEVATION": 0 }, "geometry": { "type": "Point", "coordinates": [ 763430.925749027403072, 8980304.825820107012987 ] } },
{ "type": "Feature", "properties": { "NAME": "Cp.5", "LAYER": "kode bm", "GM_TYPE": "Text", "ELEVATION": 0 }, "geometry": { "type": "Point", "coordinates": [ 763432.325400078319944, 8980219.668383060023189 ] } },
{ "type": "Feature", "properties": { "NAME": "BM MK.35", "LAYER": "kode bm", "GM_TYPE": "Text", "ELEVATION": 0 }, "geometry": { "type": "Point", "coordinates": [ 763236.629785680677742, 8980117.763492478057742 ] } },
{ "type": "Feature", "properties": { "NAME": "Cp.35", "LAYER": "kode bm", "GM_TYPE": "Text", "ELEVATION": 0 }, "geometry": { "type": "Point", "coordinates": [ 763238.029436731594615, 8980032.606055431067944 ] } },
{ "type": "Feature", "properties": { "NAME": "BM MK.29", "LAYER": "kode bm", "GM_TYPE": "Text", "ELEVATION": 0 }, "geometry": { "type": "Point", "coordinates": [ 762766.426201602327637, 8980308.126716578379273 ] } },
{ "type": "Feature", "properties": { "NAME": "Cp.29", "LAYER": "kode bm", "GM_TYPE": "Text", "ELEVATION": 0 }, "geometry": { "type": "Point", "coordinates": [ 762767.82585265324451, 8980222.969279531389475 ] } },
{ "type": "Feature", "properties": { "NAME": "BM MK.32", "LAYER": "kode bm", "GM_TYPE": "Text", "ELEVATION": 0 }, "geometry": { "type": "Point", "coordinates": [ 760456.452754838624969, 8977864.264796940609813 ] } },
{ "type": "Feature", "properties": { "NAME": "Cp.32", "LAYER": "kode bm", "GM_TYPE": "Text", "ELEVATION": 0 }, "geometry": { "type": "Point", "coordinates": [ 760457.852405889541842, 8977779.107359893620014 ] } },
{ "type": "Feature", "properties": { "NAME": "Cp.6", "LAYER": "kode bm", "GM_TYPE": "Text", "ELEVATION": 0 }, "geometry": { "type": "Point", "coordinates": [ 762355.222113304305822, 8980165.80985894985497 ] } },
{ "type": "Feature", "properties": { "NAME": "BM MK.6", "LAYER": "kode bm", "GM_TYPE": "Text", "ELEVATION": 0 }, "geometry": { "type": "Point", "coordinates": [ 762356.621764355222695, 8980080.652421902865171 ] } },
{ "type": "Feature", "properties": { "NAME": "Cp.28", "LAYER": "kode bm", "GM_TYPE": "Text", "ELEVATION": 0 }, "geometry": { "type": "Point", "coordinates": [ 761839.599637034232728, 8980027.427311403676867 ] } },
{ "type": "Feature", "properties": { "NAME": "BM MK.28", "LAYER": "kode bm", "GM_TYPE": "Text", "ELEVATION": 0 }, "geometry": { "type": "Point", "coordinates": [ 761840.999288085149601, 8979942.269874356687069 ] } }
]
}
