{
"type": "FeatureCollection",
"name": "09_lo_li_jembatan",
"crs": { "type": "name", "properties": { "name": "urn:ogc:def:crs:EPSG::32751" } },
"features": [
{ "type": "Feature", "properties": { "LAYER": "Jembatan", "GM_TYPE": "Unknown Line Type", "ELEVATION": 45.866 }, "geometry": { "type": "MultiLineString", "coordinates": [ [ [ 764665.655182079877704, 8981909.320252001285553 ], [ 764668.40481792029459, 8981901.381747998297215 ], [ 764389.438417599536479, 8981799.420587027445436 ], [ 764386.607582400436513, 8981807.329412972554564 ], [ 764665.655182079877704, 8981909.320252001285553 ] ] ] } },
{ "type": "Feature", "properties": { "LAYER": "Jembatan", "GM_TYPE": "Unknown Line Type", "ELEVATION": 8.49 }, "geometry": { "type": "MultiLineString", "coordinates": [ [ [ 769748.663351162918843, 8978833.227024536579847 ], [ 769748.646648837020621, 8978829.226975463330746 ], [ 769809.907202753121965, 8978829.36805964820087 ], [ 769809.850797246908769, 8978833.367940351366997 ], [ 769748.663351162918843, 8978833.227024536579847 ] ] ] } },
{ "type": "Feature", "properties": { "LAYER": "Jembatan", "GM_TYPE": "Unknown Line Type", "ELEVATION": 42.257 }, "geometry": { "type": "MultiLineString", "coordinates": [ [ [ 765412.45589611295145, 8982189.395502686500549 ], [ 765415.968103886931203, 8982181.764497313648462 ], [ 765450.666108777630143, 8982197.293156888335943 ], [ 765447.159891222137958, 8982204.926843110471964 ], [ 765412.45589611295145, 8982189.395502686500549 ] ] ] } },
{ "type": "Feature", "properties": { "LAYER": "Jembatan", "GM_TYPE": "Unknown Line Type", "ELEVATION": null }, "geometry": { "type": "MultiLineString", "coordinates": [ [ [ 765943.613845687592402, 8982456.670895619317889 ], [ 765945.537087578093633, 8982457.846836563199759 ], [ 765947.806492601870559, 8982454.310755230486393 ], [ 765950.075897628907114, 8982450.774673899635673 ], [ 765948.330198955838569, 8982449.710795873776078 ], [ 765945.972022320958786, 8982453.190845748409629 ], [ 765943.613845687592402, 8982456.670895619317889 ] ] ] } },
{ "type": "Feature", "properties": { "LAYER": "Jembatan", "GM_TYPE": "Unknown Line Type", "ELEVATION": null }, "geometry": { "type": "MultiLineString", "coordinates": [ [ [ 765679.996185077936389, 8982280.301115795969963 ], [ 765677.569832676555961, 8982279.364717645570636 ], [ 765677.936283370130695, 8982275.004218025133014 ], [ 765678.302734063589014, 8982270.643718402832747 ], [ 765680.626012671971694, 8982271.540337456390262 ], [ 765680.311098874895833, 8982275.920726627111435 ], [ 765679.996185077936389, 8982280.301115795969963 ] ] ] } },
{ "type": "Feature", "properties": { "LAYER": "Jembatan", "GM_TYPE": "Unknown Line Type", "ELEVATION": null }, "geometry": { "type": "MultiLineString", "coordinates": [ [ [ 765991.845119082252495, 8981951.719514526426792 ], [ 765990.163652466842905, 8981950.622615685686469 ], [ 765988.482185849687085, 8981949.525716846808791 ], [ 765987.386492159683257, 8981951.575494136661291 ], [ 765989.079545999644324, 8981952.650716092437506 ], [ 765990.772599838091992, 8981953.725938046351075 ], [ 765991.845119082252495, 8981951.719514526426792 ] ] ] } },
{ "type": "Feature", "properties": { "LAYER": "Jembatan", "GM_TYPE": "Unknown Line Type", "ELEVATION": null }, "geometry": { "type": "MultiLineString", "coordinates": [ [ [ 766804.391581300878897, 8980424.842815099284053 ], [ 766806.081197263440117, 8980425.914675200358033 ], [ 766807.770813227398321, 8980426.986535301432014 ], [ 766802.262481225654483, 8980436.281549023464322 ], [ 766800.420667666825466, 8980435.466514172032475 ], [ 766798.578854109859094, 8980434.651479318737984 ], [ 766804.391581300878897, 8980424.842815099284053 ] ] ] } },
{ "type": "Feature", "properties": { "LAYER": "Jembatan", "GM_TYPE": "Unknown Line Type", "ELEVATION": null }, "geometry": { "type": "MultiLineString", "coordinates": [ [ [ 765055.780225086491555, 8982047.774139393121004 ], [ 765059.78844695049338, 8982049.197417605668306 ], [ 765061.380248932517134, 8982045.305722381919622 ], [ 765062.972050914773718, 8982041.414027158170938 ], [ 765058.868664806010202, 8982039.956957103684545 ], [ 765057.324444945901632, 8982043.865548247471452 ], [ 765055.780225086491555, 8982047.774139393121004 ] ] ] } },
{ "type": "Feature", "properties": { "LAYER": "Jembatan", "GM_TYPE": "Unknown Line Type", "ELEVATION": 44.953 }, "geometry": { "type": "MultiLineString", "coordinates": [ [ [ 764788.912346324184909, 8982185.732319081202149 ], [ 764792.344130484736525, 8982184.538984563201666 ], [ 764790.968800165923312, 8982181.833027271553874 ], [ 764787.736974677653052, 8982183.419779732823372 ], [ 764788.912346324184909, 8982185.732319081202149 ] ] ] } },
{ "type": "Feature", "properties": { "LAYER": "Jembatan", "GM_TYPE": "Unknown Line Type", "ELEVATION": 45.866 }, "geometry": { "type": "MultiLineString", "coordinates": [ [ [ 764665.655182079877704, 8981909.320252001285553 ], [ 764668.40481792029459, 8981901.381747998297215 ], [ 764389.438417599536479, 8981799.420587027445436 ], [ 764386.607582400436513, 8981807.329412972554564 ], [ 764665.655182079877704, 8981909.320252001285553 ] ] ] } },
{ "type": "Feature", "properties": { "LAYER": "Jembatan", "GM_TYPE": "Unknown Line Type", "ELEVATION": 8.49 }, "geometry": { "type": "MultiLineString", "coordinates": [ [ [ 769748.663351162918843, 8978833.227024536579847 ], [ 769748.646648837020621, 8978829.226975463330746 ], [ 769809.907202753121965, 8978829.36805964820087 ], [ 769809.850797246908769, 8978833.367940351366997 ], [ 769748.663351162918843, 8978833.227024536579847 ] ] ] } },
{ "type": "Feature", "properties": { "LAYER": "Jembatan", "GM_TYPE": "Unknown Line Type", "ELEVATION": 42.257 }, "geometry": { "type": "MultiLineString", "coordinates": [ [ [ 765412.45589611295145, 8982189.395502686500549 ], [ 765415.968103886931203, 8982181.764497313648462 ], [ 765450.666108777630143, 8982197.293156888335943 ], [ 765447.159891222137958, 8982204.926843110471964 ], [ 765412.45589611295145, 8982189.395502686500549 ] ] ] } },
{ "type": "Feature", "properties": { "LAYER": "Jembatan", "GM_TYPE": "Unknown Line Type", "ELEVATION": null }, "geometry": { "type": "MultiLineString", "coordinates": [ [ [ 765943.613845687592402, 8982456.670895619317889 ], [ 765945.537087578093633, 8982457.846836563199759 ], [ 765947.806492601870559, 8982454.310755230486393 ], [ 765950.075897628907114, 8982450.774673899635673 ], [ 765948.330198955838569, 8982449.710795873776078 ], [ 765945.972022320958786, 8982453.190845748409629 ], [ 765943.613845687592402, 8982456.670895619317889 ] ] ] } },
{ "type": "Feature", "properties": { "LAYER": "Jembatan", "GM_TYPE": "Unknown Line Type", "ELEVATION": null }, "geometry": { "type": "MultiLineString", "coordinates": [ [ [ 765679.996185077936389, 8982280.301115795969963 ], [ 765677.569832676555961, 8982279.364717645570636 ], [ 765677.936283370130695, 8982275.004218025133014 ], [ 765678.302734063589014, 8982270.643718402832747 ], [ 765680.626012671971694, 8982271.540337456390262 ], [ 765680.311098874895833, 8982275.920726627111435 ], [ 765679.996185077936389, 8982280.301115795969963 ] ] ] } },
{ "type": "Feature", "properties": { "LAYER": "Jembatan", "GM_TYPE": "Unknown Line Type", "ELEVATION": null }, "geometry": { "type": "MultiLineString", "coordinates": [ [ [ 765991.845119082252495, 8981951.719514526426792 ], [ 765990.163652466842905, 8981950.622615685686469 ], [ 765988.482185849687085, 8981949.525716846808791 ], [ 765987.386492159683257, 8981951.575494136661291 ], [ 765989.079545999644324, 8981952.650716092437506 ], [ 765990.772599838091992, 8981953.725938046351075 ], [ 765991.845119082252495, 8981951.719514526426792 ] ] ] } },
{ "type": "Feature", "properties": { "LAYER": "Jembatan", "GM_TYPE": "Unknown Line Type", "ELEVATION": null }, "geometry": { "type": "MultiLineString", "coordinates": [ [ [ 766804.391581300878897, 8980424.842815099284053 ], [ 766806.081197263440117, 8980425.914675200358033 ], [ 766807.770813227398321, 8980426.986535301432014 ], [ 766802.262481225654483, 8980436.281549023464322 ], [ 766800.420667666825466, 8980435.466514172032475 ], [ 766798.578854109859094, 8980434.651479318737984 ], [ 766804.391581300878897, 8980424.842815099284053 ] ] ] } },
{ "type": "Feature", "properties": { "LAYER": "Jembatan", "GM_TYPE": "Unknown Line Type", "ELEVATION": null }, "geometry": { "type": "MultiLineString", "coordinates": [ [ [ 765055.780225086491555, 8982047.774139393121004 ], [ 765059.78844695049338, 8982049.197417605668306 ], [ 765061.380248932517134, 8982045.305722381919622 ], [ 765062.972050914773718, 8982041.414027158170938 ], [ 765058.868664806010202, 8982039.956957103684545 ], [ 765057.324444945901632, 8982043.865548247471452 ], [ 765055.780225086491555, 8982047.774139393121004 ] ] ] } },
{ "type": "Feature", "properties": { "LAYER": "Jembatan", "GM_TYPE": "Unknown Line Type", "ELEVATION": 44.953 }, "geometry": { "type": "MultiLineString", "coordinates": [ [ [ 764788.912346324184909, 8982185.732319081202149 ], [ 764792.344130484736525, 8982184.538984563201666 ], [ 764790.968800165923312, 8982181.833027271553874 ], [ 764787.736974677653052, 8982183.419779732823372 ], [ 764788.912346324184909, 8982185.732319081202149 ] ] ] } }
]
}
