{
"type": "FeatureCollection",
"name": "09_lo_li_salnodata",
"crs": { "type": "name", "properties": { "name": "urn:ogc:def:crs:EPSG::32751" } },
"features": [
{ "type": "Feature", "properties": { "LAYER": "Sal blm ada data", "GM_TYPE": "Unknown Line Type", "ELEVATION": 0 }, "geometry": { "type": "MultiLineString", "coordinates": [ [ [ 763654.53000000002794, 8980543.179999999701977 ], [ 763611.75, 8980517.650000000372529 ], [ 763591.00199999997858, 8980506.904999999329448 ], [ 763569.229999999981374, 8980491.679999999701977 ], [ 763527.67000000004191, 8980462.509999999776483 ], [ 763493.816, 8980437.793999999761581 ], [ 763488.87, 8980429.130000000819564 ], [ 763481.124000000068918, 8980413.898 ], [ 763474.13, 8980379.369999999180436 ], [ 763467.74800000002142, 8980347.845000000670552 ], [ 763483.21999999997206, 8980337.630000000819564 ], [ 763498.847000000067055, 8980323.579 ], [ 763511.12, 8980293.970000000670552 ], [ 763515.850999999907799, 8980282.038999998942018 ], [ 763513.446, 8980259.829 ], [ 763514.74, 8980244.519999999552965 ], [ 763521.746999999973923, 8980235.843000000342727 ], [ 763524.362000000081025, 8980222.447000000625849 ], [ 763515.92000000004191, 8980210.949999999254942 ], [ 763485.290000000037253, 8980172.619999999180436 ], [ 763420.13, 8980149.25 ], [ 763365.0, 8980130.390000000596046 ], [ 763338.25, 8980121.470000000670552 ], [ 763307.76, 8980112.119999999180436 ], [ 763278.400000000023283, 8980101.320000000298023 ], [ 763252.26, 8980085.92 ], [ 763223.21999999997206, 8980065.21000000089407 ], [ 763188.939999999944121, 8980053.429999999701977 ], [ 763150.819999999948777, 8980043.160000000149012 ], [ 763093.910000000032596, 8980044.220000000670552 ], [ 763029.189999999944121, 8980048.679999999701977 ], [ 762960.37, 8980053.08 ], [ 762942.871999999973923, 8980051.615000000223517 ], [ 762909.410000000032596, 8980045.869999999180436 ], [ 762855.24, 8980038.119999999180436 ], [ 762803.60999999998603, 8980028.25 ], [ 762780.539000000106171, 8980031.041000001132488 ], [ 762773.57999999995809, 8980033.650000000372529 ], [ 762747.300000000046566, 8979974.78999999910593 ], [ 762708.24, 8979962.96000000089407 ], [ 762695.334999999962747, 8979951.792000001296401 ], [ 762684.060000000055879, 8979929.310000000521541 ], [ 762654.35999999998603, 8979876.970000000670552 ], [ 762595.12, 8979851.980000000447035 ], [ 762545.180000000051223, 8979809.92 ], [ 762458.099999999976717, 8979789.619999999180436 ], [ 762405.35999999998603, 8979795.119999999180436 ], [ 762383.040000000037253, 8979786.519999999552965 ], [ 762336.60999999998603, 8979767.990000000223517 ], [ 762289.449999999953434, 8979751.019999999552965 ] ] ] } }
]
}
