{
"type": "FeatureCollection",
"name": "09_oe_po_teksbm",
"crs": { "type": "name", "properties": { "name": "urn:ogc:def:crs:EPSG::32751" } },
"features": [
{ "type": "Feature", "properties": { "NAME": "Cp.0", "LAYER": "Texk BM", "GM_TYPE": "Text", "ELEVATION": 0 }, "geometry": { "type": "Point", "coordinates": [ 777738.012496373034082, 8983120.96672141738236 ] } },
{ "type": "Feature", "properties": { "NAME": "34.602", "LAYER": "Texk BM", "GM_TYPE": "Text", "ELEVATION": 0 }, "geometry": { "type": "Point", "coordinates": [ 777769.368559167603962, 8983096.875011775642633 ] } },
{ "type": "Feature", "properties": { "NAME": "Z =", "LAYER": "Texk BM", "GM_TYPE": "Text", "ELEVATION": 0 }, "geometry": { "type": "Point", "coordinates": [ 777714.995862115640193, 8983098.38966753333807 ] } },
{ "type": "Feature", "properties": { "NAME": "8,983,100.171", "LAYER": "Texk BM", "GM_TYPE": "Text", "ELEVATION": 0 }, "geometry": { "type": "Point", "coordinates": [ 777769.609715601312928, 8983104.378704380244017 ] } },
{ "type": "Feature", "properties": { "NAME": "Y =", "LAYER": "Texk BM", "GM_TYPE": "Text", "ELEVATION": 0 }, "geometry": { "type": "Point", "coordinates": [ 777714.99586211272981, 8983106.38966752961278 ] } },
{ "type": "Feature", "properties": { "NAME": "777,823.580", "LAYER": "Texk BM", "GM_TYPE": "Text", "ELEVATION": 0 }, "geometry": { "type": "Point", "coordinates": [ 777769.628240428166464, 8983112.378704382106662 ] } },
{ "type": "Feature", "properties": { "NAME": "X =", "LAYER": "Texk BM", "GM_TYPE": "Text", "ELEVATION": 0 }, "geometry": { "type": "Point", "coordinates": [ 777714.995862109935842, 8983114.38966753706336 ] } },
{ "type": "Feature", "properties": { "NAME": "X =", "LAYER": "Texk BM", "GM_TYPE": "Text", "ELEVATION": 0 }, "geometry": { "type": "Point", "coordinates": [ 777690.564924160367809, 8983157.688456056639552 ] } },
{ "type": "Feature", "properties": { "NAME": "Y =", "LAYER": "Texk BM", "GM_TYPE": "Text", "ELEVATION": 0 }, "geometry": { "type": "Point", "coordinates": [ 777690.564924161415547, 8983149.688456064090133 ] } },
{ "type": "Feature", "properties": { "NAME": "Z =", "LAYER": "Texk BM", "GM_TYPE": "Text", "ELEVATION": 0 }, "geometry": { "type": "Point", "coordinates": [ 777690.564924154779874, 8983141.688456045463681 ] } },
{ "type": "Feature", "properties": { "NAME": "BM OB.0", "LAYER": "Texk BM", "GM_TYPE": "Text", "ELEVATION": 0 }, "geometry": { "type": "Point", "coordinates": [ 777719.121170343249105, 8983163.188907511532307 ] } },
{ "type": "Feature", "properties": { "NAME": "35.000", "LAYER": "Texk BM", "GM_TYPE": "Text", "ELEVATION": 0 }, "geometry": { "type": "Point", "coordinates": [ 777744.914661295944825, 8983140.173800263553858 ] } },
{ "type": "Feature", "properties": { "NAME": "8,983,114.203", "LAYER": "Texk BM", "GM_TYPE": "Text", "ELEVATION": 0 }, "geometry": { "type": "Point", "coordinates": [ 777745.178777641966008, 8983147.677492871880531 ] } },
{ "type": "Feature", "properties": { "NAME": "777,833.305", "LAYER": "Texk BM", "GM_TYPE": "Text", "ELEVATION": 0 }, "geometry": { "type": "Point", "coordinates": [ 777745.197302473941818, 8983155.677492866292596 ] } },
{ "type": "Feature", "properties": { "NAME": "X =", "LAYER": "Texk BM", "GM_TYPE": "Text", "ELEVATION": 0 }, "geometry": { "type": "Point", "coordinates": [ 772749.738288543070666, 8982606.03312798216939 ] } },
{ "type": "Feature", "properties": { "NAME": "Y =", "LAYER": "Texk BM", "GM_TYPE": "Text", "ELEVATION": 0 }, "geometry": { "type": "Point", "coordinates": [ 772749.738288544001989, 8982598.03312798961997 ] } },
{ "type": "Feature", "properties": { "NAME": "Z =", "LAYER": "Texk BM", "GM_TYPE": "Text", "ELEVATION": 0 }, "geometry": { "type": "Point", "coordinates": [ 772749.738288537366316, 8982590.033127970993519 ] } },
{ "type": "Feature", "properties": { "NAME": "BM OB.14", "LAYER": "Texk BM", "GM_TYPE": "Text", "ELEVATION": 0 }, "geometry": { "type": "Point", "coordinates": [ 772778.294534726068377, 8982611.533579435199499 ] } },
{ "type": "Feature", "properties": { "NAME": "22.606", "LAYER": "Texk BM", "GM_TYPE": "Text", "ELEVATION": 0 }, "geometry": { "type": "Point", "coordinates": [ 772804.088025678764097, 8982588.51847218722105 ] } },
{ "type": "Feature", "properties": { "NAME": "8,982,613.986", "LAYER": "Texk BM", "GM_TYPE": "Text", "ELEVATION": 0 }, "geometry": { "type": "Point", "coordinates": [ 772804.35214202455245, 8982596.022164797410369 ] } },
{ "type": "Feature", "properties": { "NAME": "772,857.173", "LAYER": "Texk BM", "GM_TYPE": "Text", "ELEVATION": 0 }, "geometry": { "type": "Point", "coordinates": [ 772804.37066685676109, 8982604.022164791822433 ] } },
{ "type": "Feature", "properties": { "NAME": "Cp.14", "LAYER": "Texk BM", "GM_TYPE": "Text", "ELEVATION": 0 }, "geometry": { "type": "Point", "coordinates": [ 772772.924937829957344, 8982656.25533901900053 ] } },
{ "type": "Feature", "properties": { "NAME": "22.556", "LAYER": "Texk BM", "GM_TYPE": "Text", "ELEVATION": 0 }, "geometry": { "type": "Point", "coordinates": [ 772804.281000624527223, 8982632.163629375398159 ] } },
{ "type": "Feature", "properties": { "NAME": "Z =", "LAYER": "Texk BM", "GM_TYPE": "Text", "ELEVATION": 0 }, "geometry": { "type": "Point", "coordinates": [ 772749.908303572447039, 8982633.67828513123095 ] } },
{ "type": "Feature", "properties": { "NAME": "8,982,635.459", "LAYER": "Texk BM", "GM_TYPE": "Text", "ELEVATION": 0 }, "geometry": { "type": "Point", "coordinates": [ 772804.522157058236189, 8982639.667321978136897 ] } },
{ "type": "Feature", "properties": { "NAME": "Y =", "LAYER": "Texk BM", "GM_TYPE": "Text", "ELEVATION": 0 }, "geometry": { "type": "Point", "coordinates": [ 772749.908303569653071, 8982641.678285129368305 ] } },
{ "type": "Feature", "properties": { "NAME": "772,858.492", "LAYER": "Texk BM", "GM_TYPE": "Text", "ELEVATION": 0 }, "geometry": { "type": "Point", "coordinates": [ 772804.540681885206141, 8982647.667321983724833 ] } },
{ "type": "Feature", "properties": { "NAME": "X =", "LAYER": "Texk BM", "GM_TYPE": "Text", "ELEVATION": 0 }, "geometry": { "type": "Point", "coordinates": [ 772749.908303566742688, 8982649.678285136818886 ] } },
{ "type": "Feature", "properties": { "NAME": "X =", "LAYER": "Texk BM", "GM_TYPE": "Text", "ELEVATION": 0 }, "geometry": { "type": "Point", "coordinates": [ 773266.465588093269616, 8983186.974638553336263 ] } },
{ "type": "Feature", "properties": { "NAME": "Y =", "LAYER": "Texk BM", "GM_TYPE": "Text", "ELEVATION": 0 }, "geometry": { "type": "Point", "coordinates": [ 773266.465588094317354, 8983178.974638560786843 ] } },
{ "type": "Feature", "properties": { "NAME": "Z =", "LAYER": "Texk BM", "GM_TYPE": "Text", "ELEVATION": 0 }, "geometry": { "type": "Point", "coordinates": [ 773266.465588087798096, 8983170.974638540297747 ] } },
{ "type": "Feature", "properties": { "NAME": "BM OB.13", "LAYER": "Texk BM", "GM_TYPE": "Text", "ELEVATION": 0 }, "geometry": { "type": "Point", "coordinates": [ 773295.021834276150912, 8983192.475090006366372 ] } },
{ "type": "Feature", "properties": { "NAME": "23.090", "LAYER": "Texk BM", "GM_TYPE": "Text", "ELEVATION": 0 }, "geometry": { "type": "Point", "coordinates": [ 773320.815325229079463, 8983169.459982758387923 ] } },
{ "type": "Feature", "properties": { "NAME": "8,983,135.549", "LAYER": "Texk BM", "GM_TYPE": "Text", "ELEVATION": 0 }, "geometry": { "type": "Point", "coordinates": [ 773321.079441574751399, 8983176.963675366714597 ] } },
{ "type": "Feature", "properties": { "NAME": "773,385.119", "LAYER": "Texk BM", "GM_TYPE": "Text", "ELEVATION": 0 }, "geometry": { "type": "Point", "coordinates": [ 773321.097966406843625, 8983184.963675362989306 ] } },
{ "type": "Feature", "properties": { "NAME": "Cp.13", "LAYER": "Texk BM", "GM_TYPE": "Text", "ELEVATION": 0 }, "geometry": { "type": "Point", "coordinates": [ 773289.086513116024435, 8983152.232752770185471 ] } },
{ "type": "Feature", "properties": { "NAME": "22.947", "LAYER": "Texk BM", "GM_TYPE": "Text", "ELEVATION": 0 }, "geometry": { "type": "Point", "coordinates": [ 773320.442575910594314, 8983128.141043126583099 ] } },
{ "type": "Feature", "properties": { "NAME": "Z =", "LAYER": "Texk BM", "GM_TYPE": "Text", "ELEVATION": 0 }, "geometry": { "type": "Point", "coordinates": [ 773266.06987885851413, 8983129.655698884278536 ] } },
{ "type": "Feature", "properties": { "NAME": "8,983,131.437", "LAYER": "Texk BM", "GM_TYPE": "Text", "ELEVATION": 0 }, "geometry": { "type": "Point", "coordinates": [ 773320.68373234430328, 8983135.644735731184483 ] } },
{ "type": "Feature", "properties": { "NAME": "Y =", "LAYER": "Texk BM", "GM_TYPE": "Text", "ELEVATION": 0 }, "geometry": { "type": "Point", "coordinates": [ 773266.069878855603747, 8983137.655698880553246 ] } },
{ "type": "Feature", "properties": { "NAME": "773,374.654", "LAYER": "Texk BM", "GM_TYPE": "Text", "ELEVATION": 0 }, "geometry": { "type": "Point", "coordinates": [ 773320.702257171273232, 8983143.644735734909773 ] } },
{ "type": "Feature", "properties": { "NAME": "X =", "LAYER": "Texk BM", "GM_TYPE": "Text", "ELEVATION": 0 }, "geometry": { "type": "Point", "coordinates": [ 773266.06987885304261, 8983145.655698889866471 ] } },
{ "type": "Feature", "properties": { "NAME": "X =", "LAYER": "Texk BM", "GM_TYPE": "Text", "ELEVATION": 0 }, "geometry": { "type": "Point", "coordinates": [ 773851.61780671926681, 8983738.592042280361056 ] } },
{ "type": "Feature", "properties": { "NAME": "Y =", "LAYER": "Texk BM", "GM_TYPE": "Text", "ELEVATION": 0 }, "geometry": { "type": "Point", "coordinates": [ 773851.617806720430963, 8983730.592042287811637 ] } },
{ "type": "Feature", "properties": { "NAME": "Z =", "LAYER": "Texk BM", "GM_TYPE": "Text", "ELEVATION": 0 }, "geometry": { "type": "Point", "coordinates": [ 773851.617806713795289, 8983722.592042269185185 ] } },
{ "type": "Feature", "properties": { "NAME": "BM OB.5", "LAYER": "Texk BM", "GM_TYPE": "Text", "ELEVATION": 0 }, "geometry": { "type": "Point", "coordinates": [ 773880.174052902264521, 8983744.092493733391166 ] } },
{ "type": "Feature", "properties": { "NAME": "21.732", "LAYER": "Texk BM", "GM_TYPE": "Text", "ELEVATION": 0 }, "geometry": { "type": "Point", "coordinates": [ 773905.967543855076656, 8983721.077386485412717 ] } },
{ "type": "Feature", "properties": { "NAME": "8,983,758.235", "LAYER": "Texk BM", "GM_TYPE": "Text", "ELEVATION": 0 }, "geometry": { "type": "Point", "coordinates": [ 773906.231660200981423, 8983728.581079095602036 ] } },
{ "type": "Feature", "properties": { "NAME": "773,943.118", "LAYER": "Texk BM", "GM_TYPE": "Text", "ELEVATION": 0 }, "geometry": { "type": "Point", "coordinates": [ 773906.250185033073649, 8983736.581079091876745 ] } },
{ "type": "Feature", "properties": { "NAME": "Cp.5", "LAYER": "Texk BM", "GM_TYPE": "Text", "ELEVATION": 0 }, "geometry": { "type": "Point", "coordinates": [ 773874.075980033143423, 8983792.64218139089644 ] } },
{ "type": "Feature", "properties": { "NAME": "22.111", "LAYER": "Texk BM", "GM_TYPE": "Text", "ELEVATION": 0 }, "geometry": { "type": "Point", "coordinates": [ 773905.432042827713303, 8983768.550471745431423 ] } },
{ "type": "Feature", "properties": { "NAME": "Z =", "LAYER": "Texk BM", "GM_TYPE": "Text", "ELEVATION": 0 }, "geometry": { "type": "Point", "coordinates": [ 773851.059345775516704, 8983770.06512750312686 ] } },
{ "type": "Feature", "properties": { "NAME": "8,983,771.846", "LAYER": "Texk BM", "GM_TYPE": "Text", "ELEVATION": 0 }, "geometry": { "type": "Point", "coordinates": [ 773905.673199261305854, 8983776.054164350032806 ] } },
{ "type": "Feature", "properties": { "NAME": "Y =", "LAYER": "Texk BM", "GM_TYPE": "Text", "ELEVATION": 0 }, "geometry": { "type": "Point", "coordinates": [ 773851.059345772839151, 8983778.065127499401569 ] } },
{ "type": "Feature", "properties": { "NAME": "773,959.643", "LAYER": "Texk BM", "GM_TYPE": "Text", "ELEVATION": 0 }, "geometry": { "type": "Point", "coordinates": [ 773905.691724088275805, 8983784.054164353758097 ] } },
{ "type": "Feature", "properties": { "NAME": "X =", "LAYER": "Texk BM", "GM_TYPE": "Text", "ELEVATION": 0 }, "geometry": { "type": "Point", "coordinates": [ 773851.059345770045184, 8983786.06512750685215 ] } },
{ "type": "Feature", "properties": { "NAME": "X =", "LAYER": "Texk BM", "GM_TYPE": "Text", "ELEVATION": 0 }, "geometry": { "type": "Point", "coordinates": [ 774391.316276923520491, 8983500.935621103271842 ] } },
{ "type": "Feature", "properties": { "NAME": "Y =", "LAYER": "Texk BM", "GM_TYPE": "Text", "ELEVATION": 0 }, "geometry": { "type": "Point", "coordinates": [ 774391.316276924335398, 8983492.935621110722423 ] } },
{ "type": "Feature", "properties": { "NAME": "Z =", "LAYER": "Texk BM", "GM_TYPE": "Text", "ELEVATION": 0 }, "geometry": { "type": "Point", "coordinates": [ 774391.31627691781614, 8983484.935621092095971 ] } },
{ "type": "Feature", "properties": { "NAME": "BM OB.4", "LAYER": "Texk BM", "GM_TYPE": "Text", "ELEVATION": 0 }, "geometry": { "type": "Point", "coordinates": [ 774419.872523106401786, 8983506.436072556301951 ] } },
{ "type": "Feature", "properties": { "NAME": "24.938", "LAYER": "Texk BM", "GM_TYPE": "Text", "ELEVATION": 0 }, "geometry": { "type": "Point", "coordinates": [ 774445.666014059097506, 8983483.420965310186148 ] } },
{ "type": "Feature", "properties": { "NAME": "8,983,454.259", "LAYER": "Texk BM", "GM_TYPE": "Text", "ELEVATION": 0 }, "geometry": { "type": "Point", "coordinates": [ 774445.930130405118689, 8983490.924657916650176 ] } },
{ "type": "Feature", "properties": { "NAME": "774,492.253", "LAYER": "Texk BM", "GM_TYPE": "Text", "ELEVATION": 0 }, "geometry": { "type": "Point", "coordinates": [ 774445.948655237094499, 8983498.924657912924886 ] } },
{ "type": "Feature", "properties": { "NAME": "Cp.4", "LAYER": "Texk BM", "GM_TYPE": "Text", "ELEVATION": 0 }, "geometry": { "type": "Point", "coordinates": [ 774412.459017085027881, 8983463.767703959718347 ] } },
{ "type": "Feature", "properties": { "NAME": "24.916", "LAYER": "Texk BM", "GM_TYPE": "Text", "ELEVATION": 0 }, "geometry": { "type": "Point", "coordinates": [ 774443.815079879597761, 8983439.675994316115975 ] } },
{ "type": "Feature", "properties": { "NAME": "Z =", "LAYER": "Texk BM", "GM_TYPE": "Text", "ELEVATION": 0 }, "geometry": { "type": "Point", "coordinates": [ 774389.442382827401161, 8983441.190650073811412 ] } },
{ "type": "Feature", "properties": { "NAME": "8,983,442.972", "LAYER": "Texk BM", "GM_TYPE": "Text", "ELEVATION": 0 }, "geometry": { "type": "Point", "coordinates": [ 774444.056236313190311, 8983447.179686920717359 ] } },
{ "type": "Feature", "properties": { "NAME": "Y =", "LAYER": "Texk BM", "GM_TYPE": "Text", "ELEVATION": 0 }, "geometry": { "type": "Point", "coordinates": [ 774389.442382824607193, 8983449.190650070086122 ] } },
{ "type": "Feature", "properties": { "NAME": "774,498.026", "LAYER": "Texk BM", "GM_TYPE": "Text", "ELEVATION": 0 }, "geometry": { "type": "Point", "coordinates": [ 774444.074761140160263, 8983455.179686924442649 ] } },
{ "type": "Feature", "properties": { "NAME": "X =", "LAYER": "Texk BM", "GM_TYPE": "Text", "ELEVATION": 0 }, "geometry": { "type": "Point", "coordinates": [ 774389.442382821929641, 8983457.190650077536702 ] } },
{ "type": "Feature", "properties": { "NAME": "X =", "LAYER": "Texk BM", "GM_TYPE": "Text", "ELEVATION": 0 }, "geometry": { "type": "Point", "coordinates": [ 775814.749544872553088, 8980291.050960592925549 ] } },
{ "type": "Feature", "properties": { "NAME": "Y =", "LAYER": "Texk BM", "GM_TYPE": "Text", "ELEVATION": 0 }, "geometry": { "type": "Point", "coordinates": [ 775814.74954487348441, 8980283.050960600376129 ] } },
{ "type": "Feature", "properties": { "NAME": "Z =", "LAYER": "Texk BM", "GM_TYPE": "Text", "ELEVATION": 0 }, "geometry": { "type": "Point", "coordinates": [ 775814.749544866848737, 8980275.050960581749678 ] } },
{ "type": "Feature", "properties": { "NAME": "BM OB.12", "LAYER": "Texk BM", "GM_TYPE": "Text", "ELEVATION": 0 }, "geometry": { "type": "Point", "coordinates": [ 775843.305791055550799, 8980296.551412047818303 ] } },
{ "type": "Feature", "properties": { "NAME": "9.409", "LAYER": "Texk BM", "GM_TYPE": "Text", "ELEVATION": 0 }, "geometry": { "type": "Point", "coordinates": [ 775869.099282008246519, 8980273.536304797977209 ] } },
{ "type": "Feature", "properties": { "NAME": "8,980,244.375", "LAYER": "Texk BM", "GM_TYPE": "Text", "ELEVATION": 0 }, "geometry": { "type": "Point", "coordinates": [ 775869.363398354151286, 8980281.039997406303883 ] } },
{ "type": "Feature", "properties": { "NAME": "775,915.686", "LAYER": "Texk BM", "GM_TYPE": "Text", "ELEVATION": 0 }, "geometry": { "type": "Point", "coordinates": [ 775869.381923186243512, 8980289.039997402578592 ] } },
{ "type": "Feature", "properties": { "NAME": "Cp.12", "LAYER": "Texk BM", "GM_TYPE": "Text", "ELEVATION": 0 }, "geometry": { "type": "Point", "coordinates": [ 775848.121393844252452, 8980208.172642791643739 ] } },
{ "type": "Feature", "properties": { "NAME": "9.110", "LAYER": "Texk BM", "GM_TYPE": "Text", "ELEVATION": 0 }, "geometry": { "type": "Point", "coordinates": [ 775879.477456638822332, 8980184.080933149904013 ] } },
{ "type": "Feature", "properties": { "NAME": "Z =", "LAYER": "Texk BM", "GM_TYPE": "Text", "ELEVATION": 0 }, "geometry": { "type": "Point", "coordinates": [ 775825.104759586858563, 8980185.595588905736804 ] } },
{ "type": "Feature", "properties": { "NAME": "8,980,237.973", "LAYER": "Texk BM", "GM_TYPE": "Text", "ELEVATION": 0 }, "geometry": { "type": "Point", "coordinates": [ 775879.718613072531298, 8980191.584625752642751 ] } },
{ "type": "Feature", "properties": { "NAME": "Y =", "LAYER": "Texk BM", "GM_TYPE": "Text", "ELEVATION": 0 }, "geometry": { "type": "Point", "coordinates": [ 775825.10475958394818, 8980193.595588902011514 ] } },
{ "type": "Feature", "properties": { "NAME": "775,929.717", "LAYER": "Texk BM", "GM_TYPE": "Text", "ELEVATION": 0 }, "geometry": { "type": "Point", "coordinates": [ 775879.737137899501249, 8980199.584625756368041 ] } },
{ "type": "Feature", "properties": { "NAME": "X =", "LAYER": "Texk BM", "GM_TYPE": "Text", "ELEVATION": 0 }, "geometry": { "type": "Point", "coordinates": [ 775825.104759581154212, 8980201.595588909462094 ] } },
{ "type": "Feature", "properties": { "NAME": "X =", "LAYER": "Texk BM", "GM_TYPE": "Text", "ELEVATION": 0 }, "geometry": { "type": "Point", "coordinates": [ 777287.986869535525329, 8981521.248147992417216 ] } },
{ "type": "Feature", "properties": { "NAME": "Y =", "LAYER": "Texk BM", "GM_TYPE": "Text", "ELEVATION": 0 }, "geometry": { "type": "Point", "coordinates": [ 777287.986869536456652, 8981513.248147999867797 ] } },
{ "type": "Feature", "properties": { "NAME": "Z =", "LAYER": "Texk BM", "GM_TYPE": "Text", "ELEVATION": 0 }, "geometry": { "type": "Point", "coordinates": [ 777287.986869530053809, 8981505.2481479793787 ] } },
{ "type": "Feature", "properties": { "NAME": "BM OB.11", "LAYER": "Texk BM", "GM_TYPE": "Text", "ELEVATION": 0 }, "geometry": { "type": "Point", "coordinates": [ 777316.54311571852304, 8981526.748599445447326 ] } },
{ "type": "Feature", "properties": { "NAME": "16.252", "LAYER": "Texk BM", "GM_TYPE": "Text", "ELEVATION": 0 }, "geometry": { "type": "Point", "coordinates": [ 777342.336606671335176, 8981503.733492197468877 ] } },
{ "type": "Feature", "properties": { "NAME": "8,981,474.572", "LAYER": "Texk BM", "GM_TYPE": "Text", "ELEVATION": 0 }, "geometry": { "type": "Point", "coordinates": [ 777342.600723017239943, 8981511.23718480579555 ] } },
{ "type": "Feature", "properties": { "NAME": "777,388.923", "LAYER": "Texk BM", "GM_TYPE": "Text", "ELEVATION": 0 }, "geometry": { "type": "Point", "coordinates": [ 777342.619247849332169, 8981519.23718480207026 ] } },
{ "type": "Feature", "properties": { "NAME": "Cp.11", "LAYER": "Texk BM", "GM_TYPE": "Text", "ELEVATION": 0 }, "geometry": { "type": "Point", "coordinates": [ 777282.324988928390667, 8981452.204770341515541 ] } },
{ "type": "Feature", "properties": { "NAME": "16.169", "LAYER": "Texk BM", "GM_TYPE": "Text", "ELEVATION": 0 }, "geometry": { "type": "Point", "coordinates": [ 777313.681051722844131, 8981428.11306069791317 ] } },
{ "type": "Feature", "properties": { "NAME": "Z =", "LAYER": "Texk BM", "GM_TYPE": "Text", "ELEVATION": 0 }, "geometry": { "type": "Point", "coordinates": [ 777259.308354670763947, 8981429.627716455608606 ] } },
{ "type": "Feature", "properties": { "NAME": "8,981,482.005", "LAYER": "Texk BM", "GM_TYPE": "Text", "ELEVATION": 0 }, "geometry": { "type": "Point", "coordinates": [ 777313.922208156553097, 8981435.616753302514553 ] } },
{ "type": "Feature", "properties": { "NAME": "Y =", "LAYER": "Texk BM", "GM_TYPE": "Text", "ELEVATION": 0 }, "geometry": { "type": "Point", "coordinates": [ 777259.308354667969979, 8981437.627716451883316 ] } },
{ "type": "Feature", "properties": { "NAME": "777,363.920", "LAYER": "Texk BM", "GM_TYPE": "Text", "ELEVATION": 0 }, "geometry": { "type": "Point", "coordinates": [ 777313.940732983639464, 8981443.616753306239843 ] } },
{ "type": "Feature", "properties": { "NAME": "X =", "LAYER": "Texk BM", "GM_TYPE": "Text", "ELEVATION": 0 }, "geometry": { "type": "Point", "coordinates": [ 777259.308354665176012, 8981445.627716459333897 ] } },
{ "type": "Feature", "properties": { "NAME": "X =", "LAYER": "Texk BM", "GM_TYPE": "Text", "ELEVATION": 0 }, "geometry": { "type": "Point", "coordinates": [ 775015.572621574043296, 8979828.344977607950568 ] } },
{ "type": "Feature", "properties": { "NAME": "Y =", "LAYER": "Texk BM", "GM_TYPE": "Text", "ELEVATION": 0 }, "geometry": { "type": "Point", "coordinates": [ 775015.572621574974619, 8979820.344977615401149 ] } },
{ "type": "Feature", "properties": { "NAME": "Z =", "LAYER": "Texk BM", "GM_TYPE": "Text", "ELEVATION": 0 }, "geometry": { "type": "Point", "coordinates": [ 775015.572621568455361, 8979812.344977596774697 ] } },
{ "type": "Feature", "properties": { "NAME": "BM OB.10", "LAYER": "Texk BM", "GM_TYPE": "Text", "ELEVATION": 0 }, "geometry": { "type": "Point", "coordinates": [ 775044.128867757041007, 8979833.845429060980678 ] } },
{ "type": "Feature", "properties": { "NAME": "9.127", "LAYER": "Texk BM", "GM_TYPE": "Text", "ELEVATION": 0 }, "geometry": { "type": "Point", "coordinates": [ 775069.922358709853142, 8979810.830321813002229 ] } },
{ "type": "Feature", "properties": { "NAME": "8,979,873.799", "LAYER": "Texk BM", "GM_TYPE": "Text", "ELEVATION": 0 }, "geometry": { "type": "Point", "coordinates": [ 775070.18647505575791, 8979818.334014421328902 ] } },
{ "type": "Feature", "properties": { "NAME": "775,115.083", "LAYER": "Texk BM", "GM_TYPE": "Text", "ELEVATION": 0 }, "geometry": { "type": "Point", "coordinates": [ 775070.204999887850136, 8979826.334014417603612 ] } },
{ "type": "Feature", "properties": { "NAME": "Cp.10", "LAYER": "Texk BM", "GM_TYPE": "Text", "ELEVATION": 0 }, "geometry": { "type": "Point", "coordinates": [ 775038.865529524278827, 8979872.942469760775566 ] } },
{ "type": "Feature", "properties": { "NAME": "8.863", "LAYER": "Texk BM", "GM_TYPE": "Text", "ELEVATION": 0 }, "geometry": { "type": "Point", "coordinates": [ 775070.221592318848707, 8979848.850760117173195 ] } },
{ "type": "Feature", "properties": { "NAME": "Z =", "LAYER": "Texk BM", "GM_TYPE": "Text", "ELEVATION": 0 }, "geometry": { "type": "Point", "coordinates": [ 775015.848895266768523, 8979850.365415876731277 ] } },
{ "type": "Feature", "properties": { "NAME": "8,979,902.743", "LAYER": "Texk BM", "GM_TYPE": "Text", "ELEVATION": 0 }, "geometry": { "type": "Point", "coordinates": [ 775070.462748752557673, 8979856.354452723637223 ] } },
{ "type": "Feature", "properties": { "NAME": "Y =", "LAYER": "Texk BM", "GM_TYPE": "Text", "ELEVATION": 0 }, "geometry": { "type": "Point", "coordinates": [ 775015.848895263974555, 8979858.365415871143341 ] } },
{ "type": "Feature", "properties": { "NAME": "775,120.461", "LAYER": "Texk BM", "GM_TYPE": "Text", "ELEVATION": 0 }, "geometry": { "type": "Point", "coordinates": [ 775070.481273579644039, 8979864.354452725499868 ] } },
{ "type": "Feature", "properties": { "NAME": "X =", "LAYER": "Texk BM", "GM_TYPE": "Text", "ELEVATION": 0 }, "geometry": { "type": "Point", "coordinates": [ 775015.848895261297002, 8979866.365415880456567 ] } },
{ "type": "Feature", "properties": { "NAME": "X =", "LAYER": "Texk BM", "GM_TYPE": "Text", "ELEVATION": 0 }, "geometry": { "type": "Point", "coordinates": [ 775102.496029704227112, 8980572.813670048490167 ] } },
{ "type": "Feature", "properties": { "NAME": "Y =", "LAYER": "Texk BM", "GM_TYPE": "Text", "ELEVATION": 0 }, "geometry": { "type": "Point", "coordinates": [ 775102.496029705042019, 8980564.813670055940747 ] } },
{ "type": "Feature", "properties": { "NAME": "Z =", "LAYER": "Texk BM", "GM_TYPE": "Text", "ELEVATION": 0 }, "geometry": { "type": "Point", "coordinates": [ 775102.496029698522761, 8980556.813670037314296 ] } },
{ "type": "Feature", "properties": { "NAME": "BM OB.9", "LAYER": "Texk BM", "GM_TYPE": "Text", "ELEVATION": 0 }, "geometry": { "type": "Point", "coordinates": [ 775131.052275886991993, 8980578.314121501520276 ] } },
{ "type": "Feature", "properties": { "NAME": "11.052", "LAYER": "Texk BM", "GM_TYPE": "Text", "ELEVATION": 0 }, "geometry": { "type": "Point", "coordinates": [ 775156.845766839804128, 8980555.299014253541827 ] } },
{ "type": "Feature", "properties": { "NAME": "8,980,618.267", "LAYER": "Texk BM", "GM_TYPE": "Text", "ELEVATION": 0 }, "geometry": { "type": "Point", "coordinates": [ 775157.109883185708895, 8980562.802706861868501 ] } },
{ "type": "Feature", "properties": { "NAME": "775,202.006", "LAYER": "Texk BM", "GM_TYPE": "Text", "ELEVATION": 0 }, "geometry": { "type": "Point", "coordinates": [ 775157.128408017801121, 8980570.80270685814321 ] } },
{ "type": "Feature", "properties": { "NAME": "Cp.9", "LAYER": "Texk BM", "GM_TYPE": "Text", "ELEVATION": 0 }, "geometry": { "type": "Point", "coordinates": [ 775100.716169713647105, 8980656.288291139528155 ] } },
{ "type": "Feature", "properties": { "NAME": "10.933", "LAYER": "Texk BM", "GM_TYPE": "Text", "ELEVATION": 0 }, "geometry": { "type": "Point", "coordinates": [ 775132.072232508216985, 8980632.196581495925784 ] } },
{ "type": "Feature", "properties": { "NAME": "Z =", "LAYER": "Texk BM", "GM_TYPE": "Text", "ELEVATION": 0 }, "geometry": { "type": "Point", "coordinates": [ 775077.699535456020385, 8980633.711237253621221 ] } },
{ "type": "Feature", "properties": { "NAME": "8,980,615.647", "LAYER": "Texk BM", "GM_TYPE": "Text", "ELEVATION": 0 }, "geometry": { "type": "Point", "coordinates": [ 775132.313388941809535, 8980639.700274100527167 ] } },
{ "type": "Feature", "properties": { "NAME": "Y =", "LAYER": "Texk BM", "GM_TYPE": "Text", "ELEVATION": 0 }, "geometry": { "type": "Point", "coordinates": [ 775077.699535453226417, 8980641.71123724989593 ] } },
{ "type": "Feature", "properties": { "NAME": "775,189.970", "LAYER": "Texk BM", "GM_TYPE": "Text", "ELEVATION": 0 }, "geometry": { "type": "Point", "coordinates": [ 775132.331913768779486, 8980647.700274104252458 ] } },
{ "type": "Feature", "properties": { "NAME": "X =", "LAYER": "Texk BM", "GM_TYPE": "Text", "ELEVATION": 0 }, "geometry": { "type": "Point", "coordinates": [ 775077.699535450548865, 8980649.711237257346511 ] } },
{ "type": "Feature", "properties": { "NAME": "X =", "LAYER": "Texk BM", "GM_TYPE": "Text", "ELEVATION": 0 }, "geometry": { "type": "Point", "coordinates": [ 775135.016418696963228, 8981382.75726579874754 ] } },
{ "type": "Feature", "properties": { "NAME": "Y =", "LAYER": "Texk BM", "GM_TYPE": "Text", "ELEVATION": 0 }, "geometry": { "type": "Point", "coordinates": [ 775135.016418697894551, 8981374.75726580619812 ] } },
{ "type": "Feature", "properties": { "NAME": "Z =", "LAYER": "Texk BM", "GM_TYPE": "Text", "ELEVATION": 0 }, "geometry": { "type": "Point", "coordinates": [ 775135.016418691375293, 8981366.757265787571669 ] } },
{ "type": "Feature", "properties": { "NAME": "BM OB.8", "LAYER": "Texk BM", "GM_TYPE": "Text", "ELEVATION": 0 }, "geometry": { "type": "Point", "coordinates": [ 775163.572664879844524, 8981388.257717251777649 ] } },
{ "type": "Feature", "properties": { "NAME": "13.913", "LAYER": "Texk BM", "GM_TYPE": "Text", "ELEVATION": 0 }, "geometry": { "type": "Point", "coordinates": [ 775189.366155832656659, 8981365.242610005661845 ] } },
{ "type": "Feature", "properties": { "NAME": "8,981,428.211", "LAYER": "Texk BM", "GM_TYPE": "Text", "ELEVATION": 0 }, "geometry": { "type": "Point", "coordinates": [ 775189.630272178561427, 8981372.746302612125874 ] } },
{ "type": "Feature", "properties": { "NAME": "775,234.527", "LAYER": "Texk BM", "GM_TYPE": "Text", "ELEVATION": 0 }, "geometry": { "type": "Point", "coordinates": [ 775189.648797010653652, 8981380.746302608400583 ] } },
{ "type": "Feature", "properties": { "NAME": "Cp.8", "LAYER": "Texk BM", "GM_TYPE": "Text", "ELEVATION": 0 }, "geometry": { "type": "Point", "coordinates": [ 775151.336817306815647, 8981484.404882531613111 ] } },
{ "type": "Feature", "properties": { "NAME": "14.121", "LAYER": "Texk BM", "GM_TYPE": "Text", "ELEVATION": 0 }, "geometry": { "type": "Point", "coordinates": [ 775182.692880101269111, 8981460.313172886148095 ] } },
{ "type": "Feature", "properties": { "NAME": "Z =", "LAYER": "Texk BM", "GM_TYPE": "Text", "ELEVATION": 0 }, "geometry": { "type": "Point", "coordinates": [ 775128.320183049188927, 8981461.827828643843532 ] } },
{ "type": "Feature", "properties": { "NAME": "8,981,443.764", "LAYER": "Texk BM", "GM_TYPE": "Text", "ELEVATION": 0 }, "geometry": { "type": "Point", "coordinates": [ 775182.934036534978077, 8981467.816865490749478 ] } },
{ "type": "Feature", "properties": { "NAME": "Y =", "LAYER": "Texk BM", "GM_TYPE": "Text", "ELEVATION": 0 }, "geometry": { "type": "Point", "coordinates": [ 775128.320183046511374, 8981469.827828640118241 ] } },
{ "type": "Feature", "properties": { "NAME": "775,240.591", "LAYER": "Texk BM", "GM_TYPE": "Text", "ELEVATION": 0 }, "geometry": { "type": "Point", "coordinates": [ 775182.952561361948028, 8981475.816865494474769 ] } },
{ "type": "Feature", "properties": { "NAME": "X =", "LAYER": "Texk BM", "GM_TYPE": "Text", "ELEVATION": 0 }, "geometry": { "type": "Point", "coordinates": [ 775128.320183043600991, 8981477.827828647568822 ] } },
{ "type": "Feature", "properties": { "NAME": "X =", "LAYER": "Texk BM", "GM_TYPE": "Text", "ELEVATION": 0 }, "geometry": { "type": "Point", "coordinates": [ 775150.99270677100867, 8981549.422462249174714 ] } },
{ "type": "Feature", "properties": { "NAME": "Y =", "LAYER": "Texk BM", "GM_TYPE": "Text", "ELEVATION": 0 }, "geometry": { "type": "Point", "coordinates": [ 775150.992706771939993, 8981541.422462256625295 ] } },
{ "type": "Feature", "properties": { "NAME": "Z =", "LAYER": "Texk BM", "GM_TYPE": "Text", "ELEVATION": 0 }, "geometry": { "type": "Point", "coordinates": [ 775150.99270676553715, 8981533.422462237998843 ] } },
{ "type": "Feature", "properties": { "NAME": "BM OB.7", "LAYER": "Texk BM", "GM_TYPE": "Text", "ELEVATION": 0 }, "geometry": { "type": "Point", "coordinates": [ 775179.548952953889966, 8981554.922913700342178 ] } },
{ "type": "Feature", "properties": { "NAME": "14.169", "LAYER": "Texk BM", "GM_TYPE": "Text", "ELEVATION": 0 }, "geometry": { "type": "Point", "coordinates": [ 775205.342443906702101, 8981531.907806454226375 ] } },
{ "type": "Feature", "properties": { "NAME": "8,981,594.876", "LAYER": "Texk BM", "GM_TYPE": "Text", "ELEVATION": 0 }, "geometry": { "type": "Point", "coordinates": [ 775205.606560252723284, 8981539.411499062553048 ] } },
{ "type": "Feature", "properties": { "NAME": "775,250.503", "LAYER": "Texk BM", "GM_TYPE": "Text", "ELEVATION": 0 }, "geometry": { "type": "Point", "coordinates": [ 775205.62508508481551, 8981547.411499058827758 ] } },
{ "type": "Feature", "properties": { "NAME": "Cp.7", "LAYER": "Texk BM", "GM_TYPE": "Text", "ELEVATION": 0 }, "geometry": { "type": "Point", "coordinates": [ 775141.20310484059155, 8981631.294641269370914 ] } },
{ "type": "Feature", "properties": { "NAME": "13.860", "LAYER": "Texk BM", "GM_TYPE": "Text", "ELEVATION": 0 }, "geometry": { "type": "Point", "coordinates": [ 775172.559167635045014, 8981607.202931625768542 ] } },
{ "type": "Feature", "properties": { "NAME": "Z =", "LAYER": "Texk BM", "GM_TYPE": "Text", "ELEVATION": 0 }, "geometry": { "type": "Point", "coordinates": [ 775118.186470583081245, 8981608.717587383463979 ] } },
{ "type": "Feature", "properties": { "NAME": "8,981,590.653", "LAYER": "Texk BM", "GM_TYPE": "Text", "ELEVATION": 0 }, "geometry": { "type": "Point", "coordinates": [ 775172.800324068870395, 8981614.706624230369925 ] } },
{ "type": "Feature", "properties": { "NAME": "Y =", "LAYER": "Texk BM", "GM_TYPE": "Text", "ELEVATION": 0 }, "geometry": { "type": "Point", "coordinates": [ 775118.186470580287278, 8981616.717587379738688 ] } },
{ "type": "Feature", "properties": { "NAME": "775,230.457", "LAYER": "Texk BM", "GM_TYPE": "Text", "ELEVATION": 0 }, "geometry": { "type": "Point", "coordinates": [ 775172.818848895840347, 8981622.706624234095216 ] } },
{ "type": "Feature", "properties": { "NAME": "X =", "LAYER": "Texk BM", "GM_TYPE": "Text", "ELEVATION": 0 }, "geometry": { "type": "Point", "coordinates": [ 775118.18647057749331, 8981624.717587387189269 ] } },
{ "type": "Feature", "properties": { "NAME": "X =", "LAYER": "Texk BM", "GM_TYPE": "Text", "ELEVATION": 0 }, "geometry": { "type": "Point", "coordinates": [ 775191.488800079911016, 8982171.126065550372005 ] } },
{ "type": "Feature", "properties": { "NAME": "Y =", "LAYER": "Texk BM", "GM_TYPE": "Text", "ELEVATION": 0 }, "geometry": { "type": "Point", "coordinates": [ 775191.488800080842339, 8982163.12606555595994 ] } },
{ "type": "Feature", "properties": { "NAME": "Z =", "LAYER": "Texk BM", "GM_TYPE": "Text", "ELEVATION": 0 }, "geometry": { "type": "Point", "coordinates": [ 775191.488800074439496, 8982155.126065539196134 ] } },
{ "type": "Feature", "properties": { "NAME": "BM OB.6", "LAYER": "Texk BM", "GM_TYPE": "Text", "ELEVATION": 0 }, "geometry": { "type": "Point", "coordinates": [ 775220.045046262792312, 8982176.626516999676824 ] } },
{ "type": "Feature", "properties": { "NAME": "17.310", "LAYER": "Texk BM", "GM_TYPE": "Text", "ELEVATION": 0 }, "geometry": { "type": "Point", "coordinates": [ 775245.838537215720862, 8982153.61140975356102 ] } },
{ "type": "Feature", "properties": { "NAME": "8,982,216.580", "LAYER": "Texk BM", "GM_TYPE": "Text", "ELEVATION": 0 }, "geometry": { "type": "Point", "coordinates": [ 775246.10265356162563, 8982161.115102361887693 ] } },
{ "type": "Feature", "properties": { "NAME": "775,290.999", "LAYER": "Texk BM", "GM_TYPE": "Text", "ELEVATION": 0 }, "geometry": { "type": "Point", "coordinates": [ 775246.121178393717855, 8982169.115102358162403 ] } },
{ "type": "Feature", "properties": { "NAME": "Cp.6", "LAYER": "Texk BM", "GM_TYPE": "Text", "ELEVATION": 0 }, "geometry": { "type": "Point", "coordinates": [ 775210.778771412675269, 8982254.226891899481416 ] } },
{ "type": "Feature", "properties": { "NAME": "17.241", "LAYER": "Texk BM", "GM_TYPE": "Text", "ELEVATION": 0 }, "geometry": { "type": "Point", "coordinates": [ 775242.134834207245149, 8982230.13518225774169 ] } },
{ "type": "Feature", "properties": { "NAME": "Z =", "LAYER": "Texk BM", "GM_TYPE": "Text", "ELEVATION": 0 }, "geometry": { "type": "Point", "coordinates": [ 775187.762137155164964, 8982231.649838015437126 ] } },
{ "type": "Feature", "properties": { "NAME": "8,982,213.586", "LAYER": "Texk BM", "GM_TYPE": "Text", "ELEVATION": 0 }, "geometry": { "type": "Point", "coordinates": [ 775242.375990640954114, 8982237.638874860480428 ] } },
{ "type": "Feature", "properties": { "NAME": "Y =", "LAYER": "Texk BM", "GM_TYPE": "Text", "ELEVATION": 0 }, "geometry": { "type": "Point", "coordinates": [ 775187.762137152370997, 8982239.649838009849191 ] } },
{ "type": "Feature", "properties": { "NAME": "775,300.032", "LAYER": "Texk BM", "GM_TYPE": "Text", "ELEVATION": 0 }, "geometry": { "type": "Point", "coordinates": [ 775242.394515467924066, 8982245.638874864205718 ] } },
{ "type": "Feature", "properties": { "NAME": "X =", "LAYER": "Texk BM", "GM_TYPE": "Text", "ELEVATION": 0 }, "geometry": { "type": "Point", "coordinates": [ 775187.762137149460614, 8982247.649838017299771 ] } },
{ "type": "Feature", "properties": { "NAME": "X =", "LAYER": "Texk BM", "GM_TYPE": "Text", "ELEVATION": 0 }, "geometry": { "type": "Point", "coordinates": [ 776762.225883034057915, 8983057.364540308713913 ] } },
{ "type": "Feature", "properties": { "NAME": "Y =", "LAYER": "Texk BM", "GM_TYPE": "Text", "ELEVATION": 0 }, "geometry": { "type": "Point", "coordinates": [ 776762.225883034989238, 8983049.364540316164494 ] } },
{ "type": "Feature", "properties": { "NAME": "Z =", "LAYER": "Texk BM", "GM_TYPE": "Text", "ELEVATION": 0 }, "geometry": { "type": "Point", "coordinates": [ 776762.22588302846998, 8983041.364540297538042 ] } },
{ "type": "Feature", "properties": { "NAME": "BM OB.1", "LAYER": "Texk BM", "GM_TYPE": "Text", "ELEVATION": 0 }, "geometry": { "type": "Point", "coordinates": [ 776790.782129216939211, 8983062.864991761744022 ] } },
{ "type": "Feature", "properties": { "NAME": "27.049", "LAYER": "Texk BM", "GM_TYPE": "Text", "ELEVATION": 0 }, "geometry": { "type": "Point", "coordinates": [ 776816.575620169751346, 8983039.849884513765574 ] } },
{ "type": "Feature", "properties": { "NAME": "8,983,102.818", "LAYER": "Texk BM", "GM_TYPE": "Text", "ELEVATION": 0 }, "geometry": { "type": "Point", "coordinates": [ 776816.839736515656114, 8983047.353577122092247 ] } },
{ "type": "Feature", "properties": { "NAME": "776,861.736", "LAYER": "Texk BM", "GM_TYPE": "Text", "ELEVATION": 0 }, "geometry": { "type": "Point", "coordinates": [ 776816.858261347748339, 8983055.353577118366957 ] } },
{ "type": "Feature", "properties": { "NAME": "Cp.1", "LAYER": "Texk BM", "GM_TYPE": "Text", "ELEVATION": 0 }, "geometry": { "type": "Point", "coordinates": [ 776810.942842845455743, 8983166.705005249008536 ] } },
{ "type": "Feature", "properties": { "NAME": "27.169", "LAYER": "Texk BM", "GM_TYPE": "Text", "ELEVATION": 0 }, "geometry": { "type": "Point", "coordinates": [ 776842.298905640025623, 8983142.61329560726881 ] } },
{ "type": "Feature", "properties": { "NAME": "Z =", "LAYER": "Texk BM", "GM_TYPE": "Text", "ELEVATION": 0 }, "geometry": { "type": "Point", "coordinates": [ 776787.926208587829024, 8983144.127951363101602 ] } },
{ "type": "Feature", "properties": { "NAME": "8,983,095.016", "LAYER": "Texk BM", "GM_TYPE": "Text", "ELEVATION": 0 }, "geometry": { "type": "Point", "coordinates": [ 776842.540062073734589, 8983150.116988211870193 ] } },
{ "type": "Feature", "properties": { "NAME": "Y =", "LAYER": "Texk BM", "GM_TYPE": "Text", "ELEVATION": 0 }, "geometry": { "type": "Point", "coordinates": [ 776787.926208585035056, 8983152.127951359376311 ] } },
{ "type": "Feature", "properties": { "NAME": "776,882.851", "LAYER": "Texk BM", "GM_TYPE": "Text", "ELEVATION": 0 }, "geometry": { "type": "Point", "coordinates": [ 776842.55858690070454, 8983158.116988213732839 ] } },
{ "type": "Feature", "properties": { "NAME": "X =", "LAYER": "Texk BM", "GM_TYPE": "Text", "ELEVATION": 0 }, "geometry": { "type": "Point", "coordinates": [ 776787.926208582357503, 8983160.127951368689537 ] } },
{ "type": "Feature", "properties": { "NAME": "X =", "LAYER": "Texk BM", "GM_TYPE": "Text", "ELEVATION": 0 }, "geometry": { "type": "Point", "coordinates": [ 775519.951089835376479, 8982971.833186909556389 ] } },
{ "type": "Feature", "properties": { "NAME": "Y =", "LAYER": "Texk BM", "GM_TYPE": "Text", "ELEVATION": 0 }, "geometry": { "type": "Point", "coordinates": [ 775519.951089836307801, 8982963.833186915144324 ] } },
{ "type": "Feature", "properties": { "NAME": "Z =", "LAYER": "Texk BM", "GM_TYPE": "Text", "ELEVATION": 0 }, "geometry": { "type": "Point", "coordinates": [ 775519.951089829788543, 8982955.833186898380518 ] } },
{ "type": "Feature", "properties": { "NAME": "BM OB.2", "LAYER": "Texk BM", "GM_TYPE": "Text", "ELEVATION": 0 }, "geometry": { "type": "Point", "coordinates": [ 775548.507336018257774, 8982977.333638362586498 ] } },
{ "type": "Feature", "properties": { "NAME": "27.503", "LAYER": "Texk BM", "GM_TYPE": "Text", "ELEVATION": 0 }, "geometry": { "type": "Point", "coordinates": [ 775574.300826970953494, 8982954.318531114608049 ] } },
{ "type": "Feature", "properties": { "NAME": "8,982,919.431", "LAYER": "Texk BM", "GM_TYPE": "Text", "ELEVATION": 0 }, "geometry": { "type": "Point", "coordinates": [ 775578.229007217683829, 8982961.822223722934723 ] } },
{ "type": "Feature", "properties": { "NAME": "775,649.344", "LAYER": "Texk BM", "GM_TYPE": "Text", "ELEVATION": 0 }, "geometry": { "type": "Point", "coordinates": [ 775574.583468149066903, 8982969.822223719209433 ] } },
{ "type": "Feature", "properties": { "NAME": "Cp.2", "LAYER": "Texk BM", "GM_TYPE": "Text", "ELEVATION": 0 }, "geometry": { "type": "Point", "coordinates": [ 775544.674651462701149, 8982938.530550718307495 ] } },
{ "type": "Feature", "properties": { "NAME": "27.332", "LAYER": "Texk BM", "GM_TYPE": "Text", "ELEVATION": 0 }, "geometry": { "type": "Point", "coordinates": [ 775576.030714257271029, 8982914.438841074705124 ] } },
{ "type": "Feature", "properties": { "NAME": "Z =", "LAYER": "Texk BM", "GM_TYPE": "Text", "ELEVATION": 0 }, "geometry": { "type": "Point", "coordinates": [ 775521.658017205190845, 8982915.953496830537915 ] } },
{ "type": "Feature", "properties": { "NAME": "8,982,910.330", "LAYER": "Texk BM", "GM_TYPE": "Text", "ELEVATION": 0 }, "geometry": { "type": "Point", "coordinates": [ 775576.271870690979995, 8982921.942533677443862 ] } },
{ "type": "Feature", "properties": { "NAME": "Y =", "LAYER": "Texk BM", "GM_TYPE": "Text", "ELEVATION": 0 }, "geometry": { "type": "Point", "coordinates": [ 775521.658017202396877, 8982923.95349682867527 ] } },
{ "type": "Feature", "properties": { "NAME": "775,634.854", "LAYER": "Texk BM", "GM_TYPE": "Text", "ELEVATION": 0 }, "geometry": { "type": "Point", "coordinates": [ 775576.290395517949946, 8982929.942533683031797 ] } },
{ "type": "Feature", "properties": { "NAME": "X =", "LAYER": "Texk BM", "GM_TYPE": "Text", "ELEVATION": 0 }, "geometry": { "type": "Point", "coordinates": [ 775521.658017199602909, 8982931.953496834263206 ] } },
{ "type": "Feature", "properties": { "NAME": "X =", "LAYER": "Texk BM", "GM_TYPE": "Text", "ELEVATION": 0 }, "geometry": { "type": "Point", "coordinates": [ 775298.630066020763479, 8982754.058856587857008 ] } },
{ "type": "Feature", "properties": { "NAME": "Y =", "LAYER": "Texk BM", "GM_TYPE": "Text", "ELEVATION": 0 }, "geometry": { "type": "Point", "coordinates": [ 775298.630066021694802, 8982746.058856593444943 ] } },
{ "type": "Feature", "properties": { "NAME": "Z =", "LAYER": "Texk BM", "GM_TYPE": "Text", "ELEVATION": 0 }, "geometry": { "type": "Point", "coordinates": [ 775298.630066015059128, 8982738.058856576681137 ] } },
{ "type": "Feature", "properties": { "NAME": "BM OB.3", "LAYER": "Texk BM", "GM_TYPE": "Text", "ELEVATION": 0 }, "geometry": { "type": "Point", "coordinates": [ 775327.186312203644775, 8982759.559308040887117 ] } },
{ "type": "Feature", "properties": { "NAME": "26.388", "LAYER": "Texk BM", "GM_TYPE": "Text", "ELEVATION": 0 }, "geometry": { "type": "Point", "coordinates": [ 775352.97980315645691, 8982736.544200792908669 ] } },
{ "type": "Feature", "properties": { "NAME": "8,982,818.732", "LAYER": "Texk BM", "GM_TYPE": "Text", "ELEVATION": 0 }, "geometry": { "type": "Point", "coordinates": [ 775353.243919502361678, 8982744.047893401235342 ] } },
{ "type": "Feature", "properties": { "NAME": "775,429.882", "LAYER": "Texk BM", "GM_TYPE": "Text", "ELEVATION": 0 }, "geometry": { "type": "Point", "coordinates": [ 775353.262444334453903, 8982752.047893397510052 ] } },
{ "type": "Feature", "properties": { "NAME": "Cp.3", "LAYER": "Texk BM", "GM_TYPE": "Text", "ELEVATION": 0 }, "geometry": { "type": "Point", "coordinates": [ 775333.432572103221901, 8982818.462578993290663 ] } },
{ "type": "Feature", "properties": { "NAME": "26.304", "LAYER": "Texk BM", "GM_TYPE": "Text", "ELEVATION": 0 }, "geometry": { "type": "Point", "coordinates": [ 775364.788634897791781, 8982794.370869349688292 ] } },
{ "type": "Feature", "properties": { "NAME": "Z =", "LAYER": "Texk BM", "GM_TYPE": "Text", "ELEVATION": 0 }, "geometry": { "type": "Point", "coordinates": [ 775310.415937845828012, 8982795.885525105521083 ] } },
{ "type": "Feature", "properties": { "NAME": "8,982,817.338", "LAYER": "Texk BM", "GM_TYPE": "Text", "ELEVATION": 0 }, "geometry": { "type": "Point", "coordinates": [ 775365.029791331617162, 8982801.874561954289675 ] } },
{ "type": "Feature", "properties": { "NAME": "Y =", "LAYER": "Texk BM", "GM_TYPE": "Text", "ELEVATION": 0 }, "geometry": { "type": "Point", "coordinates": [ 775310.415937843034044, 8982803.885525103658438 ] } },
{ "type": "Feature", "properties": { "NAME": "775,421.298", "LAYER": "Texk BM", "GM_TYPE": "Text", "ELEVATION": 0 }, "geometry": { "type": "Point", "coordinates": [ 775365.048316158470698, 8982809.874561958014965 ] } },
{ "type": "Feature", "properties": { "NAME": "X =", "LAYER": "Texk BM", "GM_TYPE": "Text", "ELEVATION": 0 }, "geometry": { "type": "Point", "coordinates": [ 775310.415937840123661, 8982811.885525109246373 ] } },
{ "type": "Feature", "properties": { "NAME": "X =", "LAYER": "Texk BM", "GM_TYPE": "Text", "ELEVATION": 0 }, "geometry": { "type": "Point", "coordinates": [ 776613.827500839950517, 8981905.463436065241694 ] } },
{ "type": "Feature", "properties": { "NAME": "Y =", "LAYER": "Texk BM", "GM_TYPE": "Text", "ELEVATION": 0 }, "geometry": { "type": "Point", "coordinates": [ 776613.827500840765424, 8981897.463436072692275 ] } },
{ "type": "Feature", "properties": { "NAME": "Z =", "LAYER": "Texk BM", "GM_TYPE": "Text", "ELEVATION": 0 }, "geometry": { "type": "Point", "coordinates": [ 776613.827500834246166, 8981889.463436054065824 ] } },
{ "type": "Feature", "properties": { "NAME": "BM OB.15", "LAYER": "Texk BM", "GM_TYPE": "Text", "ELEVATION": 0 }, "geometry": { "type": "Point", "coordinates": [ 776642.383747022948228, 8981910.963887518271804 ] } },
{ "type": "Feature", "properties": { "NAME": "17.774", "LAYER": "Texk BM", "GM_TYPE": "Text", "ELEVATION": 0 }, "geometry": { "type": "Point", "coordinates": [ 776668.177237975643948, 8981887.948780270293355 ] } },
{ "type": "Feature", "properties": { "NAME": "8,981,930.454", "LAYER": "Texk BM", "GM_TYPE": "Text", "ELEVATION": 0 }, "geometry": { "type": "Point", "coordinates": [ 776668.441354321548715, 8981895.452472880482674 ] } },
{ "type": "Feature", "properties": { "NAME": "776,701.487", "LAYER": "Texk BM", "GM_TYPE": "Text", "ELEVATION": 0 }, "geometry": { "type": "Point", "coordinates": [ 776668.459879153640941, 8981903.452472876757383 ] } },
{ "type": "Feature", "properties": { "NAME": "Cp.15", "LAYER": "Texk BM", "GM_TYPE": "Text", "ELEVATION": 0 }, "geometry": { "type": "Point", "coordinates": [ 776642.944388936390169, 8981958.488459860906005 ] } },
{ "type": "Feature", "properties": { "NAME": "17.890", "LAYER": "Texk BM", "GM_TYPE": "Text", "ELEVATION": 0 }, "geometry": { "type": "Point", "coordinates": [ 776674.300451730960049, 8981934.396750217303634 ] } },
{ "type": "Feature", "properties": { "NAME": "Z =", "LAYER": "Texk BM", "GM_TYPE": "Text", "ELEVATION": 0 }, "geometry": { "type": "Point", "coordinates": [ 776619.927754678879865, 8981935.911405973136425 ] } },
{ "type": "Feature", "properties": { "NAME": "8,981,933.760", "LAYER": "Texk BM", "GM_TYPE": "Text", "ELEVATION": 0 }, "geometry": { "type": "Point", "coordinates": [ 776674.541608164669015, 8981941.900442821905017 ] } },
{ "type": "Feature", "properties": { "NAME": "Y =", "LAYER": "Texk BM", "GM_TYPE": "Text", "ELEVATION": 0 }, "geometry": { "type": "Point", "coordinates": [ 776619.927754675969481, 8981943.91140597127378 ] } },
{ "type": "Feature", "properties": { "NAME": "776,711.694", "LAYER": "Texk BM", "GM_TYPE": "Text", "ELEVATION": 0 }, "geometry": { "type": "Point", "coordinates": [ 776674.560132991755381, 8981949.900442825630307 ] } },
{ "type": "Feature", "properties": { "NAME": "X =", "LAYER": "Texk BM", "GM_TYPE": "Text", "ELEVATION": 0 }, "geometry": { "type": "Point", "coordinates": [ 776619.927754673408344, 8981951.91140597872436 ] } },
{ "type": "Feature", "properties": { "NAME": "X =", "LAYER": "Texk BM", "GM_TYPE": "Text", "ELEVATION": 0 }, "geometry": { "type": "Point", "coordinates": [ 776554.61014502204489, 8980670.860001023858786 ] } },
{ "type": "Feature", "properties": { "NAME": "Y =", "LAYER": "Texk BM", "GM_TYPE": "Text", "ELEVATION": 0 }, "geometry": { "type": "Point", "coordinates": [ 776554.610145022976212, 8980662.860001031309366 ] } },
{ "type": "Feature", "properties": { "NAME": "Z =", "LAYER": "Texk BM", "GM_TYPE": "Text", "ELEVATION": 0 }, "geometry": { "type": "Point", "coordinates": [ 776554.61014501657337, 8980654.86000101454556 ] } },
{ "type": "Feature", "properties": { "NAME": "BM OB.16", "LAYER": "Texk BM", "GM_TYPE": "Text", "ELEVATION": 0 }, "geometry": { "type": "Point", "coordinates": [ 776583.166391205042601, 8980676.36045247875154 ] } },
{ "type": "Feature", "properties": { "NAME": "12.682", "LAYER": "Texk BM", "GM_TYPE": "Text", "ELEVATION": 0 }, "geometry": { "type": "Point", "coordinates": [ 776608.959882157738321, 8980653.345345230773091 ] } },
{ "type": "Feature", "properties": { "NAME": "8,980,695.851", "LAYER": "Texk BM", "GM_TYPE": "Text", "ELEVATION": 0 }, "geometry": { "type": "Point", "coordinates": [ 776609.223998503643088, 8980660.849037839099765 ] } },
{ "type": "Feature", "properties": { "NAME": "776,642.269", "LAYER": "Texk BM", "GM_TYPE": "Text", "ELEVATION": 0 }, "geometry": { "type": "Point", "coordinates": [ 776609.242523335735314, 8980668.84903783723712 ] } },
{ "type": "Feature", "properties": { "NAME": "Cp.16", "LAYER": "Texk BM", "GM_TYPE": "Text", "ELEVATION": 0 }, "geometry": { "type": "Point", "coordinates": [ 776565.177525507635437, 8980729.782359521836042 ] } },
{ "type": "Feature", "properties": { "NAME": "12.716", "LAYER": "Texk BM", "GM_TYPE": "Text", "ELEVATION": 0 }, "geometry": { "type": "Point", "coordinates": [ 776596.533588302088901, 8980705.690649878233671 ] } },
{ "type": "Feature", "properties": { "NAME": "Z =", "LAYER": "Texk BM", "GM_TYPE": "Text", "ELEVATION": 0 }, "geometry": { "type": "Point", "coordinates": [ 776542.160891250008717, 8980707.205305635929108 ] } },
{ "type": "Feature", "properties": { "NAME": "8,980,705.054", "LAYER": "Texk BM", "GM_TYPE": "Text", "ELEVATION": 0 }, "geometry": { "type": "Point", "coordinates": [ 776596.774744735797867, 8980713.194342482835054 ] } },
{ "type": "Feature", "properties": { "NAME": "Y =", "LAYER": "Texk BM", "GM_TYPE": "Text", "ELEVATION": 0 }, "geometry": { "type": "Point", "coordinates": [ 776542.160891247331165, 8980715.205305632203817 ] } },
{ "type": "Feature", "properties": { "NAME": "776,633.927", "LAYER": "Texk BM", "GM_TYPE": "Text", "ELEVATION": 0 }, "geometry": { "type": "Point", "coordinates": [ 776596.793269562767819, 8980721.194342486560345 ] } },
{ "type": "Feature", "properties": { "NAME": "X =", "LAYER": "Texk BM", "GM_TYPE": "Text", "ELEVATION": 0 }, "geometry": { "type": "Point", "coordinates": [ 776542.160891244420782, 8980723.205305639654398 ] } },
{ "type": "Feature", "properties": { "NAME": "X =", "LAYER": "Texk BM", "GM_TYPE": "Text", "ELEVATION": 0 }, "geometry": { "type": "Point", "coordinates": [ 772859.343803185038269, 8984107.765857556834817 ] } },
{ "type": "Feature", "properties": { "NAME": "Y =", "LAYER": "Texk BM", "GM_TYPE": "Text", "ELEVATION": 0 }, "geometry": { "type": "Point", "coordinates": [ 772859.343803185853176, 8984099.765857564285398 ] } },
{ "type": "Feature", "properties": { "NAME": "Z =", "LAYER": "Texk BM", "GM_TYPE": "Text", "ELEVATION": 0 }, "geometry": { "type": "Point", "coordinates": [ 772859.343803179450333, 8984091.765857545658946 ] } },
{ "type": "Feature", "properties": { "NAME": "BM OB.17", "LAYER": "Texk BM", "GM_TYPE": "Text", "ELEVATION": 0 }, "geometry": { "type": "Point", "coordinates": [ 772887.90004936803598, 8984113.266309011727571 ] } },
{ "type": "Feature", "properties": { "NAME": "30.854", "LAYER": "Texk BM", "GM_TYPE": "Text", "ELEVATION": 0 }, "geometry": { "type": "Point", "coordinates": [ 772913.693540320731699, 8984090.251201761886477 ] } },
{ "type": "Feature", "properties": { "NAME": "8,984,132.756", "LAYER": "Texk BM", "GM_TYPE": "Text", "ELEVATION": 0 }, "geometry": { "type": "Point", "coordinates": [ 772913.957656666636467, 8984097.754894370213151 ] } },
{ "type": "Feature", "properties": { "NAME": "772,947.003", "LAYER": "Texk BM", "GM_TYPE": "Text", "ELEVATION": 0 }, "geometry": { "type": "Point", "coordinates": [ 772913.976181498728693, 8984105.754894366487861 ] } },
{ "type": "Feature", "properties": { "NAME": "Cp.17", "LAYER": "Texk BM", "GM_TYPE": "Text", "ELEVATION": 0 }, "geometry": { "type": "Point", "coordinates": [ 772885.874794987612404, 8984172.343933710828424 ] } },
{ "type": "Feature", "properties": { "NAME": "31.091", "LAYER": "Texk BM", "GM_TYPE": "Text", "ELEVATION": 0 }, "geometry": { "type": "Point", "coordinates": [ 772917.230857782182284, 8984148.252224067226052 ] } },
{ "type": "Feature", "properties": { "NAME": "Z =", "LAYER": "Texk BM", "GM_TYPE": "Text", "ELEVATION": 0 }, "geometry": { "type": "Point", "coordinates": [ 772862.858160729985684, 8984149.766879824921489 ] } },
{ "type": "Feature", "properties": { "NAME": "8,984,147.616", "LAYER": "Texk BM", "GM_TYPE": "Text", "ELEVATION": 0 }, "geometry": { "type": "Point", "coordinates": [ 772917.472014215774834, 8984155.755916671827435 ] } },
{ "type": "Feature", "properties": { "NAME": "Y =", "LAYER": "Texk BM", "GM_TYPE": "Text", "ELEVATION": 0 }, "geometry": { "type": "Point", "coordinates": [ 772862.858160727191716, 8984157.766879821196198 ] } },
{ "type": "Feature", "properties": { "NAME": "772,954.625", "LAYER": "Texk BM", "GM_TYPE": "Text", "ELEVATION": 0 }, "geometry": { "type": "Point", "coordinates": [ 772917.490539042744786, 8984163.755916675552726 ] } },
{ "type": "Feature", "properties": { "NAME": "X =", "LAYER": "Texk BM", "GM_TYPE": "Text", "ELEVATION": 0 }, "geometry": { "type": "Point", "coordinates": [ 772862.858160724514164, 8984165.766879828646779 ] } },
{ "type": "Feature", "properties": { "NAME": "X =", "LAYER": "Texk BM", "GM_TYPE": "Text", "ELEVATION": 0 }, "geometry": { "type": "Point", "coordinates": [ 773613.831529772141948, 8982344.13875718601048 ] } },
{ "type": "Feature", "properties": { "NAME": "Y =", "LAYER": "Texk BM", "GM_TYPE": "Text", "ELEVATION": 0 }, "geometry": { "type": "Point", "coordinates": [ 773613.831529772956856, 8982336.138757193461061 ] } },
{ "type": "Feature", "properties": { "NAME": "Z =", "LAYER": "Texk BM", "GM_TYPE": "Text", "ELEVATION": 0 }, "geometry": { "type": "Point", "coordinates": [ 773613.831529766437598, 8982328.138757174834609 ] } },
{ "type": "Feature", "properties": { "NAME": "BM OB.18", "LAYER": "Texk BM", "GM_TYPE": "Text", "ELEVATION": 0 }, "geometry": { "type": "Point", "coordinates": [ 773642.387775954790413, 8982349.639208639040589 ] } },
{ "type": "Feature", "properties": { "NAME": "17.061", "LAYER": "Texk BM", "GM_TYPE": "Text", "ELEVATION": 0 }, "geometry": { "type": "Point", "coordinates": [ 773668.181266907718964, 8982326.62410139106214 ] } },
{ "type": "Feature", "properties": { "NAME": "8,982,369.129", "LAYER": "Texk BM", "GM_TYPE": "Text", "ELEVATION": 0 }, "geometry": { "type": "Point", "coordinates": [ 773668.445383253740147, 8982334.127793999388814 ] } },
{ "type": "Feature", "properties": { "NAME": "773,701.491", "LAYER": "Texk BM", "GM_TYPE": "Text", "ELEVATION": 0 }, "geometry": { "type": "Point", "coordinates": [ 773668.463908085715957, 8982342.127793995663524 ] } },
{ "type": "Feature", "properties": { "NAME": "Cp.18", "LAYER": "Texk BM", "GM_TYPE": "Text", "ELEVATION": 0 }, "geometry": { "type": "Point", "coordinates": [ 773728.165149637614377, 8982235.705261170864105 ] } },
{ "type": "Feature", "properties": { "NAME": "16.773", "LAYER": "Texk BM", "GM_TYPE": "Text", "ELEVATION": 0 }, "geometry": { "type": "Point", "coordinates": [ 773759.521212432184257, 8982211.613551527261734 ] } },
{ "type": "Feature", "properties": { "NAME": "Z =", "LAYER": "Texk BM", "GM_TYPE": "Text", "ELEVATION": 0 }, "geometry": { "type": "Point", "coordinates": [ 773705.148515379987657, 8982213.128207283094525 ] } },
{ "type": "Feature", "properties": { "NAME": "8,982,210.977", "LAYER": "Texk BM", "GM_TYPE": "Text", "ELEVATION": 0 }, "geometry": { "type": "Point", "coordinates": [ 773759.762368865776807, 8982219.117244131863117 ] } },
{ "type": "Feature", "properties": { "NAME": "Y =", "LAYER": "Texk BM", "GM_TYPE": "Text", "ELEVATION": 0 }, "geometry": { "type": "Point", "coordinates": [ 773705.148515377193689, 8982221.12820728123188 ] } },
{ "type": "Feature", "properties": { "NAME": "773,796.915", "LAYER": "Texk BM", "GM_TYPE": "Text", "ELEVATION": 0 }, "geometry": { "type": "Point", "coordinates": [ 773759.780893692863174, 8982227.117244135588408 ] } },
{ "type": "Feature", "properties": { "NAME": "X =", "LAYER": "Texk BM", "GM_TYPE": "Text", "ELEVATION": 0 }, "geometry": { "type": "Point", "coordinates": [ 773705.148515374516137, 8982229.128207288682461 ] } },
{ "type": "Feature", "properties": { "NAME": "X =", "LAYER": "Texk BM", "GM_TYPE": "Text", "ELEVATION": 0 }, "geometry": { "type": "Point", "coordinates": [ 772762.606662477133796, 8982095.882806627079844 ] } },
{ "type": "Feature", "properties": { "NAME": "Y =", "LAYER": "Texk BM", "GM_TYPE": "Text", "ELEVATION": 0 }, "geometry": { "type": "Point", "coordinates": [ 772762.606662477948703, 8982087.88280663266778 ] } },
{ "type": "Feature", "properties": { "NAME": "Z =", "LAYER": "Texk BM", "GM_TYPE": "Text", "ELEVATION": 0 }, "geometry": { "type": "Point", "coordinates": [ 772762.606662471429445, 8982079.882806614041328 ] } },
{ "type": "Feature", "properties": { "NAME": "BM OB.19", "LAYER": "Texk BM", "GM_TYPE": "Text", "ELEVATION": 0 }, "geometry": { "type": "Point", "coordinates": [ 772791.162908660015091, 8982101.383258078247309 ] } },
{ "type": "Feature", "properties": { "NAME": "19.047", "LAYER": "Texk BM", "GM_TYPE": "Text", "ELEVATION": 0 }, "geometry": { "type": "Point", "coordinates": [ 772816.956399612710811, 8982078.36815083026886 ] } },
{ "type": "Feature", "properties": { "NAME": "8,982,120.873", "LAYER": "Texk BM", "GM_TYPE": "Text", "ELEVATION": 0 }, "geometry": { "type": "Point", "coordinates": [ 772817.220515958615579, 8982085.871843436732888 ] } },
{ "type": "Feature", "properties": { "NAME": "772,850.266", "LAYER": "Texk BM", "GM_TYPE": "Text", "ELEVATION": 0 }, "geometry": { "type": "Point", "coordinates": [ 772817.239040790707804, 8982093.871843434870243 ] } },
{ "type": "Feature", "properties": { "NAME": "Cp.19", "LAYER": "Texk BM", "GM_TYPE": "Text", "ELEVATION": 0 }, "geometry": { "type": "Point", "coordinates": [ 772805.523243289906532, 8982153.705338954925537 ] } },
{ "type": "Feature", "properties": { "NAME": "18.704", "LAYER": "Texk BM", "GM_TYPE": "Text", "ELEVATION": 0 }, "geometry": { "type": "Point", "coordinates": [ 772836.879306084476411, 8982129.613629311323166 ] } },
{ "type": "Feature", "properties": { "NAME": "Z =", "LAYER": "Texk BM", "GM_TYPE": "Text", "ELEVATION": 0 }, "geometry": { "type": "Point", "coordinates": [ 772782.506609032396227, 8982131.128285070881248 ] } },
{ "type": "Feature", "properties": { "NAME": "8,982,119.576", "LAYER": "Texk BM", "GM_TYPE": "Text", "ELEVATION": 0 }, "geometry": { "type": "Point", "coordinates": [ 772837.120462518185377, 8982137.117321917787194 ] } },
{ "type": "Feature", "properties": { "NAME": "Y =", "LAYER": "Texk BM", "GM_TYPE": "Text", "ELEVATION": 0 }, "geometry": { "type": "Point", "coordinates": [ 772782.506609029602259, 8982139.128285065293312 ] } },
{ "type": "Feature", "properties": { "NAME": "772,883.683", "LAYER": "Texk BM", "GM_TYPE": "Text", "ELEVATION": 0 }, "geometry": { "type": "Point", "coordinates": [ 772837.138987345155329, 8982145.117321919649839 ] } },
{ "type": "Feature", "properties": { "NAME": "X =", "LAYER": "Texk BM", "GM_TYPE": "Text", "ELEVATION": 0 }, "geometry": { "type": "Point", "coordinates": [ 772782.506609026808292, 8982147.128285074606538 ] } },
{ "type": "Feature", "properties": { "NAME": "X =", "LAYER": "Texk BM", "GM_TYPE": "Text", "ELEVATION": 0 }, "geometry": { "type": "Point", "coordinates": [ 773162.47872845211532, 8981248.226195685565472 ] } },
{ "type": "Feature", "properties": { "NAME": "Y =", "LAYER": "Texk BM", "GM_TYPE": "Text", "ELEVATION": 0 }, "geometry": { "type": "Point", "coordinates": [ 773162.478728453046642, 8981240.226195691153407 ] } },
{ "type": "Feature", "properties": { "NAME": "Z =", "LAYER": "Texk BM", "GM_TYPE": "Text", "ELEVATION": 0 }, "geometry": { "type": "Point", "coordinates": [ 773162.478728446410969, 8981232.226195674389601 ] } },
{ "type": "Feature", "properties": { "NAME": "BM OB.20", "LAYER": "Texk BM", "GM_TYPE": "Text", "ELEVATION": 0 }, "geometry": { "type": "Point", "coordinates": [ 773191.0349746348802, 8981253.726647138595581 ] } },
{ "type": "Feature", "properties": { "NAME": "13.897", "LAYER": "Texk BM", "GM_TYPE": "Text", "ELEVATION": 0 }, "geometry": { "type": "Point", "coordinates": [ 773216.828465587692335, 8981230.711539890617132 ] } },
{ "type": "Feature", "properties": { "NAME": "8,981,273.217", "LAYER": "Texk BM", "GM_TYPE": "Text", "ELEVATION": 0 }, "geometry": { "type": "Point", "coordinates": [ 773217.092581933597103, 8981238.215232498943806 ] } },
{ "type": "Feature", "properties": { "NAME": "773,250.138", "LAYER": "Texk BM", "GM_TYPE": "Text", "ELEVATION": 0 }, "geometry": { "type": "Point", "coordinates": [ 773217.111106765689328, 8981246.215232495218515 ] } },
{ "type": "Feature", "properties": { "NAME": "Cp.20", "LAYER": "Texk BM", "GM_TYPE": "Text", "ELEVATION": 0 }, "geometry": { "type": "Point", "coordinates": [ 773209.737855768762529, 8981300.294618053361773 ] } },
{ "type": "Feature", "properties": { "NAME": "13.858", "LAYER": "Texk BM", "GM_TYPE": "Text", "ELEVATION": 0 }, "geometry": { "type": "Point", "coordinates": [ 773241.093918563332409, 8981276.202908411622047 ] } },
{ "type": "Feature", "properties": { "NAME": "Z =", "LAYER": "Texk BM", "GM_TYPE": "Text", "ELEVATION": 0 }, "geometry": { "type": "Point", "coordinates": [ 773186.721221511252224, 8981277.717564167454839 ] } },
{ "type": "Feature", "properties": { "NAME": "8,981,266.165", "LAYER": "Texk BM", "GM_TYPE": "Text", "ELEVATION": 0 }, "geometry": { "type": "Point", "coordinates": [ 773241.33507499715779, 8981283.706601014360785 ] } },
{ "type": "Feature", "properties": { "NAME": "Y =", "LAYER": "Texk BM", "GM_TYPE": "Text", "ELEVATION": 0 }, "geometry": { "type": "Point", "coordinates": [ 773186.721221508341841, 8981285.717564163729548 ] } },
{ "type": "Feature", "properties": { "NAME": "773,287.898", "LAYER": "Texk BM", "GM_TYPE": "Text", "ELEVATION": 0 }, "geometry": { "type": "Point", "coordinates": [ 773241.353599824011326, 8981291.706601018086076 ] } },
{ "type": "Feature", "properties": { "NAME": "X =", "LAYER": "Texk BM", "GM_TYPE": "Text", "ELEVATION": 0 }, "geometry": { "type": "Point", "coordinates": [ 773186.721221505664289, 8981293.717564171180129 ] } },
{ "type": "Feature", "properties": { "NAME": "X =", "LAYER": "Texk BM", "GM_TYPE": "Text", "ELEVATION": 0 }, "geometry": { "type": "Point", "coordinates": [ 772665.101499208947644, 8980279.049848655238748 ] } },
{ "type": "Feature", "properties": { "NAME": "Y =", "LAYER": "Texk BM", "GM_TYPE": "Text", "ELEVATION": 0 }, "geometry": { "type": "Point", "coordinates": [ 772665.101499209995382, 8980271.049848662689328 ] } },
{ "type": "Feature", "properties": { "NAME": "Z =", "LAYER": "Texk BM", "GM_TYPE": "Text", "ELEVATION": 0 }, "geometry": { "type": "Point", "coordinates": [ 772665.101499203476124, 8980263.049848642200232 ] } },
{ "type": "Feature", "properties": { "NAME": "BM OB.21", "LAYER": "Texk BM", "GM_TYPE": "Text", "ELEVATION": 0 }, "geometry": { "type": "Point", "coordinates": [ 772693.657745391945355, 8980284.550300108268857 ] } },
{ "type": "Feature", "properties": { "NAME": "11.067", "LAYER": "Texk BM", "GM_TYPE": "Text", "ELEVATION": 0 }, "geometry": { "type": "Point", "coordinates": [ 772719.45123634475749, 8980261.535192860290408 ] } },
{ "type": "Feature", "properties": { "NAME": "8,980,304.040", "LAYER": "Texk BM", "GM_TYPE": "Text", "ELEVATION": 0 }, "geometry": { "type": "Point", "coordinates": [ 772719.715352690662257, 8980269.038885468617082 ] } },
{ "type": "Feature", "properties": { "NAME": "772,752.761", "LAYER": "Texk BM", "GM_TYPE": "Text", "ELEVATION": 0 }, "geometry": { "type": "Point", "coordinates": [ 772719.733877522754483, 8980277.038885464891791 ] } },
{ "type": "Feature", "properties": { "NAME": "Cp.21", "LAYER": "Texk BM", "GM_TYPE": "Text", "ELEVATION": 0 }, "geometry": { "type": "Point", "coordinates": [ 772697.314167127944529, 8980340.80866551399231 ] } },
{ "type": "Feature", "properties": { "NAME": "10.781", "LAYER": "Texk BM", "GM_TYPE": "Text", "ELEVATION": 0 }, "geometry": { "type": "Point", "coordinates": [ 772728.670229922397994, 8980316.716955870389938 ] } },
{ "type": "Feature", "properties": { "NAME": "Z =", "LAYER": "Texk BM", "GM_TYPE": "Text", "ELEVATION": 0 }, "geometry": { "type": "Point", "coordinates": [ 772674.297532870317809, 8980318.231611628085375 ] } },
{ "type": "Feature", "properties": { "NAME": "8,980,306.679", "LAYER": "Texk BM", "GM_TYPE": "Text", "ELEVATION": 0 }, "geometry": { "type": "Point", "coordinates": [ 772728.911386356106959, 8980324.220648474991322 ] } },
{ "type": "Feature", "properties": { "NAME": "Y =", "LAYER": "Texk BM", "GM_TYPE": "Text", "ELEVATION": 0 }, "geometry": { "type": "Point", "coordinates": [ 772674.297532867640257, 8980326.231611624360085 ] } },
{ "type": "Feature", "properties": { "NAME": "772,775.474", "LAYER": "Texk BM", "GM_TYPE": "Text", "ELEVATION": 0 }, "geometry": { "type": "Point", "coordinates": [ 772728.929911183076911, 8980332.220648478716612 ] } },
{ "type": "Feature", "properties": { "NAME": "X =", "LAYER": "Texk BM", "GM_TYPE": "Text", "ELEVATION": 0 }, "geometry": { "type": "Point", "coordinates": [ 772674.297532864729874, 8980334.231611631810665 ] } },
{ "type": "Feature", "properties": { "NAME": "X =", "LAYER": "Texk BM", "GM_TYPE": "Text", "ELEVATION": 0 }, "geometry": { "type": "Point", "coordinates": [ 772635.170739484368823, 8979868.245641665533185 ] } },
{ "type": "Feature", "properties": { "NAME": "Y =", "LAYER": "Texk BM", "GM_TYPE": "Text", "ELEVATION": 0 }, "geometry": { "type": "Point", "coordinates": [ 772635.170739485183731, 8979860.24564167112112 ] } },
{ "type": "Feature", "properties": { "NAME": "Z =", "LAYER": "Texk BM", "GM_TYPE": "Text", "ELEVATION": 0 }, "geometry": { "type": "Point", "coordinates": [ 772635.170739478664473, 8979852.245641654357314 ] } },
{ "type": "Feature", "properties": { "NAME": "BM OB.23", "LAYER": "Texk BM", "GM_TYPE": "Text", "ELEVATION": 0 }, "geometry": { "type": "Point", "coordinates": [ 772663.726985667133704, 8979873.746093118563294 ] } },
{ "type": "Feature", "properties": { "NAME": "10.800", "LAYER": "Texk BM", "GM_TYPE": "Text", "ELEVATION": 0 }, "geometry": { "type": "Point", "coordinates": [ 772689.520476619945839, 8979850.730985870584846 ] } },
{ "type": "Feature", "properties": { "NAME": "8,979,838.860", "LAYER": "Texk BM", "GM_TYPE": "Text", "ELEVATION": 0 }, "geometry": { "type": "Point", "coordinates": [ 772689.784592965850607, 8979858.234678478911519 ] } },
{ "type": "Feature", "properties": { "NAME": "772,723.115", "LAYER": "Texk BM", "GM_TYPE": "Text", "ELEVATION": 0 }, "geometry": { "type": "Point", "coordinates": [ 772689.803117797942832, 8979866.234678475186229 ] } },
{ "type": "Feature", "properties": { "NAME": "Cp.23", "LAYER": "Texk BM", "GM_TYPE": "Text", "ELEVATION": 0 }, "geometry": { "type": "Point", "coordinates": [ 772658.302796318428591, 8979836.924714613705873 ] } },
{ "type": "Feature", "properties": { "NAME": "10.715", "LAYER": "Texk BM", "GM_TYPE": "Text", "ELEVATION": 0 }, "geometry": { "type": "Point", "coordinates": [ 772689.658859112998471, 8979812.833004968240857 ] } },
{ "type": "Feature", "properties": { "NAME": "Z =", "LAYER": "Texk BM", "GM_TYPE": "Text", "ELEVATION": 0 }, "geometry": { "type": "Point", "coordinates": [ 772635.286162061034702, 8979814.347660725936294 ] } },
{ "type": "Feature", "properties": { "NAME": "8,979,812.196", "LAYER": "Texk BM", "GM_TYPE": "Text", "ELEVATION": 0 }, "geometry": { "type": "Point", "coordinates": [ 772689.900015546707436, 8979820.33669757284224 ] } },
{ "type": "Feature", "properties": { "NAME": "Y =", "LAYER": "Texk BM", "GM_TYPE": "Text", "ELEVATION": 0 }, "geometry": { "type": "Point", "coordinates": [ 772635.286162058240734, 8979822.347660720348358 ] } },
{ "type": "Feature", "properties": { "NAME": "772,727.053", "LAYER": "Texk BM", "GM_TYPE": "Text", "ELEVATION": 0 }, "geometry": { "type": "Point", "coordinates": [ 772689.918540373677388, 8979828.336697576567531 ] } },
{ "type": "Feature", "properties": { "NAME": "X =", "LAYER": "Texk BM", "GM_TYPE": "Text", "ELEVATION": 0 }, "geometry": { "type": "Point", "coordinates": [ 772635.286162055330351, 8979830.347660729661584 ] } },
{ "type": "Feature", "properties": { "NAME": "X =", "LAYER": "Texk BM", "GM_TYPE": "Text", "ELEVATION": 0 }, "geometry": { "type": "Point", "coordinates": [ 772069.06093312962912, 8981295.034884648397565 ] } },
{ "type": "Feature", "properties": { "NAME": "Y =", "LAYER": "Texk BM", "GM_TYPE": "Text", "ELEVATION": 0 }, "geometry": { "type": "Point", "coordinates": [ 772069.060933130560443, 8981287.034884655848145 ] } },
{ "type": "Feature", "properties": { "NAME": "Z =", "LAYER": "Texk BM", "GM_TYPE": "Text", "ELEVATION": 0 }, "geometry": { "type": "Point", "coordinates": [ 772069.0609331241576, 8981279.034884637221694 ] } },
{ "type": "Feature", "properties": { "NAME": "BM OB.24", "LAYER": "Texk BM", "GM_TYPE": "Text", "ELEVATION": 0 }, "geometry": { "type": "Point", "coordinates": [ 772097.617179312510416, 8981300.535336101427674 ] } },
{ "type": "Feature", "properties": { "NAME": "17.904", "LAYER": "Texk BM", "GM_TYPE": "Text", "ELEVATION": 0 }, "geometry": { "type": "Point", "coordinates": [ 772123.410670265438966, 8981277.520228853449225 ] } },
{ "type": "Feature", "properties": { "NAME": "8,981,321.515", "LAYER": "Texk BM", "GM_TYPE": "Text", "ELEVATION": 0 }, "geometry": { "type": "Point", "coordinates": [ 772123.674786611227319, 8981285.023921461775899 ] } },
{ "type": "Feature", "properties": { "NAME": "772,149.428", "LAYER": "Texk BM", "GM_TYPE": "Text", "ELEVATION": 0 }, "geometry": { "type": "Point", "coordinates": [ 772123.693311443319544, 8981293.023921459913254 ] } },
{ "type": "Feature", "properties": { "NAME": "Cp.24", "LAYER": "Texk BM", "GM_TYPE": "Text", "ELEVATION": 0 }, "geometry": { "type": "Point", "coordinates": [ 772058.320692498469725, 8981338.483210710808635 ] } },
{ "type": "Feature", "properties": { "NAME": "17.832", "LAYER": "Texk BM", "GM_TYPE": "Text", "ELEVATION": 0 }, "geometry": { "type": "Point", "coordinates": [ 772089.67675529315602, 8981314.391501067206264 ] } },
{ "type": "Feature", "properties": { "NAME": "Z =", "LAYER": "Texk BM", "GM_TYPE": "Text", "ELEVATION": 0 }, "geometry": { "type": "Point", "coordinates": [ 772035.304058240843005, 8981315.9061568249017 ] } },
{ "type": "Feature", "properties": { "NAME": "8,981,313.755", "LAYER": "Texk BM", "GM_TYPE": "Text", "ELEVATION": 0 }, "geometry": { "type": "Point", "coordinates": [ 772089.917911726748571, 8981321.895193671807647 ] } },
{ "type": "Feature", "properties": { "NAME": "Y =", "LAYER": "Texk BM", "GM_TYPE": "Text", "ELEVATION": 0 }, "geometry": { "type": "Point", "coordinates": [ 772035.304058238281868, 8981323.90615682117641 ] } },
{ "type": "Feature", "properties": { "NAME": "772,127.070", "LAYER": "Texk BM", "GM_TYPE": "Text", "ELEVATION": 0 }, "geometry": { "type": "Point", "coordinates": [ 772089.936436553718522, 8981329.895193675532937 ] } },
{ "type": "Feature", "properties": { "NAME": "X =", "LAYER": "Texk BM", "GM_TYPE": "Text", "ELEVATION": 0 }, "geometry": { "type": "Point", "coordinates": [ 772035.304058235371485, 8981331.90615682862699 ] } },
{ "type": "Feature", "properties": { "NAME": "X =", "LAYER": "Texk BM", "GM_TYPE": "Text", "ELEVATION": 0 }, "geometry": { "type": "Point", "coordinates": [ 772139.986073535168543, 8982632.333166807889938 ] } },
{ "type": "Feature", "properties": { "NAME": "Y =", "LAYER": "Texk BM", "GM_TYPE": "Text", "ELEVATION": 0 }, "geometry": { "type": "Point", "coordinates": [ 772139.986073536099866, 8982624.333166815340519 ] } },
{ "type": "Feature", "properties": { "NAME": "Z =", "LAYER": "Texk BM", "GM_TYPE": "Text", "ELEVATION": 0 }, "geometry": { "type": "Point", "coordinates": [ 772139.986073529580608, 8982616.333166796714067 ] } },
{ "type": "Feature", "properties": { "NAME": "BM OB.25", "LAYER": "Texk BM", "GM_TYPE": "Text", "ELEVATION": 0 }, "geometry": { "type": "Point", "coordinates": [ 772168.542319718049839, 8982637.833618260920048 ] } },
{ "type": "Feature", "properties": { "NAME": "24.312", "LAYER": "Texk BM", "GM_TYPE": "Text", "ELEVATION": 0 }, "geometry": { "type": "Point", "coordinates": [ 772194.33581067097839, 8982614.818511012941599 ] } },
{ "type": "Feature", "properties": { "NAME": "8,982,665.494", "LAYER": "Texk BM", "GM_TYPE": "Text", "ELEVATION": 0 }, "geometry": { "type": "Point", "coordinates": [ 772194.599927016766742, 8982622.322203621268272 ] } },
{ "type": "Feature", "properties": { "NAME": "772,232.432", "LAYER": "Texk BM", "GM_TYPE": "Text", "ELEVATION": 0 }, "geometry": { "type": "Point", "coordinates": [ 772194.618451848975383, 8982630.322203617542982 ] } },
{ "type": "Feature", "properties": { "NAME": "Cp.25", "LAYER": "Texk BM", "GM_TYPE": "Text", "ELEVATION": 0 }, "geometry": { "type": "Point", "coordinates": [ 772180.101307005155832, 8982710.055228389799595 ] } },
{ "type": "Feature", "properties": { "NAME": "24.116", "LAYER": "Texk BM", "GM_TYPE": "Text", "ELEVATION": 0 }, "geometry": { "type": "Point", "coordinates": [ 772211.457369799725711, 8982685.963518744334579 ] } },
{ "type": "Feature", "properties": { "NAME": "Z =", "LAYER": "Texk BM", "GM_TYPE": "Text", "ELEVATION": 0 }, "geometry": { "type": "Point", "coordinates": [ 772157.084672747645527, 8982687.47817450389266 ] } },
{ "type": "Feature", "properties": { "NAME": "8,982,664.425", "LAYER": "Texk BM", "GM_TYPE": "Text", "ELEVATION": 0 }, "geometry": { "type": "Point", "coordinates": [ 772211.698526233551092, 8982693.467211350798607 ] } },
{ "type": "Feature", "properties": { "NAME": "Y =", "LAYER": "Texk BM", "GM_TYPE": "Text", "ELEVATION": 0 }, "geometry": { "type": "Point", "coordinates": [ 772157.084672744851559, 8982695.47817450016737 ] } },
{ "type": "Feature", "properties": { "NAME": "772,250.145", "LAYER": "Texk BM", "GM_TYPE": "Text", "ELEVATION": 0 }, "geometry": { "type": "Point", "coordinates": [ 772211.717051060404629, 8982701.467211354523897 ] } },
{ "type": "Feature", "properties": { "NAME": "X =", "LAYER": "Texk BM", "GM_TYPE": "Text", "ELEVATION": 0 }, "geometry": { "type": "Point", "coordinates": [ 772157.084672742057592, 8982703.47817450761795 ] } },
{ "type": "Feature", "properties": { "NAME": "X =", "LAYER": "Texk BM", "GM_TYPE": "Text", "ELEVATION": 0 }, "geometry": { "type": "Point", "coordinates": [ 771512.730575382243842, 8981940.986191876232624 ] } },
{ "type": "Feature", "properties": { "NAME": "Y =", "LAYER": "Texk BM", "GM_TYPE": "Text", "ELEVATION": 0 }, "geometry": { "type": "Point", "coordinates": [ 771512.730575383058749, 8981932.986191883683205 ] } },
{ "type": "Feature", "properties": { "NAME": "Z =", "LAYER": "Texk BM", "GM_TYPE": "Text", "ELEVATION": 0 }, "geometry": { "type": "Point", "coordinates": [ 771512.730575376655906, 8981924.986191865056753 ] } },
{ "type": "Feature", "properties": { "NAME": "BM OB.26", "LAYER": "Texk BM", "GM_TYPE": "Text", "ELEVATION": 0 }, "geometry": { "type": "Point", "coordinates": [ 771541.286821565125138, 8981946.486643327400088 ] } },
{ "type": "Feature", "properties": { "NAME": "24.638", "LAYER": "Texk BM", "GM_TYPE": "Text", "ELEVATION": 0 }, "geometry": { "type": "Point", "coordinates": [ 771567.080312517937273, 8981923.471536081284285 ] } },
{ "type": "Feature", "properties": { "NAME": "8,981,997.159", "LAYER": "Texk BM", "GM_TYPE": "Text", "ELEVATION": 0 }, "geometry": { "type": "Point", "coordinates": [ 771567.34442886384204, 8981930.975228689610958 ] } },
{ "type": "Feature", "properties": { "NAME": "771,615.636", "LAYER": "Texk BM", "GM_TYPE": "Text", "ELEVATION": 0 }, "geometry": { "type": "Point", "coordinates": [ 771567.362953696050681, 8981938.975228685885668 ] } },
{ "type": "Feature", "properties": { "NAME": "Cp.26", "LAYER": "Texk BM", "GM_TYPE": "Text", "ELEVATION": 0 }, "geometry": { "type": "Point", "coordinates": [ 771516.359365103417076, 8982010.596922451630235 ] } },
{ "type": "Feature", "properties": { "NAME": "23.904", "LAYER": "Texk BM", "GM_TYPE": "Text", "ELEVATION": 0 }, "geometry": { "type": "Point", "coordinates": [ 771547.715427897986956, 8981986.505212806165218 ] } },
{ "type": "Feature", "properties": { "NAME": "Z =", "LAYER": "Texk BM", "GM_TYPE": "Text", "ELEVATION": 0 }, "geometry": { "type": "Point", "coordinates": [ 771493.342730845906772, 8981988.0198685657233 ] } },
{ "type": "Feature", "properties": { "NAME": "8,981,985.869", "LAYER": "Texk BM", "GM_TYPE": "Text", "ELEVATION": 0 }, "geometry": { "type": "Point", "coordinates": [ 771547.956584331695922, 8981994.008905412629247 ] } },
{ "type": "Feature", "properties": { "NAME": "Y =", "LAYER": "Texk BM", "GM_TYPE": "Text", "ELEVATION": 0 }, "geometry": { "type": "Point", "coordinates": [ 771493.342730843229219, 8981996.01986856199801 ] } },
{ "type": "Feature", "properties": { "NAME": "771,585.109", "LAYER": "Texk BM", "GM_TYPE": "Text", "ELEVATION": 0 }, "geometry": { "type": "Point", "coordinates": [ 771547.975109158665873, 8982002.008905416354537 ] } },
{ "type": "Feature", "properties": { "NAME": "X =", "LAYER": "Texk BM", "GM_TYPE": "Text", "ELEVATION": 0 }, "geometry": { "type": "Point", "coordinates": [ 771493.342730840435252, 8982004.019868567585945 ] } },
{ "type": "Feature", "properties": { "NAME": "X =", "LAYER": "Texk BM", "GM_TYPE": "Text", "ELEVATION": 0 }, "geometry": { "type": "Point", "coordinates": [ 770677.632507804315537, 8981668.19468754157424 ] } },
{ "type": "Feature", "properties": { "NAME": "Y =", "LAYER": "Texk BM", "GM_TYPE": "Text", "ELEVATION": 0 }, "geometry": { "type": "Point", "coordinates": [ 770677.63250780524686, 8981660.194687547162175 ] } },
{ "type": "Feature", "properties": { "NAME": "Z =", "LAYER": "Texk BM", "GM_TYPE": "Text", "ELEVATION": 0 }, "geometry": { "type": "Point", "coordinates": [ 770677.632507798844017, 8981652.194687528535724 ] } },
{ "type": "Feature", "properties": { "NAME": "BM OB.27", "LAYER": "Texk BM", "GM_TYPE": "Text", "ELEVATION": 0 }, "geometry": { "type": "Point", "coordinates": [ 770706.188753987196833, 8981673.695138992741704 ] } },
{ "type": "Feature", "properties": { "NAME": "24.703", "LAYER": "Texk BM", "GM_TYPE": "Text", "ELEVATION": 0 }, "geometry": { "type": "Point", "coordinates": [ 770731.982244940125383, 8981650.680031744763255 ] } },
{ "type": "Feature", "properties": { "NAME": "8,981,706.087", "LAYER": "Texk BM", "GM_TYPE": "Text", "ELEVATION": 0 }, "geometry": { "type": "Point", "coordinates": [ 770732.246361286030151, 8981658.183724351227283 ] } },
{ "type": "Feature", "properties": { "NAME": "770,782.813", "LAYER": "Texk BM", "GM_TYPE": "Text", "ELEVATION": 0 }, "geometry": { "type": "Point", "coordinates": [ 770732.264886118122377, 8981666.183724349364638 ] } },
{ "type": "Feature", "properties": { "NAME": "Cp.27", "LAYER": "Texk BM", "GM_TYPE": "Text", "ELEVATION": 0 }, "geometry": { "type": "Point", "coordinates": [ 770717.686295241350308, 8981755.116308938711882 ] } },
{ "type": "Feature", "properties": { "NAME": "24.490", "LAYER": "Texk BM", "GM_TYPE": "Text", "ELEVATION": 0 }, "geometry": { "type": "Point", "coordinates": [ 770749.042358036036603, 8981731.024599293246865 ] } },
{ "type": "Feature", "properties": { "NAME": "Z =", "LAYER": "Texk BM", "GM_TYPE": "Text", "ELEVATION": 0 }, "geometry": { "type": "Point", "coordinates": [ 770694.669660983956419, 8981732.539255052804947 ] } },
{ "type": "Feature", "properties": { "NAME": "8,981,716.585", "LAYER": "Texk BM", "GM_TYPE": "Text", "ELEVATION": 0 }, "geometry": { "type": "Point", "coordinates": [ 770749.283514469745569, 8981738.528291899710894 ] } },
{ "type": "Feature", "properties": { "NAME": "Y =", "LAYER": "Texk BM", "GM_TYPE": "Text", "ELEVATION": 0 }, "geometry": { "type": "Point", "coordinates": [ 770694.669660981046036, 8981740.539255049079657 ] } },
{ "type": "Feature", "properties": { "NAME": "770,800.534", "LAYER": "Texk BM", "GM_TYPE": "Text", "ELEVATION": 0 }, "geometry": { "type": "Point", "coordinates": [ 770749.302039296831936, 8981746.528291903436184 ] } },
{ "type": "Feature", "properties": { "NAME": "X =", "LAYER": "Texk BM", "GM_TYPE": "Text", "ELEVATION": 0 }, "geometry": { "type": "Point", "coordinates": [ 770694.669660978252068, 8981748.539255056530237 ] } },
{ "type": "Feature", "properties": { "NAME": "X =", "LAYER": "Texk BM", "GM_TYPE": "Text", "ELEVATION": 0 }, "geometry": { "type": "Point", "coordinates": [ 772111.267179924296215, 8982198.337817445397377 ] } },
{ "type": "Feature", "properties": { "NAME": "Y =", "LAYER": "Texk BM", "GM_TYPE": "Text", "ELEVATION": 0 }, "geometry": { "type": "Point", "coordinates": [ 772111.267179925111122, 8982190.337817452847958 ] } },
{ "type": "Feature", "properties": { "NAME": "Z =", "LAYER": "Texk BM", "GM_TYPE": "Text", "ELEVATION": 0 }, "geometry": { "type": "Point", "coordinates": [ 772111.267179918591864, 8982182.337817434221506 ] } },
{ "type": "Feature", "properties": { "NAME": "BM OB.29", "LAYER": "Texk BM", "GM_TYPE": "Text", "ELEVATION": 0 }, "geometry": { "type": "Point", "coordinates": [ 772139.82342610694468, 8982203.838268898427486 ] } },
{ "type": "Feature", "properties": { "NAME": "22.292", "LAYER": "Texk BM", "GM_TYPE": "Text", "ELEVATION": 0 }, "geometry": { "type": "Point", "coordinates": [ 772165.616917059873231, 8982180.823161652311683 ] } },
{ "type": "Feature", "properties": { "NAME": "8,982,167.934", "LAYER": "Texk BM", "GM_TYPE": "Text", "ELEVATION": 0 }, "geometry": { "type": "Point", "coordinates": [ 772165.881033405894414, 8982188.326854258775711 ] } },
{ "type": "Feature", "properties": { "NAME": "772,206.638", "LAYER": "Texk BM", "GM_TYPE": "Text", "ELEVATION": 0 }, "geometry": { "type": "Point", "coordinates": [ 772165.899558237870224, 8982196.326854255050421 ] } },
{ "type": "Feature", "properties": { "NAME": "Cp.29", "LAYER": "Texk BM", "GM_TYPE": "Text", "ELEVATION": 0 }, "geometry": { "type": "Point", "coordinates": [ 772134.602326205349527, 8982163.107741270214319 ] } },
{ "type": "Feature", "properties": { "NAME": "31.091", "LAYER": "Texk BM", "GM_TYPE": "Text", "ELEVATION": 0 }, "geometry": { "type": "Point", "coordinates": [ 772165.958389000152238, 8982139.016031628474593 ] } },
{ "type": "Feature", "properties": { "NAME": "Z =", "LAYER": "Texk BM", "GM_TYPE": "Text", "ELEVATION": 0 }, "geometry": { "type": "Point", "coordinates": [ 772111.585691947955638, 8982140.53068738617003 ] } },
{ "type": "Feature", "properties": { "NAME": "8,982,138.379", "LAYER": "Texk BM", "GM_TYPE": "Text", "ELEVATION": 0 }, "geometry": { "type": "Point", "coordinates": [ 772166.199545433744788, 8982146.519724233075976 ] } },
{ "type": "Feature", "properties": { "NAME": "Y =", "LAYER": "Texk BM", "GM_TYPE": "Text", "ELEVATION": 0 }, "geometry": { "type": "Point", "coordinates": [ 772111.58569194516167, 8982148.530687382444739 ] } },
{ "type": "Feature", "properties": { "NAME": "772,203.352", "LAYER": "Texk BM", "GM_TYPE": "Text", "ELEVATION": 0 }, "geometry": { "type": "Point", "coordinates": [ 772166.21807026071474, 8982154.519724236801267 ] } },
{ "type": "Feature", "properties": { "NAME": "X =", "LAYER": "Texk BM", "GM_TYPE": "Text", "ELEVATION": 0 }, "geometry": { "type": "Point", "coordinates": [ 772111.585691942367703, 8982156.53068738989532 ] } },
{ "type": "Feature", "properties": { "NAME": "X =", "LAYER": "Texk BM", "GM_TYPE": "Text", "ELEVATION": 0 }, "geometry": { "type": "Point", "coordinates": [ 770866.878600380150601, 8981815.486275184899569 ] } },
{ "type": "Feature", "properties": { "NAME": "Y =", "LAYER": "Texk BM", "GM_TYPE": "Text", "ELEVATION": 0 }, "geometry": { "type": "Point", "coordinates": [ 770866.878600381081924, 8981807.486275192350149 ] } },
{ "type": "Feature", "properties": { "NAME": "Z =", "LAYER": "Texk BM", "GM_TYPE": "Text", "ELEVATION": 0 }, "geometry": { "type": "Point", "coordinates": [ 770866.87860037444625, 8981799.486275175586343 ] } },
{ "type": "Feature", "properties": { "NAME": "BM OB.30", "LAYER": "Texk BM", "GM_TYPE": "Text", "ELEVATION": 0 }, "geometry": { "type": "Point", "coordinates": [ 770895.434846563031897, 8981820.986726637929678 ] } },
{ "type": "Feature", "properties": { "NAME": "24.710", "LAYER": "Texk BM", "GM_TYPE": "Text", "ELEVATION": 0 }, "geometry": { "type": "Point", "coordinates": [ 770921.228337515844032, 8981797.971619391813874 ] } },
{ "type": "Feature", "properties": { "NAME": "8,981,785.082", "LAYER": "Texk BM", "GM_TYPE": "Text", "ELEVATION": 0 }, "geometry": { "type": "Point", "coordinates": [ 770921.4924538617488, 8981805.475311998277903 ] } },
{ "type": "Feature", "properties": { "NAME": "770,962.249", "LAYER": "Texk BM", "GM_TYPE": "Text", "ELEVATION": 0 }, "geometry": { "type": "Point", "coordinates": [ 770921.510978693957441, 8981813.475311994552612 ] } },
{ "type": "Feature", "properties": { "NAME": "Cp.30", "LAYER": "Texk BM", "GM_TYPE": "Text", "ELEVATION": 0 }, "geometry": { "type": "Point", "coordinates": [ 770904.110408246866427, 8981759.367537477985024 ] } },
{ "type": "Feature", "properties": { "NAME": "24.500", "LAYER": "Texk BM", "GM_TYPE": "Text", "ELEVATION": 0 }, "geometry": { "type": "Point", "coordinates": [ 770935.466471041436307, 8981735.275827832520008 ] } },
{ "type": "Feature", "properties": { "NAME": "Z =", "LAYER": "Texk BM", "GM_TYPE": "Text", "ELEVATION": 0 }, "geometry": { "type": "Point", "coordinates": [ 770881.093773989356123, 8981736.79048359207809 ] } },
{ "type": "Feature", "properties": { "NAME": "8,981,773.741", "LAYER": "Texk BM", "GM_TYPE": "Text", "ELEVATION": 0 }, "geometry": { "type": "Point", "coordinates": [ 770935.707627475145273, 8981742.779520438984036 ] } },
{ "type": "Feature", "properties": { "NAME": "Y =", "LAYER": "Texk BM", "GM_TYPE": "Text", "ELEVATION": 0 }, "geometry": { "type": "Point", "coordinates": [ 770881.093773986562155, 8981744.790483588352799 ] } },
{ "type": "Feature", "properties": { "NAME": "770,968.218", "LAYER": "Texk BM", "GM_TYPE": "Text", "ELEVATION": 0 }, "geometry": { "type": "Point", "coordinates": [ 770935.726152302115224, 8981750.779520442709327 ] } },
{ "type": "Feature", "properties": { "NAME": "X =", "LAYER": "Texk BM", "GM_TYPE": "Text", "ELEVATION": 0 }, "geometry": { "type": "Point", "coordinates": [ 770881.093773983768187, 8981752.79048359580338 ] } },
{ "type": "Feature", "properties": { "NAME": "X =", "LAYER": "Texk BM", "GM_TYPE": "Text", "ELEVATION": 0 }, "geometry": { "type": "Point", "coordinates": [ 772086.735711110522971, 8980616.240575527772307 ] } },
{ "type": "Feature", "properties": { "NAME": "Y =", "LAYER": "Texk BM", "GM_TYPE": "Text", "ELEVATION": 0 }, "geometry": { "type": "Point", "coordinates": [ 772086.735711111454293, 8980608.240575533360243 ] } },
{ "type": "Feature", "properties": { "NAME": "Z =", "LAYER": "Texk BM", "GM_TYPE": "Text", "ELEVATION": 0 }, "geometry": { "type": "Point", "coordinates": [ 772086.73571110481862, 8980600.240575516596437 ] } },
{ "type": "Feature", "properties": { "NAME": "BM OB.31", "LAYER": "Texk BM", "GM_TYPE": "Text", "ELEVATION": 0 }, "geometry": { "type": "Point", "coordinates": [ 772115.291957293287851, 8980621.741026980802417 ] } },
{ "type": "Feature", "properties": { "NAME": "14.307", "LAYER": "Texk BM", "GM_TYPE": "Text", "ELEVATION": 0 }, "geometry": { "type": "Point", "coordinates": [ 772141.085448246099986, 8980598.725919732823968 ] } },
{ "type": "Feature", "properties": { "NAME": "8,980,603.258", "LAYER": "Texk BM", "GM_TYPE": "Text", "ELEVATION": 0 }, "geometry": { "type": "Point", "coordinates": [ 772141.349564592004754, 8980606.229612341150641 ] } },
{ "type": "Feature", "properties": { "NAME": "772,182.864", "LAYER": "Texk BM", "GM_TYPE": "Text", "ELEVATION": 0 }, "geometry": { "type": "Point", "coordinates": [ 772141.368089424096979, 8980614.229612339287996 ] } },
{ "type": "Feature", "properties": { "NAME": "Cp.31", "LAYER": "Texk BM", "GM_TYPE": "Text", "ELEVATION": 0 }, "geometry": { "type": "Point", "coordinates": [ 772110.589288320043124, 8980658.931350946426392 ] } },
{ "type": "Feature", "properties": { "NAME": "14.367", "LAYER": "Texk BM", "GM_TYPE": "Text", "ELEVATION": 0 }, "geometry": { "type": "Point", "coordinates": [ 772141.945351114613004, 8980634.839641304686666 ] } },
{ "type": "Feature", "properties": { "NAME": "Z =", "LAYER": "Texk BM", "GM_TYPE": "Text", "ELEVATION": 0 }, "geometry": { "type": "Point", "coordinates": [ 772087.572654062649235, 8980636.354297060519457 ] } },
{ "type": "Feature", "properties": { "NAME": "8,980,627.480", "LAYER": "Texk BM", "GM_TYPE": "Text", "ELEVATION": 0 }, "geometry": { "type": "Point", "coordinates": [ 772142.18650754832197, 8980642.343333907425404 ] } },
{ "type": "Feature", "properties": { "NAME": "Y =", "LAYER": "Texk BM", "GM_TYPE": "Text", "ELEVATION": 0 }, "geometry": { "type": "Point", "coordinates": [ 772087.572654059738852, 8980644.354297056794167 ] } },
{ "type": "Feature", "properties": { "NAME": "772,187.965", "LAYER": "Texk BM", "GM_TYPE": "Text", "ELEVATION": 0 }, "geometry": { "type": "Point", "coordinates": [ 772142.205032375175506, 8980650.343333911150694 ] } },
{ "type": "Feature", "properties": { "NAME": "X =", "LAYER": "Texk BM", "GM_TYPE": "Text", "ELEVATION": 0 }, "geometry": { "type": "Point", "coordinates": [ 772087.572654056944884, 8980652.354297064244747 ] } },
{ "type": "Feature", "properties": { "NAME": "X =", "LAYER": "Texk BM", "GM_TYPE": "Text", "ELEVATION": 0 }, "geometry": { "type": "Point", "coordinates": [ 772817.920982697745785, 8983412.273725237697363 ] } },
{ "type": "Feature", "properties": { "NAME": "Y =", "LAYER": "Texk BM", "GM_TYPE": "Text", "ELEVATION": 0 }, "geometry": { "type": "Point", "coordinates": [ 772817.920982698677108, 8983404.273725245147943 ] } },
{ "type": "Feature", "properties": { "NAME": "Z =", "LAYER": "Texk BM", "GM_TYPE": "Text", "ELEVATION": 0 }, "geometry": { "type": "Point", "coordinates": [ 772817.92098269215785, 8983396.273725228384137 ] } },
{ "type": "Feature", "properties": { "NAME": "BM OB.35", "LAYER": "Texk BM", "GM_TYPE": "Text", "ELEVATION": 0 }, "geometry": { "type": "Point", "coordinates": [ 772846.477228880627081, 8983417.774176690727472 ] } },
{ "type": "Feature", "properties": { "NAME": "24.058", "LAYER": "Texk BM", "GM_TYPE": "Text", "ELEVATION": 0 }, "geometry": { "type": "Point", "coordinates": [ 772872.270719833555631, 8983394.759069444611669 ] } },
{ "type": "Feature", "properties": { "NAME": "8,983,443.135", "LAYER": "Texk BM", "GM_TYPE": "Text", "ELEVATION": 0 }, "geometry": { "type": "Point", "coordinates": [ 772872.534836179343984, 8983402.262762051075697 ] } },
{ "type": "Feature", "properties": { "NAME": "772,901.467", "LAYER": "Texk BM", "GM_TYPE": "Text", "ELEVATION": 0 }, "geometry": { "type": "Point", "coordinates": [ 772872.553361011552624, 8983410.262762047350407 ] } },
{ "type": "Feature", "properties": { "NAME": "Cp.35", "LAYER": "Texk BM", "GM_TYPE": "Text", "ELEVATION": 0 }, "geometry": { "type": "Point", "coordinates": [ 772839.782994052045979, 8983474.780158258974552 ] } },
{ "type": "Feature", "properties": { "NAME": "25.148", "LAYER": "Texk BM", "GM_TYPE": "Text", "ELEVATION": 0 }, "geometry": { "type": "Point", "coordinates": [ 772871.139056846732274, 8983450.688448613509536 ] } },
{ "type": "Feature", "properties": { "NAME": "Z =", "LAYER": "Texk BM", "GM_TYPE": "Text", "ELEVATION": 0 }, "geometry": { "type": "Point", "coordinates": [ 772816.766359794535674, 8983452.203104371204972 ] } },
{ "type": "Feature", "properties": { "NAME": "8,983,443.329", "LAYER": "Texk BM", "GM_TYPE": "Text", "ELEVATION": 0 }, "geometry": { "type": "Point", "coordinates": [ 772871.380213280324824, 8983458.192141218110919 ] } },
{ "type": "Feature", "properties": { "NAME": "Y =", "LAYER": "Texk BM", "GM_TYPE": "Text", "ELEVATION": 0 }, "geometry": { "type": "Point", "coordinates": [ 772816.766359791858122, 8983460.203104367479682 ] } },
{ "type": "Feature", "properties": { "NAME": "772,917.159", "LAYER": "Texk BM", "GM_TYPE": "Text", "ELEVATION": 0 }, "geometry": { "type": "Point", "coordinates": [ 772871.398738107294776, 8983466.192141221836209 ] } },
{ "type": "Feature", "properties": { "NAME": "X =", "LAYER": "Texk BM", "GM_TYPE": "Text", "ELEVATION": 0 }, "geometry": { "type": "Point", "coordinates": [ 772816.766359788947739, 8983468.203104376792908 ] } },
{ "type": "Feature", "properties": { "NAME": "X =", "LAYER": "Texk BM", "GM_TYPE": "Text", "ELEVATION": 0 }, "geometry": { "type": "Point", "coordinates": [ 775696.165915240417235, 8983326.21646230481565 ] } },
{ "type": "Feature", "properties": { "NAME": "Y =", "LAYER": "Texk BM", "GM_TYPE": "Text", "ELEVATION": 0 }, "geometry": { "type": "Point", "coordinates": [ 775696.165915241348557, 8983318.216462310403585 ] } },
{ "type": "Feature", "properties": { "NAME": "Z =", "LAYER": "Texk BM", "GM_TYPE": "Text", "ELEVATION": 0 }, "geometry": { "type": "Point", "coordinates": [ 775696.165915234712884, 8983310.216462291777134 ] } },
{ "type": "Feature", "properties": { "NAME": "BM OB.28", "LAYER": "Texk BM", "GM_TYPE": "Text", "ELEVATION": 0 }, "geometry": { "type": "Point", "coordinates": [ 775724.722161423182115, 8983331.716913755983114 ] } },
{ "type": "Feature", "properties": { "NAME": "36.099", "LAYER": "Texk BM", "GM_TYPE": "Text", "ELEVATION": 0 }, "geometry": { "type": "Point", "coordinates": [ 775750.51565237599425, 8983308.701806508004665 ] } },
{ "type": "Feature", "properties": { "NAME": "8,983,359.038", "LAYER": "Texk BM", "GM_TYPE": "Text", "ELEVATION": 0 }, "geometry": { "type": "Point", "coordinates": [ 775756.773803960299119, 8983316.205499114468694 ] } },
{ "type": "Feature", "properties": { "NAME": "775,676.308", "LAYER": "Texk BM", "GM_TYPE": "Text", "ELEVATION": 0 }, "geometry": { "type": "Point", "coordinates": [ 775750.798293553991243, 8983324.205499112606049 ] } },
{ "type": "Feature", "properties": { "NAME": "Cp.28", "LAYER": "Texk BM", "GM_TYPE": "Text", "ELEVATION": 0 }, "geometry": { "type": "Point", "coordinates": [ 775730.074997004237957, 8983437.479316158220172 ] } },
{ "type": "Feature", "properties": { "NAME": "36.532", "LAYER": "Texk BM", "GM_TYPE": "Text", "ELEVATION": 0 }, "geometry": { "type": "Point", "coordinates": [ 775761.431059798807837, 8983413.387606516480446 ] } },
{ "type": "Feature", "properties": { "NAME": "Z =", "LAYER": "Texk BM", "GM_TYPE": "Text", "ELEVATION": 0 }, "geometry": { "type": "Point", "coordinates": [ 775707.058362746844068, 8983414.902262272313237 ] } },
{ "type": "Feature", "properties": { "NAME": "8,983,386.213", "LAYER": "Texk BM", "GM_TYPE": "Text", "ELEVATION": 0 }, "geometry": { "type": "Point", "coordinates": [ 775767.172216232516803, 8983420.891299119219184 ] } },
{ "type": "Feature", "properties": { "NAME": "Y =", "LAYER": "Texk BM", "GM_TYPE": "Text", "ELEVATION": 0 }, "geometry": { "type": "Point", "coordinates": [ 775707.0583627440501, 8983422.902262268587947 ] } },
{ "type": "Feature", "properties": { "NAME": "775,667.337", "LAYER": "Texk BM", "GM_TYPE": "Text", "ELEVATION": 0 }, "geometry": { "type": "Point", "coordinates": [ 775761.690741059486754, 8983428.891299122944474 ] } },
{ "type": "Feature", "properties": { "NAME": "X =", "LAYER": "Texk BM", "GM_TYPE": "Text", "ELEVATION": 0 }, "geometry": { "type": "Point", "coordinates": [ 775707.058362741139717, 8983430.902262277901173 ] } }
]
}
