{
"type": "FeatureCollection",
"name": "09_oe_li_linepol",
"crs": { "type": "name", "properties": { "name": "urn:ogc:def:crs:EPSG::32751" } },
"features": [
{ "type": "Feature", "properties": { "LAYER": "01.Line_pol", "GM_TYPE": "Unknown Line Type", "ELEVATION": 0 }, "geometry": { "type": "MultiLineString", "coordinates": [ [ [ 777838.47980070405174, 8983110.323992190882564 ], [ 777809.468963155988604, 8983082.819022659212351 ], [ 777740.680490267113782, 8983009.153537111356854 ], [ 777588.708856478100643, 8983019.52407463081181 ], [ 777555.015181594062597, 8983021.872065711766481 ], [ 777482.103777137119323, 8982965.215107979252934 ], [ 777462.59013672999572, 8982949.195150919258595 ], [ 777423.717003972153179, 8982917.643320389091969 ], [ 777376.042189822997898, 8982930.777944669127464 ], [ 777233.527136806980707, 8982975.52310824021697 ], [ 777139.424556412966922, 8983008.328983159735799 ], [ 776996.112004915019497, 8983053.627619501203299 ], [ 776949.069772540125996, 8983070.027868207544088 ], [ 776901.101136474986561, 8983082.679531989619136 ], [ 776868.287427415139973, 8983100.776405969634652 ], [ 776758.687556795892306, 8983126.0031154807657 ], [ 776660.919287370052189, 8983146.444903820753098 ], [ 776513.531824479228817, 8983171.571259632706642 ], [ 776466.194790167966858, 8983186.955416349694133 ], [ 776439.888340174220502, 8983228.667540617287159 ], [ 776418.704417909029871, 8983273.345636950805783 ], [ 776390.367370750987902, 8983314.222830640152097 ], [ 776361.413981259218417, 8983336.4713942296803 ], [ 776313.461441837949678, 8983350.255287410691381 ], [ 776263.9573789909482, 8983354.954017149284482 ], [ 776219.92297902086284, 8983360.408802460879087 ], [ 776188.702969731879421, 8983321.452926160767674 ], [ 776156.028548897011206, 8983283.553491979837418 ], [ 776122.789824842009693, 8983246.564960980787873 ], [ 776092.795113435015082, 8983207.179803490638733 ], [ 776058.455543325049803, 8983170.674705689772964 ], [ 775995.241551902960055, 8983093.633011892437935 ], [ 775960.424418919952586, 8983058.373947130516171 ], [ 775914.617575855110772, 8983038.725947769358754 ], [ 775824.195487997028977, 8982996.948310440406203 ], [ 775777.559610198019072, 8982978.244166389107704 ], [ 775686.871147440979257, 8982935.707705250009894 ], [ 775640.88969225413166, 8982915.794625690206885 ], [ 775550.520465082954615, 8982872.892909329384565 ], [ 775459.462448201025836, 8982831.96190981939435 ], [ 775431.1392940080259, 8982816.543958719819784 ], [ 775415.976970212999731, 8982827.94038338214159 ], [ 775392.078909966978244, 8982862.290728479623795 ], [ 775384.264752898132429, 8982868.616152159869671 ], [ 775364.550147824222222, 8982887.569405550137162 ], [ 775291.798002765048295, 8982881.944214399904013 ], [ 775241.987383164116181, 8982876.030165480449796 ], [ 775191.821707804105245, 8982871.864163370802999 ], [ 775142.668388109072112, 8982867.886103080585599 ], [ 775043.719211786985397, 8982855.135146010667086 ], [ 774994.768317257985473, 8982853.482737921178341 ], [ 774949.678269559983164, 8982874.664553200826049 ], [ 774906.448575092945248, 8982899.760167710483074 ], [ 774862.336382654029876, 8982923.089745389297605 ], [ 774772.854646887048148, 8982970.958674559369683 ], [ 774726.608726427075453, 8982989.314731920138001 ], [ 774631.468320327927358, 8983019.061715239658952 ], [ 774583.959586810902692, 8983035.624664599075913 ], [ 774538.37999727204442, 8983052.118032349273562 ], [ 774510.993166280910373, 8983084.365497879683971 ], [ 774497.251065537915565, 8983133.90329827927053 ], [ 774503.807751699234359, 8983161.800121389329433 ], [ 774503.343416130053811, 8983283.529294049367309 ], [ 774504.256614890880883, 8983333.662234989926219 ], [ 774516.432574409991503, 8983381.209400832653046 ], [ 774501.139868629048578, 8983402.445089820772409 ], [ 774500.677243186044507, 8983426.771040761843324 ], [ 774487.831894696108066, 8983443.277546150609851 ], [ 774432.592427199007943, 8983472.431623289361596 ], [ 774386.110090055153705, 8983492.008149780333042 ], [ 774323.208749469136819, 8983570.071959180757403 ], [ 774261.230072370963171, 8983648.479310179129243 ], [ 774168.359802094986662, 8983766.016934789717197 ], [ 774115.299158961046487, 8983832.450399119406939 ], [ 774073.628567852079868, 8983857.316632127389312 ], [ 774022.402794475900009, 8983852.264878990128636 ], [ 774001.360641930950806, 8983838.801148070022464 ], [ 773915.160333088948391, 8983751.115689879283309 ], [ 773881.235592120094225, 8983717.247082598507404 ], [ 773840.577440847991966, 8983713.02710111066699 ], [ 773740.586239301017486, 8983718.139592481777072 ], [ 773711.690926706884056, 8983713.478701770305634 ], [ 773668.923350957920775, 8983674.363330809399486 ], [ 773638.972872242913581, 8983634.281938700005412 ], [ 773610.640740674105473, 8983593.704839350655675 ], [ 773600.432925865054131, 8983562.66309024952352 ], [ 773588.206067242077552, 8983496.501899907365441 ], [ 773578.870887614204548, 8983447.448329750448465 ], [ 773568.711601725895889, 8983398.232935829088092 ], [ 773544.621357043040916, 8983351.231930749490857 ], [ 773515.728494010050781, 8983310.554414510726929 ], [ 773485.616625675116666, 8983271.137640930712223 ], [ 773457.256594106089324, 8983231.158493839204311 ], [ 773428.347019337001257, 8983192.947248179465532 ], [ 773385.820960846031085, 8983133.76232174038887 ], [ 773385.091586915892549, 8983062.768062340095639 ], [ 772881.799814847996458, 8983156.851491380482912 ], [ 772920.53015383402817, 8984035.08693945966661 ], [ 772933.838471750845201, 8984160.290507901459932 ], [ 773065.35615883092396, 8984059.538823410868645 ], [ 773265.611068026046269, 8983953.80995088070631 ], [ 773493.38994672591798, 8983886.913612969219685 ], [ 773579.663325314992107, 8983920.342958590015769 ], [ 773655.056778957135975, 8983964.574854360893369 ], [ 773731.658945964067243, 8983963.246403789147735 ], [ 773854.156138955033384, 8983934.960051070898771 ], [ 773999.290678872959688, 8984027.984752910211682 ], [ 774136.107292735017836, 8984052.615448949858546 ], [ 774191.761326192179695, 8984017.908612681552768 ], [ 774219.148676394950598, 8983945.449752949178219 ], [ 774229.943937495932914, 8983863.261983390897512 ], [ 774208.213442365988158, 8983794.1464101690799 ], [ 774330.353647860116325, 8983597.353801589459181 ], [ 774435.276219223043881, 8983516.355141380801797 ], [ 774578.297104472178034, 8983428.038514610379934 ], [ 774654.534607667126693, 8983370.577277889475226 ], [ 774865.3656625560252, 8983419.606935497373343 ], [ 774944.736179944011383, 8983417.473752379417419 ], [ 775019.831431127968244, 8983383.258865429088473 ], [ 775123.298785250051878, 8983430.84220969863236 ], [ 775297.465069778030738, 8983475.267822509631515 ], [ 775356.25018795800861, 8983522.248618852347136 ], [ 775407.818805447081104, 8983574.680275609716773 ], [ 775563.745084356865846, 8983523.169554710388184 ], [ 775592.135952995042317, 8983457.410978751257062 ], [ 775680.755210118950345, 8983361.835890309885144 ], [ 775815.509672483080067, 8983397.980180859565735 ], [ 775971.36123923084233, 8983426.883848331868649 ], [ 776173.352792529156432, 8983486.283265639096498 ], [ 776254.198185625951737, 8983487.906852839514613 ], [ 776293.865664807963185, 8983462.349595122039318 ], [ 776363.637676644953899, 8983456.647952321916819 ], [ 776411.757932660984807, 8983417.790031440556049 ], [ 776494.657338851946406, 8983403.045412300154567 ], [ 776591.040256636100821, 8983360.439202539622784 ], [ 776693.636441132985055, 8983392.495355250313878 ], [ 776928.092853934853338, 8983382.8708750102669 ], [ 776963.788784914999269, 8983413.996744787320495 ], [ 777182.78340033814311, 8983458.498396469280124 ], [ 777202.622583882999606, 8983446.996993901208043 ], [ 777271.826754447072744, 8983451.276099301874638 ], [ 777334.309720747871324, 8983460.047884050756693 ], [ 777394.522711067926139, 8983455.314203890040517 ], [ 777482.136207833071239, 8983484.991433149203658 ], [ 777531.474609347991645, 8983466.054836329072714 ], [ 777544.97599666705355, 8983425.934257449582219 ], [ 777605.459474958013743, 8983357.193864919245243 ], [ 777632.601225977879949, 8983257.965372169390321 ], [ 777633.181735062971711, 8983227.269142329692841 ], [ 777685.47318395099137, 8983180.971262270584702 ], [ 777730.818716281093657, 8983160.193122627213597 ], [ 777745.908879184979014, 8983134.014144249260426 ], [ 777787.475015407078899, 8983093.022358320653439 ], [ 777833.295793512021191, 8983114.207563480362296 ], [ 777838.47980070405174, 8983110.323992179706693 ] ] ] } },
{ "type": "Feature", "properties": { "LAYER": "01.Line_pol", "GM_TYPE": "Unknown Line Type", "ELEVATION": 0 }, "geometry": { "type": "MultiLineString", "coordinates": [ [ [ 775431.1392940080259, 8982816.543958719819784 ], [ 775415.976970212999731, 8982827.94038338214159 ], [ 775383.698276425013319, 8982810.742048630490899 ], [ 775380.084128236048855, 8982798.551259450614452 ], [ 775359.557379583944567, 8982670.13659219071269 ], [ 775350.205477237002924, 8982609.160351859405637 ], [ 775318.968040980980732, 8982415.380280949175358 ], [ 775298.386506192968227, 8982269.068202739581466 ], [ 775287.304987197043374, 8982216.126137040555477 ], [ 775277.326694111106917, 8982116.170488160103559 ], [ 775270.086027024080977, 8981966.751383349299431 ], [ 775260.910720700048842, 8981766.292771970853209 ], [ 775254.06396756588947, 8981639.400774199515581 ], [ 775246.055577679071575, 8981494.30202998034656 ], [ 775239.626301224110648, 8981395.254085240885615 ], [ 775234.295180041110143, 8981294.905731687322259 ], [ 775227.95734148088377, 8981195.324776150286198 ], [ 775220.092218738049269, 8981045.148824049159884 ], [ 775212.274516178062186, 8980922.831086419522762 ], [ 775206.329363284050487, 8980846.017210660502315 ], [ 775195.958137106033973, 8980645.251496469601989 ], [ 775189.576162474229932, 8980544.901177870109677 ], [ 775172.434696141979657, 8980397.119320690631866 ], [ 774925.084347996977158, 8980405.43809369020164 ], [ 774791.395489379996434, 8980340.483561769127846 ], [ 774752.679643692099489, 8980285.989479040727019 ], [ 774703.36348507902585, 8980093.83953109011054 ], [ 774699.130803789943457, 8980054.199570812284946 ], [ 774637.45163187594153, 8979983.100899420678616 ], [ 774655.928675049101003, 8979914.748028069734573 ], [ 774561.91655698698014, 8979854.459864389151335 ], [ 774516.918541084975004, 8979810.088665140792727 ], [ 774460.85018857405521, 8979764.255735162645578 ], [ 774385.63858596899081, 8979743.141452241688967 ], [ 774310.590747150941752, 8979727.846298070624471 ], [ 774255.542766586993821, 8979747.217912880703807 ], [ 774188.731053690891713, 8979766.047072198241949 ], [ 774044.293967743054964, 8979755.502728030085564 ], [ 773900.131129405926913, 8979772.289399232715368 ], [ 773869.271529386867769, 8979789.602773310616612 ], [ 773792.973062302917242, 8979818.99587102048099 ], [ 773751.455393371987157, 8979834.828478189185262 ], [ 773667.277554684202187, 8979844.340532038360834 ], [ 773527.494374825968407, 8979824.391849469393492 ], [ 773402.706322049139999, 8979908.739618940278888 ], [ 773412.082309924997389, 8980287.706220090389252 ], [ 773760.85910702496767, 8980834.38854930922389 ], [ 773795.597106904024258, 8981022.863104809075594 ], [ 773802.51815818704199, 8981291.943915259093046 ], [ 773811.810659462120384, 8981471.494951410219073 ], [ 773816.43573955015745, 8981685.105334769934416 ], [ 773798.512063787202351, 8982211.75262794084847 ], [ 773713.623464061995037, 8982381.288694301620126 ], [ 773859.835448288009502, 8982515.419726919382811 ], [ 773687.036309744114988, 8982576.487906230613589 ], [ 773378.917996285133995, 8982596.850116161629558 ], [ 773237.468429089989513, 8982600.679745320230722 ], [ 772851.22319144802168, 8982628.276636689901352 ], [ 772881.799814847996458, 8983156.851491389796138 ] ] ] } },
{ "type": "Feature", "properties": { "LAYER": "01.Line_pol", "GM_TYPE": "Unknown Line Type", "ELEVATION": 0 }, "geometry": { "type": "MultiLineString", "coordinates": [ [ [ 775172.434696141979657, 8980397.119320690631866 ], [ 775154.855491352966055, 8980245.238492090255022 ], [ 775146.729539004969411, 8980146.336679322645068 ], [ 775133.743267372134142, 8980047.492104949429631 ], [ 775128.615245374152437, 8980004.834597449749708 ], [ 775126.427867835969664, 8979955.109221879392862 ], [ 775116.408371509984136, 8979875.561449777334929 ], [ 775156.240142002003267, 8979831.902149792760611 ], [ 775230.738092986983247, 8979804.148842150345445 ], [ 775255.386829652008601, 8979767.122643368318677 ], [ 775277.711735188029706, 8979787.449684219434857 ], [ 775334.776304356055334, 8979802.552917080000043 ], [ 775348.09129530005157, 8979797.853429598733783 ], [ 775383.11631913704332, 8979799.569321468472481 ], [ 775417.043534617871046, 8979823.346700260415673 ], [ 775468.006836942979135, 8979838.179780749604106 ], [ 775517.910249742912129, 8979870.729751229286194 ], [ 775582.610668470850214, 8979912.899562289938331 ], [ 775635.032791482983157, 8979941.132438680157065 ], [ 775631.318894376046956, 8979967.383073320612311 ], [ 775675.238168834126554, 8980106.966405190527439 ], [ 775734.122516767005436, 8980206.339850090444088 ], [ 775736.696354634012096, 8980258.186977250501513 ], [ 775876.742842684965581, 8980245.610335219651461 ], [ 775920.925575545057654, 8980244.935920789837837 ], [ 775902.402227221056819, 8980270.089619962498546 ], [ 775891.039563413942233, 8980296.192154860123992 ], [ 775893.474159634090029, 8980318.883915530517697 ], [ 775900.402813174994662, 8980440.696048939600587 ], [ 775903.284504409995861, 8980504.314160030335188 ], [ 775910.690763851045631, 8980622.434407122433186 ], [ 775913.168380075017922, 8980684.275513369590044 ], [ 775923.062987845158204, 8980824.326112629845738 ], [ 775927.465802681050263, 8980927.568519620224833 ], [ 775930.204928707913496, 8980998.450730759650469 ], [ 775942.421014214982279, 8981181.755668830126524 ], [ 775949.533665730152279, 8981297.413249529898167 ], [ 775962.392660985933617, 8981499.509791737422347 ], [ 775966.779480237048119, 8981555.695364408195019 ], [ 775882.913432227098383, 8981559.693948509171605 ], [ 775252.538109132088721, 8981593.393559349700809 ], [ 775254.06396756588947, 8981639.400774210691452 ] ] ] } },
{ "type": "Feature", "properties": { "LAYER": "01.Line_pol", "GM_TYPE": "Unknown Line Type", "ELEVATION": 0 }, "geometry": { "type": "MultiLineString", "coordinates": [ [ [ 775966.779480237048119, 8981555.695364408195019 ], [ 776012.011694484972395, 8981553.05181385949254 ], [ 776054.930843487847596, 8981551.469108579680324 ], [ 776237.851548562059179, 8981540.069226900115609 ], [ 776384.833774414029904, 8981534.549878649413586 ], [ 776440.112516059190966, 8981529.414744801819324 ], [ 776525.613499216036871, 8981527.245847649872303 ], [ 776684.043217630940489, 8981517.851741069927812 ], [ 776890.328725700150244, 8981505.995283279567957 ], [ 777052.085632954025641, 8981496.86570942029357 ], [ 777201.971580734942108, 8981489.09038189984858 ], [ 777294.788216700893827, 8981482.829261809587479 ], [ 777359.636326293111779, 8981477.964784059673548 ], [ 777557.451837395899929, 8981467.75312021933496 ], [ 777624.634908235049807, 8981509.548558719456196 ], [ 777665.488712862948887, 8981559.510436339303851 ], [ 777587.876720437081531, 8981798.516586359590292 ], [ 777349.900298950029537, 8982290.427863769233227 ], [ 777713.512403297005221, 8982871.667547410354018 ], [ 777766.190619877190329, 8983040.590442379936576 ] ] ] } },
{ "type": "Feature", "properties": { "LAYER": "01.Line_pol", "GM_TYPE": "Unknown Line Type", "ELEVATION": 0 }, "geometry": { "type": "MultiLineString", "coordinates": [ [ [ 776684.043217630940489, 8981517.851741069927812 ], [ 776688.265116182970814, 8981595.028629828244448 ], [ 776693.151283644023351, 8981686.457375751808286 ], [ 776701.923374579055235, 8981840.13527150824666 ], [ 776706.664759411942214, 8981927.403458822518587 ], [ 776717.235611277981661, 8982045.354947609826922 ], [ 776725.27983790403232, 8982074.403745150193572 ], [ 776755.057149010128342, 8982137.504152180626988 ], [ 776785.123959811986424, 8982194.402869151905179 ], [ 776821.096368567086756, 8982418.725068839266896 ], [ 776822.467167002963834, 8982540.05418067984283 ], [ 776712.126033987035044, 8982627.502018630504608 ], [ 776586.737870169105008, 8983157.8197773527354 ] ] ] } },
{ "type": "Feature", "properties": { "LAYER": "01.Line_pol", "GM_TYPE": "Unknown Line Type", "ELEVATION": 0 }, "geometry": { "type": "MultiLineString", "coordinates": [ [ [ 775686.871147440979257, 8982935.707705250009894 ], [ 775678.599619901040569, 8982918.832036059349775 ], [ 775701.14569426595699, 8982866.015063310042024 ], [ 775794.378460581996478, 8982834.847716370597482 ], [ 775862.924717342946678, 8982790.808388939127326 ], [ 775998.112950840150006, 8982699.351968409493566 ], [ 776060.426710434956476, 8982656.400273388251662 ], [ 776084.457796629169025, 8982643.896466039121151 ], [ 776109.154460003133863, 8982625.622118869796395 ], [ 776160.185011835885234, 8982601.026854049414396 ], [ 776221.891028673038818, 8982552.093614101409912 ], [ 776288.186707605142146, 8982511.865684930235147 ], [ 776338.683483400032856, 8982477.132247300818563 ], [ 776374.966604794957675, 8982450.911837909370661 ], [ 776389.760691532050259, 8982443.513702850788832 ], [ 776423.307706137071364, 8982422.020274970680475 ], [ 776433.095777374110185, 8982414.957911679521203 ], [ 776461.726258824230172, 8982440.102888850495219 ], [ 776557.989998404984362, 8982340.217443320900202 ], [ 776585.273204319179058, 8982306.438134249299765 ], [ 776632.166882674093358, 8982273.74265006929636 ], [ 776639.175821559038013, 8982258.508438689634204 ], [ 776698.16871034912765, 8982170.45504979044199 ], [ 776785.123959811986424, 8982194.402869151905179 ] ] ] } },
{ "type": "Feature", "properties": { "LAYER": "01.Line_pol", "GM_TYPE": "Unknown Line Type", "ELEVATION": 0 }, "geometry": { "type": "MultiLineString", "coordinates": [ [ [ 776423.307706137071364, 8982422.020274970680475 ], [ 776410.53946768597234, 8982407.588887140154839 ], [ 776403.273458653013222, 8982378.909761479124427 ], [ 776379.640618882142007, 8982338.383327830582857 ], [ 776341.399452934972942, 8982256.647079480811954 ], [ 776309.614744276972488, 8982187.609233869239688 ], [ 776269.24734203715343, 8982087.7541050799191 ], [ 776238.205964545020834, 8982002.174700630828738 ], [ 776215.330017431057058, 8981924.0864785797894 ], [ 776198.181289674947038, 8981847.294349640607834 ], [ 776163.54862764000427, 8981839.30775154940784 ], [ 775772.087111527915113, 8981691.625032229349017 ], [ 775653.569459912134334, 8981703.461267549544573 ], [ 775639.326397357042879, 8981704.068412339314818 ], [ 775594.728257201961242, 8981707.47752420976758 ], [ 775508.674943192047067, 8981717.045635119080544 ], [ 775430.838600610033609, 8981729.840955769643188 ], [ 775387.003867335151881, 8981736.274315819144249 ], [ 775298.043426534975879, 8981701.520598450675607 ], [ 775294.883727277861908, 8981632.853057339787483 ], [ 775255.858854793012142, 8981635.302439361810684 ], [ 775254.06396756588947, 8981639.400774210691452 ] ] ] } },
{ "type": "Feature", "properties": { "LAYER": "01.Line_pol", "GM_TYPE": "Unknown Line Type", "ELEVATION": 0 }, "geometry": { "type": "MultiLineString", "coordinates": [ [ [ 776949.069772540125996, 8983070.027868207544088 ], [ 776934.305726472055539, 8982986.562017740681767 ], [ 776777.995726960012689, 8982924.363896360620856 ], [ 776681.324286274029873, 8982829.558968909084797 ], [ 776562.362124874023721, 8982921.726220849901438 ], [ 776358.593695178045891, 8982987.171152729541063 ], [ 776356.371612612972967, 8983199.583165561780334 ], [ 776418.704417909029871, 8983273.345636950805783 ] ] ] } },
{ "type": "Feature", "properties": { "LAYER": "01.Line_pol", "GM_TYPE": "Unknown Line Type", "ELEVATION": 0 }, "geometry": { "type": "MultiLineString", "coordinates": [ [ [ 777139.424556412966922, 8983008.328983159735799 ], [ 777138.795946540893055, 8982884.024695679545403 ], [ 777137.979839422157966, 8982727.021288359537721 ], [ 777137.043109070975333, 8982540.572945209220052 ], [ 777136.465187832131051, 8982436.402645049616694 ], [ 777135.971312029985711, 8982343.663842689245939 ], [ 777134.839833925128914, 8982188.624232789501548 ], [ 777134.561810947023332, 8982029.370453149080276 ], [ 777133.062975264037959, 8981909.633301639929414 ], [ 777131.547114000073634, 8981828.894274199381471 ], [ 777128.973072326043621, 8981698.783560939133167 ], [ 777125.341214447049424, 8981570.369520390406251 ], [ 777121.941206983057782, 8981493.96798094920814 ], [ 777052.085632954025641, 8981496.86570942029357 ] ] ] } },
{ "type": "Feature", "properties": { "LAYER": "01.Line_pol", "GM_TYPE": "Unknown Line Type", "ELEVATION": 0 }, "geometry": { "type": "MultiLineString", "coordinates": [ [ [ 772881.799814847996458, 8983156.851491380482912 ], [ 772880.040292066987604, 8983185.429475989192724 ], [ 772887.125201859045774, 8983274.400010991841555 ], [ 772893.295537039986812, 8983479.429838789626956 ], [ 772900.366818143054843, 8983552.369321769103408 ], [ 773141.932651384966448, 8983625.860627630725503 ], [ 773187.913075956050307, 8983641.108931690454483 ], [ 773243.343021007138304, 8983609.617701590061188 ], [ 773213.500479744980112, 8983437.989236079156399 ], [ 773485.210820567095652, 8983285.698573630303144 ], [ 773485.616625675116666, 8983271.137640930712223 ] ] ] } },
{ "type": "Feature", "properties": { "LAYER": "01.Line_pol", "GM_TYPE": "Unknown Line Type", "ELEVATION": 0 }, "geometry": { "type": "MultiLineString", "coordinates": [ [ [ 775254.06396756588947, 8981639.400774210691452 ], [ 775243.284168228041381, 8981634.992756130173802 ], [ 775237.399667787132785, 8981619.035937629640102 ], [ 775217.580779877956957, 8981607.998170230537653 ], [ 775210.141475641983561, 8981610.632021099328995 ], [ 775194.068747840123251, 8981597.010975232347846 ], [ 775137.006085837027058, 8981560.897474249824882 ], [ 775116.485897838138044, 8981566.734112711623311 ], [ 775077.179539955919608, 8981553.596078630536795 ], [ 775051.198975250008516, 8981543.934933109208941 ], [ 774999.957741891033947, 8981523.851682469248772 ], [ 774957.86017495719716, 8981510.466498550027609 ], [ 774935.567007939214818, 8981464.968777617439628 ], [ 774914.511200074106455, 8981434.547648830339313 ], [ 774880.845434955903329, 8981415.524524170905352 ], [ 774856.543020842014812, 8981384.190452119335532 ], [ 774835.811887505929917, 8981339.78455713018775 ], [ 774839.084992442978546, 8981312.438413390889764 ], [ 774822.055709199048579, 8981277.809666950255632 ], [ 774806.545138329034671, 8981221.349115690216422 ], [ 774789.034114334965125, 8981180.120708359405398 ], [ 774764.020240364130586, 8981100.45361839979887 ], [ 774738.475815978134051, 8981026.632769731804729 ], [ 774721.251518209115602, 8980996.108135292306542 ], [ 774705.029277597088367, 8980985.209465319290757 ], [ 774683.606042703031562, 8980932.552526190876961 ], [ 774654.28546599985566, 8980904.275593172758818 ], [ 774632.318778710905463, 8980886.252959489822388 ], [ 774617.345580326044001, 8980847.808425160124898 ], [ 774599.779172115959227, 8980836.758916510269046 ], [ 774576.316002582083456, 8980815.538034850731492 ], [ 774581.371934604016133, 8980789.508999150246382 ], [ 774562.930597955011763, 8980728.244556540623307 ], [ 774535.961750096990727, 8980661.051601029932499 ], [ 774515.20452000584919, 8980605.420897770673037 ], [ 774507.980563047109172, 8980579.826456909999251 ], [ 774482.057792532024905, 8980570.684795519337058 ], [ 774497.980088499141857, 8980535.539707120507956 ], [ 774490.059727955027483, 8980512.031492179259658 ], [ 774483.182328272960149, 8980496.484408939257264 ], [ 774481.475252729025669, 8980484.097709320485592 ], [ 774471.375794333056547, 8980478.264014469459653 ], [ 774472.394619200960733, 8980448.982135547325015 ], [ 774465.095733721973374, 8980421.868491729721427 ], [ 774458.422688044956885, 8980407.732448879629374 ], [ 774455.255741105065681, 8980397.738473629578948 ], [ 774443.841116592986509, 8980382.618104310706258 ], [ 774435.589528519194573, 8980371.787524169310927 ], [ 774426.432641995954327, 8980345.121064400300384 ], [ 774406.662336467998102, 8980323.757912570610642 ], [ 774397.775128767010756, 8980302.364173309877515 ], [ 774399.45127782295458, 8980282.443613987416029 ], [ 774383.315151855931617, 8980263.871116109192371 ], [ 774356.139596208115108, 8980219.331145161762834 ], [ 774346.970202330965549, 8980220.843476390466094 ], [ 774292.114250128041022, 8980208.114643100649118 ], [ 774268.621602019062266, 8980178.02039329148829 ], [ 774259.789312199223787, 8980133.857809400185943 ], [ 774242.807383104227483, 8980107.335854580625892 ], [ 774242.333356248098426, 8980079.32055889070034 ], [ 774238.254944044048898, 8980041.053512990474701 ], [ 774218.162814332055859, 8980028.335991909727454 ], [ 774208.96654672594741, 8980008.533289542421699 ], [ 774201.966821525944397, 8979973.348653180524707 ], [ 774185.301366969011724, 8979965.681367520242929 ], [ 774151.523271868005395, 8979928.803794259205461 ], [ 774116.227889518020675, 8979941.275791730731726 ], [ 774091.262794151087292, 8979906.767988950014114 ], [ 774092.86276533594355, 8979874.645774090662599 ], [ 774079.557629629853182, 8979854.264938829466701 ], [ 774063.970288776094094, 8979810.59087142907083 ], [ 774048.567394477082416, 8979786.703391321003437 ], [ 774023.022978111053817, 8979781.368120530620217 ], [ 774022.490664937999099, 8979771.292227249592543 ], [ 774044.293967743054964, 8979755.502728020772338 ] ] ] } },
{ "type": "Feature", "properties": { "LAYER": "01.Line_pol", "GM_TYPE": "Unknown Line Type", "ELEVATION": 0 }, "geometry": { "type": "MultiLineString", "coordinates": [ [ [ 774699.130803789943457, 8980054.199570812284946 ], [ 774712.186383239226416, 8980172.809488950297236 ], [ 774755.336137434118427, 8980288.208485612645745 ], [ 774791.395489379996434, 8980340.483561769127846 ] ] ] } },
{ "type": "Feature", "properties": { "LAYER": "01.Line_pol", "GM_TYPE": "Unknown Line Type", "ELEVATION": 0 }, "geometry": { "type": "MultiLineString", "coordinates": [ [ [ 774925.084347996977158, 8980405.43809369020164 ], [ 774938.739469669060782, 8980621.042622249573469 ], [ 774957.746174100902863, 8980817.854166792705655 ], [ 775091.194599424139597, 8980913.208219459280372 ], [ 775203.657739935792051, 8980924.602504011243582 ], [ 775212.274516178062186, 8980922.831086419522762 ] ] ] } },
{ "type": "Feature", "properties": { "LAYER": "01.Line_pol", "GM_TYPE": "Unknown Line Type", "ELEVATION": 0 }, "geometry": { "type": "MultiLineString", "coordinates": [ [ [ 772831.720337574952282, 8982126.669926920905709 ], [ 772613.115756385028362, 8982139.557972770184278 ], [ 772200.172159883077256, 8982161.145265370607376 ], [ 772093.506868632044643, 8982165.409247469156981 ], [ 771833.394498338107951, 8982075.064396470785141 ], [ 771478.234361524228007, 8981951.94021393917501 ], [ 771149.090090323006734, 8981838.001377839595079 ], [ 771051.25848436797969, 8981803.669220479205251 ], [ 770997.355445793014951, 8981786.766776729375124 ], [ 770963.515251294942573, 8981781.143106199800968 ], [ 770949.170554127078503, 8981767.084735920652747 ], [ 770911.095161899225786, 8981754.2077920101583 ], [ 770899.398471609223634, 8981743.773585770279169 ], [ 770885.494869795977138, 8981745.346728919073939 ], [ 770813.92560365004465, 8981719.302884509786963 ], [ 770783.721194784971885, 8981707.991341540589929 ], [ 770781.425424703047611, 8981649.740339020267129 ], [ 770786.096602124045603, 8981332.691861029714346 ], [ 770839.327969191013835, 8981247.966862579807639 ], [ 770910.430068957037292, 8981129.713081190362573 ], [ 770913.619325159117579, 8980866.551211709156632 ], [ 770890.101446403888986, 8980775.62683418020606 ], [ 770863.475865566870198, 8980682.71521906927228 ], [ 770828.192662375047803, 8980417.521476279944181 ], [ 770837.472748351981863, 8980319.877549109980464 ], [ 771022.025440678116865, 8980258.017363630235195 ], [ 770951.388541832915507, 8980124.569658299908042 ], [ 770983.963026297045872, 8980099.722495650872588 ], [ 771117.463421047083102, 8980068.656941570341587 ], [ 771168.712181968963705, 8980026.012855740264058 ], [ 771171.75898801907897, 8979936.676840519532561 ], [ 771223.243350199074484, 8979850.000962590798736 ], [ 771273.737413405906409, 8979818.853670310229063 ], [ 771383.10206711711362, 8979603.384551167488098 ], [ 771434.808829702087678, 8979431.044516552239656 ], [ 771509.303406165912747, 8979365.279866110533476 ], [ 771562.678274755948223, 8979398.200257398188114 ], [ 771613.930671210982837, 8979389.956701409071684 ], [ 771644.328252335893922, 8979379.423300279304385 ], [ 771691.736608269973658, 8979401.703222278505564 ], [ 771722.687925984966569, 8979401.760986000299454 ], [ 771764.943786237039603, 8979417.049491820856929 ], [ 771801.434926041983999, 8979426.02169013954699 ], [ 771898.92060979094822, 8979479.783646520227194 ], [ 771957.253485488006845, 8979464.92054883018136 ], [ 772027.382817219011486, 8979490.989438341930509 ], [ 772089.970422979095019, 8979541.347165420651436 ], [ 772209.540320349973626, 8979552.61444191262126 ], [ 772286.55684854707215, 8979550.847805380821228 ], [ 772343.366630643140525, 8979533.517976159229875 ], [ 772388.12890495499596, 8979540.860794739797711 ], [ 772428.98420721211005, 8979509.501829549670219 ], [ 772467.513645346974954, 8979470.610066670924425 ], [ 772493.880075616994873, 8979453.822439508512616 ], [ 772510.69292689813301, 8979428.697042070329189 ], [ 772550.713241764111444, 8979414.255265550687909 ], [ 772604.344358630012721, 8979396.753965539857745 ], [ 772630.425351164070889, 8979395.229175269603729 ], [ 772655.619105897145346, 8979405.49021165817976 ], [ 772700.642424370977096, 8979360.638548569753766 ], [ 772729.417905795155093, 8979310.601629510521889 ], [ 772737.681070131016895, 8979305.796400459483266 ], [ 772747.584471590002067, 8979347.9228276591748 ], [ 772742.921439897152595, 8979392.56525569036603 ], [ 772737.839535837061703, 8979404.149426320567727 ], [ 772732.304527620901354, 8979423.781949011608958 ], [ 772731.350306265987456, 8979439.102323360741138 ], [ 772745.375897857942618, 8979457.34541030973196 ], [ 772741.804932940052822, 8979503.986155429854989 ], [ 772731.242207314237021, 8979544.737532559782267 ], [ 772716.213816371047869, 8979561.338267140090466 ], [ 772720.938324822927825, 8979570.925780279561877 ], [ 772716.033384509966709, 8979590.799010869115591 ], [ 772722.032421467942186, 8979609.290608307346702 ], [ 772715.318232549121603, 8979629.243334610015154 ], [ 772719.705956547986716, 8979667.990519739687443 ], [ 772718.427769692847505, 8979699.700301280245185 ], [ 772722.658965980983339, 8979739.981014659628272 ], [ 772725.041528147063218, 8979781.147210450842977 ], [ 772724.688177568023093, 8979801.918651169165969 ], [ 772726.373519374057651, 8979841.04724900983274 ], [ 772729.716131777036935, 8979866.915952829644084 ], [ 772727.718666449072771, 8979883.343106830492616 ], [ 772731.127185055986047, 8979995.620470630005002 ], [ 772740.855993952951394, 8980159.886983351781964 ], [ 772746.142895804950967, 8980310.781024929136038 ] ] ] } },
{ "type": "Feature", "properties": { "LAYER": "01.Line_pol", "GM_TYPE": "Unknown Line Type", "ELEVATION": 0 }, "geometry": { "type": "MultiLineString", "coordinates": [ [ [ 772851.22319144802168, 8982628.276636689901352 ], [ 772852.047929630964063, 8982557.615810139104724 ], [ 772831.720337574952282, 8982126.669926920905709 ], [ 772823.071167942020111, 8981967.460605310276151 ], [ 772818.247973110992461, 8981861.806627800688148 ], [ 772810.309863438131288, 8981708.242726091295481 ], [ 772791.530231347074732, 8981291.788344889879227 ], [ 772781.017158906906843, 8981067.733530839905143 ], [ 772778.998786162119359, 8981008.454653270542622 ], [ 772760.669081894098781, 8980609.018104830756783 ], [ 772747.513163182069547, 8980322.848563959822059 ], [ 772746.142895804950967, 8980310.781024940311909 ], [ 772860.440244302153587, 8980299.855675579980016 ], [ 772999.948860432952642, 8980331.640194732695818 ], [ 773074.343938449048437, 8980341.384892549365759 ], [ 773060.249302070005797, 8980387.87265451811254 ], [ 773153.884749121032655, 8980495.386316109448671 ], [ 773182.443022024235688, 8980601.781861070543528 ], [ 773235.96507728297729, 8980662.084767730906606 ], [ 773317.282997721107677, 8980703.258465019986033 ], [ 773363.870262772077695, 8980690.778991790488362 ], [ 773393.405258067068644, 8980898.121111530810595 ], [ 773290.358345821034163, 8981267.032868711277843 ], [ 773213.488596269977279, 8981884.36292577907443 ], [ 773237.468429089058191, 8982600.679745320230722 ] ] ] } },
{ "type": "Feature", "properties": { "LAYER": "01.Line_pol", "GM_TYPE": "Unknown Line Type", "ELEVATION": 0 }, "geometry": { "type": "MultiLineString", "coordinates": [ [ [ 772851.22319144802168, 8982628.276636689901352 ], [ 772777.656368800904602, 8982633.239758780226111 ], [ 772664.566048007109202, 8982629.296556670218706 ], [ 772554.403356595896184, 8982636.893094472587109 ], [ 772499.615294922958128, 8982639.280389439314604 ], [ 772420.153912377194501, 8982648.719243919476867 ], [ 772322.490863743121736, 8982612.240034440532327 ], [ 772367.192252213950269, 8982534.499200219288468 ], [ 772315.153224144945852, 8982530.611872859299183 ], [ 772298.060264538042247, 8982439.284890690818429 ], [ 772262.939183135982603, 8982445.368603210896254 ], [ 772214.724357803002931, 8982441.259376980364323 ], [ 772200.463145440910012, 8982162.474256679415703 ], [ 772093.506868632975966, 8982165.409247459843755 ] ] ] } },
{ "type": "Feature", "properties": { "LAYER": "01.Line_pol", "GM_TYPE": "Unknown Line Type", "ELEVATION": 0 }, "geometry": { "type": "MultiLineString", "coordinates": [ [ [ 772093.506868632975966, 8982165.409247459843755 ], [ 772093.545614770962857, 8982234.65506898239255 ], [ 772094.346534259966575, 8982477.781041508540511 ], [ 772107.330168109154329, 8982679.213168252259493 ], [ 772209.62955352012068, 8982648.592430280521512 ], [ 772321.179905795957893, 8982633.284165851771832 ], [ 772322.490863743121736, 8982612.240034440532327 ] ] ] } },
{ "type": "Feature", "properties": { "LAYER": "01.Line_pol", "GM_TYPE": "Unknown Line Type", "ELEVATION": 0 }, "geometry": { "type": "MultiLineString", "coordinates": [ [ [ 772823.071167942020111, 8981967.460605310276151 ], [ 772701.625426864018664, 8981974.889987239614129 ], [ 772698.689016970107332, 8981922.047277031466365 ], [ 772696.581381703028455, 8981866.613209800794721 ], [ 772688.083959195995703, 8981717.616643430665135 ], [ 772673.019420902011916, 8981714.223938301205635 ], [ 772601.302868662867695, 8981720.003886977210641 ], [ 772580.146119266981259, 8981719.059808611869812 ], [ 772577.338930145953782, 8981690.523866750299931 ], [ 772573.750238809152506, 8981631.983664069324732 ], [ 772571.819572497857735, 8981598.605609899386764 ], [ 772570.391087900847197, 8981552.004609119147062 ], [ 772567.620191238005646, 8981512.678873738273978 ], [ 772564.356910397065803, 8981445.541000470519066 ], [ 772564.010685712913983, 8981411.547505689784884 ], [ 772557.993032250902615, 8981309.629509400576353 ], [ 772559.849286747048609, 8981302.771484119817615 ], [ 772551.291858733049594, 8981150.770103301852942 ], [ 772468.858563442132436, 8981153.970206499099731 ], [ 772401.557244520983659, 8981154.142894189804792 ], [ 772304.294437929987907, 8981169.706414410844445 ], [ 772147.901254384079948, 8981193.094316491857171 ], [ 772024.372303059091792, 8981237.115250209346414 ], [ 772019.433701159083284, 8981434.316130451858044 ], [ 772025.698160512140021, 8981558.529153319075704 ], [ 772030.436156678129919, 8981628.836321270093322 ], [ 772038.288938179146498, 8981697.393504781648517 ], [ 772027.092365499236621, 8981838.042014490813017 ], [ 772027.906594002153724, 8982034.710742639377713 ], [ 771957.948698985041119, 8982118.425311990082264 ] ] ] } },
{ "type": "Feature", "properties": { "LAYER": "01.Line_pol", "GM_TYPE": "Unknown Line Type", "ELEVATION": 0 }, "geometry": { "type": "MultiLineString", "coordinates": [ [ [ 771393.163453097920865, 8981923.345159949734807 ], [ 771335.541116885957308, 8981895.027876660227776 ], [ 771296.70498389902059, 8981779.345545869320631 ], [ 771337.960662912926637, 8981566.736023591831326 ], [ 771433.480599752045237, 8981493.683771779760718 ], [ 771565.201121772057377, 8981412.108634492382407 ], [ 771731.221400943119079, 8981401.424727819859982 ] ] ] } },
{ "type": "Feature", "properties": { "LAYER": "01.Line_pol", "GM_TYPE": "Unknown Line Type", "ELEVATION": 0 }, "geometry": { "type": "MultiLineString", "coordinates": [ [ [ 771779.428195267915726, 8982056.436943279579282 ], [ 771770.904256819863804, 8981940.989442249760032 ], [ 771748.308725059148856, 8981850.477402530610561 ], [ 771745.340153172030114, 8981610.092784900218248 ], [ 771731.221400943119079, 8981401.424727819859982 ], [ 771733.182961391983554, 8981295.899730190634727 ], [ 771740.857514468138106, 8981224.024100549519062 ], [ 771765.411857157945633, 8981198.721049210056663 ], [ 771879.843637182959355, 8981095.820013491436839 ], [ 771955.919958870043047, 8981030.234778730198741 ], [ 772175.131129150977358, 8980868.708254419267178 ], [ 772319.903755772975273, 8980832.261014599353075 ], [ 772420.511138804140501, 8980825.220291040837765 ], [ 772586.087328228983097, 8980836.265445040538907 ], [ 772773.327569379121996, 8980890.896118279546499 ], [ 772778.998786162119359, 8981008.454653259366751 ] ] ] } },
{ "type": "Feature", "properties": { "LAYER": "01.Line_pol", "GM_TYPE": "Unknown Line Type", "ELEVATION": 0 }, "geometry": { "type": "MultiLineString", "coordinates": [ [ [ 772747.513163182069547, 8980322.848563959822059 ], [ 772700.791967042023316, 8980327.663969218730927 ], [ 772643.344401979120448, 8980329.903617519885302 ], [ 772590.301650288049132, 8980353.723571920767426 ], [ 772539.301803384092636, 8980365.378047959879041 ], [ 772462.363768802024424, 8980377.800854939967394 ], [ 772407.171612519072369, 8980396.849217861890793 ], [ 772389.070690144202672, 8980440.370053229853511 ], [ 772349.753452111035585, 8980461.20027264021337 ], [ 772317.215454214951023, 8980516.220414640381932 ], [ 772291.302186017856002, 8980538.261802719905972 ], [ 772429.810273229959421, 8980654.552365759387612 ], [ 772381.881573320017196, 8980728.333844432607293 ], [ 772319.903755772975273, 8980832.261014599353075 ] ] ] } },
{ "type": "Feature", "properties": { "LAYER": "01.Line_pol", "GM_TYPE": "Unknown Line Type", "ELEVATION": 0 }, "geometry": { "type": "MultiLineString", "coordinates": [ [ [ 770963.515251294942573, 8981781.143106199800968 ], [ 770977.529321267153136, 8981715.88696045987308 ], [ 771011.066156277898699, 8981558.554360819980502 ], [ 771034.5883893892169, 8981449.264784209430218 ], [ 771051.286898440099321, 8981371.261087210848927 ], [ 771073.69025706499815, 8981267.171037560328841 ], [ 771096.058243690989912, 8981168.335437940433621 ], [ 771118.696931277983822, 8981068.935559500008821 ], [ 771092.326460040058009, 8981057.921519370749593 ], [ 771088.262882951996289, 8981039.546348800882697 ], [ 771029.513150917948224, 8980974.169185159727931 ], [ 771004.698748682043515, 8980966.306965729221702 ], [ 770975.71049781923648, 8980925.911294488236308 ], [ 770964.167756189010106, 8980896.348608590662479 ], [ 770957.092480325954966, 8980888.609296990558505 ], [ 770937.061615579063073, 8980883.716529609635472 ], [ 770913.619325157953426, 8980866.551211709156632 ] ] ] } },
{ "type": "Feature", "properties": { "LAYER": "01.Line_pol", "GM_TYPE": "Unknown Line Type", "ELEVATION": 0 }, "geometry": { "type": "MultiLineString", "coordinates": [ [ [ 771118.696931277983822, 8981068.935559500008821 ], [ 771165.649102514842525, 8980966.486566180363297 ], [ 771171.583594192983583, 8980919.048782052472234 ], [ 771206.936724759987555, 8980933.801003560423851 ], [ 771235.437758508953266, 8980926.884223459288478 ], [ 771267.144990809960291, 8980916.695119017735124 ], [ 771307.193076432798989, 8980896.12710940092802 ], [ 771349.16884789802134, 8980889.335159970447421 ], [ 771352.447578602936119, 8980868.859444050118327 ], [ 771380.040370521019213, 8980835.926010310649872 ], [ 771419.045501998043619, 8980830.439404439181089 ], [ 771429.852755518979393, 8980818.815843790769577 ], [ 771465.207808092003688, 8980818.236806197091937 ], [ 771505.84181904012803, 8980804.002919739112258 ], [ 771526.146479055052623, 8980782.390120539814234 ], [ 771590.74793663714081, 8980713.676085850223899 ], [ 771660.014888045145199, 8980599.2626569904387 ], [ 771675.355145961861126, 8980538.975121460855007 ], [ 771728.651526064961217, 8980476.515526240691543 ], [ 771749.595002525136806, 8980405.504854340106249 ], [ 771762.243267692043446, 8980332.355679420754313 ], [ 771791.686308791977353, 8980252.377133209258318 ], [ 771861.937011784873903, 8980242.723729841411114 ], [ 771889.072727639228106, 8980252.973473170772195 ], [ 771913.23753648402635, 8980248.330579051747918 ], [ 771951.861551268957555, 8980245.228386459872127 ], [ 771968.67645111004822, 8980216.137453999370337 ], [ 772033.586210777051747, 8980192.107490301132202 ], [ 772091.406779919052497, 8980157.585220130160451 ], [ 772139.828346682945266, 8980151.007912220433354 ], [ 772202.8730447209673, 8980147.364485550671816 ], [ 772245.966883994173259, 8980135.209641000255942 ], [ 772269.855245211860165, 8980110.058741539716721 ], [ 772338.851661509950645, 8980104.608922740444541 ], [ 772412.279559153015725, 8980122.363315898925066 ], [ 772456.401411607046612, 8980125.348713090643287 ], [ 772490.028879450866953, 8980139.819649279117584 ], [ 772537.706196486949921, 8980175.928686279803514 ], [ 772597.790898264851421, 8980170.073217831552029 ], [ 772625.651710966019891, 8980190.001219110563397 ], [ 772645.012746957014315, 8980187.853072609752417 ], [ 772657.974725172156468, 8980202.872579449787736 ], [ 772701.371992259984836, 8980189.688868019729853 ], [ 772741.53752472717315, 8980197.042344430461526 ], [ 772746.142895804950967, 8980310.781024949625134 ] ] ] } },
{ "type": "Feature", "properties": { "LAYER": "01.Line_pol", "GM_TYPE": "Unknown Line Type", "ELEVATION": 0 }, "geometry": { "type": "MultiLineString", "coordinates": [ [ [ 772139.828346682945266, 8980151.007912220433354 ], [ 772111.946599001996219, 8980047.159308310598135 ], [ 772101.588415, 8980027.743702221661806 ], [ 772103.727747645112686, 8979919.001445790752769 ], [ 772105.67545456904918, 8979835.508434910327196 ], [ 772154.607492408133112, 8979751.669478600844741 ], [ 772170.458058327087201, 8979714.574172707274556 ], [ 772282.641119335894473, 8979668.629969159141183 ], [ 772275.924466353142634, 8979591.82553399913013 ], [ 772343.366630643140525, 8979533.517976159229875 ] ] ] } },
{ "type": "Feature", "properties": { "LAYER": "01.Line_pol", "GM_TYPE": "Unknown Line Type", "ELEVATION": 0 }, "geometry": { "type": "MultiLineString", "coordinates": [ [ [ 772291.302186017856002, 8980538.261802719905972 ], [ 772214.719186894944869, 8980603.486921889707446 ], [ 772154.086641389993019, 8980655.170226259157062 ], [ 772058.372522564022802, 8980737.051604267209768 ], [ 771965.294880301109515, 8980816.708678370341659 ], [ 771858.378523250925355, 8980908.956262720748782 ], [ 771784.916384960990399, 8980972.832662889733911 ], [ 771698.543500597937964, 8981043.542810929939151 ], [ 771605.919086333946325, 8981119.478826619684696 ], [ 771551.389506874955259, 8981166.330066340044141 ], [ 771446.566528187133372, 8981256.668789569288492 ], [ 771308.758880992070772, 8981374.132238930091262 ], [ 771147.413398996111937, 8981512.119833659380674 ], [ 771059.879279150045477, 8981585.999094339087605 ], [ 770993.300705602043308, 8981642.952358469367027 ], [ 770977.529321265872568, 8981715.88696045987308 ] ] ] } },
{ "type": "Feature", "properties": { "LAYER": "01.Line_pol", "GM_TYPE": "Unknown Line Type", "ELEVATION": 0 }, "geometry": { "type": "MultiLineString", "coordinates": [ [ [ 772613.115756385028362, 8982139.557972770184278 ], [ 772641.122792618116364, 8982638.99659688025713 ], [ 772606.376620414084755, 8982645.89839299954474 ], [ 772486.83290252299048, 8982652.422203509137034 ], [ 772436.812040689983405, 8982655.437086010351777 ], [ 772287.960190091980621, 8982665.899550098925829 ], [ 772228.135629809228703, 8982671.484902359545231 ], [ 772212.169402255793102, 8982385.54745508916676 ], [ 772200.172159883077256, 8982161.145265359431505 ] ] ] } },
{ "type": "Feature", "properties": { "LAYER": "01.Line_pol", "GM_TYPE": "Unknown Line Type", "ELEVATION": 0 }, "geometry": { "type": "MultiLineString", "coordinates": [ [ [ 772200.172159883077256, 8982161.145265359431505 ], [ 772187.697471350897104, 8981952.535923149436712 ], [ 772177.802480319864117, 8981742.090629829093814 ], [ 772165.938659970997833, 8981532.222775170579553 ], [ 772155.677788842003793, 8981320.937923349440098 ], [ 772157.580529775936157, 8981255.097483640536666 ], [ 772147.901254385127686, 8981193.094316491857171 ] ] ] } },
{ "type": "Feature", "properties": { "LAYER": "01.Line_pol", "GM_TYPE": "Unknown Line Type", "ELEVATION": 0 }, "geometry": { "type": "MultiLineString", "coordinates": [ [ [ 772893.295537039986812, 8983479.429838789626956 ], [ 772893.865446737036109, 8983407.811864050105214 ], [ 772786.522800268954597, 8983138.628924349322915 ], [ 772862.250195166096091, 8982838.64632867090404 ], [ 772624.568660914083011, 8982643.188517719507217 ], [ 772606.376620412920602, 8982645.89839299954474 ] ] ] } }
]
}
