{
"type": "FeatureCollection",
"name": "09_oe_ar_asesories",
"crs": { "type": "name", "properties": { "name": "urn:ogc:def:crs:EPSG::32751" } },
"features": [
{ "type": "Feature", "properties": { "LAYER": "06.Asesories", "GM_TYPE": "Unknown Area Type", "ELEVATION": 0 }, "geometry": { "type": "MultiPolygon", "coordinates": [ [ [ [ 772944.956608649110422, 8983315.007020300254226 ], [ 772944.956608649110422, 8983307.754423631355166 ], [ 772929.949780210619792, 8983307.754423631355166 ], [ 772929.949780210619792, 8983315.007020300254226 ], [ 772944.956608649110422, 8983315.007020300254226 ] ] ] ] } },
{ "type": "Feature", "properties": { "LAYER": "06.Asesories", "GM_TYPE": "Unknown Area Type", "ELEVATION": 0 }, "geometry": { "type": "MultiPolygon", "coordinates": [ [ [ [ 772941.801376007962972, 8983246.238671090453863 ], [ 772968.918379244278185, 8983246.238671090453863 ], [ 772968.918379244278185, 8983234.655401868745685 ], [ 772941.801376007962972, 8983234.655401868745685 ], [ 772941.801376007962972, 8983246.238671090453863 ] ] ] ] } },
{ "type": "Feature", "properties": { "LAYER": "06.Asesories", "GM_TYPE": "Unknown Area Type", "ELEVATION": 0 }, "geometry": { "type": "MultiPolygon", "coordinates": [ [ [ [ 772859.968253378057852, 8982100.853017469868064 ], [ 772893.428004651446827, 8982103.65183867700398 ], [ 772894.374900683877058, 8982092.33174947462976 ], [ 772860.915149410255253, 8982089.532928267493844 ], [ 772859.968253378057852, 8982100.853017469868064 ] ] ] ] } },
{ "type": "Feature", "properties": { "LAYER": "06.Asesories", "GM_TYPE": "Unknown Area Type", "ELEVATION": 0 }, "geometry": { "type": "MultiPolygon", "coordinates": [ [ [ [ 774318.070180107024498, 8982290.102719569578767 ], [ 774775.965108679141849, 8982249.476758122444153 ], [ 775275.025418217061087, 8982218.244700660929084 ], [ 775257.125921058934182, 8981972.353482635691762 ], [ 775235.532982759992592, 8981655.234937146306038 ], [ 775155.6390551867662, 8981596.988682737573981 ], [ 775064.94867489580065, 8981564.629640620201826 ], [ 774961.302544770529494, 8981510.697913948446512 ], [ 774883.56791431340389, 8981439.508030461147428 ], [ 774376.133650679024868, 8982041.38609460927546 ], [ 774318.070180107024498, 8982290.102719569578767 ] ] ] ] } },
{ "type": "Feature", "properties": { "LAYER": "06.Asesories", "GM_TYPE": "Unknown Area Type", "ELEVATION": 0 }, "geometry": { "type": "MultiPolygon", "coordinates": [ [ [ [ 774318.070180107024498, 8982290.102719569578767 ], [ 774775.965108679141849, 8982249.476758122444153 ], [ 775275.025418217061087, 8982218.244700660929084 ], [ 775257.125921058934182, 8981972.353482635691762 ], [ 775235.532982759992592, 8981655.234937146306038 ], [ 775155.6390551867662, 8981596.988682737573981 ], [ 775064.94867489580065, 8981564.629640620201826 ], [ 774961.302544770529494, 8981510.697913948446512 ], [ 774883.56791431340389, 8981439.508030461147428 ], [ 774376.133650679024868, 8982041.38609460927546 ], [ 774318.070180107024498, 8982290.102719569578767 ] ] ] ] } },
{ "type": "Feature", "properties": { "LAYER": "06.Asesories", "GM_TYPE": "Unknown Area Type", "ELEVATION": 0 }, "geometry": { "type": "MultiPolygon", "coordinates": [ [ [ [ 773826.659608016489074, 8981452.185010720044374 ], [ 773995.102496243664064, 8981467.483635079115629 ], [ 774178.858365346794017, 8981470.543369127437472 ], [ 774629.060279155848548, 8981464.423916324973106 ], [ 774809.753545511164702, 8981409.348871681839228 ], [ 774809.753545511164702, 8981366.512717356905341 ], [ 774779.127550895791501, 8981225.765379345044494 ], [ 774714.812991780228913, 8981078.898603824898601 ], [ 774586.183906412217766, 8980928.972094258293509 ], [ 774365.676837197854184, 8980901.434564288705587 ], [ 774129.856787107419223, 8980870.837315566837788 ], [ 774016.540682615479454, 8980901.434564288705587 ], [ 773900.161975375725888, 8980977.927686097100377 ], [ 773832.784813512233086, 8981066.659698218107224 ], [ 773826.659608016489074, 8981452.185010720044374 ] ] ] ] } },
{ "type": "Feature", "properties": { "LAYER": "06.Asesories", "GM_TYPE": "Unknown Area Type", "ELEVATION": 0 }, "geometry": { "type": "MultiPolygon", "coordinates": [ [ [ [ 773826.659608016489074, 8981452.185010720044374 ], [ 773995.102496243664064, 8981467.483635079115629 ], [ 774178.858365346794017, 8981470.543369127437472 ], [ 774629.060279155848548, 8981464.423916324973106 ], [ 774809.753545511164702, 8981409.348871681839228 ], [ 774809.753545511164702, 8981366.512717356905341 ], [ 774779.127550895791501, 8981225.765379345044494 ], [ 774714.812991780228913, 8981078.898603824898601 ], [ 774586.183906412217766, 8980928.972094258293509 ], [ 774365.676837197854184, 8980901.434564288705587 ], [ 774129.856787107419223, 8980870.837315566837788 ], [ 774016.540682615479454, 8980901.434564288705587 ], [ 773900.161975375725888, 8980977.927686097100377 ], [ 773832.784813512233086, 8981066.659698218107224 ], [ 773826.659608016489074, 8981452.185010720044374 ] ] ] ] } },
{ "type": "Feature", "properties": { "LAYER": "06.Asesories", "GM_TYPE": "Unknown Area Type", "ELEVATION": 0 }, "geometry": { "type": "MultiPolygon", "coordinates": [ [ [ [ 772090.922970732790418, 8982170.622331596910954 ], [ 772096.045249016373418, 8982170.622331596910954 ], [ 772096.045249016373418, 8982160.021916093304753 ], [ 772090.922970732790418, 8982160.021916093304753 ], [ 772090.922970732790418, 8982170.622331596910954 ] ] ] ] } },
{ "type": "Feature", "properties": { "LAYER": "06.Asesories", "GM_TYPE": "Unknown Area Type", "ELEVATION": 0 }, "geometry": { "type": "MultiPolygon", "coordinates": [ [ [ [ 771953.770138888154179, 8982122.502232445403934 ], [ 771958.609958486165851, 8982124.179695134982467 ], [ 771962.081421867478639, 8982114.163820194080472 ], [ 771957.241602269350551, 8982112.486357506364584 ], [ 771953.770138888154179, 8982122.502232445403934 ] ] ] ] } },
{ "type": "Feature", "properties": { "LAYER": "06.Asesories", "GM_TYPE": "Unknown Area Type", "ELEVATION": 0 }, "geometry": { "type": "MultiPolygon", "coordinates": [ [ [ [ 771776.387653225916438, 8982061.397576171904802 ], [ 771781.4893339589471, 8982061.856475409120321 ], [ 771782.439013442955911, 8982051.298685975372791 ], [ 771777.337332709808834, 8982050.839786738157272 ], [ 771776.387653225916438, 8982061.397576171904802 ] ] ] ] } },
{ "type": "Feature", "properties": { "LAYER": "06.Asesories", "GM_TYPE": "Unknown Area Type", "ELEVATION": 0 }, "geometry": { "type": "MultiPolygon", "coordinates": [ [ [ [ 771723.130824898253195, 8982043.258355509489775 ], [ 771727.945717373047955, 8982045.006081249564886 ], [ 771731.562588230706751, 8982035.041792310774326 ], [ 771726.747695756144822, 8982033.294066570699215 ], [ 771723.130824898253195, 8982043.258355509489775 ] ] ] ] } },
{ "type": "Feature", "properties": { "LAYER": "06.Asesories", "GM_TYPE": "Unknown Area Type", "ELEVATION": 0 }, "geometry": { "type": "MultiPolygon", "coordinates": [ [ [ [ 771609.749466274864972, 8982003.722233399748802 ], [ 771614.871744558447972, 8982003.722233399748802 ], [ 771614.871744558447972, 8981993.121817892417312 ], [ 771609.749466274864972, 8981993.121817892417312 ], [ 771609.749466274864972, 8982003.722233399748802 ] ] ] ] } },
{ "type": "Feature", "properties": { "LAYER": "06.Asesories", "GM_TYPE": "Unknown Area Type", "ELEVATION": 0 }, "geometry": { "type": "MultiPolygon", "coordinates": [ [ [ [ 771437.528335451963358, 8981943.300075192004442 ], [ 771442.366274263826199, 8981944.982954531908035 ], [ 771445.848947255406529, 8981934.970971826463938 ], [ 771441.011008444242179, 8981933.288092486560345 ], [ 771437.528335451963358, 8981943.300075192004442 ] ] ] ] } },
{ "type": "Feature", "properties": { "LAYER": "06.Asesories", "GM_TYPE": "Unknown Area Type", "ELEVATION": 0 }, "geometry": { "type": "MultiPolygon", "coordinates": [ [ [ [ 771389.053253352176398, 8981927.463294554501772 ], [ 771393.908581295632757, 8981929.095325611531734 ], [ 771397.286025154055096, 8981919.047356570139527 ], [ 771392.430697210598737, 8981917.41532551497221 ], [ 771389.053253352176398, 8981927.463294554501772 ] ] ] ] } },
{ "type": "Feature", "properties": { "LAYER": "06.Asesories", "GM_TYPE": "Unknown Area Type", "ELEVATION": 0 }, "geometry": { "type": "MultiPolygon", "coordinates": [ [ [ [ 771116.931891498621553, 8981832.092242488637567 ], [ 771121.757781118620187, 8981833.809369215741754 ], [ 771125.311328142881393, 8981823.82232198305428 ], [ 771120.48543852288276, 8981822.105195257812738 ], [ 771116.931891498621553, 8981832.092242488637567 ] ] ] ] } },
{ "type": "Feature", "properties": { "LAYER": "06.Asesories", "GM_TYPE": "Unknown Area Type", "ELEVATION": 0 }, "geometry": { "type": "MultiPolygon", "coordinates": [ [ [ [ 772899.357504595071077, 8983681.907780261710286 ], [ 772899.588658798485994, 8983687.024840213358402 ], [ 772910.178275106474757, 8983686.546472877264023 ], [ 772909.94712090305984, 8983681.429412925615907 ], [ 772899.357504595071077, 8983681.907780261710286 ] ] ] ] } },
{ "type": "Feature", "properties": { "LAYER": "06.Asesories", "GM_TYPE": "Unknown Area Type", "ELEVATION": 0 }, "geometry": { "type": "MultiPolygon", "coordinates": [ [ [ [ 772774.701730697415769, 8981856.410680271685123 ], [ 772793.17703210527543, 8981856.410680271685123 ], [ 772793.17703210527543, 8981836.414546728134155 ], [ 772774.701730697415769, 8981836.414546728134155 ], [ 772774.701730697415769, 8981856.410680271685123 ] ] ] ] } },
{ "type": "Feature", "properties": { "LAYER": "06.Asesories", "GM_TYPE": "Unknown Area Type", "ELEVATION": 0 }, "geometry": { "type": "MultiPolygon", "coordinates": [ [ [ [ 772723.244763978174888, 8982103.928925309330225 ], [ 772736.169827761943452, 8982103.928925309330225 ], [ 772736.169827761943452, 8982090.256406474858522 ], [ 772723.244763978174888, 8982090.256406474858522 ], [ 772723.244763978174888, 8982103.928925309330225 ] ] ] ] } },
{ "type": "Feature", "properties": { "LAYER": "06.Asesories", "GM_TYPE": "Unknown Area Type", "ELEVATION": 0 }, "geometry": { "type": "MultiPolygon", "coordinates": [ [ [ [ 772723.244763978174888, 8982080.761603977531195 ], [ 772734.26906553900335, 8982080.761603977531195 ], [ 772734.26906553900335, 8982066.70928749255836 ], [ 772723.244763978174888, 8982066.70928749255836 ], [ 772723.244763978174888, 8982080.761603977531195 ] ] ] ] } },
{ "type": "Feature", "properties": { "LAYER": "06.Asesories", "GM_TYPE": "Unknown Area Type", "ELEVATION": 0 }, "geometry": { "type": "MultiPolygon", "coordinates": [ [ [ [ 772722.864616505801678, 8982055.315519869327545 ], [ 772733.50877059425693, 8982055.315519869327545 ], [ 772733.50877059425693, 8982038.224868435412645 ], [ 772722.864616505801678, 8982038.224868435412645 ], [ 772722.864616505801678, 8982055.315519869327545 ] ] ] ] } },
{ "type": "Feature", "properties": { "LAYER": "06.Asesories", "GM_TYPE": "Unknown Area Type", "ELEVATION": 0 }, "geometry": { "type": "MultiPolygon", "coordinates": [ [ [ [ 772722.864616505801678, 8982028.730065938085318 ], [ 772734.649237872334197, 8982028.730065938085318 ], [ 772734.649237872334197, 8982016.576714577153325 ], [ 772722.864616505801678, 8982016.576714577153325 ], [ 772722.864616505801678, 8982028.730065938085318 ] ] ] ] } },
{ "type": "Feature", "properties": { "LAYER": "06.Asesories", "GM_TYPE": "Unknown Area Type", "ELEVATION": 0 }, "geometry": { "type": "MultiPolygon", "coordinates": [ [ [ [ 772749.855186490342021, 8982116.082276670262218 ], [ 772773.424404362565838, 8982116.082276670262218 ], [ 772773.424404362565838, 8982098.611839149147272 ], [ 772749.855186490342021, 8982098.611839149147272 ], [ 772749.855186490342021, 8982116.082276670262218 ] ] ] ] } },
{ "type": "Feature", "properties": { "LAYER": "06.Asesories", "GM_TYPE": "Unknown Area Type", "ELEVATION": 0 }, "geometry": { "type": "MultiPolygon", "coordinates": [ [ [ [ 772789.010525314253755, 8982086.838273875415325 ], [ 772801.555441625416279, 8982086.838273875415325 ], [ 772801.555441625416279, 8982066.70928749255836 ], [ 772789.010525314253755, 8982066.70928749255836 ], [ 772789.010525314253755, 8982086.838273875415325 ] ] ] ] } }
]
}
