{
"type": "FeatureCollection",
"name": "09_oe_po_teks",
"crs": { "type": "name", "properties": { "name": "urn:ogc:def:crs:EPSG::32751" } },
"features": [
{ "type": "Feature", "properties": { "NAME": "39.00", "LAYER": "tex2", "GM_TYPE": "Text", "ELEVATION": 0 }, "geometry": { "type": "Point", "coordinates": [ 776844.008725698222406, 8982764.479678794741631 ] } },
{ "type": "Feature", "properties": { "NAME": "Ob.1 L2", "LAYER": "tex2", "GM_TYPE": "Text", "ELEVATION": 0 }, "geometry": { "type": "Point", "coordinates": [ 776932.146142684621736, 8982838.864585744217038 ] } },
{ "type": "Feature", "properties": { "NAME": "50.70", "LAYER": "tex2", "GM_TYPE": "Text", "ELEVATION": 0 }, "geometry": { "type": "Point", "coordinates": [ 777041.989669508649968, 8982764.479678794741631 ] } },
{ "type": "Feature", "properties": { "NAME": "14.00", "LAYER": "tex2", "GM_TYPE": "Text", "ELEVATION": 0 }, "geometry": { "type": "Point", "coordinates": [ 777317.052893590182066, 8982586.216533130034804 ] } },
{ "type": "Feature", "properties": { "NAME": "Ob.1 L1", "LAYER": "tex2", "GM_TYPE": "Text", "ELEVATION": 0 }, "geometry": { "type": "Point", "coordinates": [ 777389.074653880787082, 8982660.601440079510212 ] } },
{ "type": "Feature", "properties": { "NAME": "18.20", "LAYER": "tex2", "GM_TYPE": "Text", "ELEVATION": 0 }, "geometry": { "type": "Point", "coordinates": [ 777500.331287367502227, 8982586.216533130034804 ] } },
{ "type": "Feature", "properties": { "NAME": "48.50", "LAYER": "tex2", "GM_TYPE": "Text", "ELEVATION": 0 }, "geometry": { "type": "Point", "coordinates": [ 776117.106939213350415, 8982943.541903724893928 ] } },
{ "type": "Feature", "properties": { "NAME": "Ob.2 L", "LAYER": "tex2", "GM_TYPE": "Text", "ELEVATION": 0 }, "geometry": { "type": "Point", "coordinates": [ 776205.244356199749745, 8983017.926810674369335 ] } },
{ "type": "Feature", "properties": { "NAME": "63.05", "LAYER": "tex2", "GM_TYPE": "Text", "ELEVATION": 0 }, "geometry": { "type": "Point", "coordinates": [ 776304.606939213350415, 8982943.541903724893928 ] } },
{ "type": "Feature", "properties": { "NAME": "80.75", "LAYER": "tex2", "GM_TYPE": "Text", "ELEVATION": 0 }, "geometry": { "type": "Point", "coordinates": [ 775603.501383587834425, 8982392.944214886054397 ] } },
{ "type": "Feature", "properties": { "NAME": "Ob.3 L1", "LAYER": "tex2", "GM_TYPE": "Text", "ELEVATION": 0 }, "geometry": { "type": "Point", "coordinates": [ 775707.559070392278954, 8982469.491400845348835 ] } },
{ "type": "Feature", "properties": { "NAME": "104.98", "LAYER": "tex2", "GM_TYPE": "Text", "ELEVATION": 0 }, "geometry": { "type": "Point", "coordinates": [ 775791.001383587834425, 8982392.944214886054397 ] } },
{ "type": "Feature", "properties": { "NAME": "100.75", "LAYER": "tex2", "GM_TYPE": "Text", "ELEVATION": 0 }, "geometry": { "type": "Point", "coordinates": [ 774657.151159529224969, 8982378.083741178736091 ] } },
{ "type": "Feature", "properties": { "NAME": "Ob.3 L2", "LAYER": "tex2", "GM_TYPE": "Text", "ELEVATION": 0 }, "geometry": { "type": "Point", "coordinates": [ 774777.615273255156353, 8982454.455160450190306 ] } },
{ "type": "Feature", "properties": { "NAME": "130.98", "LAYER": "tex2", "GM_TYPE": "Text", "ELEVATION": 0 }, "geometry": { "type": "Point", "coordinates": [ 774855.739751710323617, 8982378.083741178736091 ] } },
{ "type": "Feature", "properties": { "NAME": "112.25", "LAYER": "tex2", "GM_TYPE": "Text", "ELEVATION": 0 }, "geometry": { "type": "Point", "coordinates": [ 773933.583350494038314, 8981877.029167657718062 ] } },
{ "type": "Feature", "properties": { "NAME": "Ob.7 L", "LAYER": "tex2", "GM_TYPE": "Text", "ELEVATION": 0 }, "geometry": { "type": "Point", "coordinates": [ 774045.790031221578829, 8981950.114700239151716 ] } },
{ "type": "Feature", "properties": { "NAME": "145.93", "LAYER": "tex2", "GM_TYPE": "Text", "ELEVATION": 0 }, "geometry": { "type": "Point", "coordinates": [ 774124.978408444672823, 8981877.029167657718062 ] } },
{ "type": "Feature", "properties": { "NAME": "72.75", "LAYER": "tex2", "GM_TYPE": "Text", "ELEVATION": 0 }, "geometry": { "type": "Point", "coordinates": [ 773309.813144518178888, 8981594.542232295498252 ] } },
{ "type": "Feature", "properties": { "NAME": "Ob.7 R1", "LAYER": "tex2", "GM_TYPE": "Text", "ELEVATION": 0 }, "geometry": { "type": "Point", "coordinates": [ 773417.606617419864051, 8981669.4331024736166 ] } },
{ "type": "Feature", "properties": { "NAME": "145.93", "LAYER": "tex2", "GM_TYPE": "Text", "ELEVATION": 0 }, "geometry": { "type": "Point", "coordinates": [ 772822.208276008022949, 8981176.40249377861619 ] } },
{ "type": "Feature", "properties": { "NAME": "94.58", "LAYER": "tex2", "GM_TYPE": "Text", "ELEVATION": 0 }, "geometry": { "type": "Point", "coordinates": [ 773497.313144518178888, 8981594.542232295498252 ] } },
{ "type": "Feature", "properties": { "NAME": "79.50", "LAYER": "tex2", "GM_TYPE": "Text", "ELEVATION": 0 }, "geometry": { "type": "Point", "coordinates": [ 772904.115773388883099, 8980988.919281197711825 ] } },
{ "type": "Feature", "properties": { "NAME": "Ob.7 R2", "LAYER": "tex2", "GM_TYPE": "Text", "ELEVATION": 0 }, "geometry": { "type": "Point", "coordinates": [ 773011.847536445478909, 8981061.600228767842054 ] } },
{ "type": "Feature", "properties": { "NAME": "103.35", "LAYER": "tex2", "GM_TYPE": "Text", "ELEVATION": 0 }, "geometry": { "type": "Point", "coordinates": [ 773091.615773388883099, 8980988.919281197711825 ] } },
{ "type": "Feature", "properties": { "NAME": "66.00", "LAYER": "tex2", "GM_TYPE": "Text", "ELEVATION": 0 }, "geometry": { "type": "Point", "coordinates": [ 773696.091974148526788, 8982913.960210386663675 ] } },
{ "type": "Feature", "properties": { "NAME": "Ob.6 L", "LAYER": "tex2", "GM_TYPE": "Text", "ELEVATION": 0 }, "geometry": { "type": "Point", "coordinates": [ 773804.675938236876391, 8982988.29368968307972 ] } },
{ "type": "Feature", "properties": { "NAME": "85.80", "LAYER": "tex2", "GM_TYPE": "Text", "ELEVATION": 0 }, "geometry": { "type": "Point", "coordinates": [ 773883.591974148526788, 8982913.960210386663675 ] } },
{ "type": "Feature", "properties": { "NAME": "65.25", "LAYER": "tex2", "GM_TYPE": "Text", "ELEVATION": 0 }, "geometry": { "type": "Point", "coordinates": [ 772906.605662313522771, 8982303.671640938147902 ] } },
{ "type": "Feature", "properties": { "NAME": "Ob.6 R", "LAYER": "tex2", "GM_TYPE": "Text", "ELEVATION": 0 }, "geometry": { "type": "Point", "coordinates": [ 773015.653606215608306, 8982374.994408769533038 ] } },
{ "type": "Feature", "properties": { "NAME": "84.83", "LAYER": "tex2", "GM_TYPE": "Text", "ELEVATION": 0 }, "geometry": { "type": "Point", "coordinates": [ 773103.633793050306849, 8982303.671640940010548 ] } },
{ "type": "Feature", "properties": { "NAME": "20.75", "LAYER": "tex2", "GM_TYPE": "Text", "ELEVATION": 0 }, "geometry": { "type": "Point", "coordinates": [ 776891.489982169936411, 8982185.848004918545485 ] } },
{ "type": "Feature", "properties": { "NAME": "Sp.II.1 L", "LAYER": "tex2", "GM_TYPE": "Text", "ELEVATION": 0 }, "geometry": { "type": "Point", "coordinates": [ 776966.464616682496853, 8982260.712897660210729 ] } },
{ "type": "Feature", "properties": { "NAME": "26.98", "LAYER": "tex2", "GM_TYPE": "Text", "ELEVATION": 0 }, "geometry": { "type": "Point", "coordinates": [ 777089.440820050775073, 8982185.848004918545485 ] } },
{ "type": "Feature", "properties": { "NAME": "18.50", "LAYER": "tex2", "GM_TYPE": "Text", "ELEVATION": 0 }, "geometry": { "type": "Point", "coordinates": [ 776562.598303198465146, 8982385.90979384444654 ] } },
{ "type": "Feature", "properties": { "NAME": "Sp.II.1 R", "LAYER": "tex2", "GM_TYPE": "Text", "ELEVATION": 0 }, "geometry": { "type": "Point", "coordinates": [ 776649.742489533382468, 8982464.643134465441108 ] } },
{ "type": "Feature", "properties": { "NAME": "24.05", "LAYER": "tex2", "GM_TYPE": "Text", "ELEVATION": 0 }, "geometry": { "type": "Point", "coordinates": [ 776763.841940934304148, 8982385.90979384444654 ] } },
{ "type": "Feature", "properties": { "NAME": "118.50", "LAYER": "tex2", "GM_TYPE": "Text", "ELEVATION": 0 }, "geometry": { "type": "Point", "coordinates": [ 775617.631248443736695, 8981395.477105358615518 ] } },
{ "type": "Feature", "properties": { "NAME": "Sp.II.2 R2", "LAYER": "tex2", "GM_TYPE": "Text", "ELEVATION": 0 }, "geometry": { "type": "Point", "coordinates": [ 775701.482634923653677, 8981474.210445979610085 ] } },
{ "type": "Feature", "properties": { "NAME": "28.50", "LAYER": "tex2", "GM_TYPE": "Text", "ELEVATION": 0 }, "geometry": { "type": "Point", "coordinates": [ 776392.777384124579839, 8981630.234869707375765 ] } },
{ "type": "Feature", "properties": { "NAME": "Sp.II.2 R1", "LAYER": "tex2", "GM_TYPE": "Text", "ELEVATION": 0 }, "geometry": { "type": "Point", "coordinates": [ 776466.130216287332587, 8981708.509564829990268 ] } },
{ "type": "Feature", "properties": { "NAME": "37.05", "LAYER": "tex2", "GM_TYPE": "Text", "ELEVATION": 0 }, "geometry": { "type": "Point", "coordinates": [ 776590.728222005418502, 8981630.234869707375765 ] } },
{ "type": "Feature", "properties": { "NAME": "62.50", "LAYER": "tex2", "GM_TYPE": "Text", "ELEVATION": 0 }, "geometry": { "type": "Point", "coordinates": [ 776857.110960984718986, 8981160.880269473418593 ] } },
{ "type": "Feature", "properties": { "NAME": "Sp.II.3 L", "LAYER": "tex2", "GM_TYPE": "Text", "ELEVATION": 0 }, "geometry": { "type": "Point", "coordinates": [ 776945.52651992382016, 8981235.283672405406833 ] } },
{ "type": "Feature", "properties": { "NAME": "81.25", "LAYER": "tex2", "GM_TYPE": "Text", "ELEVATION": 0 }, "geometry": { "type": "Point", "coordinates": [ 777055.061798865557648, 8981160.880269473418593 ] } },
{ "type": "Feature", "properties": { "NAME": "47.25", "LAYER": "tex2", "GM_TYPE": "Text", "ELEVATION": 12 }, "geometry": { "type": "Point", "coordinates": [ 776043.888725280761719, 8980646.846218083053827 ] } },
{ "type": "Feature", "properties": { "NAME": "Sp.II.3 R", "LAYER": "tex2", "GM_TYPE": "Text", "ELEVATION": 12 }, "geometry": { "type": "Point", "coordinates": [ 776125.114253742620349, 8980722.830861732363701 ] } },
{ "type": "Feature", "properties": { "NAME": "61.43", "LAYER": "tex2", "GM_TYPE": "Text", "ELEVATION": 12 }, "geometry": { "type": "Point", "coordinates": [ 776241.839563161600381, 8980646.846218083053827 ] } },
{ "type": "Feature", "properties": { "NAME": "66.50", "LAYER": "tex2", "GM_TYPE": "Text", "ELEVATION": 0 }, "geometry": { "type": "Point", "coordinates": [ 776865.905639486270957, 8980337.695018796250224 ] } },
{ "type": "Feature", "properties": { "NAME": "Sp.II.4 L", "LAYER": "tex2", "GM_TYPE": "Text", "ELEVATION": 0 }, "geometry": { "type": "Point", "coordinates": [ 776954.043056472670287, 8980412.079925745725632 ] } },
{ "type": "Feature", "properties": { "NAME": "38.00", "LAYER": "tex2", "GM_TYPE": "Text", "ELEVATION": 0 }, "geometry": { "type": "Point", "coordinates": [ 776162.500906278030016, 8980154.715832715854049 ] } },
{ "type": "Feature", "properties": { "NAME": "Sp.II.4 R", "LAYER": "tex2", "GM_TYPE": "Text", "ELEVATION": 0 }, "geometry": { "type": "Point", "coordinates": [ 776248.619356786250137, 8980229.100739665329456 ] } },
{ "type": "Feature", "properties": { "NAME": "35.00", "LAYER": "tex2", "GM_TYPE": "Text", "ELEVATION": 0 }, "geometry": { "type": "Point", "coordinates": [ 774807.752782806870528, 8981762.467569356784225 ] } },
{ "type": "Feature", "properties": { "NAME": "Sp.I.1 R", "LAYER": "tex2", "GM_TYPE": "Text", "ELEVATION": 0 }, "geometry": { "type": "Point", "coordinates": [ 774895.890199793269858, 8981845.629637932404876 ] } },
{ "type": "Feature", "properties": { "NAME": "45.50", "LAYER": "tex2", "GM_TYPE": "Text", "ELEVATION": 0 }, "geometry": { "type": "Point", "coordinates": [ 775009.494160219794139, 8981762.467569356784225 ] } },
{ "type": "Feature", "properties": { "NAME": "11.75", "LAYER": "tex2", "GM_TYPE": "Text", "ELEVATION": 0 }, "geometry": { "type": "Point", "coordinates": [ 775202.844910430256277, 8980981.827486937865615 ] } },
{ "type": "Feature", "properties": { "NAME": "Sp.I.3 L", "LAYER": "tex2", "GM_TYPE": "Text", "ELEVATION": 0 }, "geometry": { "type": "Point", "coordinates": [ 775290.982327416655608, 8981056.649146981537342 ] } },
{ "type": "Feature", "properties": { "NAME": "15.28", "LAYER": "tex2", "GM_TYPE": "Text", "ELEVATION": 0 }, "geometry": { "type": "Point", "coordinates": [ 775404.586287843179889, 8980981.827486937865615 ] } },
{ "type": "Feature", "properties": { "NAME": "41.00", "LAYER": "tex2", "GM_TYPE": "Text", "ELEVATION": 0 }, "geometry": { "type": "Point", "coordinates": [ 774749.807419007178396, 8980807.832690108567476 ] } },
{ "type": "Feature", "properties": { "NAME": "Sp.I.3 R", "LAYER": "tex2", "GM_TYPE": "Text", "ELEVATION": 0 }, "geometry": { "type": "Point", "coordinates": [ 774837.944835993577726, 8980890.095125837251544 ] } },
{ "type": "Feature", "properties": { "NAME": "53.30", "LAYER": "tex2", "GM_TYPE": "Text", "ELEVATION": 0 }, "geometry": { "type": "Point", "coordinates": [ 774951.548796420102008, 8980807.832690108567476 ] } },
{ "type": "Feature", "properties": { "NAME": "55.00", "LAYER": "tex2", "GM_TYPE": "Text", "ELEVATION": 0 }, "geometry": { "type": "Point", "coordinates": [ 775267.750831354409456, 8980107.313376732170582 ] } },
{ "type": "Feature", "properties": { "NAME": "Sp.I.4 L", "LAYER": "tex2", "GM_TYPE": "Text", "ELEVATION": 0 }, "geometry": { "type": "Point", "coordinates": [ 775355.888248340808786, 8980188.466714827343822 ] } },
{ "type": "Feature", "properties": { "NAME": "71.50", "LAYER": "tex2", "GM_TYPE": "Text", "ELEVATION": 0 }, "geometry": { "type": "Point", "coordinates": [ 775469.492208767333068, 8980107.313376732170582 ] } },
{ "type": "Feature", "properties": { "NAME": "65.00", "LAYER": "tex2", "GM_TYPE": "Text", "ELEVATION": 0 }, "geometry": { "type": "Point", "coordinates": [ 774496.027172574773431, 8980125.836682355031371 ] } },
{ "type": "Feature", "properties": { "NAME": "Sp.I.4 R", "LAYER": "tex2", "GM_TYPE": "Text", "ELEVATION": 0 }, "geometry": { "type": "Point", "coordinates": [ 774584.164589561172761, 8980202.399687144905329 ] } },
{ "type": "Feature", "properties": { "NAME": "84.50", "LAYER": "tex2", "GM_TYPE": "Text", "ELEVATION": 0 }, "geometry": { "type": "Point", "coordinates": [ 774697.768549987697043, 8980125.836682355031371 ] } },
{ "type": "Feature", "properties": { "NAME": "81.25", "LAYER": "tex2", "GM_TYPE": "Text", "ELEVATION": 0 }, "geometry": { "type": "Point", "coordinates": [ 773893.716201828443445, 8980343.592288296669722 ] } },
{ "type": "Feature", "properties": { "NAME": "Ob.8 L", "LAYER": "tex2", "GM_TYPE": "Text", "ELEVATION": 0 }, "geometry": { "type": "Point", "coordinates": [ 774002.828023466630839, 8980422.525635916739702 ] } },
{ "type": "Feature", "properties": { "NAME": "105.63", "LAYER": "tex2", "GM_TYPE": "Text", "ELEVATION": 0 }, "geometry": { "type": "Point", "coordinates": [ 774081.216201828443445, 8980343.592288296669722 ] } },
{ "type": "Feature", "properties": { "NAME": "35.00", "LAYER": "tex2", "GM_TYPE": "Text", "ELEVATION": -20 }, "geometry": { "type": "Point", "coordinates": [ 773837.355927961994894, 8983453.057169692590833 ] } },
{ "type": "Feature", "properties": { "NAME": "Ob.4 L", "LAYER": "tex2", "GM_TYPE": "Text", "ELEVATION": -20 }, "geometry": { "type": "Point", "coordinates": [ 773945.250832560588606, 8983531.955036867409945 ] } },
{ "type": "Feature", "properties": { "NAME": "45.50", "LAYER": "tex2", "GM_TYPE": "Text", "ELEVATION": -20 }, "geometry": { "type": "Point", "coordinates": [ 774024.855927961994894, 8983453.057169692590833 ] } },
{ "type": "Feature", "properties": { "NAME": "10.00", "LAYER": "tex2", "GM_TYPE": "Text", "ELEVATION": 0 }, "geometry": { "type": "Point", "coordinates": [ 774845.262469093082473, 8981346.71317664347589 ] } },
{ "type": "Feature", "properties": { "NAME": "Sp.I.2 R", "LAYER": "tex2", "GM_TYPE": "Text", "ELEVATION": 0 }, "geometry": { "type": "Point", "coordinates": [ 774933.399886079481803, 8981430.138961350545287 ] } },
{ "type": "Feature", "properties": { "NAME": "13.00", "LAYER": "tex2", "GM_TYPE": "Text", "ELEVATION": 0 }, "geometry": { "type": "Point", "coordinates": [ 775047.003846506006084, 8981346.71317664347589 ] } },
{ "type": "Feature", "properties": { "NAME": "52.00", "LAYER": "tex2", "GM_TYPE": "Text", "ELEVATION": 0 }, "geometry": { "type": "Point", "coordinates": [ 772314.472465196507983, 8981778.824893612414598 ] } },
{ "type": "Feature", "properties": { "NAME": "Bk.2 L", "LAYER": "tex2", "GM_TYPE": "Text", "ELEVATION": 0 }, "geometry": { "type": "Point", "coordinates": [ 772402.609882182907313, 8981855.387898404151201 ] } },
{ "type": "Feature", "properties": { "NAME": "67.60", "LAYER": "tex2", "GM_TYPE": "Text", "ELEVATION": 0 }, "geometry": { "type": "Point", "coordinates": [ 772516.275297540938482, 8981778.824893612414598 ] } },
{ "type": "Feature", "properties": { "NAME": "97.25", "LAYER": "tex2", "GM_TYPE": "Text", "ELEVATION": 0 }, "geometry": { "type": "Point", "coordinates": [ 772208.492420183843933, 8980799.053463906049728 ] } },
{ "type": "Feature", "properties": { "NAME": "Bk.3 L", "LAYER": "tex2", "GM_TYPE": "Text", "ELEVATION": 0 }, "geometry": { "type": "Point", "coordinates": [ 772296.629837170243263, 8980875.616468695923686 ] } },
{ "type": "Feature", "properties": { "NAME": "126.43", "LAYER": "tex2", "GM_TYPE": "Text", "ELEVATION": 0 }, "geometry": { "type": "Point", "coordinates": [ 772410.295252528158017, 8980799.053463906049728 ] } },
{ "type": "Feature", "properties": { "NAME": "43.75", "LAYER": "tex2", "GM_TYPE": "Text", "ELEVATION": 0 }, "geometry": { "type": "Point", "coordinates": [ 771697.616597699001431, 8981537.278689598664641 ] } },
{ "type": "Feature", "properties": { "NAME": "Bk.2 R", "LAYER": "tex2", "GM_TYPE": "Text", "ELEVATION": 0 }, "geometry": { "type": "Point", "coordinates": [ 771785.754014685400762, 8981613.841694390401244 ] } },
{ "type": "Feature", "properties": { "NAME": "56.88", "LAYER": "tex2", "GM_TYPE": "Text", "ELEVATION": 0 }, "geometry": { "type": "Point", "coordinates": [ 771899.419430043315515, 8981537.278689598664641 ] } },
{ "type": "Feature", "properties": { "NAME": "27.00", "LAYER": "tex2", "GM_TYPE": "Text", "ELEVATION": 0 }, "geometry": { "type": "Point", "coordinates": [ 771290.117229034774937, 8980438.660616612061858 ] } },
{ "type": "Feature", "properties": { "NAME": "Bk. 5 L", "LAYER": "tex2", "GM_TYPE": "Text", "ELEVATION": 0 }, "geometry": { "type": "Point", "coordinates": [ 771378.254646021174267, 8980515.223621403798461 ] } },
{ "type": "Feature", "properties": { "NAME": "35.10", "LAYER": "tex2", "GM_TYPE": "Text", "ELEVATION": 0 }, "geometry": { "type": "Point", "coordinates": [ 771491.92006137908902, 8980438.660616612061858 ] } },
{ "type": "Feature", "properties": { "NAME": "52.25", "LAYER": "tex2", "GM_TYPE": "Text", "ELEVATION": 0 }, "geometry": { "type": "Point", "coordinates": [ 771736.282022825442255, 8980523.054228944703937 ] } },
{ "type": "Feature", "properties": { "NAME": "Bk.3 R", "LAYER": "tex2", "GM_TYPE": "Text", "ELEVATION": 0 }, "geometry": { "type": "Point", "coordinates": [ 771824.419439811841585, 8980599.617233736440539 ] } },
{ "type": "Feature", "properties": { "NAME": "67.93", "LAYER": "tex2", "GM_TYPE": "Text", "ELEVATION": 0 }, "geometry": { "type": "Point", "coordinates": [ 771938.084855169872753, 8980523.054228944703937 ] } },
{ "type": "Feature", "properties": { "NAME": "29.25", "LAYER": "tex2", "GM_TYPE": "Text", "ELEVATION": 0 }, "geometry": { "type": "Point", "coordinates": [ 771130.637348370510153, 8981068.909270908683538 ] } },
{ "type": "Feature", "properties": { "NAME": "Bk.4 L", "LAYER": "tex2", "GM_TYPE": "Text", "ELEVATION": 0 }, "geometry": { "type": "Point", "coordinates": [ 771257.882972739520483, 8981145.472275700420141 ] } },
{ "type": "Feature", "properties": { "NAME": "38.03", "LAYER": "tex2", "GM_TYPE": "Text", "ELEVATION": 0 }, "geometry": { "type": "Point", "coordinates": [ 771332.440180714824237, 8981068.909270908683538 ] } },
{ "type": "Feature", "properties": { "NAME": "20.00", "LAYER": "tex2", "GM_TYPE": "Text", "ELEVATION": 24 }, "geometry": { "type": "Point", "coordinates": [ 770760.275995810399763, 8981276.178167650476098 ] } },
{ "type": "Feature", "properties": { "NAME": "Bk.4 R", "LAYER": "tex2", "GM_TYPE": "Text", "ELEVATION": 24 }, "geometry": { "type": "Point", "coordinates": [ 770869.906513935420662, 8981354.012034812942147 ] } },
{ "type": "Feature", "properties": { "NAME": "26.00", "LAYER": "tex2", "GM_TYPE": "Text", "ELEVATION": 24 }, "geometry": { "type": "Point", "coordinates": [ 770962.078828154713847, 8981276.178167650476098 ] } },
{ "type": "Feature", "properties": { "NAME": "110.00", "LAYER": "tex2", "GM_TYPE": "Text", "ELEVATION": 0 }, "geometry": { "type": "Point", "coordinates": [ 771616.285028312937357, 8979747.31049606949091 ] } },
{ "type": "Feature", "properties": { "NAME": "Bk.5 L", "LAYER": "tex2", "GM_TYPE": "Text", "ELEVATION": 0 }, "geometry": { "type": "Point", "coordinates": [ 771704.422445299336687, 8979823.873500861227512 ] } },
{ "type": "Feature", "properties": { "NAME": "143.00", "LAYER": "tex2", "GM_TYPE": "Text", "ELEVATION": 0 }, "geometry": { "type": "Point", "coordinates": [ 771818.08786065725144, 8979747.31049606949091 ] } },
{ "type": "Feature", "properties": { "NAME": "55.25", "LAYER": "tex2", "GM_TYPE": "Text", "ELEVATION": 0 }, "geometry": { "type": "Point", "coordinates": [ 773287.772625608369708, 8980415.775866461917758 ] } },
{ "type": "Feature", "properties": { "NAME": "Ob.8 R", "LAYER": "tex2", "GM_TYPE": "Text", "ELEVATION": 0 }, "geometry": { "type": "Point", "coordinates": [ 773397.641665982082486, 8980493.950906878337264 ] } },
{ "type": "Feature", "properties": { "NAME": "71.83", "LAYER": "tex2", "GM_TYPE": "Text", "ELEVATION": 0 }, "geometry": { "type": "Point", "coordinates": [ 773475.272625608369708, 8980415.775866461917758 ] } },
{ "type": "Feature", "properties": { "NAME": "20.75", "LAYER": "tex2", "GM_TYPE": "Text", "ELEVATION": 0 }, "geometry": { "type": "Point", "coordinates": [ 772367.758431923459284, 8982341.97003779746592 ] } },
{ "type": "Feature", "properties": { "NAME": "Bk.1 L", "LAYER": "tex2", "GM_TYPE": "Text", "ELEVATION": 0 }, "geometry": { "type": "Point", "coordinates": [ 772455.895848909858614, 8982418.533042589202523 ] } },
{ "type": "Feature", "properties": { "NAME": "26.98", "LAYER": "tex2", "GM_TYPE": "Text", "ELEVATION": 0 }, "geometry": { "type": "Point", "coordinates": [ 772569.561264267773367, 8982341.97003779746592 ] } },
{ "type": "Feature", "properties": { "NAME": "18.50", "LAYER": "tex2", "GM_TYPE": "Text", "ELEVATION": 15 }, "geometry": { "type": "Point", "coordinates": [ 775367.233042491250671, 8981822.495819889008999 ] } },
{ "type": "Feature", "properties": { "NAME": "Sp.I.1L", "LAYER": "tex2", "GM_TYPE": "Text", "ELEVATION": 15 }, "geometry": { "type": "Point", "coordinates": [ 775455.370459477650002, 8981901.771228190511465 ] } },
{ "type": "Feature", "properties": { "NAME": "24.05", "LAYER": "tex2", "GM_TYPE": "Text", "ELEVATION": 15 }, "geometry": { "type": "Point", "coordinates": [ 775568.974419904174283, 8981822.495819889008999 ] } },
{ "type": "Feature", "properties": { "NAME": "48.75", "LAYER": "tex2", "GM_TYPE": "Text", "ELEVATION": 0 }, "geometry": { "type": "Point", "coordinates": [ 773139.086080984445289, 8983393.100257070735097 ] } },
{ "type": "Feature", "properties": { "NAME": "Ob.5 R", "LAYER": "tex2", "GM_TYPE": "Text", "ELEVATION": 0 }, "geometry": { "type": "Point", "coordinates": [ 773248.447834855527617, 8983469.471676342189312 ] } },
{ "type": "Feature", "properties": { "NAME": "63.38", "LAYER": "tex2", "GM_TYPE": "Text", "ELEVATION": 0 }, "geometry": { "type": "Point", "coordinates": [ 773326.586080984445289, 8983393.100257070735097 ] } }
]
}
