{
"type": "FeatureCollection",
"name": "09_oe_ar_jalan",
"crs": { "type": "name", "properties": { "name": "urn:ogc:def:crs:EPSG::32751" } },
"features": [
{ "type": "Feature", "properties": { "LAYER": "11.Jalan", "GM_TYPE": "Unknown Area Type", "ELEVATION": 0 }, "geometry": { "type": "MultiPolygon", "coordinates": [ [ [ [ 772190.617734775179997, 8981959.327750030905008 ], [ 772192.943083665450104, 8981997.330246344208717 ], [ 772195.896666985587217, 8982044.947815338149667 ], [ 772197.522328806109726, 8982079.914217054843903 ], [ 772198.763248937902972, 8982103.067679008468986 ], [ 772201.46209198969882, 8982148.022686634212732 ], [ 772201.462091989582404, 8982148.022686634212732 ], [ 772201.464838157990016, 8982148.065376292914152 ], [ 772201.46794945828151, 8982148.108040893450379 ], [ 772201.47142566065304, 8982148.150677315890789 ], [ 772201.475266511668451, 8982148.193282436579466 ], [ 772201.479471730650403, 8982148.235853135585785 ], [ 772201.484041009913199, 8982148.278386300429702 ], [ 772201.48897401348222, 8982148.320878814905882 ], [ 772201.494270382449031, 8982148.363327570259571 ], [ 772201.499929726938717, 8982148.405729461461306 ], [ 772201.505951633793302, 8982148.448081379756331 ], [ 772201.512335662497208, 8982148.490380227565765 ], [ 772201.519081345759332, 8982148.532622909173369 ], [ 772201.526188188232481, 8982148.574806332588196 ], [ 772201.533655672799796, 8982148.616927407681942 ], [ 772201.54148324963171, 8982148.658983055502176 ], [ 772201.54967034724541, 8982148.700970193371177 ], [ 772201.558216365752742, 8982148.742885751649737 ], [ 772201.567120681051165, 8982148.784726658836007 ], [ 772201.576382640050724, 8982148.826489854604006 ], [ 772201.586001564282924, 8982148.868172282353044 ], [ 772201.595976751297712, 8982148.909770887345076 ], [ 772201.606307470006868, 8982148.951282629743218 ], [ 772201.616992964642122, 8982148.992704465985298 ], [ 772201.628032453241758, 8982149.034033367410302 ], [ 772201.639425125671551, 8982149.075266307219863 ], [ 772201.651170151191764, 8982149.116400267928839 ], [ 772201.663266667048447, 8982149.157432241365314 ], [ 772201.675713790464215, 8982149.198359219357371 ], [ 772201.688510609325022, 8982149.239178206771612 ], [ 772201.701656185323372, 8982149.279886219650507 ], [ 772201.715149559080601, 8982149.320480272173882 ], [ 772201.728989739902318, 8982149.360957400873303 ], [ 772201.743175717652775, 8982149.40131463482976 ], [ 772201.757706451578997, 8982149.441549025475979 ], [ 772201.772580879740417, 8982149.48165762424469 ], [ 772201.787797913071699, 8982149.521637497469783 ], [ 772201.803356436430477, 8982149.561485718935728 ], [ 772201.81925531255547, 8982149.601199371740222 ], [ 772201.835493376478553, 8982149.640775546431541 ], [ 772201.85206943959929, 8982149.68021135032177 ], [ 772201.868982289917767, 8982149.719503892585635 ], [ 772201.886230688309297, 8982149.758650299161673 ], [ 772201.903813372831792, 8982149.797647703438997 ], [ 772201.921729056746699, 8982149.836493251845241 ], [ 772201.939976427122019, 8982149.875184101983905 ], [ 772201.958554149721749, 8982149.913717420771718 ], [ 772201.977460863767192, 8982149.952090386301279 ], [ 772201.996695186127909, 8982149.990300191566348 ], [ 772202.016255709109828, 8982150.028344038873911 ], [ 772202.036140998941846, 8982150.066219145432115 ], [ 772202.056349602993578, 8982150.103922735899687 ], [ 772202.076880038832314, 8982150.141452051699162 ], [ 772202.097730806679465, 8982150.178804345428944 ], [ 772202.118900378700346, 8982150.215976884588599 ], [ 772202.1403872059891, 8982150.25296694599092 ], [ 772202.162189714843407, 8982150.289771823212504 ], [ 772202.184306310606189, 8982150.326388821005821 ], [ 772202.206735372776166, 8982150.362815262749791 ], [ 772202.22947526036296, 8982150.39904847741127 ], [ 772202.252524310490116, 8982150.435085814446211 ], [ 772202.275880832690746, 8982150.470924638211727 ], [ 772202.299543120199814, 8982150.506562322378159 ], [ 772202.323509439709596, 8982150.541996259242296 ], [ 772202.347778037190437, 8982150.577223856002092 ], [ 772202.372347136377357, 8982150.61224253475666 ], [ 772202.397214939002879, 8982150.647049728780985 ], [ 772202.422379623749293, 8982150.681642891839147 ], [ 772202.447839350439608, 8982150.716019494459033 ], [ 772202.473592253169045, 8982150.750177016481757 ], [ 772202.49963644775562, 8982150.784112961962819 ], [ 772202.525970029761083, 8982150.817824840545654 ], [ 772202.552591068786569, 8982150.851310191676021 ], [ 772202.579497617902234, 8982150.884566558524966 ], [ 772202.606687707593665, 8982150.917591510340571 ], [ 772202.634159345761873, 8982150.950382629409432 ], [ 772202.661910523776896, 8982150.982937514781952 ], [ 772202.689939210074954, 8982151.015253780409694 ], [ 772202.718243351206183, 8982151.047329068183899 ], [ 772202.746820877073333, 8982151.079161023721099 ], [ 772202.775669695693068, 8982151.110747318714857 ], [ 772202.804787695524283, 8982151.142085641622543 ], [ 772202.834172743721865, 8982151.173173699527979 ], [ 772202.863822689978406, 8982151.204009216278791 ], [ 772202.893735365825705, 8982151.234589932486415 ], [ 772202.923908579628915, 8982151.264913611114025 ], [ 772202.954340122989379, 8982151.294978035613894 ], [ 772202.985027768532746, 8982151.324781002476811 ], [ 772203.015969270723872, 8982151.354320328682661 ], [ 772203.047162365051918, 8982151.38359385356307 ], [ 772203.0786047661677, 8982151.412599435076118 ], [ 772203.110294174868613, 8982151.441334949806333 ], [ 772203.142228269018233, 8982151.469798294827342 ], [ 772203.174404713325202, 8982151.497987385839224 ], [ 772203.206821152474731, 8982151.525900157168508 ], [ 772203.239475212758407, 8982151.553534569218755 ], [ 772203.272364503587596, 8982151.580888599157333 ], [ 772203.305486617726274, 8982151.607960244640708 ], [ 772203.338839132338762, 8982151.634747520089149 ], [ 772203.372419604798779, 8982151.661248469725251 ], [ 772203.406225575716235, 8982151.687461150810122 ], [ 772203.440254572662525, 8982151.713383646681905 ], [ 772203.474504104582593, 8982151.739014057442546 ], [ 772203.508971664472483, 8982151.764350507408381 ], [ 772203.543654727400281, 8982151.78939114511013 ], [ 772203.578550757025369, 8982151.814134133979678 ], [ 772203.613657198962756, 8982151.838577663525939 ], [ 772203.648971481248736, 8982151.862719947472215 ], [ 772203.684491020976566, 8982151.886559214442968 ], [ 772203.7202132177772, 8982151.910093722864985 ], [ 772203.756135455681942, 8982151.933321747928858 ], [ 772203.792255107895471, 8982151.956241589039564 ], [ 772203.828569528413936, 8982151.978851571679115 ], [ 772203.865076058544219, 8982152.001150038093328 ], [ 772203.901772028068081, 8982152.023135356605053 ], [ 772203.938654749188572, 8982152.04480591788888 ], [ 772203.975721523398533, 8982152.066160136833787 ], [ 772204.012969637173228, 8982152.087196448817849 ], [ 772204.050396363949403, 8982152.107913313433528 ], [ 772204.08799896389246, 8982152.128309216350317 ], [ 772204.125774685759097, 8982152.148382663726807 ], [ 772204.163720761658624, 8982152.168132187798619 ], [ 772204.20183441741392, 8982152.187556337565184 ], [ 772204.240112861385569, 8982152.206653697416186 ], [ 772204.278553290991113, 8982152.22542286850512 ], [ 772204.317152893985622, 8982152.243862472474575 ], [ 772204.355908843805082, 8982152.261971164494753 ], [ 772204.394818304572254, 8982152.279747616499662 ], [ 772204.433878427487798, 8982152.297190530225635 ], [ 772204.473086354788393, 8982152.314298622310162 ], [ 772204.512439213925973, 8982152.331070648506284 ], [ 772204.551934127113782, 8982152.347505375742912 ], [ 772204.591568200965412, 8982152.363601602613926 ], [ 772204.631338536157273, 8982152.37935815192759 ], [ 772204.671242221142165, 8982152.394773868843913 ], [ 772204.711276334477589, 8982152.409847626462579 ], [ 772204.751437946455553, 8982152.424578318372369 ], [ 772204.791724116192199, 8982152.438964871689677 ], [ 772204.832131896284409, 8982152.453006228432059 ], [ 772204.872658328502439, 8982152.466701362282038 ], [ 772204.913300445885397, 8982152.480049271136522 ], [ 772204.954055274720304, 8982152.49304897710681 ], [ 772204.994919830467552, 8982152.505699528381228 ], [ 772205.035891121951863, 8982152.51800000295043 ], [ 772205.07696615124587, 8982152.529949495568871 ], [ 772205.118141910294071, 8982152.541547134518623 ], [ 772205.159415386151522, 8982152.552792068570852 ], [ 772205.200783558539115, 8982152.563683476299047 ], [ 772205.242243397166021, 8982152.574220560491085 ], [ 772205.283791869762354, 8982152.584402546286583 ], [ 772205.325425932300277, 8982152.594228696078062 ], [ 772205.367142540053464, 8982152.603698281571269 ], [ 772205.408938636654057, 8982152.612810617312789 ], [ 772205.450811164570041, 8982152.621565032750368 ], [ 772205.492757059284486, 8982152.62996088527143 ], [ 772205.534773248364218, 8982152.637997563928366 ], [ 772205.576856658910401, 8982152.645674478262663 ], [ 772205.619004207546823, 8982152.652991067618132 ], [ 772205.661212811130099, 8982152.659946795552969 ], [ 772205.703479379997589, 8982152.666541153565049 ], [ 772205.745800819830038, 8982152.672773657366633 ], [ 772205.78817403386347, 8982152.678643852472305 ], [ 772205.830595918698236, 8982152.684151308611035 ], [ 772205.873063369421288, 8982152.689295623451471 ], [ 772205.915573279140517, 8982152.694076418876648 ], [ 772205.958122534793802, 8982152.698493346571922 ], [ 772206.000708022154868, 8982152.702546080574393 ], [ 772206.04332662303932, 8982152.706234330311418 ], [ 772206.085975220543332, 8982152.709557816386223 ], [ 772206.128650690196082, 8982152.71251630410552 ], [ 772206.171349909505807, 8982152.715109573677182 ], [ 772206.214069753419608, 8982152.717337433248758 ], [ 772206.256807094090618, 8982152.719199720770121 ], [ 772206.299558802740648, 8982152.720696303993464 ], [ 772206.342321751639247, 8982152.721827067434788 ], [ 772206.385092808748595, 8982152.722591932862997 ], [ 772206.427868844941258, 8982152.722990840673447 ], [ 772206.470646728761494, 8982152.723023764789104 ], [ 772206.51342332852073, 8982152.722690699622035 ], [ 772206.556195512181148, 8982152.721991674974561 ], [ 772206.598960150964558, 8982152.720926735550165 ], [ 772407.581951873144135, 8982146.855588965117931 ], [ 772612.982648920849897, 8982137.061479259282351 ], [ 772702.848039939883165, 8982131.763377664610744 ], [ 772702.84803993999958, 8982131.763377664610744 ], [ 772702.89149221603293, 8982131.760625997558236 ], [ 772702.934918884304352, 8982131.757496060803533 ], [ 772702.978316651424393, 8982131.753988094627857 ], [ 772703.021682224818505, 8982131.750102361664176 ], [ 772703.065012319246307, 8982131.745839158073068 ], [ 772703.108303647954017, 8982131.741198807954788 ], [ 772703.151552927796729, 8982131.736181661486626 ], [ 772703.194756879587658, 8982131.730788100510836 ], [ 772703.237912227981724, 8982131.725018532946706 ], [ 772703.281015699380077, 8982131.718873398378491 ], [ 772703.324064026935957, 8982131.712353160604835 ], [ 772703.367053945432417, 8982131.7054583132267 ], [ 772703.409982194309123, 8982131.698189381510019 ], [ 772703.452845520456322, 8982131.690546916797757 ], [ 772703.495640671346337, 8982131.682531494647264 ], [ 772703.538364404812455, 8982131.674143727868795 ], [ 772703.581013478455134, 8982131.665384249761701 ], [ 772703.623584659071639, 8982131.656253723427653 ], [ 772703.666074720094912, 8982131.646752845495939 ], [ 772703.708480439148843, 8982131.636882333084941 ], [ 772703.750798599445261, 8982131.626642933115363 ], [ 772703.793025992577896, 8982131.616035426035523 ], [ 772703.835159416194074, 8982131.605060612782836 ], [ 772703.877195678069256, 8982131.593719327822328 ], [ 772703.919131587841548, 8982131.582012431696057 ], [ 772703.960963965626433, 8982131.569940807297826 ], [ 772704.002689640969038, 8982131.557505376636982 ], [ 772704.044305449468084, 8982131.544707078486681 ], [ 772704.085808236850426, 8982131.531546885147691 ], [ 772704.127194852568209, 8982131.518025791272521 ], [ 772704.168462161207572, 8982131.504144825041294 ], [ 772704.209607033408247, 8982131.489905038848519 ], [ 772704.250626347144134, 8982131.475307511165738 ], [ 772704.291516995872371, 8982131.460353352129459 ], [ 772704.332275875261985, 8982131.445043692365289 ], [ 772704.372899895533919, 8982131.429379692301154 ], [ 772704.413385979132727, 8982131.413362542167306 ], [ 772704.453731052111834, 8982131.396993454545736 ], [ 772704.49393205717206, 8982131.38027367182076 ], [ 772704.533985946560279, 8982131.363204462453723 ], [ 772704.573889682651497, 8982131.345787119120359 ], [ 772704.613640238996595, 8982131.328022964298725 ], [ 772704.653234602301382, 8982131.309913342818618 ], [ 772704.692669769050553, 8982131.291459627449512 ], [ 772704.731942749698646, 8982131.272663220763206 ], [ 772704.771050567622297, 8982131.253525545820594 ], [ 772704.809990255511366, 8982131.234048053622246 ], [ 772704.84875886014197, 8982131.214232221245766 ], [ 772704.887353444704786, 8982131.194079553708434 ], [ 772704.925771080772392, 8982131.173591574653983 ], [ 772704.964008854120038, 8982131.152769841253757 ], [ 772705.00206386775244, 8982131.131615931168199 ], [ 772705.039933234918863, 8982131.11013144813478 ], [ 772705.077614084701054, 8982131.088318021968007 ], [ 772705.115103558520786, 8982131.066177306696773 ], [ 772705.152398814097978, 8982131.043710978701711 ], [ 772705.189497025334276, 8982131.020920746028423 ], [ 772705.226395376143046, 8982130.997808331623673 ], [ 772705.26309107139241, 8982130.974375493824482 ], [ 772705.299581325845793, 8982130.950624004006386 ], [ 772705.33586337568704, 8982130.926555667072535 ], [ 772705.37193446746096, 8982130.902172304689884 ], [ 772705.407791866455227, 8982130.877475768327713 ], [ 772705.443432854488492, 8982130.852467931807041 ], [ 772705.478854727814905, 8982130.82715068757534 ], [ 772705.514054802712053, 8982130.801525957882404 ], [ 772705.549030407448299, 8982130.775595685467124 ], [ 772705.583778890315443, 8982130.749361835420132 ], [ 772705.61829761788249, 8982130.722826398909092 ], [ 772705.652583972550929, 8982130.695991387590766 ], [ 772705.686635352671146, 8982130.668858833611012 ], [ 772705.720449178479612, 8982130.641430797055364 ], [ 772705.754022884881124, 8982130.613709356635809 ], [ 772705.787353924824856, 8982130.585696615278721 ], [ 772705.820439773495309, 8982130.55739469639957 ], [ 772705.853277921210974, 8982130.528805747628212 ], [ 772705.885865877033211, 8982130.499931933358312 ], [ 772705.918201170978136, 8982130.470775445923209 ], [ 772705.950281349360012, 8982130.441338494420052 ], [ 772705.98210398259107, 8982130.411623314023018 ], [ 772706.013666654587723, 8982130.381632152944803 ], [ 772706.04496697417926, 8982130.351367289200425 ], [ 772706.0760025678901, 8982130.320831017568707 ], [ 772706.106771080871113, 8982130.290025651454926 ], [ 772706.137270181439817, 8982130.258953528478742 ], [ 772706.167497557005845, 8982130.22761700488627 ], [ 772706.197450913139619, 8982130.196018453687429 ], [ 772706.227127981605008, 8982130.164160273969173 ], [ 772706.256526511278935, 8982130.132044883444905 ], [ 772706.285644271993078, 8982130.0996747110039 ], [ 772706.314479056629352, 8982130.067052217200398 ], [ 772706.343028677860275, 8982130.03417987190187 ], [ 772706.371290971990675, 8982130.001060169190168 ], [ 772706.399263796629384, 8982129.967695619910955 ], [ 772706.426945027895272, 8982129.934088755398989 ], [ 772706.454332568799146, 8982129.900242121890187 ], [ 772706.481424343073741, 8982129.866158287972212 ], [ 772706.508218294358812, 8982129.831839837133884 ], [ 772706.534712393186055, 8982129.797289369627833 ], [ 772706.560904630110599, 8982129.762509509921074 ], [ 772706.586793017340824, 8982129.727502889931202 ], [ 772706.612375594791956, 8982129.692272169515491 ], [ 772706.637650419259444, 8982129.656820015981793 ], [ 772706.662615576642565, 8982129.621149118989706 ], [ 772706.687269172398373, 8982129.585262183099985 ], [ 772706.711609338526614, 8982129.549161929637194 ], [ 772706.735634229728021, 8982129.512851096689701 ], [ 772706.759342022007331, 8982129.476332437247038 ], [ 772706.782730918959714, 8982129.439608719199896 ], [ 772706.80579914804548, 8982129.402682727202773 ], [ 772706.828544957796112, 8982129.365557262673974 ], [ 772706.850966625497676, 8982129.328235141932964 ], [ 772706.873062450904399, 8982129.29071919247508 ], [ 772706.8948307572864, 8982129.253012258559465 ], [ 772706.916269893641584, 8982129.215117201209068 ], [ 772706.937378236558288, 8982129.177036892622709 ], [ 772706.958154183928855, 8982129.138774221763015 ], [ 772706.978596161003225, 8982129.100332090631127 ], [ 772706.998702617129311, 8982129.061713410541415 ], [ 772707.018472027382813, 8982129.022921113297343 ], [ 772707.037902894779108, 8982128.983958138152957 ], [ 772707.0569937430555, 8982128.944827441126108 ], [ 772707.075743127148598, 8982128.90553198941052 ], [ 772707.094149622716941, 8982128.86607475951314 ], [ 772707.112211837084033, 8982128.826458748430014 ], [ 772707.129928398644552, 8982128.786686956882477 ], [ 772707.147297963500023, 8982128.746762400493026 ], [ 772707.16431921639014, 8982128.706688107922673 ], [ 772707.180990865570493, 8982128.666467117145658 ], [ 772707.19731164816767, 8982128.626102479174733 ], [ 772707.213280324358493, 8982128.585597252473235 ], [ 772707.228895684238523, 8982128.54495451040566 ], [ 772707.244156545610167, 8982128.504177335649729 ], [ 772707.259061748511158, 8982128.4632688164711 ], [ 772707.273610163363628, 8982128.422232056036592 ], [ 772707.287800688762218, 8982128.381070170551538 ], [ 772707.301632247166708, 8982128.339786276221275 ], [ 772707.315103789675049, 8982128.298383504152298 ], [ 772707.328214295324869, 8982128.256864994764328 ], [ 772707.340962769463658, 8982128.215233895927668 ], [ 772707.353348245844245, 8982128.1734933629632 ], [ 772707.365369786159135, 8982128.131646566092968 ], [ 772707.377026478061453, 8982128.089696673676372 ], [ 772707.388317435747012, 8982128.04764686524868 ], [ 772707.399241806939244, 8982128.005500335246325 ], [ 772707.409798760665581, 8982127.963260274380445 ], [ 772707.419987495406531, 8982127.920929888263345 ], [ 772707.429807242355309, 8982127.878512386232615 ], [ 772707.439257253077812, 8982127.836010981351137 ], [ 772707.448336813249625, 8982127.793428901582956 ], [ 772707.45704523473978, 8982127.75076937302947 ], [ 772707.465381853980944, 8982127.708035631105304 ], [ 772707.473346042330377, 8982127.665230914950371 ], [ 772707.480937195126899, 8982127.622358471155167 ], [ 772707.488154736696742, 8982127.579421553760767 ], [ 772707.494998118607327, 8982127.536423413082957 ], [ 772707.501466821529903, 8982127.493367310613394 ], [ 772707.507560358149931, 8982127.450256515294313 ], [ 772707.513278263621032, 8982127.407094290480018 ], [ 772707.518620104994625, 8982127.363883914425969 ], [ 772707.523585476563312, 8982127.32062865793705 ], [ 772707.528174003120512, 8982127.277331806719303 ], [ 772707.532385337282903, 8982127.233996640890837 ], [ 772707.53621915820986, 8982127.190626446157694 ], [ 772707.539675174397416, 8982127.147224511951208 ], [ 772707.542753126821481, 8982127.103794127702713 ], [ 772707.545452778926119, 8982127.060338588431478 ], [ 772707.547773928497918, 8982127.016861191019416 ], [ 772707.54971639753785, 8982126.973365226760507 ], [ 772707.551280039479025, 8982126.929853998124599 ], [ 772707.552464736858383, 8982126.886330803856254 ], [ 772707.553270397940651, 8982126.842798944562674 ], [ 772707.553696963354014, 8982126.799261718988419 ], [ 772707.553744399803691, 8982126.755722429603338 ], [ 772707.553412703564391, 8982126.712184377014637 ], [ 772707.552701900131069, 8982126.668650863692164 ], [ 772707.551612044684589, 8982126.62512519210577 ], [ 772707.55014321685303, 8982126.581610659137368 ], [ 772707.54829552967567, 8982126.538110567256808 ], [ 772707.546069123782218, 8982126.494628213346004 ], [ 772696.593946409760974, 8981929.403667448088527 ], [ 772696.591400985140353, 8981929.361133199185133 ], [ 772696.588493176270276, 8981929.318622186779976 ], [ 772696.585223194677383, 8981929.276137497276068 ], [ 772696.581591278663836, 8981929.233682217076421 ], [ 772696.577597690047696, 8981929.191259430721402 ], [ 772696.57324271928519, 8981929.148872219026089 ], [ 772696.568526683491655, 8981929.106523659080267 ], [ 772696.563449925277382, 8981929.064216827973723 ], [ 772696.558012812049128, 8981929.021954795345664 ], [ 772696.552215740666725, 8981928.97974063269794 ], [ 772696.5460591299925, 8981928.937577405944467 ], [ 772696.539543429273181, 8981928.89546817727387 ], [ 772696.532669110689312, 8981928.853416003286839 ], [ 772696.525436672498472, 8981928.811423940584064 ], [ 772696.517846641363576, 8981928.769495036453009 ], [ 772696.509899568278342, 8981928.727632338181138 ], [ 772696.501596030662768, 8981928.68583888374269 ], [ 772696.49293663026765, 8981928.644117709249258 ], [ 772696.48392199666705, 8981928.602471847087145 ], [ 772696.47455278551206, 8981928.560904318466783 ], [ 772696.464829676202498, 8981928.519418142735958 ], [ 772696.454753374448046, 8981928.478016335517168 ], [ 772696.444324612617493, 8981928.436701901257038 ], [ 772696.433544149622321, 8981928.395477840676904 ], [ 772696.422412765445188, 8981928.354347148910165 ], [ 772696.410931271035224, 8981928.313312811776996 ], [ 772696.399100499111228, 8981928.272377809509635 ], [ 772696.386921308585443, 8981928.231545116752386 ], [ 772696.374394584796391, 8981928.190817696973681 ], [ 772696.361521238111891, 8981928.150198508054018 ], [ 772696.348302201018669, 8981928.109690502285957 ], [ 772696.334738435805775, 8981928.069296618923545 ], [ 772696.320830926881172, 8981928.029019791632891 ], [ 772696.30658068426419, 8981927.988862946629524 ], [ 772696.291988742072135, 8981927.948829002678394 ], [ 772696.277056161081418, 8981927.908920863643289 ], [ 772696.261784025933594, 8981927.869141427800059 ], [ 772696.246173444087617, 8981927.829493587836623 ], [ 772696.230225551407784, 8981927.789980219677091 ], [ 772696.213941506226547, 8981927.750604193657637 ], [ 772696.197322488762438, 8981927.71136837080121 ], [ 772696.180369708570652, 8981927.672275599092245 ], [ 772696.163084395229816, 8981927.633328719064593 ], [ 772696.145467804046348, 8981927.594530558213592 ], [ 772696.127521215123124, 8981927.555883934721351 ], [ 772696.10924593184609, 8981927.51739165559411 ], [ 772696.090643281582743, 8981927.47905651666224 ], [ 772696.071714615332894, 8981927.440881298854947 ], [ 772696.052461307379417, 8981927.402868779376149 ], [ 772696.032884755171835, 8981927.365021716803312 ], [ 772696.012986382003874, 8981927.327342860400677 ], [ 772695.992767632589675, 8981927.289834944531322 ], [ 772695.972229975857772, 8981927.252500696107745 ], [ 772695.951374902040698, 8981927.215342823415995 ], [ 772695.930203927564435, 8981927.178364027291536 ], [ 772695.908718587597832, 8981927.141566993668675 ], [ 772695.886920444318093, 8981927.104954393580556 ], [ 772695.864811079460196, 8981927.068528886884451 ], [ 772695.842392100254074, 8981927.032293118536472 ], [ 772695.819665134535171, 8981926.996249718591571 ], [ 772695.796631832956336, 8981926.960401307791471 ], [ 772695.773293867358007, 8981926.924750490114093 ], [ 772695.749652932048775, 8981926.889299852773547 ], [ 772695.725710746366531, 8981926.854051968082786 ], [ 772695.701469047809951, 8981926.819009400904179 ], [ 772695.67692959739361, 8981926.78417469188571 ], [ 772695.652094176155515, 8981926.749550374224782 ], [ 772695.626964590046555, 8981926.715138958767056 ], [ 772695.601542660966516, 8981926.680942950770259 ], [ 772695.575830238638446, 8981926.646964825689793 ], [ 772695.54982918757014, 8981926.613207058981061 ], [ 772695.523541397182271, 8981926.579672096297145 ], [ 772695.496968776569702, 8981926.54636237770319 ], [ 772695.47011325659696, 8981926.513280319049954 ], [ 772695.442976786056533, 8981926.480428325012326 ], [ 772695.415561337140389, 8981926.447808781638741 ], [ 772695.387868900201283, 8981926.41542405448854 ], [ 772695.359901486430317, 8981926.383276499807835 ], [ 772695.331661126343533, 8981926.351368451490998 ], [ 772695.303149871644564, 8981926.319702224805951 ], [ 772695.27436979371123, 8981926.288280120119452 ], [ 772695.245322981732897, 8981926.25710441917181 ], [ 772695.216011545620859, 8981926.226177388802171 ], [ 772695.186437612981535, 8981926.195501273497939 ], [ 772695.156603334238753, 8981926.165078299120069 ], [ 772695.126510873436928, 8981926.134910678490996 ], [ 772695.096162416739389, 8981926.105000602081418 ], [ 772695.065560170332901, 8981926.075350238010287 ], [ 772695.034706353559159, 8981926.045961745083332 ], [ 772695.003603208460845, 8981926.016837254166603 ], [ 772694.972252995357849, 8981925.98797888122499 ], [ 772694.940657990053296, 8981925.959388723596931 ], [ 772694.90882048511412, 8981925.931068856269121 ], [ 772694.876742796273902, 8981925.903021335601807 ], [ 772694.844427251373418, 8981925.87524819932878 ], [ 772694.811876196297817, 8981925.847751466557384 ], [ 772694.779091997770593, 8981925.820533130317926 ], [ 772694.7460770343896, 8981925.793595168739557 ], [ 772694.712833704892546, 8981925.766939539462328 ], [ 772694.679364423383959, 8981925.740568177774549 ], [ 772694.64567162131425, 8981925.714482996612787 ], [ 772694.611757745151408, 8981925.688685894012451 ], [ 772694.577625257195905, 8981925.663178741931915 ], [ 772694.543276636744849, 8981925.637963391840458 ], [ 772694.508714378695004, 8981925.613041678443551 ], [ 772694.473940993542783, 8981925.588415406644344 ], [ 772694.43895900552161, 8981925.564086368307471 ], [ 772694.403770956909284, 8981925.540056331083179 ], [ 772694.36837940197438, 8981925.516327036544681 ], [ 772694.332786911400035, 8981925.492900211364031 ], [ 772694.296996068791486, 8981925.46977755613625 ], [ 772694.261009476729669, 8981925.446960749104619 ], [ 772694.224829745013267, 8981925.424451449885964 ], [ 772694.188459504279308, 8981925.402251288294792 ], [ 772694.151901394012384, 8981925.380361882969737 ], [ 772694.115158070228063, 8981925.358784817159176 ], [ 772694.078232201049104, 8981925.337521662935615 ], [ 772694.041126469499432, 8981925.316573962569237 ], [ 772694.003843568032607, 8981925.295943237841129 ], [ 772693.966386205051094, 8981925.275630986317992 ], [ 772693.928757101646625, 8981925.255638685077429 ], [ 772693.890958990785293, 8981925.235967783257365 ], [ 772693.852994618006051, 8981925.216619711369276 ], [ 772693.814866738859564, 8981925.197595873847604 ], [ 772693.776578123681247, 8981925.178897652775049 ], [ 772693.738131551537663, 8981925.160526407882571 ], [ 772693.699529817095026, 8981925.142483469098806 ], [ 772693.660775721888058, 8981925.124770149588585 ], [ 772693.621872081654146, 8981925.107387736439705 ], [ 772693.582821721676737, 8981925.090337488800287 ], [ 772693.543627478065901, 8981925.073620649054646 ], [ 772693.504292195895687, 8981925.05723842792213 ], [ 772693.464818732696585, 8981925.041192019358277 ], [ 772693.425209955894388, 8981925.025482583791018 ], [ 772693.385468741878867, 8981925.010111264884472 ], [ 772693.345597977051511, 8981924.995079178363085 ], [ 772693.305600556661375, 8981924.980387415736914 ], [ 772693.265479385387152, 8981924.966037044301629 ], [ 772693.225237376405858, 8981924.952029107138515 ], [ 772693.184877454652451, 8981924.938364619389176 ], [ 772693.144402548437938, 8981924.925044575706124 ], [ 772693.103815599461086, 8981924.912069942802191 ], [ 772693.063119555590674, 8981924.899441661313176 ], [ 772693.022317369934171, 8981924.887160649523139 ], [ 772692.98141200793907, 8981924.875227801501751 ], [ 772692.940406439825892, 8981924.863643979653716 ], [ 772692.899303642916493, 8981924.852410029619932 ], [ 772692.858106602798216, 8981924.841526765376329 ], [ 772692.816818311694078, 8981924.830994976684451 ], [ 772692.775441768812016, 8981924.820815427228808 ], [ 772692.733979977085255, 8981924.810988860204816 ], [ 772692.692435949924402, 8981924.80151598714292 ], [ 772692.650812703883275, 8981924.792397493496537 ], [ 772692.60911326110363, 8981924.783634046092629 ], [ 772692.567340650362894, 8981924.775226278230548 ], [ 772692.525497906492092, 8981924.767174802720547 ], [ 772692.483588066184893, 8981924.759480202570558 ], [ 772692.441614175448194, 8981924.752143036574125 ], [ 772692.399579281802289, 8981924.745163837447762 ], [ 772692.35748643707484, 8981924.738543113693595 ], [ 772692.315338698914275, 8981924.732281345874071 ], [ 772692.273139129392803, 8981924.726378986611962 ], [ 772692.230890791979618, 8981924.720836466178298 ], [ 772692.188596754684113, 8981924.715654188767076 ], [ 772692.146260090521537, 8981924.71083252876997 ], [ 772692.103883873671293, 8981924.706371834501624 ], [ 772692.061471181921661, 8981924.702272433787584 ], [ 772692.019025094574317, 8981924.698534622788429 ], [ 772691.976548694889061, 8981924.695158671587706 ], [ 772691.934045068803243, 8981924.692144826054573 ], [ 772691.891517301090062, 8981924.689493305981159 ], [ 772691.848968482459895, 8981924.687204303219914 ], [ 772691.806401701411232, 8981924.685277985408902 ], [ 772691.763820050284266, 8981924.683714490383863 ], [ 772691.721226621652022, 8981924.682513933628798 ], [ 772691.678624507971108, 8981924.681676400825381 ], [ 772691.636016803095117, 8981924.681201953440905 ], [ 772691.593406602856703, 8981924.68109062500298 ], [ 772691.550797001691535, 8981924.681342424824834 ], [ 772691.508191093336791, 8981924.681957334280014 ], [ 772644.649034706759267, 8981925.557975798845291 ], [ 772606.739166929270141, 8981927.017312273383141 ], [ 772568.612719732453115, 8981928.162335868924856 ], [ 772244.135620814282447, 8981947.328810876235366 ], [ 772194.929875305737369, 8981954.06862792186439 ], [ 772194.888734002015553, 8981954.074437381699681 ], [ 772194.847642395296134, 8981954.080588517710567 ], [ 772194.806603322736919, 8981954.087080907076597 ], [ 772194.765619616839103, 8981954.093914097175002 ], [ 772194.724694109987468, 8981954.101087620481849 ], [ 772194.683829624671489, 8981954.108600977808237 ], [ 772194.643028987105936, 8981954.116453653201461 ], [ 772194.602295011631213, 8981954.124645102769136 ], [ 772194.561630510957912, 8981954.133174762129784 ], [ 772194.521038295468315, 8981954.14204204082489 ], [ 772194.480521166347899, 8981954.151246327906847 ], [ 772194.440081922803074, 8981954.160786986351013 ], [ 772194.399723357171752, 8981954.170663360506296 ], [ 772194.359448253642768, 8981954.180874763056636 ], [ 772194.319259398267604, 8981954.191420493647456 ], [ 772194.279159561730921, 8981954.202299820259213 ], [ 772194.239151515997946, 8981954.213511995971203 ], [ 772194.199238021858037, 8981954.225056242197752 ], [ 772194.159421837073751, 8981954.236931763589382 ], [ 772194.119705710560083, 8981954.249137742444873 ], [ 772194.080092384130694, 8981954.261673331260681 ], [ 772194.040584594476968, 8981954.274537667632103 ], [ 772194.001185068162158, 8981954.287729863077402 ], [ 772193.961896528140642, 8981954.301249004900455 ], [ 772193.922721685026772, 8981954.315094159916043 ], [ 772193.88366324629169, 8981954.329264374449849 ], [ 772193.844723907881416, 8981954.343758666887879 ], [ 772193.805906359455548, 8981954.358576038852334 ], [ 772193.767213279148564, 8981954.373715465888381 ], [ 772193.72864734265022, 8981954.389175903052092 ], [ 772193.690211210167035, 8981954.40495628118515 ], [ 772193.651907537016086, 8981954.421055512502789 ], [ 772193.613738967454992, 8981954.43747248314321 ], [ 772193.575708138174377, 8981954.454206060618162 ], [ 772193.537817675387487, 8981954.471255091950297 ], [ 772193.500070194830187, 8981954.488618396222591 ], [ 772193.462468303041533, 8981954.506294775754213 ], [ 772193.425014597596601, 8981954.524283008649945 ], [ 772193.387711664894596, 8981954.542581856250763 ], [ 772193.350562078761868, 8981954.56119005009532 ], [ 772193.313568406854756, 8981954.580106308683753 ], [ 772193.276733203674667, 8981954.599329326301813 ], [ 772193.240059011382982, 8981954.618857773020864 ], [ 772193.203548363177106, 8981954.638690302148461 ], [ 772193.167203779798001, 8981954.658825542777777 ], [ 772193.131027771392837, 8981954.679262103512883 ], [ 772193.095022836350836, 8981954.699998576194048 ], [ 772193.059191461536102, 8981954.721033526584506 ], [ 772193.023536119959317, 8981954.742365503683686 ], [ 772192.988059274270199, 8981954.763993034139276 ], [ 772192.952763374545611, 8981954.785914622247219 ], [ 772192.91765085759107, 8981954.808128757402301 ], [ 772192.88272414857056, 8981954.830633902922273 ], [ 772192.847985659027472, 8981954.853428507223725 ], [ 772192.813437787815928, 8981954.876510994508862 ], [ 772192.779082920635119, 8981954.899879772216082 ], [ 772192.744923430494964, 8981954.923533223569393 ], [ 772192.710961675853468, 8981954.947469720616937 ], [ 772192.677200000500306, 8981954.971687603741884 ], [ 772192.643640737631358, 8981954.996185205876827 ], [ 772192.610286204726435, 8981955.020960833877325 ], [ 772192.577138703432865, 8981955.046012775972486 ], [ 772192.54420052387286, 8981955.071339301764965 ], [ 772192.511473940452561, 8981955.096938664093614 ], [ 772192.478961213841103, 8981955.122809095308185 ], [ 772192.446664587827399, 8981955.14894880913198 ], [ 772192.414586291997693, 8981955.17535599693656 ], [ 772192.382728544529527, 8981955.202028838917613 ], [ 772192.351093541947193, 8981955.228965491056442 ], [ 772192.31968347216025, 8981955.256164096295834 ], [ 772192.288500500842929, 8981955.283622773364186 ], [ 772192.257546782144345, 8981955.311339626088738 ], [ 772192.226824456593022, 8981955.339312743395567 ], [ 772192.19633564108517, 8981955.367540189996362 ], [ 772192.166082444600761, 8981955.396020019426942 ], [ 772192.136066953418776, 8981955.42475026473403 ], [ 772192.106291242875159, 8981955.453728940337896 ], [ 772192.076757367234677, 8981955.482954045757651 ], [ 772192.047467367723584, 8981955.512423565611243 ], [ 772192.018423265544698, 8981955.542135460302234 ], [ 772191.989627065719105, 8981955.572087680920959 ], [ 772191.961080757784657, 8981955.602278158068657 ], [ 772191.932786313467659, 8981955.632704807445407 ], [ 772191.904745684936643, 8981955.66336552798748 ], [ 772191.876960811438039, 8981955.694258203729987 ], [ 772191.849433608120307, 8981955.725380700081587 ], [ 772191.822165977791883, 8981955.756730865687132 ], [ 772191.795159803819843, 8981955.788306539878249 ], [ 772191.768416949664243, 8981955.820105539634824 ], [ 772191.741939263185486, 8981955.85212567076087 ], [ 772191.715728572104126, 8981955.884364718571305 ], [ 772191.689786687027663, 8981955.916820460930467 ], [ 772191.664115398190916, 8981955.949490655213594 ], [ 772191.638716479646973, 8981955.982373045757413 ], [ 772191.613591685192659, 8981956.01546536013484 ], [ 772191.588742747786455, 8981956.048765312880278 ], [ 772191.564171386533417, 8981956.082270609214902 ], [ 772191.539879295742139, 8981956.115978930145502 ], [ 772191.515868154121563, 8981956.149887951090932 ], [ 772191.49213961942587, 8981956.183995330706239 ], [ 772191.46869532938581, 8981956.218298710882664 ], [ 772191.445536903454922, 8981956.252795722335577 ], [ 772191.422665941878222, 8981956.287483988329768 ], [ 772191.400084022432566, 8981956.322361109778285 ], [ 772191.377792706363834, 8981956.35742467828095 ], [ 772191.355793530587107, 8981956.392672272399068 ], [ 772191.334088016650639, 8981956.428101459518075 ], [ 772191.312677660142072, 8981956.4637097902596 ], [ 772191.291563944076188, 8981956.499494809657335 ], [ 772191.270748323062435, 8981956.535454044118524 ], [ 772191.250232234364375, 8981956.571585008874536 ], [ 772191.230017097434029, 8981956.607885213568807 ], [ 772191.21010430494789, 8981956.644352149218321 ], [ 772191.190495235496201, 8981956.680983297526836 ], [ 772191.17119124007877, 8981956.717776127159595 ], [ 772191.152193652233109, 8981956.75472809933126 ], [ 772191.133503785473295, 8981956.79183666408062 ], [ 772191.115122929564677, 8981956.829099256545305 ], [ 772191.097052353667095, 8981956.86651330254972 ], [ 772191.079293304705061, 8981956.904076220467687 ], [ 772191.061847010394558, 8981956.941785415634513 ], [ 772191.044714675750583, 8981956.979638285934925 ], [ 772191.027897481806576, 8981957.017632214352489 ], [ 772191.011396591318771, 8981957.055764578282833 ], [ 772190.995213144226, 8981957.094032745808363 ], [ 772190.979348257300444, 8981957.132434073835611 ], [ 772190.963803026010282, 8981957.170965909957886 ], [ 772190.948578523821197, 8981957.209625594317913 ], [ 772190.933675802662037, 8981957.248410455882549 ], [ 772190.919095890596509, 8981957.287317818030715 ], [ 772190.904839795432054, 8981957.32634499296546 ], [ 772190.890908501110971, 8981957.365489285439253 ], [ 772190.87730296922382, 8981957.404747992753983 ], [ 772190.864024140522815, 8981957.444118404760957 ], [ 772190.851072931545787, 8981957.483597801998258 ], [ 772190.83845023624599, 8981957.523183457553387 ], [ 772190.826156925759278, 8981957.56287263892591 ], [ 772190.814193849801086, 8981957.602662606164813 ], [ 772190.802561833406799, 8981957.642550610005856 ], [ 772190.791261681588367, 8981957.682533895596862 ], [ 772190.780294174328446, 8981957.722609704360366 ], [ 772190.769660067278892, 8981957.762775266543031 ], [ 772190.759360096417367, 8981957.803027808666229 ], [ 772190.749394972808659, 8981957.843364553526044 ], [ 772190.739765384118073, 8981957.883782712742686 ], [ 772190.730471994960681, 8981957.924279497936368 ], [ 772190.721515448065475, 8981957.96485210955143 ], [ 772190.712896361830644, 8981958.005497749894857 ], [ 772190.704615330323577, 8981958.046213608235121 ], [ 772190.696672926424071, 8981958.08699687384069 ], [ 772190.689069697167724, 8981958.127844732254744 ], [ 772190.681806170730852, 8981958.168754361569881 ], [ 772190.674882844905369, 8981958.209722938016057 ], [ 772190.668300199904479, 8981958.250747630372643 ], [ 772190.662058690097183, 8981958.291825605556369 ], [ 772190.656158746918663, 8981958.332954030483961 ], [ 772190.650600776309147, 8981958.374130062758923 ], [ 772190.645385164069012, 8981958.41535085812211 ], [ 772190.64051226794254, 8981958.456613572314382 ], [ 772190.635982426581904, 8981958.497915353626013 ], [ 772190.631795951048844, 8981958.539253350347281 ], [ 772190.62795313145034, 8981958.580624710768461 ], [ 772190.624454233678989, 8981958.622026573866606 ], [ 772190.621299497666769, 8981958.6634560842067 ], [ 772190.618489143438637, 8981958.704910378903151 ], [ 772190.616023361915722, 8981958.746386593207717 ], [ 772190.613902327953838, 8981958.787881869822741 ], [ 772190.612126183346845, 8981958.829393336549401 ], [ 772190.610695053241216, 8981958.870918130502105 ], [ 772190.609609036589973, 8981958.912453383207321 ], [ 772190.608868207316846, 8981958.953996224328876 ], [ 772190.608472618390806, 8981958.995543790981174 ], [ 772190.608422294608317, 8981959.037093207240105 ], [ 772190.608717239811085, 8981959.07864160835743 ], [ 772190.609357436536811, 8981959.120186123996973 ], [ 772190.610342836356722, 8981959.16172388382256 ], [ 772190.611673375009559, 8981959.203252023085952 ], [ 772190.613348957966082, 8981959.244767671450973 ], [ 772190.615369471022859, 8981959.286267962306738 ], [ 772190.617734775179997, 8981959.327750030905008 ] ] ] ] } }
]
}
