{
"type": "FeatureCollection",
"name": "09_oe_ar_pemukiman",
"crs": { "type": "name", "properties": { "name": "urn:ogc:def:crs:EPSG::32751" } },
"features": [
{ "type": "Feature", "properties": { "LAYER": "pemukiman", "GM_TYPE": "Unknown Area Type", "ELEVATION": 0 }, "geometry": { "type": "MultiPolygon", "coordinates": [ [ [ [ 775502.721705680829473, 8983557.801514439284801 ], [ 775560.985468932543881, 8983524.735690385103226 ], [ 775538.10519349144306, 8983496.715202413499355 ], [ 775496.723291648202576, 8983534.182357095181942 ], [ 775486.090570360305719, 8983537.646295543760061 ], [ 775487.88188575359527, 8983550.486208982765675 ], [ 775502.721705680829473, 8983557.801514439284801 ] ] ] ] } },
{ "type": "Feature", "properties": { "LAYER": "pemukiman", "GM_TYPE": "Unknown Area Type", "ELEVATION": 0 }, "geometry": { "type": "MultiPolygon", "coordinates": [ [ [ [ 775815.509672483196482, 8983397.980180859565735 ], [ 775971.361239225254394, 8983426.883848328143358 ], [ 776003.186312380828895, 8983436.242609970271587 ], [ 776011.260975525947288, 8983400.38899009488523 ], [ 775863.63865142245777, 8983328.53789790160954 ], [ 775695.197801276110113, 8983269.922506162896752 ], [ 775657.345880310516804, 8983290.721529858186841 ], [ 775686.088524539256468, 8983363.266409661620855 ], [ 775815.509672483196482, 8983397.980180859565735 ] ] ] ] } },
{ "type": "Feature", "properties": { "LAYER": "pemukiman", "GM_TYPE": "Unknown Area Type", "ELEVATION": 0 }, "geometry": { "type": "MultiPolygon", "coordinates": [ [ [ [ 776494.657338848453946, 8983403.045412298291922 ], [ 776591.040256637148559, 8983360.439202539622784 ], [ 776621.666555520729162, 8983370.008382124826312 ], [ 776627.371507948380895, 8983301.613563477993011 ], [ 776554.476906110299751, 8983306.072302928194404 ], [ 776554.476906110299751, 8983246.622384533286095 ], [ 776609.519751613610424, 8983200.548684483394027 ], [ 776578.279197083087638, 8983179.741186456754804 ], [ 776480.094727771240287, 8983206.493658594787121 ], [ 776496.458831393392757, 8983258.512368211522698 ], [ 776413.15073678130284, 8983368.494726104661822 ], [ 776337.280905730323866, 8983381.870979901403189 ], [ 776337.280905730323866, 8983420.5134357213974 ], [ 776283.725712938816287, 8983433.889654062688351 ], [ 776287.751634273910895, 8983462.849222654476762 ], [ 776363.637676643556915, 8983456.647952321916819 ], [ 776411.757932660286315, 8983417.790031440556049 ], [ 776494.657338848453946, 8983403.045412298291922 ] ] ] ] } },
{ "type": "Feature", "properties": { "LAYER": "pemukiman", "GM_TYPE": "Unknown Area Type", "ELEVATION": 0 }, "geometry": { "type": "MultiPolygon", "coordinates": [ [ [ [ 772907.639518542448059, 8984123.095409093424678 ], [ 772944.779875896521844, 8984149.347928799688816 ], [ 772948.431567089515738, 8984145.695845464244485 ], [ 772946.133205071091652, 8984129.837799608707428 ], [ 772946.133205070975237, 8984129.837799608707428 ], [ 772946.117371973115951, 8984129.732392191886902 ], [ 772946.100451376172714, 8984129.627153873443604 ], [ 772946.082445085747167, 8984129.522095868363976 ], [ 772946.063355019665323, 8984129.417229382321239 ], [ 772946.043183213798329, 8984129.312565594911575 ], [ 772946.021931819850579, 8984129.20811565965414 ], [ 772945.999603101285174, 8984129.103890717029572 ], [ 772945.976199440192431, 8984128.999901873990893 ], [ 772945.951723330887035, 8984128.89616022258997 ], [ 772945.926177383749746, 8984128.792676817625761 ], [ 772945.89956432080362, 8984128.689462693408132 ], [ 772945.871886980719864, 8984128.586528852581978 ], [ 772945.843148313229904, 8984128.483886271715164 ], [ 772945.813351382268593, 8984128.381545891985297 ], [ 772945.78249936492648, 8984128.279518622905016 ], [ 772945.750595549819991, 8984128.177815344184637 ], [ 772945.717643338139169, 8984128.076446896418929 ], [ 772945.68364624469541, 8984127.975424084812403 ], [ 772945.648607891518623, 8984127.874757684767246 ], [ 772945.612532015657052, 8984127.774458423256874 ], [ 772945.575422462192364, 8984127.674536997452378 ], [ 772945.537283188314177, 8984127.575004056096077 ], [ 772945.49811825924553, 8984127.47587021254003 ], [ 772945.457931851153262, 8984127.377146035432816 ], [ 772945.41672824730631, 8984127.278842052444816 ], [ 772945.374511841451749, 8984127.180968737229705 ], [ 772945.331287133973092, 8984127.083536529913545 ], [ 772945.287058733287267, 8984126.986555814743042 ], [ 772945.24183135421481, 8984126.89003693126142 ], [ 772945.195609818445519, 8984126.793990172445774 ], [ 772945.148399053607136, 8984126.698425773531199 ], [ 772945.100204093265347, 8984126.60335392691195 ], [ 772945.051030075876042, 8984126.508784763514996 ], [ 772945.000882242806256, 8984126.414728369563818 ], [ 772944.949765941826627, 8984126.321194767951965 ], [ 772944.89768662059214, 8984126.228193936869502 ], [ 772944.844649832928553, 8984126.135735785588622 ], [ 772944.790661232313141, 8984126.043830174952745 ], [ 772944.735726574901491, 8984125.952486898750067 ], [ 772944.679851717082784, 8984125.861715698614717 ], [ 772944.623042615363374, 8984125.771526250988245 ], [ 772944.565305326366797, 8984125.681928170844913 ], [ 772944.506646006484516, 8984125.592931009829044 ], [ 772944.447070908150636, 8984125.504544256255031 ], [ 772944.386586382519454, 8984125.416777335107327 ], [ 772944.325198879814707, 8984125.329639598727226 ], [ 772944.262914941995405, 8984125.243140341714025 ], [ 772944.19974121148698, 8984125.15728878043592 ], [ 772944.135684421984479, 8984125.072094073519111 ], [ 772944.070751402759925, 8984124.987565299496055 ], [ 772944.004949076799676, 8984124.903711473569274 ], [ 772943.938284459058195, 8984124.820541530847549 ], [ 772943.870764656574465, 8984124.738064341247082 ], [ 772943.802396868471988, 8984124.656288696452975 ], [ 772943.733188382349908, 8984124.575223315507174 ], [ 772943.663146576378495, 8984124.494876841083169 ], [ 772943.592278919066302, 8984124.415257839486003 ], [ 772943.520592965069227, 8984124.33637479506433 ], [ 772943.448096356121823, 8984124.258236123248935 ], [ 772943.374796822550707, 8984124.180850150063634 ], [ 772943.300702177453786, 8984124.104225127026439 ], [ 772943.225820321589708, 8984124.028369221836329 ], [ 772943.150159236975014, 8984123.953290525823832 ], [ 772943.073726989910938, 8984123.878997039049864 ], [ 772942.996531729353592, 8984123.805496683344245 ], [ 772942.918581685051322, 8984123.732797294855118 ], [ 772942.839885167079046, 8984123.660906624048948 ], [ 772942.760450566187501, 8984123.58983233384788 ], [ 772942.680286349612288, 8984123.519582005217671 ], [ 772942.599401063867845, 8984123.450163124129176 ], [ 772942.517803333117627, 8984123.381583090871572 ], [ 772942.435501856263727, 8984123.313849220052361 ], [ 772942.35250540706329, 8984123.246968729421496 ], [ 772942.268822834244929, 8984123.180948751047254 ], [ 772942.184463059296831, 8984123.115796323865652 ], [ 772942.099435075535439, 8984123.051518391817808 ], [ 772942.013747948338278, 8984122.988121809437871 ], [ 772941.927410811767913, 8984122.925613334402442 ], [ 772941.84043287159875, 8984122.863999631255865 ], [ 772941.752823399147019, 8984122.803287269547582 ], [ 772941.664591735694557, 8984122.743482721969485 ], [ 772941.575747288065031, 8984122.684592360630631 ], [ 772941.486299526761286, 8984122.626622466370463 ], [ 772941.396257988060825, 8984122.569579221308231 ], [ 772941.305632272153161, 8984122.513468705117702 ], [ 772941.214432040345855, 8984122.458296898752451 ], [ 772941.122667015530169, 8984122.404069684445858 ], [ 772941.03034697950352, 8984122.350792847573757 ], [ 772940.937481776927598, 8984122.298472059890628 ], [ 772940.844081306713633, 8984122.247112907469273 ], [ 772940.75015552691184, 8984122.196720860898495 ], [ 772940.655714450404048, 8984122.14730129390955 ], [ 772940.56076814699918, 8984122.098859472200274 ], [ 772940.465326736913994, 8984122.051400566473603 ], [ 772940.369400396593846, 8984122.004929633811116 ], [ 772940.272999352193438, 8984121.95945162512362 ], [ 772940.176133882137947, 8984121.914971392601728 ], [ 772940.078814312000759, 8984121.871493676677346 ], [ 772939.981051017297432, 8984121.82902311347425 ], [ 772939.882854421623051, 8984121.787564229220152 ], [ 772939.784234993276186, 8984121.747121443971992 ], [ 772939.685203245375305, 8984121.707699071615934 ], [ 772939.585769736673683, 8984121.669301314279437 ], [ 772939.485945066902786, 8984121.631932264193892 ], [ 772939.385739879566245, 8984121.59559590741992 ], [ 772939.285164856701158, 8984121.56029611453414 ], [ 772939.184230721439235, 8984121.526036651805043 ], [ 772939.082948233932257, 8984121.492821170017123 ], [ 772938.981328191934153, 8984121.460653210058808 ], [ 772938.879381429636851, 8984121.429536202922463 ], [ 772938.777118815574795, 8984121.399473465979099 ], [ 772938.674551251460798, 8984121.370468202978373 ], [ 772938.571689671953209, 8984121.342523507773876 ], [ 772938.468545044073835, 8984121.315642356872559 ], [ 772938.3651283638319, 8984121.28982761874795 ], [ 772938.261450656224042, 8984121.265082044526935 ], [ 772938.157522974885069, 8984121.241408271715045 ], [ 772938.053356398944743, 8984121.218808824196458 ], [ 772937.948962033493444, 8984121.197286114096642 ], [ 772937.844351009698585, 8984121.17684243246913 ], [ 772937.739534478518181, 8984121.157479960471392 ], [ 772937.634523615590297, 8984121.139200761914253 ], [ 772937.529329615063034, 8984121.12200678512454 ], [ 772937.423963692504913, 8984121.105899864807725 ], [ 772937.318437081645243, 8984121.09088171645999 ], [ 772937.212761031230912, 8984121.076953941956162 ], [ 772937.106946808053181, 8984121.064118027687073 ], [ 772937.001005693455227, 8984121.05237533710897 ], [ 772936.894948981585912, 8984121.041727127507329 ], [ 772936.78878797928337, 8984121.032174531370401 ], [ 772936.682534004561603, 8984121.023718567565084 ], [ 772936.576198384864256, 8984121.016360137611628 ], [ 772936.469792456831783, 8984121.010100025683641 ], [ 772936.363327565137297, 8984121.004938900470734 ], [ 772936.25681505841203, 8984121.000877311453223 ], [ 772936.150266294018365, 8984120.99791568890214 ], [ 772936.043692629784346, 8984120.996054355055094 ], [ 772935.93710542737972, 8984120.995293501764536 ], [ 772935.830516051617451, 8984120.995633214712143 ], [ 772935.723935864982195, 8984120.997073454782367 ], [ 772935.617376230075024, 8984120.999614069238305 ], [ 772935.510848507168703, 8984121.003254787996411 ], [ 772935.404364053858444, 8984121.007995221763849 ], [ 772935.297934222151525, 8984121.013834867626429 ], [ 772935.19157035916578, 8984121.020773097872734 ], [ 772935.085283802938648, 8984121.028809180483222 ], [ 772934.979085886501707, 8984121.037942251190543 ], [ 772934.872987930430099, 8984121.048171339556575 ], [ 772934.7670012464514, 8984121.059495355933905 ], [ 772934.661137134302408, 8984121.071913091465831 ], [ 772934.555406879284419, 8984121.085423221811652 ], [ 772934.449821753543802, 8984121.100024309009314 ], [ 772934.344393013510853, 8984121.11571479588747 ], [ 772934.239131899783388, 8984121.132493007928133 ], [ 772934.134049633634277, 8984121.150357156991959 ], [ 772934.029157418757677, 8984121.169305339455605 ], [ 772933.924466436146758, 8984121.189335536211729 ], [ 772933.8199878486339, 8984121.210445608943701 ], [ 772933.715732793440111, 8984121.23263330757618 ], [ 772933.611712386249565, 8984121.255896270275116 ], [ 772933.507937716087326, 8984121.280232012271881 ], [ 772933.404419847298414, 8984121.305637940764427 ], [ 772933.30116981419269, 8984121.332111351191998 ], [ 772933.198198626982048, 8984121.35964941419661 ], [ 772933.09551726130303, 8984121.388249197974801 ], [ 772932.9931366648525, 8984121.41790765337646 ], [ 772932.891067752381787, 8984121.448621617630124 ], [ 772932.789321405696683, 8984121.480387816205621 ], [ 772932.687908471445553, 8984121.513202864676714 ], [ 772932.586839762167074, 8984121.547063261270523 ], [ 772932.48612605209928, 8984121.581965398043394 ], [ 772932.385778079391457, 8984121.617905555292964 ], [ 772932.285806540981866, 8984121.65487989783287 ], [ 772932.186222096323036, 8984121.692884486168623 ], [ 772932.087035360164009, 8984121.731915269047022 ], [ 772931.988256908836775, 8984121.771968083456159 ], [ 772931.889897272340022, 8984121.813038662075996 ], [ 772931.791966935968958, 8984121.855122623965144 ], [ 772931.69447634217795, 8984121.898215483874083 ], [ 772931.597435882780701, 8984121.942312646657228 ], [ 772926.426538561354391, 8984114.211935069411993 ], [ 772926.4172402221011, 8984114.19795310869813 ], [ 772926.408017156645656, 8984114.183921379968524 ], [ 772926.398869629134424, 8984114.169840291142464 ], [ 772926.389797903830186, 8984114.155710246413946 ], [ 772926.380802243133076, 8984114.141531655564904 ], [ 772926.371882907813415, 8984114.127304928377271 ], [ 772926.363040155381896, 8984114.113030472770333 ], [ 772926.354274239158258, 8984114.09870870411396 ], [ 772926.345585413044319, 8984114.084340035915375 ], [ 772926.336973930825479, 8984114.069924879819155 ], [ 772926.328440037206747, 8984114.055463656783104 ], [ 772926.319983980851248, 8984114.040956780314445 ], [ 772926.311606004834175, 8984114.026404671370983 ], [ 772926.30330635223072, 8984114.011807750910521 ], [ 772926.295085262856446, 8984113.997166438028216 ], [ 772926.286942972568795, 8984113.98248115926981 ], [ 772926.27887971745804, 8984113.967752333730459 ], [ 772926.270895730238408, 8984113.952980391681194 ], [ 772926.262991243391298, 8984113.938165755942464 ], [ 772926.255166482296772, 8984113.923308856785297 ], [ 772926.24742167245131, 8984113.908410122618079 ], [ 772926.239757041214034, 8984113.893469983711839 ], [ 772926.232172806630842, 8984113.878488872200251 ], [ 772926.224669191055, 8984113.863467218354344 ], [ 772926.217246407060884, 8984113.848405458033085 ], [ 772926.209904671413824, 8984113.833304025232792 ], [ 772926.202644195407629, 8984113.818163357675076 ], [ 772926.195465190219693, 8984113.802983889356256 ], [ 772926.188367859926075, 8984113.787766063585877 ], [ 772926.181352414074354, 8984113.772510314360261 ], [ 772926.174419051269069, 8984113.757217086851597 ], [ 772926.16756797384005, 8984113.74188682064414 ], [ 772926.160799378878437, 8984113.726519957184792 ], [ 772926.154113461379893, 8984113.711116943508387 ], [ 772926.147510416689329, 8984113.695678221061826 ], [ 772926.140990432701074, 8984113.68020423874259 ], [ 772926.134553699172102, 8984113.66469544172287 ], [ 772926.128200400504284, 8984113.649152277037501 ], [ 772926.121930722962134, 8984113.63357519544661 ], [ 772926.115744845592417, 8984113.617964645847678 ], [ 772926.109642947441898, 8984113.602321079000831 ], [ 772926.103625205694698, 8984113.586644947528839 ], [ 772926.097691792063415, 8984113.57093670219183 ], [ 772926.09184287849348, 8984113.555196799337864 ], [ 772926.086078635067679, 8984113.539425691589713 ], [ 772926.08039922802709, 8984113.523623835295439 ], [ 772926.074804820353165, 8984113.507791684940457 ], [ 772926.069295574794523, 8984113.491929700598121 ], [ 772926.063871650607325, 8984113.476038340479136 ], [ 772926.058533201459795, 8984113.460118059068918 ], [ 772926.053280386608094, 8984113.444169320166111 ], [ 772926.048113352619112, 8984113.428192583844066 ], [ 772926.043032251531258, 8984113.412188312038779 ], [ 772926.038037229678594, 8984113.396156964823604 ], [ 772926.033128431998193, 8984113.380099005997181 ], [ 772926.028305999469012, 8984113.364014899358153 ], [ 772926.02357007144019, 8984113.347905108705163 ], [ 772926.018920783535577, 8984113.331770101562142 ], [ 772926.014358271379024, 8984113.315610341727734 ], [ 772926.009882666985504, 8984113.299426298588514 ], [ 772926.005494098877534, 8984113.283218435943127 ], [ 772926.001192693365738, 8984113.266987223178148 ], [ 772925.99697857524734, 8984113.250733129680157 ], [ 772925.992851867573336, 8984113.23445662483573 ], [ 772925.988812687806785, 8984113.218158178031445 ], [ 772925.984861151315272, 8984113.201838260516524 ], [ 772925.980997375794686, 8984113.185497343540192 ], [ 772925.977221471257508, 8984113.169135898351669 ], [ 772925.973533544223756, 8984113.152754398062825 ], [ 772925.969933704822324, 8984113.136353315785527 ], [ 772925.966422055847943, 8984113.119933126494288 ], [ 772925.962998698349111, 8984113.103494301438332 ], [ 772925.959663731395267, 8984113.08703731559217 ], [ 772925.956417250563391, 8984113.070562647655606 ], [ 772925.9532593494514, 8984113.054070770740509 ], [ 772925.950190121890046, 8984113.037562161684036 ], [ 772925.947209653910249, 8984113.021037297323346 ], [ 772925.94431803189218, 8984113.004496654495597 ], [ 772925.941515340469778, 8984112.987940711900592 ], [ 772925.938801660318859, 8984112.971369944512844 ], [ 772925.936177068622783, 8984112.954784836620092 ], [ 772925.933641642448492, 8984112.938185861334205 ], [ 772925.931195453274995, 8984112.921573501080275 ], [ 772925.92883857479319, 8984112.904948236420751 ], [ 772925.926571072777733, 8984112.888310544192791 ], [ 772925.924393011489883, 8984112.871660908684134 ], [ 772925.922304457169957, 8984112.854999806731939 ], [ 772925.920305468258448, 8984112.838327722623944 ], [ 772925.918396103545092, 8984112.821645136922598 ], [ 772925.916576416115277, 8984112.804952532052994 ], [ 772925.914846460800618, 8984112.78825038857758 ], [ 772925.913206285331398, 8984112.771539188921452 ], [ 772925.911655939067714, 8984112.754819417372346 ], [ 772925.910195465781726, 8984112.738091556355357 ], [ 772925.908824909362011, 8984112.721356088295579 ], [ 772925.907544306130148, 8984112.704613495618105 ], [ 772925.906353694503196, 8984112.687864262610674 ], [ 772925.905253110919148, 8984112.671108873561025 ], [ 772925.904242584132589, 8984112.654347812756896 ], [ 772925.903322145226412, 8984112.637581562623382 ], [ 772925.902491819229908, 8984112.620810609310865 ], [ 772925.901751631638035, 8984112.604035435244441 ], [ 772925.901101603754796, 8984112.587256526574492 ], [ 772925.900541753391735, 8984112.570474365726113 ], [ 772925.900072096730582, 8984112.553689438849688 ], [ 772925.899692649370991, 8984112.536902230232954 ], [ 772925.899403419927694, 8984112.520113226026297 ], [ 772925.899204416899011, 8984112.503322908654809 ], [ 772925.899095646687783, 8984112.486531764268875 ], [ 772925.899077112320811, 8984112.469740279018879 ], [ 772925.899148814729415, 8984112.452948935329914 ], [ 772925.899310752982274, 8984112.43615822121501 ], [ 772925.899562918581069, 8984112.419368619099259 ], [ 772925.899905307102017, 8984112.402580613270402 ], [ 772925.900337909930386, 8984112.385794691741467 ], [ 772925.90086071123369, 8984112.369011335074902 ], [ 772925.901473697042093, 8984112.352231033146381 ], [ 772925.902176851290278, 8984112.335454264655709 ], [ 772925.902970152557828, 8984112.318681519478559 ], [ 772925.903853577328846, 8984112.301913278177381 ], [ 772925.904827100341208, 8984112.285150026902556 ], [ 772925.905890694237314, 8984112.268392249941826 ], [ 772925.907044328167103, 8984112.251640429720283 ], [ 772925.90828796743881, 8984112.234895050525665 ], [ 772925.909621577127837, 8984112.218156598508358 ], [ 772925.911045118817128, 8984112.201425552368164 ], [ 772925.912558552110568, 8984112.184702400118113 ], [ 772925.914161832653917, 8984112.167987620458007 ], [ 772925.915854914463125, 8984112.151281697675586 ], [ 772925.917637745966204, 8984112.134585116058588 ], [ 772925.919510280597024, 8984112.117898356169462 ], [ 772925.921472459449433, 8984112.101221900433302 ], [ 772925.923524228739552, 8984112.084556229412556 ], [ 772925.925665528862737, 8984112.067901825532317 ], [ 772925.927896296954714, 8984112.051259169355035 ], [ 772925.930216469801962, 8984112.034628741443157 ], [ 772925.932625980349258, 8984112.018011022359133 ], [ 772925.935124757932499, 8984112.001406490802765 ], [ 772925.937712729792111, 8984111.984815627336502 ], [ 772925.940389823284931, 8984111.968238912522793 ], [ 772925.943155960179865, 8984111.95167682133615 ], [ 772925.946011060033925, 8984111.935129836201668 ], [ 772925.948955042520538, 8984111.918598432093859 ], [ 772925.951987819862552, 8984111.902083087712526 ], [ 772925.955109306029044, 8984111.885584279894829 ], [ 772925.958319409168325, 8984111.869102485477924 ], [ 772925.961618039524183, 8984111.852638177573681 ], [ 772925.965005099540576, 8984111.836191836744547 ], [ 772925.968480491894297, 8984111.819763934239745 ], [ 772925.972044117050245, 8984111.803354945033789 ], [ 772925.975695869885385, 8984111.786965344101191 ], [ 772925.979435649001971, 8984111.770595602691174 ], [ 772925.983263341826387, 8984111.754246195778251 ], [ 772925.987178841023706, 8984111.737917594611645 ], [ 772925.991182031808421, 8984111.721610272303224 ], [ 772925.995272799744271, 8984111.70532469637692 ], [ 772925.999451023992151, 8984111.689061339944601 ], [ 772926.003716588020325, 8984111.6728206705302 ], [ 772926.008069365518168, 8984111.656603161245584 ], [ 772926.012509233900346, 8984111.640409274026752 ], [ 772926.0170360612683, 8984111.624239483848214 ], [ 772926.0216497174697, 8984111.608094250783324 ], [ 772926.02635007200297, 8984111.591974046081305 ], [ 772926.031136987265199, 8984111.575879333540797 ], [ 772926.036010325304233, 8984111.559810576960444 ], [ 772926.040969944442622, 8984111.543768242001534 ], [ 772926.046015702653676, 8984111.527752792462707 ], [ 772926.051147454418242, 8984111.51176468655467 ], [ 772926.056365050375462, 8984111.495804391801357 ], [ 772926.061668340815231, 8984111.479872366413474 ], [ 772926.067057170555927, 8984111.463969070464373 ], [ 772926.072531387908384, 8984111.44809496216476 ], [ 772926.078090831870213, 8984111.432250501587987 ], [ 772926.083735341322608, 8984111.416436145082116 ], [ 772926.089464754913934, 8984111.400652350857854 ], [ 772926.095278907567263, 8984111.384899575263262 ], [ 772926.101177630480379, 8984111.369178270921111 ], [ 772926.107160752639174, 8984111.353488892316818 ], [ 772926.113228101166897, 8984111.3378318939358 ], [ 772926.119379503186792, 8984111.322207726538181 ], [ 772907.639518542448059, 8984123.095409093424678 ] ] ] ] } },
{ "type": "Feature", "properties": { "LAYER": "pemukiman", "GM_TYPE": "Unknown Area Type", "ELEVATION": 0 }, "geometry": { "type": "MultiPolygon", "coordinates": [ [ [ [ 773226.211852827458642, 8983918.308865724131465 ], [ 773075.6243594547268, 8983984.021031530573964 ], [ 772944.076686874497682, 8984099.881916262209415 ], [ 772931.260465309256688, 8984108.0469104424119 ], [ 772936.291829323745333, 8984118.802203873172402 ], [ 772936.350346004590392, 8984118.926149742677808 ], [ 772936.409736618050374, 8984119.049679232761264 ], [ 772936.469998198910616, 8984119.172786185517907 ], [ 772936.531127742258832, 8984119.295464459806681 ], [ 772936.593122198362835, 8984119.417707936838269 ], [ 772936.655978475348093, 8984119.539510518312454 ], [ 772936.719693438033573, 8984119.660866126418114 ], [ 772936.78426390781533, 8984119.781768709421158 ], [ 772936.849686663830653, 8984119.902212234213948 ], [ 772936.915958441793919, 8984120.022190697491169 ], [ 772936.983075937489048, 8984120.141698110848665 ], [ 772937.051035802345723, 8984120.260728513821959 ], [ 772937.11983464541845, 8984120.379275970160961 ], [ 772937.189469036064111, 8984120.497334565967321 ], [ 772937.259935500798747, 8984120.614898409694433 ], [ 772937.33123052387964, 8984120.731961639598012 ], [ 772937.403350548469462, 8984120.848518416285515 ], [ 772937.476291978615336, 8984120.964562924578786 ], [ 772937.55005117575638, 8984121.080089375376701 ], [ 772937.624624458723702, 8984121.19509200938046 ], [ 772937.700008109561168, 8984121.309565085917711 ], [ 772937.776198366773315, 8984121.423502897843719 ], [ 772937.853191431146115, 8984121.536899758502841 ], [ 772937.930983460973948, 8984121.649750012904406 ], [ 772938.009570576366968, 8984121.762048033997416 ], [ 772938.088948856340721, 8984121.873788218945265 ], [ 772938.16911434312351, 8984121.984964990988374 ], [ 772938.250063035520725, 8984122.095572808757424 ], [ 772938.331790897296742, 8984122.205606153234839 ], [ 772938.414293852169067, 8984122.315059533342719 ], [ 772938.497567783342674, 8984122.423927491530776 ], [ 772938.581608536769636, 8984122.532204600051045 ], [ 772938.666411922080442, 8984122.639885451644659 ], [ 772938.751973707228899, 8984122.746964680030942 ], [ 772938.8382896251278, 8984122.853436941280961 ], [ 772938.925355370854959, 8984122.959296923130751 ], [ 772939.013166600139812, 8984123.064539348706603 ], [ 772939.101718932506628, 8984123.169158969074488 ], [ 772939.191007952671498, 8984123.273150559514761 ], [ 772939.281029204837978, 8984123.376508936285973 ], [ 772939.371778199099936, 8984123.479228945448995 ], [ 772939.463250409229659, 8984123.581305459141731 ], [ 772939.555441271630116, 8984123.68273339048028 ], [ 772939.648346188128926, 8984123.78350767493248 ], [ 772939.741960524464957, 8984123.883623288944364 ], [ 772939.83627961052116, 8984123.983075238764286 ], [ 772939.931298741837963, 8984124.081858560442924 ], [ 772940.027013178565539, 8984124.179968329146504 ], [ 772940.123418146627955, 8984124.277399649843574 ], [ 772940.220508836209774, 8984124.374147664755583 ], [ 772940.318280405015685, 8984124.47020754404366 ], [ 772940.416727976407856, 8984124.565574496984482 ], [ 772940.515846637776121, 8984124.660243770107627 ], [ 772940.615631446824409, 8984124.754210636019707 ], [ 772940.716077425633557, 8984124.847470410168171 ], [ 772940.817179562756792, 8984124.940018439665437 ], [ 772940.91893281636294, 8984125.031850108876824 ], [ 772941.021332109579816, 8984125.122960837557912 ], [ 772941.124372335383669, 8984125.213346080854535 ], [ 772941.228048352757469, 8984125.303001329302788 ], [ 772941.332354991696775, 8984125.391922108829021 ], [ 772941.437287047854625, 8984125.480103988200426 ], [ 772941.542839288129471, 8984125.567542564123869 ], [ 772941.649006446823478, 8984125.654233478009701 ], [ 772941.755783227388747, 8984125.740172404795885 ], [ 772941.863164304755628, 8984125.825355058535933 ], [ 772941.97114432149101, 8984125.909777188673615 ], [ 772942.079717892222106, 8984125.993434585630894 ], [ 772942.188879600726068, 8984126.076323073357344 ], [ 772942.298624002025463, 8984126.158438518643379 ], [ 772942.408945621107705, 8984126.239776827394962 ], [ 772942.519838955719024, 8984126.320333940908313 ], [ 772942.631298473337665, 8984126.400105841457844 ], [ 772942.74331861443352, 8984126.479088548570871 ], [ 772942.855893792235292, 8984126.557278122752905 ], [ 772942.969018390635028, 8984126.634670663625002 ], [ 772943.082686765235849, 8984126.711262311786413 ], [ 772943.196893248590641, 8984126.787049245089293 ], [ 772943.311632142169401, 8984126.862027686089277 ], [ 772943.426897722994909, 8984126.936193890869617 ], [ 772943.542684242012911, 8984127.009544160217047 ], [ 772943.658985921763815, 8984127.082074839621782 ], [ 772943.775796962436289, 8984127.153782308101654 ], [ 772943.893111537094228, 8984127.22466298751533 ], [ 772944.010923793306574, 8984127.294713342562318 ], [ 772944.129227854777128, 8984127.363929880782962 ], [ 772944.24801782052964, 8984127.432309148833156 ], [ 772944.367287764325738, 8984127.499847734346986 ], [ 772944.487031736294739, 8984127.566542271524668 ], [ 772944.607243765029125, 8984127.632389429956675 ], [ 772944.727917852462269, 8984127.697385927662253 ], [ 772944.849047980736941, 8984127.761528519913554 ], [ 772944.970628105686046, 8984127.824814010411501 ], [ 772945.092652163701132, 8984127.887239241972566 ], [ 772945.215114068356343, 8984127.948801096528769 ], [ 772945.33800771064125, 8984128.009496506303549 ], [ 772945.461326960008591, 8984128.069322444498539 ], [ 772945.585065665422007, 8984128.128275925293565 ], [ 772945.709217654890381, 8984128.186354007571936 ], [ 772945.833776733838022, 8984128.24355379678309 ], [ 772945.95873669104185, 8984128.299872437492013 ], [ 772946.084091291879304, 8984128.355307120829821 ], [ 772946.209834283683449, 8984128.409855082631111 ], [ 772946.335959395393729, 8984128.463513599708676 ], [ 772946.4624603332486, 8984128.516279997304082 ], [ 772946.589330788352527, 8984128.568151643499732 ], [ 772946.716564433183521, 8984128.619125949218869 ], [ 772946.844154919730499, 8984128.669200371950865 ], [ 772946.972095883218572, 8984128.718372417613864 ], [ 772947.100380942807533, 8984128.76663962751627 ], [ 772947.229003698332235, 8984128.81399959884584 ], [ 772947.357957734377123, 8984128.860449966043234 ], [ 772947.487236618762836, 8984128.905988413840532 ], [ 772947.616833902546205, 8984128.950612669810653 ], [ 772947.746743120602332, 8984128.994320508092642 ], [ 772947.876957793952897, 8984129.03710974752903 ], [ 772948.007471425458789, 8984129.078978257253766 ], [ 772948.138277506106533, 8984129.119923945516348 ], [ 772948.269369511166587, 8984129.159944768995047 ], [ 772948.400740900542587, 8984129.199038734659553 ], [ 772948.532385122263804, 8984129.237203890457749 ], [ 772948.664295608527027, 8984129.274438332766294 ], [ 772948.796465780003928, 8984129.310740204527974 ], [ 772948.928889043163508, 8984129.346107695251703 ], [ 772949.061558793531731, 8984129.38053903914988 ], [ 772949.194468412315473, 8984129.414032522588968 ], [ 772949.327611269894987, 8984129.446586471050978 ], [ 772949.460980725940317, 8984129.478199258446693 ], [ 772949.594570125453174, 8984129.5088693164289 ], [ 772949.728372806683183, 8984129.538595106452703 ], [ 772949.86238209484145, 8984129.567375149577856 ], [ 772949.996591304079629, 8984129.595208011567593 ], [ 772950.130993741331622, 8984129.622092299163342 ], [ 772950.265582701773383, 8984129.648026676848531 ], [ 772950.400351471500471, 8984129.673009848222136 ], [ 772950.535293328110129, 8984129.697040567174554 ], [ 772950.670401540584862, 8984129.720117634162307 ], [ 772950.805669369292445, 8984129.742239899933338 ], [ 772950.941090066567995, 8984129.763406259939075 ], [ 772951.076656877994537, 8984129.783615659922361 ], [ 772951.212363040540367, 8984129.802867088466883 ], [ 772951.34820178465452, 8984129.821159590035677 ], [ 772951.48416633612942, 8984129.838492246344686 ], [ 772951.620249910862185, 8984129.85486419685185 ], [ 772951.756445721141063, 8984129.870274625718594 ], [ 772951.892746974015608, 8984129.884722759947181 ], [ 772952.029146870132536, 8984129.898207882419229 ], [ 772952.165638604783453, 8984129.910729320719838 ], [ 772952.302215371280909, 8984129.922286445274949 ], [ 772952.438870354788378, 8984129.932878684252501 ], [ 772952.575596739421599, 8984129.942505510523915 ], [ 772952.712387705687433, 8984129.951166439801455 ], [ 772952.849236430018209, 8984129.958861041814089 ], [ 772952.9861360846553, 8984129.965588934719563 ], [ 772953.123079842887819, 8984129.971349777653813 ], [ 772953.260060871834867, 8984129.976143289357424 ], [ 772953.397072339663282, 8984129.979969225823879 ], [ 772953.534107411280274, 8984129.982827400788665 ], [ 772953.671159252407961, 8984129.984717667102814 ], [ 772953.808221025043167, 8984129.985639933496714 ], [ 772953.945285893394612, 8984129.985594151541591 ], [ 772954.082347018760629, 8984129.98458032682538 ], [ 772954.219397565932013, 8984129.982598507776856 ], [ 772954.356430698768236, 8984129.979648793116212 ], [ 772954.493439580197446, 8984129.975731329992414 ], [ 772954.630417376407422, 8984129.970846315845847 ], [ 772954.767357255215757, 8984129.964993992820382 ], [ 772954.904252386069857, 8984129.958174649626017 ], [ 772955.041095938766375, 8984129.950388632714748 ], [ 772955.177881088573486, 8984129.941636327654123 ], [ 772955.314601012738422, 8984129.931918168440461 ], [ 772955.451248889905401, 8984129.921234643086791 ], [ 772955.587817904655822, 8984129.909586284309626 ], [ 772955.724301244597882, 8984129.896973673254251 ], [ 772955.860692101996392, 8984129.883397435769439 ], [ 772955.996983673190698, 8984129.868858251720667 ], [ 772956.133169159060344, 8984129.853356847539544 ], [ 772956.269241767120548, 8984129.836893992498517 ], [ 772956.405194708378986, 8984129.819470515474677 ], [ 772956.541021203738637, 8984129.801087275147438 ], [ 772956.541021203855053, 8984129.801087275147438 ], [ 772967.09610379114747, 8984129.172682255506516 ], [ 772967.799689447274432, 8984129.12860818952322 ], [ 772968.502988831256516, 8984129.080180151388049 ], [ 772969.205975000862963, 8984129.0274 ], [ 772969.908621024340391, 8984128.970269754528999 ], [ 772970.610899983323179, 8984128.908791605383158 ], [ 772971.312784972600639, 8984128.842967906966805 ], [ 772972.014249105821364, 8984128.772801181301475 ], [ 772972.715265508042648, 8984128.698294116184115 ], [ 772973.415807323879562, 8984128.619449565187097 ], [ 772974.115847715525888, 8984128.53627054952085 ], [ 772974.815359865664504, 8984128.448760256171227 ], [ 772975.51431697444059, 8984128.356922037899494 ], [ 772976.212692266679369, 8984128.260759411379695 ], [ 772976.910458986414596, 8984128.160276062786579 ], [ 772977.607590402825736, 8984128.055475840345025 ], [ 772978.304059810005128, 8984127.946362758055329 ], [ 772978.999840524513274, 8984127.832940997555852 ], [ 772979.694905892247334, 8984127.715214902535081 ], [ 772980.389229285647161, 8984127.593188986182213 ], [ 772981.082784104393795, 8984127.466867920011282 ], [ 772981.775543779949658, 8984127.336256543174386 ], [ 772982.467481771018356, 8984127.201359862461686 ], [ 772983.158571571810171, 8984127.062183042988181 ], [ 772983.848786704707891, 8984126.918731417506933 ], [ 772984.538100728415884, 8984126.771010480821133 ], [ 772985.22648723621387, 8984126.619025893509388 ], [ 772985.913919855956919, 8984126.462783478200436 ], [ 772986.600372251472436, 8984126.302289217710495 ], [ 772987.285818125819787, 8984126.137549264356494 ], [ 772987.970231219893321, 8984125.968569928780198 ], [ 772988.653585312189534, 8984125.795357679948211 ], [ 772989.335854225675575, 8984125.617919158190489 ], [ 772990.017011821619235, 8984125.436261160299182 ], [ 772990.697032005060464, 8984125.250390643253922 ], [ 772991.375888725393452, 8984125.060314731672406 ], [ 772992.053555975086056, 8984124.866040704771876 ], [ 772992.730007792823017, 8984124.667576003819704 ], [ 772993.405218264553696, 8984124.464928235858679 ], [ 772994.079161522560753, 8984124.258105162531137 ], [ 772994.751811747904867, 8984124.047114703804255 ], [ 772995.423143172170967, 8984123.831964947283268 ], [ 772996.093130075838417, 8984123.612664133310318 ], [ 772996.761746793519706, 8984123.389220664277673 ], [ 772997.428967709187418, 8984123.161643099039793 ], [ 772998.094767262460664, 8984122.929940156638622 ], [ 772998.759119947440922, 8984122.694120714440942 ], [ 772999.422000310965814, 8984122.454193802550435 ], [ 773000.083382960292511, 8984122.210168618708849 ], [ 773000.743242556112818, 8984121.962054507806897 ], [ 773001.401553820935078, 8984121.709860974922776 ], [ 773002.058291533729061, 8984121.453597681596875 ], [ 773002.713430535397492, 8984121.193274445831776 ], [ 773003.36694572865963, 8984120.928901242092252 ], [ 773004.018812076421455, 8984120.660488195717335 ], [ 773004.669004606781527, 8984120.388045592233539 ], [ 773005.317498410353437, 8984120.111583866178989 ], [ 773005.964268643176183, 8984119.831113610416651 ], [ 773006.609290528460406, 8984119.546645568683743 ], [ 773007.252539354609326, 8984119.258190639317036 ], [ 773007.893990479991771, 8984118.965759873390198 ], [ 773008.533619330730289, 8984118.669364474713802 ], [ 773009.171401401283219, 8984118.369015794247389 ], [ 773009.807312259101309, 8984118.064725341275334 ], [ 773010.441327543579973, 8984117.756504775956273 ], [ 773011.073422965360805, 8984117.444365900009871 ], [ 773011.703574307612143, 8984117.128320675343275 ], [ 773012.33175743103493, 8984116.808381209149957 ], [ 773012.957948269555345, 8984116.484559755772352 ], [ 773013.582122833584435, 8984116.156868724152446 ], [ 773014.204257211880758, 8984115.825320666655898 ], [ 773014.824327569571324, 8984115.489928284659982 ], [ 773015.442310152575374, 8984115.150704426690936 ], [ 773016.058181286789477, 8984114.807662088423967 ], [ 773016.671917376690544, 8984114.460814412683249 ], [ 773017.283494911505841, 8984114.110174685716629 ], [ 773017.892890461487696, 8984113.75575634278357 ], [ 773018.50008068070747, 8984113.39757295884192 ], [ 773019.105042307754047, 8984113.035638255998492 ], [ 773019.707752167363651, 8984112.669966101646423 ], [ 773020.308187169139273, 8984112.300570504739881 ], [ 773020.906324309995398, 8984111.927465613931417 ], [ 773021.502140676835552, 8984111.550665725022554 ], [ 773022.095613443176262, 8984111.170185273513198 ], [ 773022.686719873221591, 8984110.786038832738996 ], [ 773023.275437323143706, 8984110.398241125047207 ], [ 773023.861743237590417, 8984110.006806999444962 ], [ 773024.445615155156702, 8984109.611751455813646 ], [ 773025.027030710014515, 8984109.213089630007744 ], [ 773025.60596762644127, 8984108.810836791992188 ], [ 773026.182403725222684, 8984108.405008351430297 ], [ 773026.756316925166175, 8984107.995619859546423 ], [ 773027.327685237745754, 8984107.582686996087432 ], [ 773027.896486774552613, 8984107.166225578635931 ], [ 773028.462699746480212, 8984106.746251570060849 ], [ 773029.026302459998988, 8984106.32278105057776 ], [ 773029.587273323675618, 8984105.895830245688558 ], [ 773030.145590848405845, 8984105.465415515005589 ], [ 773030.701233644154854, 8984105.031553346663713 ], [ 773031.254180424497463, 8984104.594260359182954 ], [ 773031.804410006618127, 8984104.153553307056427 ], [ 773032.351901310379617, 8984103.70944907143712 ], [ 773032.89663336169906, 8984103.261964667588472 ], [ 773033.438585293013602, 8984102.811117241159081 ], [ 773033.977736341534182, 8984102.356924058869481 ], [ 773034.514065852272324, 8984101.899402525275946 ], [ 773035.047553279320709, 8984101.438570164144039 ], [ 773035.578178184689023, 8984100.974444633349776 ], [ 773036.10592023935169, 8984100.507043709978461 ], [ 773036.630759226973169, 8984100.036385303363204 ], [ 773037.152675040648319, 8984099.562487443909049 ], [ 773037.671647684765048, 8984099.085368283092976 ], [ 773038.187657279311679, 8984098.605046100914478 ], [ 773038.70068405510392, 8984098.121539300307631 ], [ 773039.210708358325064, 8984097.634866403415799 ], [ 773039.717710650758818, 8984097.145046055316925 ], [ 773040.221671507810242, 8984096.652097016572952 ], [ 773040.722571623977274, 8984096.156038178130984 ], [ 773041.220391810289584, 8984095.656888538971543 ], [ 773041.715112994308583, 8984095.154667224735022 ], [ 773042.206716222921386, 8984094.64939347282052 ], [ 773042.695182664319873, 8984094.141086641699076 ], [ 773043.180493605555966, 8984093.629766205325723 ], [ 773043.662630453123711, 8984093.115451749414206 ], [ 773044.141574737732299, 8984092.598162978887558 ], [ 773044.617308110115118, 8984092.077919712290168 ], [ 773045.089812345337123, 8984091.554741878062487 ], [ 773045.559069342678413, 8984091.028649520128965 ], [ 773046.025061124004424, 8984090.499662790447474 ], [ 773046.487769838189706, 8984089.96780196018517 ], [ 773046.947177758556791, 8984089.433087399229407 ], [ 773047.403267284389585, 8984088.895539592951536 ], [ 773047.856020944425836, 8984088.355179136618972 ], [ 773048.305421392084099, 8984087.812026729807258 ], [ 773048.751451413147151, 8984087.266103183850646 ], [ 773049.194093917962164, 8984086.717429406940937 ], [ 773049.633331950986758, 8984086.166026424616575 ], [ 773050.069148684618995, 8984085.611915359273553 ], [ 773050.501527421991341, 8984085.055117437615991 ], [ 773050.930451600113884, 8984084.495653990656137 ], [ 773051.355904785566963, 8984083.933546451851726 ], [ 773051.777870680205524, 8984083.36881635338068 ], [ 773052.196333117899485, 8984082.8014853335917 ], [ 773052.611276067676954, 8984082.231575122103095 ], [ 773053.022683634073474, 8984081.659107558429241 ], [ 773053.430540055269375, 8984081.08410456776619 ], [ 773053.83482970634941, 8984080.506588181480765 ], [ 773054.235537100001238, 8984079.926580522209406 ], [ 773054.632646884187125, 8984079.344103813171387 ], [ 773055.026143845869228, 8984078.75918036326766 ], [ 773055.416012911242433, 8984078.171832587569952 ], [ 773055.802239142474718, 8984077.58208298124373 ], [ 773056.184807745041326, 8984076.989954141899943 ], [ 773056.563704062951729, 8984076.395468750968575 ], [ 773056.938913579680957, 8984075.798649584874511 ], [ 773057.31042192177847, 8984075.199519507586956 ], [ 773057.67821485712193, 8984074.59810147061944 ], [ 773058.042278295033611, 8984073.994418513029814 ], [ 773058.402598287444562, 8984073.388493763282895 ], [ 773058.759161032736301, 8984072.780350435525179 ], [ 773059.111952869221568, 8984072.170011825859547 ], [ 773059.460960282711312, 8984071.557501316070557 ], [ 773059.806169901974499, 8984070.942842371761799 ], [ 773060.147568502812646, 8984070.32605854049325 ], [ 773060.485143006197177, 8984069.707173451781273 ], [ 773060.818880478385836, 8984069.086210813373327 ], [ 773061.148768136044964, 8984068.463194414973259 ], [ 773061.474793340312317, 8984067.83814812451601 ], [ 773061.79694360063877, 8984067.211095886304975 ], [ 773062.115206577000208, 8984066.582061724737287 ], [ 773062.429570074775256, 8984065.951069736853242 ], [ 773062.740022052894346, 8984065.318144094198942 ], [ 773063.046550616738386, 8984064.683309046551585 ], [ 773063.349144023377448, 8984064.046588912606239 ], [ 773063.64779068052303, 8984063.408008083701134 ], [ 773063.942479148623534, 8984062.767591029405594 ], [ 773064.233198135741986, 8984062.125362277030945 ], [ 773064.519936505821534, 8984061.481346433982253 ], [ 773064.802683273679577, 8984060.83556817099452 ], [ 773065.081427608150989, 8984060.188052229583263 ], [ 773065.35615882941056, 8984059.538823414593935 ], [ 773065.356158829526976, 8984059.538823414593935 ], [ 773265.611068023601547, 8983953.809950884431601 ], [ 773452.817336251842789, 8983898.829375641420484 ], [ 773449.496788312448189, 8983847.408919749781489 ], [ 773226.211852827458642, 8983918.308865724131465 ] ] ] ] } },
{ "type": "Feature", "properties": { "LAYER": "pemukiman", "GM_TYPE": "Unknown Area Type", "ELEVATION": 0 }, "geometry": { "type": "MultiPolygon", "coordinates": [ [ [ [ 774371.94838026643265, 8983593.831163551658392 ], [ 774435.276219220249914, 8983516.355141384527087 ], [ 774578.29710446705576, 8983428.038514617830515 ], [ 774597.005106476950459, 8983413.938040606677532 ], [ 774588.048046062351204, 8983399.225766960531473 ], [ 774404.78585398721043, 8983517.39038179628551 ], [ 774350.846998724387959, 8983566.084595469757915 ], [ 774371.94838026643265, 8983593.831163551658392 ] ] ] ] } },
{ "type": "Feature", "properties": { "LAYER": "pemukiman", "GM_TYPE": "Unknown Area Type", "ELEVATION": 0 }, "geometry": { "type": "MultiPolygon", "coordinates": [ [ [ [ 775314.330661044805311, 8983421.604887088760734 ], [ 774984.394134506117553, 8983329.377636799588799 ], [ 774844.213884549448267, 8983339.625089352950454 ], [ 774787.286556394537911, 8983403.463163524866104 ], [ 774865.365662560099736, 8983419.606935497373343 ], [ 774942.706440429552458, 8983417.528304196894169 ], [ 774946.58390541432891, 8983416.631891978904605 ], [ 774947.022406142088585, 8983416.530002908781171 ], [ 774947.460678996401839, 8983416.427138064056635 ], [ 774947.898721807054244, 8983416.323297960683703 ], [ 774948.336532402783632, 8983416.218483110889792 ], [ 774948.77410861547105, 8983416.112694032490253 ], [ 774949.211448276764713, 8983416.005931250751019 ], [ 774949.648549219942652, 8983415.89819529466331 ], [ 774950.08540927967988, 8983415.789486696943641 ], [ 774950.522026292281225, 8983415.679805999621749 ], [ 774950.95839809300378, 8983415.569153741002083 ], [ 774951.394522521644831, 8983415.457530474290252 ], [ 774951.830397415906191, 8983415.34493674710393 ], [ 774952.26602061802987, 8983415.231373121961951 ], [ 774952.701389968045987, 8983415.116840157657862 ], [ 774953.136503310874104, 8983415.001338427886367 ], [ 774953.571358489221893, 8983414.884868497028947 ], [ 774954.00595334963873, 8983414.767430946230888 ], [ 774954.440285739139654, 8983414.649026358500123 ], [ 774954.874353504739702, 8983414.529655316844583 ], [ 774955.308154497062787, 8983414.40931841544807 ], [ 774955.741686567431316, 8983414.288016250357032 ], [ 774956.174947566585615, 8983414.165749421343207 ], [ 774956.607935348525643, 8983414.04251853376627 ], [ 774957.040647767949849, 8983413.918324198573828 ], [ 774957.473082682001404, 8983413.793167034164071 ], [ 774957.905237947474234, 8983413.667047655209899 ], [ 774958.337111422908492, 8983413.539966689422727 ], [ 774958.768700969987549, 8983413.41192476823926 ], [ 774959.20000444969628, 8983413.282922523096204 ], [ 774959.631019725697115, 8983413.152960592880845 ], [ 774960.061744661419652, 8983413.02203962393105 ], [ 774960.492177124717273, 8983412.890160264447331 ], [ 774960.922314981929958, 8983412.757323164492846 ], [ 774961.352156101842411, 8983412.623528985306621 ], [ 774961.781698355916888, 8983412.48877838999033 ], [ 774962.210939614917152, 8983412.353072043508291 ], [ 774962.639877753565088, 8983412.216410622000694 ], [ 774963.068510645651259, 8983412.078794799745083 ], [ 774963.496836167993024, 8983411.940225258469582 ], [ 774963.924852198455483, 8983411.800702683627605 ], [ 774964.352556616999209, 8983411.660227769985795 ], [ 774964.779947304050438, 8983411.518801212310791 ], [ 774965.207022142480128, 8983411.376423709094524 ], [ 774965.633779016672634, 8983411.233095968142152 ], [ 774966.060215811943635, 8983411.088818699121475 ], [ 774966.486330415937118, 8983410.943592615425587 ], [ 774966.912120717577636, 8983410.797418439760804 ], [ 774967.337584606604651, 8983410.650296891108155 ], [ 774967.762719976017252, 8983410.502228701487184 ], [ 774968.187524719163775, 8983410.353214604780078 ], [ 774968.611996731953695, 8983410.203255340456963 ], [ 774969.036133910878561, 8983410.052351647987962 ], [ 774969.459934154874645, 8983409.900504276156425 ], [ 774969.883395364391617, 8983409.747713979333639 ], [ 774970.306515441392548, 8983409.593981511890888 ], [ 774970.729292289353907, 8983409.439307637512684 ], [ 774971.151723814429715, 8983409.283693121746182 ], [ 774971.57380792312324, 8983409.127138733863831 ], [ 774971.995542524615303, 8983408.969645252451301 ], [ 774972.416925529018044, 8983408.81121345423162 ], [ 774972.837954849121161, 8983408.651844127103686 ], [ 774973.258628399809822, 8983408.491538060829043 ], [ 774973.678944095387124, 8983408.330296047031879 ], [ 774974.098899854230694, 8983408.168118886649609 ], [ 774974.518493596231565, 8983408.005007384344935 ], [ 774974.937723241862841, 8983407.840962342917919 ], [ 774975.356586714508012, 8983407.67598458006978 ], [ 774975.775081938365474, 8983407.510074911639094 ], [ 774976.193206841824576, 8983407.343234160915017 ], [ 774976.61095935117919, 8983407.175463151186705 ], [ 774977.028337397961877, 8983407.006762715056539 ], [ 774977.445338914520107, 8983406.837133690714836 ], [ 774977.861961834365502, 8983406.666576914489269 ], [ 774978.278204093570821, 8983406.495093235746026 ], [ 774978.694063630304299, 8983406.322683500126004 ], [ 774979.109538384363987, 8983406.149348564445972 ], [ 774979.52462629636284, 8983405.975089287385345 ], [ 774979.939325310639106, 8983405.799906529486179 ], [ 774980.353633372695185, 8983405.623801160603762 ], [ 774980.767548429896124, 8983405.446774054318666 ], [ 774981.181068431469612, 8983405.268826087936759 ], [ 774981.594191328156739, 8983405.089958138763905 ], [ 774982.006915074656717, 8983404.910171097144485 ], [ 774982.419237624504603, 8983404.729465851560235 ], [ 774982.83115693682339, 8983404.547843301668763 ], [ 774983.242670968989842, 8983404.365304339677095 ], [ 774983.653777683037333, 8983404.18184987641871 ], [ 774984.064475042629056, 8983403.997480817139149 ], [ 774984.474761012592353, 8983403.812198076397181 ], [ 774984.884633560199291, 8983403.626002574339509 ], [ 774985.294090655283071, 8983403.438895229250193 ], [ 774985.703130268957466, 8983403.250876972451806 ], [ 774986.111750374897383, 8983403.061948731541634 ], [ 774986.519948948523961, 8983402.87211144529283 ], [ 774986.927723967703059, 8983402.681366052478552 ], [ 774987.335073411115445, 8983402.489713497459888 ], [ 774987.741995262447745, 8983402.297154732048512 ], [ 774988.14848750422243, 8983402.103690709918737 ], [ 774988.554548123851418, 8983401.909322388470173 ], [ 774988.96017510839738, 8983401.71405073069036 ], [ 774989.365366448764689, 8983401.517876705154777 ], [ 774989.770120137603953, 8983401.320801282301545 ], [ 774990.174434169894084, 8983401.122825440019369 ], [ 774990.578306542243809, 8983400.923950158059597 ], [ 774990.981735253124498, 8983400.724176419898868 ], [ 774991.384718304732814, 8983400.523505218327045 ], [ 774991.787253700662404, 8983400.32193754799664 ], [ 774992.189339446253143, 8983400.119474405422807 ], [ 774992.590973549173214, 8983399.91611679457128 ], [ 774992.992154020234011, 8983399.711865721270442 ], [ 774993.392878871760331, 8983399.506722200661898 ], [ 774993.793146117357537, 8983399.300687244161963 ], [ 774994.192953776102513, 8983399.093761878088117 ], [ 774994.592299865442328, 8983398.885947125032544 ], [ 774994.991182407480665, 8983398.677244015038013 ], [ 774995.389599425834604, 8983398.467653580009937 ], [ 774995.787548947380856, 8983398.257176861166954 ], [ 774996.185029000160284, 8983398.045814899727702 ], [ 774996.582037613959983, 8983397.833568742498755 ], [ 774996.978572823456489, 8983397.620439441874623 ], [ 774997.374632663791999, 8983397.406428053975105 ], [ 774997.770215171738528, 8983397.191535638645291 ], [ 774998.165318388375454, 8983396.975763261318207 ], [ 774998.559940355829895, 8983396.759111989289522 ], [ 774998.954079119488597, 8983396.541582897305489 ], [ 774999.347732726368122, 8983396.323177061975002 ], [ 774999.740899226162583, 8983396.103895565494895 ], [ 775000.13357667112723, 8983395.883739495649934 ], [ 775000.525763115962036, 8983395.662709943950176 ], [ 775000.917456617346033, 8983395.44080800190568 ], [ 775001.308655235217884, 8983395.218034770339727 ], [ 775001.699357030913234, 8983394.994391353800893 ], [ 775002.089560069143772, 8983394.76987886056304 ], [ 775002.479262416134588, 8983394.544498400762677 ], [ 775002.868462141836062, 8983394.318251091986895 ], [ 775003.257157317944802, 8983394.091138057410717 ], [ 775003.645346018718556, 8983393.863160418346524 ], [ 775004.033026320976205, 8983393.634319307282567 ], [ 775004.420196304097772, 8983393.404615856707096 ], [ 775004.806854049558751, 8983393.174051204696298 ], [ 775005.1929976423271, 8983392.942626494914293 ], [ 775005.578625168884173, 8983392.710342871025205 ], [ 775005.963734718854539, 8983392.477201486006379 ], [ 775006.348324383958243, 8983392.243203492835164 ], [ 775006.73239225987345, 8983392.008350055664778 ], [ 775007.115936442511156, 8983391.772642331197858 ], [ 775007.498955032904632, 8983391.536081492900848 ], [ 775007.881446132436395, 8983391.298668710514903 ], [ 775008.263407846330665, 8983391.060405157506466 ], [ 775008.64483828342054, 8983390.821292020380497 ], [ 775009.025735552306287, 8983390.581330478191376 ], [ 775009.406097766943276, 8983390.340521723031998 ], [ 775009.785923042567447, 8983390.098866946995258 ], [ 775010.16520949814003, 8983389.856367349624634 ], [ 775010.543955253437161, 8983389.61302412673831 ], [ 775010.922158432309516, 8983389.368838487192988 ], [ 775011.29981716198381, 8983389.123811641708016 ], [ 775011.67692957026884, 8983388.877944802865386 ], [ 775012.053493789280765, 8983388.63123919069767 ], [ 775012.429507952998392, 8983388.383696021512151 ], [ 775012.80497019935865, 8983388.135316530242562 ], [ 775013.179878668510355, 8983387.886101942509413 ], [ 775013.554231501417235, 8983387.636053491383791 ], [ 775013.92802684486378, 8983387.385172421112657 ], [ 775014.301262846798636, 8983387.133459970355034 ], [ 775014.673937656683847, 8983386.880917385220528 ], [ 775015.046049430849962, 8983386.627545922994614 ], [ 775015.41759632283356, 8983386.373346831649542 ], [ 775015.788576494320296, 8983386.118321374058723 ], [ 775016.158988105482422, 8983385.862470814958215 ], [ 775016.52882932277862, 8983385.605796419084072 ], [ 775016.89809831243474, 8983385.348299460485578 ], [ 775017.266793246031739, 8983385.089981213212013 ], [ 775017.6349122968968, 8983384.830842956900597 ], [ 775018.002453640801832, 8983384.570885978639126 ], [ 775018.369415457127616, 8983384.310111561790109 ], [ 775018.735795928048901, 8983384.048521000891924 ], [ 775019.101593237719499, 8983383.78611559048295 ], [ 775019.466805574600585, 8983383.522896632552147 ], [ 775019.831431128433906, 8983383.258865429088473 ], [ 775019.831431128550321, 8983383.258865429088473 ], [ 775123.298785252147354, 8983430.84220969863236 ], [ 775297.465069778030738, 8983475.267822509631515 ], [ 775356.250187954399735, 8983522.248618841171265 ], [ 775404.443698646849953, 8983571.248683881014585 ], [ 775412.606280241510831, 8983574.183030378073454 ], [ 775412.606280241627246, 8983574.183030378073454 ], [ 775412.944636299740523, 8983574.303713798522949 ], [ 775413.283589684753679, 8983574.422709230333567 ], [ 775413.623131975764409, 8983574.540013717487454 ], [ 775413.963254737085663, 8983574.655624343082309 ], [ 775414.303949518827721, 8983574.769538240507245 ], [ 775414.64520785654895, 8983574.881752572953701 ], [ 775414.987021272303537, 8983574.992264559492469 ], [ 775415.329381273943, 8983575.101071448996663 ], [ 775415.67227935581468, 8983575.208170538768172 ], [ 775416.015706998878159, 8983575.313559170812368 ], [ 775416.359655671287328, 8983575.417234726250172 ], [ 775416.704116827691905, 8983575.519194629043341 ], [ 775417.049081910168752, 8983575.619436344131827 ], [ 775417.394542348803952, 8983575.717957383021712 ], [ 775417.740489560877904, 8983575.814755300059915 ], [ 775418.086914951447397, 8983575.909827684983611 ], [ 775418.43380991416052, 8983576.003172181546688 ], [ 775418.781165830558166, 8983576.094786467030644 ], [ 775419.128974070772529, 8983576.184668265283108 ], [ 775419.477225994225591, 8983576.272815346717834 ], [ 775419.825912948814221, 8983576.359225517138839 ], [ 775420.175026271608658, 8983576.443896634504199 ], [ 775420.524557289201766, 8983576.526826588436961 ], [ 775420.874497318058275, 8983576.608013324439526 ], [ 775421.224837664049119, 8983576.687454825267196 ], [ 775421.575569623615593, 8983576.765149112790823 ], [ 775421.926684482605197, 8983576.841094261035323 ], [ 775422.278173518483527, 8983576.91528838314116 ], [ 775422.630027998704463, 8983576.987729635089636 ], [ 775422.982239181525074, 8983577.058416213840246 ], [ 775423.334798316820525, 8983577.127346368506551 ], [ 775423.687696645385586, 8983577.194518381729722 ], [ 775424.040925400215201, 8983577.259930588304996 ], [ 775424.394475805223919, 8983577.323581362143159 ], [ 775424.74833907710854, 8983577.385469119995832 ], [ 775425.102506424300373, 8983577.445592328906059 ], [ 775425.456969048012979, 8983577.503949489444494 ], [ 775425.81171814177651, 8983577.560539156198502 ], [ 775426.16674489248544, 8983577.615359921008348 ], [ 775426.52204047946725, 8983577.668410422280431 ], [ 775426.877596075995825, 8983577.719689343124628 ], [ 775427.233402848592959, 8983577.769195409491658 ], [ 775427.58945195749402, 8983577.816927388310432 ], [ 775427.945734557230026, 8983577.862884098663926 ], [ 775428.302241795929149, 8983577.907064393162727 ], [ 775428.658964816946536, 8983577.949467180296779 ], [ 775429.015894757467322, 8983577.990091402083635 ], [ 775429.373022750136442, 8983578.028936050832272 ], [ 775429.73033992247656, 8983578.0660001616925 ], [ 775430.087837397004478, 8983578.101282812654972 ], [ 775430.445506292511709, 8983578.134783130139112 ], [ 775430.803337722667493, 8983578.166500277817249 ], [ 775431.161322797532193, 8983578.196433471515775 ], [ 775431.519452623440884, 8983578.224581962451339 ], [ 775431.877718303003348, 8983578.250945057719946 ], [ 775432.236110935569741, 8983578.275522097945213 ], [ 775432.594621616997756, 8983578.298312474042177 ], [ 775432.953241440467536, 8983578.319315619766712 ], [ 775433.311961496481672, 8983578.338531013578176 ], [ 775433.670772872981615, 8983578.355958176776767 ], [ 775434.029666655580513, 8983578.371596677228808 ], [ 775434.388633927912451, 8983578.385446125641465 ], [ 775434.747665771865286, 8983578.397506181150675 ], [ 775435.106753267580643, 8983578.407776538282633 ], [ 775435.465887494035996, 8983578.416256949305534 ], [ 775435.825059528695419, 8983578.422947196289897 ], [ 775436.184260448324494, 8983578.427847117185593 ], [ 775436.54348132899031, 8983578.430956590920687 ], [ 775436.902713246177882, 8983578.432275537401438 ], [ 775437.261947275022976, 8983578.431803924962878 ], [ 775437.621174490894191, 8983578.429541766643524 ], [ 775437.980385968694463, 8983578.425489116460085 ], [ 775438.339572784956545, 8983578.419646076858044 ], [ 775438.698726015165448, 8983578.412012791261077 ], [ 775439.057836736901663, 8983578.40258944965899 ], [ 775439.416896028677002, 8983578.391376288607717 ], [ 775439.775894969701767, 8983578.378373585641384 ], [ 775440.134824640816078, 8983578.363581659272313 ], [ 775440.493676125071943, 8983578.347000883892179 ], [ 775440.852440507151186, 8983578.328631667420268 ], [ 775441.211108873714693, 8983578.308474468067288 ], [ 775441.569672313984483, 8983578.286529783159494 ], [ 775441.928121920209378, 8983578.26279816403985 ], [ 775442.286448786384426, 8983578.237280193716288 ], [ 775442.644644010812044, 8983578.209976509213448 ], [ 775443.002698694239371, 8983578.18088779039681 ], [ 775443.360603941138834, 8983578.150014756247401 ], [ 775443.718350859824568, 8983578.117358179762959 ], [ 775444.075930562103167, 8983578.082918863743544 ], [ 775444.433334164670669, 8983578.046697670593858 ], [ 775444.790552787715569, 8983578.008695498108864 ], [ 775445.147577557130717, 8983577.968913290649652 ], [ 775445.504399602185003, 8983577.927352035418153 ], [ 775445.861010058666579, 8983577.884012766182423 ], [ 775446.217400066670962, 8983577.838896557688713 ], [ 775446.573560771998018, 8983577.792004534974694 ], [ 775446.929483326268382, 8983577.743337860330939 ], [ 775447.285158886574209, 8983577.69289773888886 ], [ 775447.640578617108986, 8983577.640685431659222 ], [ 775447.995733687421307, 8983577.586702231317759 ], [ 775448.350615274044685, 8983577.530949478968978 ], [ 775448.705214560381137, 8983577.473428560420871 ], [ 775449.059522736817598, 8983577.414140906184912 ], [ 775449.413531000725925, 8983577.353087985888124 ], [ 775449.767230557161383, 8983577.290271319448948 ], [ 775450.120612618979067, 8983577.225692465901375 ], [ 775450.473668406484649, 8983577.159353030845523 ], [ 775450.826389148482122, 8983577.091254658997059 ], [ 775451.178766082040966, 8983577.021399047225714 ], [ 775451.530790452612564, 8983576.949787927791476 ], [ 775451.882453514495865, 8983576.876423079520464 ], [ 775452.233746530953795, 8983576.801306327804923 ], [ 775452.584660774329677, 8983576.724439535290003 ], [ 775452.935187526862137, 8983576.645824614912271 ], [ 775453.285318079753779, 8983576.565463518723845 ], [ 775453.635043734335341, 8983576.48335824161768 ], [ 775453.984355802298523, 8983576.399510826915503 ], [ 775454.333245604881085, 8983576.313923353329301 ], [ 775454.681704474729486, 8983576.226597951725125 ], [ 775455.029723754269071, 8983576.137536788359284 ], [ 775455.377294797566719, 8983576.04674207419157 ], [ 775455.72440896963235, 8983575.954216070473194 ], [ 775456.071057646418922, 8983575.85996107198298 ], [ 775456.417232215986587, 8983575.76397942006588 ], [ 775456.762924078153446, 8983575.666273502632976 ], [ 775457.108124644146301, 8983575.566845744848251 ], [ 775457.452825338230468, 8983575.46569861844182 ], [ 775457.797017596312799, 8983575.362834632396698 ], [ 775458.140692867222242, 8983575.25825634598732 ], [ 775458.483842612942681, 8983575.151966355741024 ], [ 775458.826458308147267, 8983575.043967304751277 ], [ 775459.168531440664083, 8983574.934261871501803 ], [ 775459.510053512523882, 8983574.822852786630392 ], [ 775459.851016038446687, 8983574.709742814302444 ], [ 775460.191410547820851, 8983574.594934765249491 ], [ 775460.53122858365532, 8983574.4784314930439 ], [ 775460.870461703743786, 8983574.360235892236233 ], [ 775461.209101480082609, 8983574.240350898355246 ], [ 775461.547139499452896, 8983574.118779489770532 ], [ 775461.884567363653332, 8983573.995524685829878 ], [ 775462.221376689500175, 8983573.8705895524472 ], [ 775462.557559109525755, 8983573.743977189064026 ], [ 775462.893106271396391, 8983573.615690743550658 ], [ 775463.228009838960133, 8983573.485733402892947 ], [ 775463.562261491664685, 8983573.354108395054936 ], [ 775463.895852925488725, 8983573.220818992704153 ], [ 775464.228775852476247, 8983573.085868502035737 ], [ 775464.56102200190071, 8983572.949260281398892 ], [ 775464.892583118984476, 8983572.810997720807791 ], [ 775465.223450966528617, 8983572.671084256842732 ], [ 775465.553617324563675, 8983572.529523367062211 ], [ 775465.883073990349658, 8983572.386318564414978 ], [ 775466.211812778841704, 8983572.241473408415914 ], [ 775466.539825522922911, 8983572.094991501420736 ], [ 775466.867104073404334, 8983571.946876475587487 ], [ 775467.193640299490653, 8983571.797132017090917 ], [ 775467.519426088198088, 8983571.645761843770742 ], [ 775467.844453346333466, 8983571.492769714444876 ], [ 775468.168713998515159, 8983571.338159432634711 ], [ 775468.492199989035726, 8983571.181934837251902 ], [ 775468.814903280814178, 8983571.024099811911583 ], [ 775469.13681585714221, 8983570.864658277481794 ], [ 775469.457929719937965, 8983570.703614193946123 ], [ 775469.778236891608685, 8983570.540971560403705 ], [ 775470.097729414701462, 8983570.376734422519803 ], [ 775470.416399351321161, 8983570.21090685762465 ], [ 775470.734238784643821, 8983570.043492985889316 ], [ 775471.051239818334579, 8983569.874496966600418 ], [ 775471.367394576431252, 8983569.703922998160124 ], [ 775471.682695204741322, 8983569.531775316223502 ], [ 775471.997133869794197, 8983569.358058203011751 ], [ 775472.310702759772539, 8983569.182775970548391 ], [ 775472.623394084279425, 8983569.005932973697782 ], [ 775472.9352000746876, 8983568.827533606439829 ], [ 775473.246112984605134, 8983568.647582301869988 ], [ 775473.556125089526176, 8983568.466083526611328 ], [ 775473.865228687878698, 8983568.28304179571569 ], [ 775474.173416099976748, 8983568.098461654037237 ], [ 775474.480679669417441, 8983567.912347687408328 ], [ 775474.787011762149632, 8983567.724704517051578 ], [ 775483.658011950785294, 8983556.396477423608303 ], [ 775483.72393709840253, 8983556.311513217166066 ], [ 775483.789101599948481, 8983556.225964231416583 ], [ 775483.853500268771313, 8983556.139837272465229 ], [ 775483.917127978987992, 8983556.053139200434089 ], [ 775483.979979665949941, 8983555.96587691269815 ], [ 775484.042050327407196, 8983555.878057356923819 ], [ 775484.103335021995008, 8983555.78968752361834 ], [ 775484.163828870863654, 8983555.700774444267154 ], [ 775484.223527061170898, 8983555.611325198784471 ], [ 775484.282424839097075, 8983555.521346906200051 ], [ 775484.340517516480759, 8983555.430846728384495 ], [ 775484.397800469421782, 8983555.339831870049238 ], [ 775484.454269140027463, 8983555.248309575021267 ], [ 775484.50991903222166, 8983555.156287126243114 ], [ 775484.564745715819299, 8983555.063771851360798 ], [ 775484.618744828156196, 8983554.970771113410592 ], [ 775484.6719120683847, 8983554.87729231454432 ], [ 775484.724243208649568, 8983554.783342896029353 ], [ 775484.775734080816619, 8983554.688930336385965 ], [ 775484.826380585902371, 8983554.594062149524689 ], [ 775484.876178693957627, 8983554.498745888471603 ], [ 775484.925124440109357, 8983554.402989137917757 ], [ 775484.973213930148631, 8983554.306799521669745 ], [ 775485.020443335059099, 8983554.210184695199132 ], [ 775485.066808894276619, 8983554.113152349367738 ], [ 775485.112306917901151, 8983554.015710206702352 ], [ 775485.156933786231093, 8983553.917866023257375 ], [ 775485.200685946154408, 8983553.819627590477467 ], [ 775485.243559914641082, 8983553.721002724021673 ], [ 775485.285552277229726, 8983553.621999276801944 ], [ 775485.32665969489608, 8983553.522625125944614 ], [ 775485.366878894623369, 8983553.422888185828924 ], [ 775485.40620667359326, 8983553.322796391323209 ], [ 775485.444639902329072, 8983553.222357712686062 ], [ 775485.482175521086901, 8983553.121580142527819 ], [ 775485.518810543348081, 8983553.020471703261137 ], [ 775485.554542050347663, 8983552.919040441513062 ], [ 775485.589367202250287, 8983552.817294433712959 ], [ 775485.623283224413171, 8983552.715241776779294 ], [ 775485.656287415535189, 8983552.612890593707561 ], [ 775485.688377152546309, 8983552.510249031707644 ], [ 775485.719549878034741, 8983552.407325262203813 ], [ 775485.74980311258696, 8983552.304127475246787 ], [ 775485.77913444780279, 8983552.200663886964321 ], [ 775485.807541547692381, 8983552.096942730247974 ], [ 775485.835022150655277, 8983551.992972265928984 ], [ 775485.861574072856456, 8983551.888760764151812 ], [ 775485.887195197516121, 8983551.784316524863243 ], [ 775485.911883485270664, 8983551.679647859185934 ], [ 775485.935636972775683, 8983551.574763096868992 ], [ 775485.958453770610504, 8983551.469670590013266 ], [ 775485.980332057224587, 8983551.36437870003283 ], [ 775486.001270096283406, 8983551.258895810693502 ], [ 775486.021266219438985, 8983551.153230318799615 ], [ 775486.040318835293874, 8983551.047390632331371 ], [ 775486.058426426141523, 8983550.941385177895427 ], [ 775486.075587552972138, 8983550.835222391411662 ], [ 775486.091800846625119, 8983550.728910723701119 ], [ 775486.107065018150024, 8983550.622458640486002 ], [ 775486.121378853684291, 8983550.515874609351158 ], [ 775486.134741212357767, 8983550.409167118370533 ], [ 775486.147151031764224, 8983550.302344659343362 ], [ 775486.158607323886827, 8983550.195415735244751 ], [ 775486.16910917556379, 8983550.088388858363032 ], [ 775486.178655751748011, 8983549.981272546574473 ], [ 775486.187246291548945, 8983549.874075327068567 ], [ 775486.194880112190731, 8983549.766805730760098 ], [ 775486.201556607033126, 8983549.659472297877073 ], [ 775486.207275243359618, 8983549.552083572372794 ], [ 775486.212035566219129, 8983549.444648100063205 ], [ 775486.215837196446955, 8983549.337174432352185 ], [ 775486.218679832294583, 8983549.229671128094196 ], [ 775486.220563245937228, 8983549.122146738693118 ], [ 775486.221487288363278, 8983549.014609826728702 ], [ 775486.221451888093725, 8983548.907068951055408 ], [ 775486.220457043382339, 8983548.799532670527697 ], [ 775486.218502836883999, 8983548.69200954400003 ], [ 775486.215589424362406, 8983548.584508134052157 ], [ 775486.211717034922913, 8983548.477036993950605 ], [ 775486.206885977881029, 8983548.369604678824544 ], [ 775486.201096639735624, 8983548.262219740077853 ], [ 775486.194349479279481, 8983548.154890727251768 ], [ 775486.186645035864785, 8983548.047626180574298 ], [ 775486.177983919507824, 8983547.940434640273452 ], [ 775486.168366820318624, 8983547.833324637264013 ], [ 775486.15779450640548, 8983547.72630469687283 ], [ 775486.14626781642437, 8983547.619383338838816 ], [ 775486.133787670521997, 8983547.512569073587656 ], [ 775486.120355059509166, 8983547.405870402231812 ], [ 775486.105971053359099, 8983547.299295820295811 ], [ 775486.090636797947809, 8983547.192853808403015 ], [ 775486.074353512958623, 8983547.08655283972621 ], [ 775486.057122493628412, 8983546.980401374399662 ], [ 775486.038945114123635, 8983546.874407865107059 ], [ 775486.019822818692774, 8983546.768580745905638 ], [ 775485.999757132376544, 8983546.662928439676762 ], [ 775485.978749649482779, 8983546.55745935998857 ], [ 775485.9568020417355, 8983546.452181898057461 ], [ 775485.93391605920624, 8983546.347104435786605 ], [ 775485.910093521466479, 8983546.242235336452723 ], [ 775485.885336326318793, 8983546.137582946568727 ], [ 775485.859646442928351, 8983546.033155597746372 ], [ 775485.833025914733298, 8983545.928961601108313 ], [ 775485.805476863635704, 8983545.825009251013398 ], [ 775485.777001482085325, 8983545.721306821331382 ], [ 775485.747602033312432, 8983545.61786256544292 ], [ 775485.717280862038024, 8983545.514684719964862 ], [ 775485.686040379689075, 8983545.411781495437026 ], [ 775485.653883071849123, 8983545.309161083772779 ], [ 775485.620811500004493, 8983545.206831652671099 ], [ 775485.586828295374289, 8983545.104801347479224 ], [ 775485.551936163450591, 8983545.003078289330006 ], [ 775485.516137881320901, 8983544.901670577004552 ], [ 775485.479436299530789, 8983544.800586279481649 ], [ 775485.441834338707849, 8983544.699833443388343 ], [ 775485.403334990842268, 8983544.599420089274645 ], [ 775485.363941321149468, 8983544.499354211613536 ], [ 775485.323656464461237, 8983544.399643771350384 ], [ 775485.282483628834598, 8983544.30029670894146 ], [ 775485.24042609159369, 8983544.201320929452777 ], [ 775485.197487199213356, 8983544.102724311873317 ], [ 775485.153670371160842, 8983544.004514705389738 ], [ 775485.108979093958624, 8983543.906699925661087 ], [ 775485.063416923163459, 8983543.809287760406733 ], [ 775485.016987488837913, 8983543.712285961955786 ], [ 775484.969694484258071, 8983543.61570225097239 ], [ 775484.921541675110348, 8983543.519544316455722 ], [ 775484.872532893787138, 8983543.423819812014699 ], [ 775484.822672042995691, 8983543.328536357730627 ], [ 775484.771963086794131, 8983543.233701536431909 ], [ 775484.720410066423938, 8983543.139322897419333 ], [ 775484.668017084244639, 8983543.045407954603434 ], [ 775484.614788308856077, 8983542.951964180916548 ], [ 775484.560727977077477, 8983542.858999015763402 ], [ 775484.505840395460837, 8983542.766519857570529 ], [ 775484.45012992923148, 8983542.674534069374204 ], [ 775484.393601013231091, 8983542.583048971369863 ], [ 775484.336258148425259, 8983542.492071846500039 ], [ 775484.278105899342336, 8983542.401609936729074 ], [ 775484.219148893025704, 8983542.311670441180468 ], [ 775484.159391825436614, 8983542.22226051799953 ], [ 775484.098839449114166, 8983542.133387288078666 ], [ 775484.037496585515328, 8983542.045057822018862 ], [ 775483.97536812000908, 8983541.957279151305556 ], [ 775483.912458993610926, 8983541.870058264583349 ], [ 775483.848774216487072, 8983541.783402102068067 ], [ 775483.784318856545724, 8983541.697317562997341 ], [ 775483.719098044675775, 8983541.611811498180032 ], [ 775483.653116971603595, 8983541.526890715584159 ], [ 775483.586380890686996, 8983541.442561971023679 ], [ 775483.518895114772022, 8983541.358831981197 ], [ 775483.450665012118407, 8983541.27570740878582 ], [ 775483.38169601559639, 8983541.193194871768355 ], [ 775483.311993615468964, 8983541.111300935968757 ], [ 775483.241563360672444, 8983541.030032118782401 ], [ 775483.170410855440423, 8983540.949394892901182 ], [ 775483.098541762912646, 8983540.869395675137639 ], [ 775483.025961804552935, 8983540.790040832012892 ], [ 775482.952676758985035, 8983540.711336679756641 ], [ 775482.878692457685247, 8983540.633289486169815 ], [ 775482.804014790686779, 8983540.55590546131134 ], [ 775482.728649700875394, 8983540.479190764948726 ], [ 775482.652603187365457, 8983540.40315150283277 ], [ 775482.575881306198426, 8983540.327793730422854 ], [ 775482.498490159981884, 8983540.253123441711068 ], [ 775482.42043591151014, 8983540.179146582260728 ], [ 775482.341724772471935, 8983540.105869041755795 ], [ 775482.26236300857272, 8983540.033296652138233 ], [ 775482.182356938021258, 8983539.961435189470649 ], [ 775482.101712927455083, 8983539.89029037207365 ], [ 775482.020437396015041, 8983539.819867866113782 ], [ 775481.938536812667735, 8983539.750173276290298 ], [ 775481.856017698883079, 8983539.681212147697806 ], [ 775481.772886620601639, 8983539.612989973276854 ], [ 775481.689150195335969, 8983539.545512180775404 ], [ 775481.604815089260228, 8983539.478784142062068 ], [ 775481.519888014532626, 8983539.412811167538166 ], [ 775481.43437573115807, 8983539.347598509863019 ], [ 775481.348285045824014, 8983539.283151358366013 ], [ 775481.261622810503468, 8983539.219474844634533 ], [ 775437.236822943901643, 8983553.561917636543512 ], [ 775345.420770560042001, 8983465.707895850762725 ], [ 775314.330661044805311, 8983421.604887088760734 ] ] ] ] } },
{ "type": "Feature", "properties": { "LAYER": "pemukiman", "GM_TYPE": "Unknown Area Type", "ELEVATION": 0 }, "geometry": { "type": "MultiPolygon", "coordinates": [ [ [ [ 773205.441187729593366, 8984030.711230343207717 ], [ 773311.025509994593449, 8983982.291771458461881 ], [ 773421.802517386851832, 8983930.413757037371397 ], [ 773448.368580852285959, 8983905.347104610875249 ], [ 773267.50163516914472, 8983958.465885356068611 ], [ 773067.980087403673679, 8984063.807563999667764 ], [ 772962.97801924101077, 8984138.219278696924448 ], [ 772948.922605741885491, 8984152.27620156109333 ], [ 772991.646766580175608, 8984182.475611431524158 ], [ 773046.199244247050956, 8984143.113559458404779 ], [ 773129.281981415930204, 8984084.318504484370351 ], [ 773205.441187729593366, 8984030.711230343207717 ] ] ] ] } },
{ "type": "Feature", "properties": { "LAYER": "pemukiman", "GM_TYPE": "Unknown Area Type", "ELEVATION": 0 }, "geometry": { "type": "MultiPolygon", "coordinates": [ [ [ [ 774378.672021198552102, 8983601.15916745364666 ], [ 774608.219578310614452, 8983440.080596536397934 ], [ 774599.034748633159325, 8983418.669430050998926 ], [ 774581.121424603508785, 8983432.170944521203637 ], [ 774438.616786501253955, 8983520.168784238398075 ], [ 774375.363648021710105, 8983597.553416965529323 ], [ 774378.672021198552102, 8983601.15916745364666 ] ] ] ] } },
{ "type": "Feature", "properties": { "LAYER": "pemukiman", "GM_TYPE": "Unknown Area Type", "ELEVATION": 0 }, "geometry": { "type": "MultiPolygon", "coordinates": [ [ [ [ 774987.813144545652904, 8983435.268168982118368 ], [ 775256.207109310897067, 8983513.832101918756962 ], [ 775342.834403873421252, 8983576.817393517121673 ], [ 775388.095821016002446, 8983615.576514594256878 ], [ 775464.393707974464633, 8983603.948768571019173 ], [ 775560.089310392388143, 8983565.189647493883967 ], [ 775578.193877252633683, 8983545.810086956247687 ], [ 775564.193346922751516, 8983528.664240408688784 ], [ 775489.134900182951242, 8983571.261375503614545 ], [ 775405.941608289489523, 8983579.902145268395543 ], [ 775352.895080430549569, 8983525.96784421056509 ], [ 775295.185211028438061, 8983479.846381751820445 ], [ 775121.622591662453488, 8983435.574749337509274 ], [ 775023.980540481046773, 8983390.670389156788588 ], [ 775015.656197275035083, 8983390.655703581869602 ], [ 775015.2168760439381, 8983390.65597628057003 ], [ 775014.77756111137569, 8983390.658344442024827 ], [ 775014.338262471486814, 8983390.662808010354638 ], [ 775013.898990119807422, 8983390.669366886839271 ], [ 775013.459754048497416, 8983390.678020918741822 ], [ 775013.020564252277836, 8983390.688769914209843 ], [ 775012.581430721795186, 8983390.701613621786237 ], [ 775012.142363448278047, 8983390.716551754623652 ], [ 775011.7033724214416, 8983390.733583971858025 ], [ 775011.264467628090642, 8983390.752709886059165 ], [ 775010.825659054098651, 8983390.773929061368108 ], [ 775010.386956682195887, 8983390.797241015359759 ], [ 775009.948370493133552, 8983390.822645215317607 ], [ 775009.509910466498695, 8983390.850141087546945 ], [ 775009.071586576174013, 8983390.879728002473712 ], [ 775008.633408795110881, 8983390.911405289545655 ], [ 775008.195387092302553, 8983390.945172227919102 ], [ 775007.757531433366239, 8983390.98102805018425 ], [ 775007.319851779262535, 8983391.018971938639879 ], [ 775006.88235808769241, 8983391.059003029018641 ], [ 775006.445060312398709, 8983391.101120412349701 ], [ 775006.007968402584083, 8983391.145323131233454 ], [ 775005.571092301048338, 8983391.191610177978873 ], [ 775005.134441949310713, 8983391.239980502054095 ], [ 775004.698027279577218, 8983391.290432998910546 ], [ 775004.261858221958391, 8983391.34296652674675 ], [ 775003.825944699696265, 8983391.39757988601923 ], [ 775003.390296629164368, 8983391.454271834343672 ], [ 775002.954923922312446, 8983391.513041082769632 ], [ 775002.519836484803818, 8983391.573886293917894 ], [ 775002.085044214152731, 8983391.636806083843112 ], [ 775001.650557003682479, 8983391.701799022033811 ], [ 775001.216384737403132, 8983391.768863627687097 ], [ 775000.782537293154746, 8983391.837998377159238 ], [ 775000.349024541443214, 8983391.909201694652438 ], [ 774999.915856345905922, 8983391.982471963390708 ], [ 774999.483042560634203, 8983392.057807516306639 ], [ 774999.050593032035977, 8983392.135206636041403 ], [ 774998.618517600465566, 8983392.214667566120625 ], [ 774998.18682609393727, 8983392.296188494190574 ], [ 774997.755528336041607, 8983392.379767570644617 ], [ 774997.324634137446992, 8983392.465402889996767 ], [ 774996.894153301953338, 8983392.553092505782843 ], [ 774996.464095623930916, 8983392.642834421247244 ], [ 774996.034470886341296, 8983392.734626596793532 ], [ 774995.605288864811882, 8983392.828466942533851 ], [ 774995.176559322630055, 8983392.924353323876858 ], [ 774994.748292014817707, 8983393.022283559665084 ], [ 774994.320496684173122, 8983393.122255422174931 ], [ 774993.893183063599281, 8983393.224266637116671 ], [ 774993.46636087493971, 8983393.328314883634448 ], [ 774993.040039828745648, 8983393.434397792443633 ], [ 774992.614229623693973, 8983393.542512951418757 ], [ 774992.188939947984181, 8983393.652657901868224 ], [ 774991.764180477359332, 8983393.764830138534307 ], [ 774991.339960875222459, 8983393.879027105867863 ], [ 774990.916290793451481, 8983393.995246209204197 ], [ 774990.493179869838059, 8983394.113484801724553 ], [ 774990.070637732278556, 8983394.233740195631981 ], [ 774989.648673992254771, 8983394.356009654700756 ], [ 774989.227298250189051, 8983394.480290394276381 ], [ 774988.806520093581639, 8983394.606579590588808 ], [ 774988.386349095613696, 8983394.734874371439219 ], [ 774987.966794813866727, 8983394.865171812474728 ], [ 774987.5478667949792, 8983394.997468952089548 ], [ 774987.129574570688419, 8983395.131762783974409 ], [ 774986.711927655502222, 8983395.268050245940685 ], [ 774986.294935552403331, 8983395.406328242272139 ], [ 774985.878607748891227, 8983395.546593626961112 ], [ 774985.462953715352342, 8983395.68884320743382 ], [ 774985.04798290960025, 8983395.833073746412992 ], [ 774984.633704771986231, 8983395.979281963780522 ], [ 774984.2201287279604, 8983396.127464534714818 ], [ 774983.807264186441898, 8983396.277618084102869 ], [ 774983.39512054133229, 8983396.429739201441407 ], [ 774982.983707168255933, 8983396.58382442034781 ], [ 774982.573033427353948, 8983396.739870235323906 ], [ 774982.163108661654405, 8983396.897873099893332 ], [ 774981.75394219905138, 8983397.057829417288303 ], [ 774981.345543345902115, 8983397.2197355479002 ], [ 774980.937921395525336, 8983397.383587811142206 ], [ 774980.531085620867088, 8983397.549382474273443 ], [ 774980.125045278342441, 8983397.717115771025419 ], [ 774979.719809605623595, 8983397.886783881112933 ], [ 774979.315387821290642, 8983398.058382945135236 ], [ 774978.911789127043448, 8983398.231909058988094 ], [ 774978.509022706188262, 8983398.407358277589083 ], [ 774978.107097720378079, 8983398.584726607427001 ], [ 774977.706023314036429, 8983398.764010010287166 ], [ 774977.305808612261899, 8983398.94520441070199 ], [ 774976.906462720711716, 8983399.128305686637759 ], [ 774976.50799472455401, 8983399.313309671357274 ], [ 774976.110413688817061, 8983399.500212155282497 ], [ 774975.713728658971377, 8983399.689008884131908 ], [ 774975.317948660929687, 8983399.879695568233728 ], [ 774974.923082698602229, 8983400.07226786762476 ], [ 774974.529139754595235, 8983400.266721395775676 ], [ 774974.136128792539239, 8983400.463051734492183 ], [ 774973.744058753596619, 8983400.661254415288568 ], [ 774973.352938557276502, 8983400.861324928700924 ], [ 774972.962777103064582, 8983401.063258726149797 ], [ 774972.57358326530084, 8983401.267051205039024 ], [ 774972.185365901212208, 8983401.472697738558054 ], [ 774971.798133841250092, 8983401.680193642154336 ], [ 774971.411895895493217, 8983401.889534195885062 ], [ 774971.026660851202905, 8983402.100714636966586 ], [ 774970.642437473754399, 8983402.313730163499713 ], [ 774970.259234503726475, 8983402.528575927019119 ], [ 774969.877060659811832, 8983402.745247039943933 ], [ 774969.49592463648878, 8983402.963738573715091 ], [ 774969.115835105418228, 8983403.184045555070043 ], [ 774968.736800713115372, 8983403.406162973493338 ], [ 774968.358830083860084, 8983403.630085777491331 ], [ 774967.981931816670112, 8983403.85580886900425 ], [ 774967.606114485068247, 8983404.083327114582062 ], [ 774967.231386641040444, 8983404.312635337933898 ], [ 774966.857756809564307, 8983404.543728321790695 ], [ 774966.485233489889652, 8983404.776600806042552 ], [ 774966.113825158216059, 8983405.011247497051954 ], [ 774965.743540265131742, 8983405.247663056477904 ], [ 774965.374387233518064, 8983405.485842101275921 ], [ 774965.006374462042004, 8983405.725779213011265 ], [ 774964.639510324923322, 8983405.967468939721584 ], [ 774964.27380316669587, 8983406.210905773565173 ], [ 774963.909261309076101, 8983406.456084182485938 ], [ 774963.545893044793047, 8983406.702998585999012 ], [ 774963.183706641080789, 8983406.95164336822927 ], [ 774962.822710338630714, 8983407.202012870460749 ], [ 774962.462912349030375, 8983407.454101396724582 ], [ 774962.104320858954452, 8983407.707903211936355 ], [ 774961.746944026555866, 8983407.963412541896105 ], [ 774961.390789982746355, 8983408.220623575150967 ], [ 774961.035866829683073, 8983408.479530457407236 ], [ 774960.682182643329725, 8983408.740127300843596 ], [ 774960.329745468916371, 8983409.002408172935247 ], [ 774959.978563326061703, 8983409.266367111355066 ], [ 774959.628644203185104, 8983409.531998107209802 ], [ 774959.279996062279679, 8983409.799295118078589 ], [ 774958.932626834954135, 8983410.068252062425017 ], [ 774958.586544423713349, 8983410.33886282145977 ], [ 774958.241756703821011, 8983410.611121241003275 ], [ 774957.898271517362446, 8983410.88502112030983 ], [ 774957.556096681277268, 8983411.160556236281991 ], [ 774957.215239978395402, 8983411.437720315530896 ], [ 774956.875709163956344, 8983411.71650705114007 ], [ 774956.53751196374651, 8983411.996910104528069 ], [ 774956.20065607118886, 8983412.278923092409968 ], [ 774955.865149149671197, 8983412.562539601698518 ], [ 774955.530998832546175, 8983412.847753176465631 ], [ 774955.198212722898461, 8983413.134557332843542 ], [ 774954.866798390867189, 8983413.422945540398359 ], [ 774954.536763376905583, 8983413.712911242619157 ], [ 774954.208115189685486, 8983414.004447838291526 ], [ 774953.880861305398867, 8983414.297548696398735 ], [ 774953.555009170435369, 8983414.592207150533795 ], [ 774953.230566198355518, 8983414.888416497036815 ], [ 774952.907539769192226, 8983415.186169991269708 ], [ 774952.585937234107405, 8983415.485460868105292 ], [ 774952.265765907359309, 8983415.786282308399677 ], [ 774951.947033075266518, 8983416.088627476245165 ], [ 774951.629745988524519, 8983416.392489489167929 ], [ 774951.313911865348928, 8983416.69786143489182 ], [ 774950.999537891359068, 8983417.004736363887787 ], [ 774950.68663121922873, 8983417.313107296824455 ], [ 774950.375198967987671, 8983417.622967218980193 ], [ 774950.065248222905211, 8983417.934309080243111 ], [ 774949.75678603479173, 8983418.247125793248415 ], [ 774949.449819422792643, 8983418.561410246416926 ], [ 774949.144355369964615, 8983418.877155287191272 ], [ 774948.840400825254619, 8983419.194353731349111 ], [ 774948.537962705129758, 8983419.512998363003135 ], [ 774948.237047889502719, 8983419.833081934601068 ], [ 774947.937663225340657, 8983420.154597161337733 ], [ 774947.639815523289144, 8983420.477536730468273 ], [ 774947.343511559185572, 8983420.801893290132284 ], [ 774947.04875807533972, 8983421.127659467980266 ], [ 774946.755561776342802, 8983421.454827846959233 ], [ 774946.463929333956912, 8983421.783390987664461 ], [ 774946.173867382458411, 8983422.113341411575675 ], [ 774945.885382521199062, 8983422.444671614095569 ], [ 774864.920734650688246, 8983424.620699008926749 ], [ 774783.442315846215934, 8983407.774079233407974 ], [ 774760.447605095454492, 8983433.560254311189055 ], [ 774987.813144545652904, 8983435.268168982118368 ] ] ] ] } },
{ "type": "Feature", "properties": { "LAYER": "pemukiman", "GM_TYPE": "Unknown Area Type", "ELEVATION": 0 }, "geometry": { "type": "MultiPolygon", "coordinates": [ [ [ [ 775693.305159502080642, 8983381.480806075036526 ], [ 775994.227580606704578, 8983476.021726185455918 ], [ 776002.085479063098319, 8983441.130598317831755 ], [ 775970.19700034125708, 8983431.753191072493792 ], [ 775814.404429917107336, 8983402.860464850440621 ], [ 775688.383459140197374, 8983369.058700500056148 ], [ 775693.305159502080642, 8983381.480806075036526 ] ] ] ] } },
{ "type": "Feature", "properties": { "LAYER": "pemukiman", "GM_TYPE": "Unknown Area Type", "ELEVATION": 0 }, "geometry": { "type": "MultiPolygon", "coordinates": [ [ [ [ 776493.483525965595618, 8983444.293403077870607 ], [ 776597.618606129079126, 8983398.219703029841185 ], [ 776619.807664828142151, 8983374.665951818227768 ], [ 776591.342919571325183, 8983365.772149138152599 ], [ 776496.126994334510528, 8983407.862488139420748 ], [ 776413.899102589464746, 8983422.487670660018921 ], [ 776365.580368512077257, 8983461.505865927785635 ], [ 776367.752869812771678, 8983461.328333046287298 ], [ 776426.539534977520816, 8983441.320898294448853 ], [ 776493.483525965595618, 8983444.293403077870607 ] ] ] ] } }
]
}
