{
"type": "FeatureCollection",
"name": "09_oe_li_sungaialur",
"crs": { "type": "name", "properties": { "name": "urn:ogc:def:crs:EPSG::32751" } },
"features": [
{ "type": "Feature", "properties": { "LAYER": "08.Sungai_alur", "GM_TYPE": "Unknown Line Type", "ELEVATION": 0 }, "geometry": { "type": "MultiLineString", "coordinates": [ [ [ 775869.615834722993895, 8981881.541394090279937 ], [ 775838.153341298107989, 8981874.503405470401049 ], [ 775819.657529256888665, 8981836.74858489073813 ], [ 775808.840498082106933, 8981811.890974801033735 ], [ 775783.596392065868713, 8981775.101401150226593 ], [ 775769.840779484016821, 8981766.82652679271996 ], [ 775752.319224664010108, 8981739.88777581974864 ], [ 775742.755463414127007, 8981712.389737419784069 ], [ 775738.739903210895136, 8981703.510466560721397 ], [ 775648.564167246106081, 8981716.639956200495362 ], [ 775618.036696397000924, 8981717.385695330798626 ], [ 775509.882664729957469, 8981730.777468511834741 ], [ 775429.936274410923943, 8981742.906877309083939 ], [ 775370.178256030892953, 8981750.13147901929915 ], [ 775287.01788920420222, 8981719.660371530801058 ], [ 775283.647737704217434, 8981698.534665817394853 ], [ 775262.236117680440657, 8981634.758819611743093 ], [ 775248.228634040919133, 8981635.460566269233823 ], [ 775241.744477999978699, 8981635.269920460879803 ], [ 775235.803017935017124, 8981633.88272025808692 ], [ 775232.389056965010241, 8981629.75785063020885 ], [ 775204.887586134951562, 8981613.970340820029378 ], [ 775121.679573927074671, 8981561.469305729493499 ], [ 775097.888196405139752, 8981552.397993659600616 ], [ 775079.362745353137143, 8981545.637778092175722 ], [ 775057.623501896043308, 8981536.252804879099131 ], [ 775004.092151322052814, 8981513.275362230837345 ], [ 774966.543287213076837, 8981491.519866390153766 ], [ 774945.974280262948014, 8981456.890972789376974 ], [ 774914.153787047951482, 8981428.494076587259769 ], [ 774886.184432312962599, 8981414.513963729143143 ], [ 774881.434655064134859, 8981405.301155060529709 ], [ 774866.423656149068847, 8981378.087638160213828 ], [ 774853.242753075086512, 8981356.509219190105796 ], [ 774837.469392349128611, 8981324.259060569107533 ], [ 774815.83931378100533, 8981273.149062810465693 ], [ 774797.462441558018327, 8981218.699140179902315 ], [ 774783.588891592924483, 8981180.253823690116405 ], [ 774756.488840140053071, 8981100.953209530562162 ], [ 774729.665304185007699, 8981035.843363910913467 ], [ 774715.91254379588645, 8980999.910320250317454 ], [ 774704.828087615896948, 8980964.466832360252738 ], [ 774688.330938086379319, 8980932.560202723369002 ], [ 774660.06606353900861, 8980890.096396069973707 ], [ 774615.426850320771337, 8980842.445093249902129 ], [ 774584.692005137912929, 8980780.951133940368891 ], [ 774577.316948039107956, 8980761.678007220849395 ], [ 774564.099264641990885, 8980724.739138221368194 ], [ 774537.527858570101671, 8980657.151689149439335 ], [ 774527.408574254135601, 8980628.906376909464598 ], [ 774516.235874839127064, 8980599.563324829563498 ], [ 774510.404723825049587, 8980571.74530553072691 ], [ 774502.252263900125399, 8980537.603574419394135 ], [ 774487.044258827110752, 8980487.81588906981051 ], [ 774474.707932749181055, 8980443.037355260923505 ], [ 774467.522757800994441, 8980419.266994370147586 ], [ 774460.747233889997005, 8980397.725628439337015 ], [ 774448.63587224110961, 8980358.996313169598579 ], [ 774438.030556375975721, 8980334.248864749446511 ], [ 774418.041697405977175, 8980304.410292852669954 ], [ 774401.872961720917374, 8980281.397974632680416 ], [ 774386.903387001017109, 8980258.372033959254622 ], [ 774378.773277685977519, 8980248.196699280291796 ], [ 774358.733914072974585, 8980221.677672490477562 ], [ 774353.709327535005286, 8980221.257272170856595 ], [ 774345.794662277912721, 8980221.758893700316548 ], [ 774323.066035633091815, 8980217.09921750985086 ], [ 774307.630119357956573, 8980215.70432822778821 ], [ 774265.824412383022718, 8980174.127849219366908 ], [ 774239.423691887990572, 8980107.425379499793053 ], [ 774238.516497047035955, 8980081.913197550922632 ], [ 774233.214343443047255, 8980040.277518240734935 ], [ 774226.546807372942567, 8980033.37960428930819 ], [ 774197.438752698013559, 8980027.474860740825534 ], [ 774182.795861536986195, 8979967.387885849922895 ], [ 774168.695571360993199, 8979945.824441889300942 ], [ 774153.633120106998831, 8979931.127356709912419 ], [ 774135.190541572985239, 8979934.353185780346394 ], [ 774094.659950330969878, 8979910.945248069241643 ], [ 774091.241614675964229, 8979884.970996150746942 ], [ 774069.885952912853099, 8979826.951917309314013 ], [ 774058.628342470969073, 8979785.145883772522211 ], [ 774026.470761064090766, 8979770.165635339915752 ], [ 774027.008750754990615, 8979759.1941471491009 ], [ 774029.283269054954872, 8979747.341512460261583 ], [ 774050.409483314026147, 8979727.829992251470685 ], [ 774054.304196164943278, 8979708.623232241719961 ] ] ] } },
{ "type": "Feature", "properties": { "LAYER": "08.Sungai_alur", "GM_TYPE": "Unknown Line Type", "ELEVATION": 0 }, "geometry": { "type": "MultiLineString", "coordinates": [ [ [ 778121.652918734122068, 8983500.843455966562033 ], [ 778086.853559525683522, 8983463.639434088021517 ], [ 778051.442105802823789, 8983428.24188825301826 ], [ 777998.939610987552442, 8983417.444685431197286 ], [ 777983.780514684622176, 8983370.299292497336864 ], [ 777969.585953979752958, 8983322.928250385448337 ], [ 777965.293348596431315, 8983296.625506503507495 ], [ 777955.7293400374474, 8983273.237292483448982 ], [ 777922.798642392270267, 8983234.61257447488606 ], [ 777900.090526349027641, 8983191.621099658310413 ], [ 777875.594185458146967, 8983147.898051412776113 ], [ 777871.024452644283883, 8983139.017830338329077 ], [ 777871.880561995436437, 8983127.489583592861891 ], [ 777855.221141409128904, 8983113.022127494215965 ], [ 777843.847288291552104, 8983104.54217779263854 ], [ 777836.084517414681613, 8983090.629352724179626 ], [ 777830.396396229043603, 8983089.94479307718575 ], [ 777824.309273853083141, 8983090.265521463006735 ], [ 777816.092692568548955, 8983080.931618815287948 ], [ 777815.537975860293955, 8983076.580504888668656 ], [ 777811.144333415664732, 8983066.112001854926348 ], [ 777776.042188819032162, 8983040.587854024022818 ], [ 777773.029794852249324, 8983033.465654205530882 ], [ 777754.410734478384256, 8982992.013413023203611 ], [ 777750.234577852417715, 8982986.688882477581501 ], [ 777741.630053766653873, 8982943.472615076228976 ], [ 777726.033836060203612, 8982892.786345465108752 ], [ 777721.746767187374644, 8982885.675111899152398 ], [ 777700.079393403255381, 8982850.848175937309861 ], [ 777670.608009049668908, 8982816.16614143550396 ], [ 777625.676119720214047, 8982771.219986068084836 ], [ 777596.913556498358957, 8982727.765186151489615 ], [ 777574.221387755591422, 8982681.441840905696154 ], [ 777468.765052326954901, 8982615.21292812936008 ], [ 777389.524655121029355, 8982503.12372911721468 ], [ 777359.712435384048149, 8982448.679457230493426 ], [ 777319.268359137931839, 8982343.763503398746252 ], [ 777316.937890256871469, 8982292.851808460429311 ], [ 777354.579407521989197, 8982268.149631280452013 ], [ 777371.517236242070794, 8982210.847824340686202 ], [ 777366.216157414019108, 8982102.897359309718013 ], [ 777344.830222873133607, 8982028.702171970158815 ], [ 777572.348936960916035, 8981799.255933089181781 ], [ 777595.180323997046798, 8981681.160178640857339 ], [ 777675.220178637071513, 8981550.85905921086669 ], [ 777574.948001745855436, 8981281.604255028069019 ], [ 777575.19422190298792, 8981221.902425311505795 ], [ 777518.437998024979606, 8980851.215632060542703 ], [ 777521.654486920917407, 8980747.660252802073956 ], [ 777735.149186149123125, 8980650.5250588003546 ] ] ] } },
{ "type": "Feature", "properties": { "LAYER": "08.Sungai_alur", "GM_TYPE": "Unknown Line Type", "ELEVATION": 0 }, "geometry": { "type": "MultiLineString", "coordinates": [ [ [ 776186.224212155910209, 8981843.463020039722323 ], [ 776177.236758830142207, 8981854.759428810328245 ], [ 776208.156909224228002, 8981932.750862559303641 ], [ 776221.539281168370508, 8981962.079216176643968 ], [ 776235.986693185055628, 8981999.607087759301066 ], [ 776249.926879012142308, 8982038.176971120759845 ], [ 776263.674885005922988, 8982087.26802165992558 ], [ 776273.899250137037598, 8982101.743181139230728 ], [ 776307.787002817960456, 8982184.308109570294619 ], [ 776315.804266561986879, 8982203.32602721080184 ], [ 776325.829041954013519, 8982225.574768539518118 ], [ 776379.515898065990768, 8982342.296806439757347 ], [ 776394.213650834397413, 8982369.839401327073574 ], [ 776401.537309858715162, 8982381.812376717105508 ], [ 776403.090824927552603, 8982389.350908851251006 ], [ 776403.756612111697905, 8982395.780830172821879 ], [ 776405.753973663668148, 8982402.875921037048101 ], [ 776419.814580744248815, 8982423.734980549663305 ] ] ] } },
{ "type": "Feature", "properties": { "LAYER": "08.Sungai_alur", "GM_TYPE": "Unknown Line Type", "ELEVATION": 0 }, "geometry": { "type": "MultiLineString", "coordinates": [ [ [ 775728.22545686759986, 8983551.901574339717627 ], [ 775714.440088153933175, 8983538.129133839160204 ], [ 775702.048936294508167, 8983517.496587231755257 ], [ 775681.397027598461136, 8983480.358012607321143 ], [ 775640.093176997383125, 8983418.460372783243656 ], [ 775621.506432603811845, 8983368.942257832735777 ], [ 775620.845109788468108, 8983355.023946525529027 ], [ 775620.144799678586423, 8983332.285041622817516 ], [ 775619.094334513531066, 8983308.496665680781007 ], [ 775622.15779273759108, 8983272.562329139560461 ], [ 775621.66460678121075, 8983242.999228164553642 ], [ 775617.225966384750791, 8983206.538062568753958 ], [ 775616.239594472455792, 8983175.496818132698536 ], [ 775614.484203155036084, 8983132.577832715585828 ], [ 775612.846205437439494, 8983107.48551700823009 ], [ 775613.938214985420927, 8983088.939011365175247 ], [ 775614.484203155036084, 8983069.301534805446863 ], [ 775615.030191324418411, 8983049.664073694497347 ], [ 775618.852174928761087, 8983034.935974 ], [ 775622.128170363721438, 8983021.298829773440957 ], [ 775623.220179911586456, 8983006.570730078965425 ], [ 775631.956123459385708, 8982988.5697176232934 ], [ 775641.784076555049978, 8982968.386763328686357 ], [ 775655.434013255056925, 8982952.567692710086703 ], [ 775663.097241648705676, 8982942.863426731899381 ], [ 775668.619124433025718, 8982938.26308953948319 ], [ 775674.291908637387678, 8982936.531945146620274 ], [ 775677.791433442151174, 8982934.475321814417839 ], [ 775680.673404813162051, 8982926.660196410492063 ], [ 775682.937789542018436, 8982921.10733967833221 ], [ 775684.790483051445335, 8982913.909181190654635 ], [ 775690.210646855062805, 8982893.118839252740145 ], [ 775696.699241859954782, 8982873.208245288580656 ], [ 775730.532708377344534, 8982855.149788102135062 ], [ 775756.023657650104724, 8982849.13031267374754 ], [ 775787.076274016289972, 8982842.184753406792879 ], [ 775803.761275297147222, 8982834.776159945875406 ], [ 775807.876726297428831, 8982831.637851405888796 ], [ 775812.355914808576927, 8982827.24135185033083 ], [ 775817.699532007449307, 8982824.258011208847165 ], [ 775824.614795463276096, 8982816.328614363446832 ], [ 775844.593957468750887, 8982801.401173109188676 ], [ 775859.853996377438307, 8982793.468454418703914 ], [ 775875.858413658221252, 8982782.560954630374908 ], [ 775903.016418469953351, 8982764.322036322206259 ], [ 775924.66924459382426, 8982748.784395445138216 ], [ 775986.317157024517655, 8982709.11817541718483 ], [ 776010.692352357553318, 8982693.463126657530665 ], [ 776027.135891441488639, 8982678.967710567638278 ], [ 776037.195510097080842, 8982671.236805506050587 ], [ 776088.680059146136045, 8982639.589656669646502 ], [ 776102.960633601760492, 8982629.264731120318174 ], [ 776135.18373223929666, 8982613.018332274630666 ], [ 776152.78307524335105, 8982603.764230271801353 ], [ 776167.868202669196762, 8982595.038919532671571 ], [ 776198.703665781999007, 8982571.043631313368678 ], [ 776218.69949867518153, 8982554.330799177289009 ], [ 776253.02150189736858, 8982530.100324381142855 ], [ 776296.646823393646628, 8982505.457678236067295 ], [ 776373.428381510311738, 8982457.279842484742403 ], [ 776424.041527994442731, 8982420.67820150218904 ], [ 776453.426856359001249, 8982404.189586130902171 ], [ 776487.033505821600556, 8982384.787744207307696 ], [ 776506.02656158641912, 8982375.158505557104945 ], [ 776524.467087020748295, 8982369.596301309764385 ], [ 776532.541940215742216, 8982364.074067348614335 ], [ 776540.601782970130444, 8982355.915138784796 ], [ 776546.678055785712786, 8982349.512585181742907 ], [ 776549.909219152643345, 8982344.664361149072647 ], [ 776554.78522127866745, 8982340.308171790093184 ], [ 776559.801896470831707, 8982336.092519618570805 ], [ 776568.19256667769514, 8982328.369417026638985 ], [ 776574.027078415849246, 8982322.309059739112854 ], [ 776584.320620839251205, 8982309.942482331767678 ], [ 776591.86672130424995, 8982304.094043258577585 ], [ 776622.738315742695704, 8982287.343960113823414 ], [ 776635.654633766738698, 8982280.573516119271517 ], [ 776645.112373608164489, 8982273.867871260270476 ], [ 776648.976798236835748, 8982270.413446746766567 ], [ 776654.366708697052673, 8982263.910990608856082 ], [ 776658.940310222445987, 8982251.198060719296336 ], [ 776659.200070544844493, 8982225.511397536844015 ] ] ] } },
{ "type": "Feature", "properties": { "LAYER": "08.Sungai_alur", "GM_TYPE": "Unknown Line Type", "ELEVATION": 0 }, "geometry": { "type": "MultiLineString", "coordinates": [ [ [ 773367.779942562920041, 8982601.933140959590673 ], [ 773361.607102671987377, 8982635.560770640149713 ], [ 773364.047930693137459, 8982685.317947020754218 ] ] ] } },
{ "type": "Feature", "properties": { "LAYER": "08.Sungai_alur", "GM_TYPE": "Unknown Line Type", "ELEVATION": 0 }, "geometry": { "type": "MultiLineString", "coordinates": [ [ [ 773336.960011587943882, 8982198.837771460413933 ], [ 773364.253388420911506, 8982198.147678010165691 ], [ 773406.798501722980291, 8982196.993318280205131 ] ] ] } },
{ "type": "Feature", "properties": { "LAYER": "08.Sungai_alur", "GM_TYPE": "Unknown Line Type", "ELEVATION": 0 }, "geometry": { "type": "MultiLineString", "coordinates": [ [ [ 778353.810170118696988, 8983228.077477235347033 ], [ 778324.604546645190567, 8983225.794590376317501 ], [ 778316.633414945215918, 8983229.592870950698853 ], [ 778306.28716760315001, 8983233.838986938819289 ], [ 778270.435784306842834, 8983228.768033184111118 ], [ 778231.403325696475804, 8983213.480388592928648 ], [ 778227.063998793833889, 8983200.024705085903406 ], [ 778086.138667080085725, 8983190.692392120137811 ], [ 778058.375046797213145, 8983156.043532816693187 ], [ 777987.996264943038113, 8983147.999723415821791 ], [ 777951.244121591094881, 8983105.895076233893633 ], [ 777949.990753164514899, 8983095.179976869374514 ], [ 777946.527085756417364, 8983087.765723828226328 ], [ 777938.613579283002764, 8983072.163615748286247 ], [ 777931.315878073684871, 8983066.992257542908192 ], [ 777918.241276470944285, 8983011.002831868827343 ], [ 777911.624206091160886, 8983003.308711491525173 ], [ 777912.560106815770268, 8982989.61511392891407 ], [ 777912.883952387142926, 8982957.924027627333999 ], [ 777915.758450147695839, 8982938.612846806645393 ], [ 777922.258734841831028, 8982883.760901302099228 ], [ 777938.846106247627176, 8982861.96929776109755 ], [ 777975.599689193535596, 8982824.739912400022149 ], [ 778130.041004255763255, 8982535.725433578714728 ], [ 778133.573402649490163, 8982510.203260809183121 ], [ 778103.761182912625372, 8982455.758988920599222 ], [ 778063.317106666509062, 8982350.843035090714693 ], [ 778060.986637785448693, 8982299.931340150535107 ], [ 778098.628155050450005, 8982275.229162970557809 ], [ 778115.565983770648018, 8982217.927356030791998 ], [ 778110.264904942596331, 8982109.976891001686454 ], [ 778088.878970401594415, 8982035.781703660264611 ], [ 778316.397684489493258, 8981806.335464779287577 ], [ 778339.229071525740437, 8981688.239710330963135 ], [ 778419.268926165648736, 8981557.938590900972486 ], [ 778318.996749274549074, 8981288.68378672003746 ], [ 778319.242969431565143, 8981228.981956999748945 ], [ 778262.48674555355683, 8980858.295163752511144 ], [ 778265.70323444949463, 8980754.739784492179751 ], [ 778415.70009167958051, 8980592.377138391137123 ] ] ] } },
{ "type": "Feature", "properties": { "LAYER": "08.Sungai_alur", "GM_TYPE": "Unknown Line Type", "ELEVATION": 0 }, "geometry": { "type": "MultiLineString", "coordinates": [ [ [ 770774.91439878474921, 8981663.012132983654737 ], [ 770786.723536954028532, 8981656.360450487583876 ], [ 770770.192157369689085, 8981598.388760564848781 ], [ 770762.397624489269219, 8981558.367937203496695 ], [ 770764.529750425950624, 8981517.661276606842875 ], [ 770773.30912617535796, 8981446.26470392383635 ], [ 770768.325566665502265, 8981384.092975499108434 ], [ 770776.041075331275351, 8981332.323350828140974 ], [ 770773.337566528236493, 8981296.191475676372647 ], [ 770786.897713032318279, 8981258.894154045730829 ], [ 770833.130808939575218, 8981226.493796397000551 ], [ 770911.587615828262642, 8981178.664446925744414 ], [ 770895.620653142803349, 8981085.119115697219968 ], [ 770907.803092465386726, 8980996.904284624382854 ], [ 770905.635849201353267, 8980948.502481043338776 ], [ 770898.168544123414904, 8980855.784788768738508 ], [ 770927.325621517142281, 8980800.852215180173516 ], [ 770869.282803259557113, 8980744.159618383273482 ], [ 770843.993974230717868, 8980676.120173769071698 ], [ 770855.628565372433513, 8980620.120122961699963 ], [ 770834.341805992648005, 8980556.941684057936072 ], [ 770829.843226763070561, 8980462.661268834024668 ], [ 770823.710870644310489, 8980440.606797277927399 ], [ 770820.483827318414114, 8980400.77764824219048 ], [ 770914.274803917389363, 8980285.575862217694521 ], [ 770981.523895159712993, 8980290.507127899676561 ], [ 771021.417331930948421, 8980265.499729292467237 ], [ 771011.45084142300766, 8980233.504177032038569 ], [ 770931.683100211434066, 8980116.648906907066703 ], [ 770977.270049740443937, 8980080.233483843505383 ], [ 771036.61456117965281, 8980076.585418125614524 ], [ 771113.313308942946605, 8980059.340405559167266 ], [ 771159.288085717591457, 8980026.728073872625828 ], [ 771170.182787960395217, 8980001.716597989201546 ], [ 771150.695743300952017, 8979945.174108704552054 ], [ 771190.493948214221746, 8979873.849851800128818 ], [ 771215.883875156752765, 8979843.209582159295678 ], [ 771247.669789019506425, 8979812.250980572775006 ], [ 771267.356610355549492, 8979809.618015956133604 ], [ 771367.295085562742315, 8979624.30213007889688 ], [ 771374.24824296485167, 8979579.382731430232525 ], [ 771409.156929246266373, 8979495.492738479748368 ], [ 771425.338559528114274, 8979427.647454626858234 ], [ 771428.334903863957152, 8979421.518100468441844 ], [ 771425.231297963648103, 8979405.529209619387984 ], [ 771507.827496506157331, 8979356.864979766309261 ], [ 771517.036751281819306, 8979358.05363941192627 ], [ 771552.132641748641618, 8979381.013445612043142 ], [ 771608.780400897841901, 8979375.206773389130831 ], [ 771660.232006797916256, 8979375.835464708507061 ], [ 771690.62302564654965, 8979389.571029709652066 ], [ 771720.556774357217364, 8979389.317879093810916 ], [ 771738.855255526257679, 8979392.253832194954157 ], [ 771795.446572336251847, 8979397.892190624028444 ], [ 771848.902765322709456, 8979440.644435541704297 ], [ 771873.755889107822441, 8979455.252896981313825 ], [ 771932.720993221388198, 8979461.691591501235962 ], [ 771997.749079084955156, 8979489.650513699278235 ], [ 772076.778481640852988, 8979518.364857491105795 ], [ 772105.913761517847888, 8979530.214945068582892 ], [ 772121.176536382525228, 8979535.821473706513643 ], [ 772153.205315114348195, 8979546.494529778137803 ], [ 772173.99324239755515, 8979539.932384897023439 ], [ 772225.510776062728837, 8979525.394017742946744 ], [ 772266.710908952401951, 8979540.04783071577549 ], [ 772305.744203837355599, 8979533.763375330716372 ], [ 772321.112905552843586, 8979528.85268366150558 ], [ 772359.798770949942991, 8979530.25121970102191 ], [ 772385.328832521219738, 8979536.662529978901148 ], [ 772392.420761114917696, 8979538.280924387276173 ], [ 772460.529671179247089, 8979463.426768492907286 ], [ 772493.911275187856518, 8979434.727671135216951 ], [ 772514.287600013311021, 8979432.038854103535414 ], [ 772537.686255182605237, 8979401.595885185524821 ], [ 772584.344869668828323, 8979392.622321825474501 ] ] ] } },
{ "type": "Feature", "properties": { "LAYER": "08.Sungai_alur", "GM_TYPE": "Unknown Line Type", "ELEVATION": 0 }, "geometry": { "type": "MultiLineString", "coordinates": [ [ [ 770784.729757823515683, 8981680.437939334660769 ], [ 770810.282488733995706, 8981666.044962432235479 ], [ 770789.65986920229625, 8981593.726248873397708 ], [ 770782.498873488861136, 8981556.95830537751317 ], [ 770784.465731560019776, 8981519.406947573646903 ], [ 770793.407407346530817, 8981446.69050127454102 ], [ 770788.444536908646114, 8981384.776876600459218 ], [ 770796.152128916815855, 8981333.060371229425073 ], [ 770793.602536460035481, 8981298.985558446496725 ], [ 770803.539490981725976, 8981271.653863418847322 ], [ 770844.086264198529534, 8981243.238505804911256 ], [ 770933.585902277613059, 8981188.677153674885631 ], [ 770915.854937855270691, 8981084.797100063413382 ], [ 770927.864699970581569, 8980997.832649996504188 ], [ 770925.599896062747575, 8980947.251990355551243 ], [ 770918.572930826572701, 8980860.001771751791239 ], [ 770952.010158001095988, 8980797.005302058532834 ], [ 770886.466836096486077, 8980732.986682137474418 ], [ 770864.747232587076724, 8980674.550217624753714 ], [ 770876.314115971676074, 8980618.876060336828232 ], [ 770854.186058299150318, 8980553.200674299150705 ], [ 770849.713518947130069, 8980459.465998146682978 ], [ 770843.491351387347095, 8980437.088527761399746 ], [ 770841.067505907616578, 8980407.172690536826849 ], [ 770923.205209164647385, 8980306.284412603825331 ], [ 770986.595335466205142, 8980310.932706704363227 ], [ 771045.094626167207025, 8980274.26213632710278 ], [ 771029.65606898709666, 8980224.699538266286254 ], [ 770958.661242904840037, 8980120.696097111329436 ], [ 770984.810553411254659, 8980099.807702194899321 ], [ 771039.43976430024486, 8980096.449498597532511 ], [ 771121.613533151103184, 8980077.973477579653263 ], [ 771175.400656820624135, 8980039.819436587393284 ], [ 771191.629036729689687, 8980002.563188208267093 ], [ 771172.517788787255995, 8979947.111089093610644 ], [ 771207.06477806030307, 8979885.197785621508956 ], [ 771230.602825241512619, 8979856.792343022301793 ], [ 771256.882189088733867, 8979831.196968952193856 ], [ 771280.118216456263326, 8979828.089324664324522 ], [ 771386.532947017345577, 8979630.764520343393087 ], [ 771393.642785265343264, 8979584.832918329164386 ], [ 771428.238792587770149, 8979501.694332502782345 ], [ 771444.279099876293913, 8979434.441578475758433 ], [ 771449.244969092076644, 8979424.283343069255352 ], [ 771447.557196236448362, 8979415.58841953985393 ], [ 771511.164890834013931, 8979378.111882790923119 ], [ 771547.117716637556441, 8979401.632297907024622 ], [ 771609.680866192211397, 8979395.219269249588251 ], [ 771655.805901451967657, 8979395.782874770462513 ], [ 771686.393995073274709, 8979409.607509950175881 ], [ 771719.046550403232686, 8979409.331366304308176 ], [ 771736.277314875740558, 8979412.096006486564875 ], [ 771787.575876863556914, 8979417.207032274454832 ], [ 771837.531389157171361, 8979457.15956493653357 ], [ 771867.319889693753794, 8979474.669000180438161 ], [ 771927.572673374437727, 8979481.248302875086665 ], [ 771990.378126813448034, 8979508.251600958406925 ], [ 772069.593410065048374, 8979537.033482167869806 ], [ 772098.696022352320142, 8979548.870282972231507 ], [ 772114.565524721867405, 8979554.699682954698801 ], [ 772153.038269499666058, 8979567.520083183422685 ], [ 772179.720827714190818, 8979559.097174521535635 ], [ 772224.811188097577542, 8979546.372570538893342 ], [ 772264.833875931450166, 8979560.607597002759576 ], [ 772310.403448577271774, 8979553.270785007625818 ], [ 772323.876912025618367, 8979548.965670237317681 ], [ 772356.97080979985185, 8979550.162050580605865 ], [ 772380.667806533048861, 8979556.113027164712548 ], [ 772399.355251791188493, 8979560.37754513323307 ], [ 772474.497619514353573, 8979477.793364847078919 ], [ 772502.432997757801786, 8979453.776539903134108 ], [ 772525.104319386649877, 8979450.784879917278886 ], [ 772548.917693761643022, 8979419.802337933331728 ], [ 772588.122123149456456, 8979412.262391991913319 ] ] ] } },
{ "type": "Feature", "properties": { "LAYER": "08.Sungai_alur", "GM_TYPE": "Unknown Line Type", "ELEVATION": 0 }, "geometry": { "type": "MultiLineString", "coordinates": [ [ [ 774500.968258144101128, 8983410.898180890828371 ], [ 774510.420040207100101, 8983413.43509509973228 ], [ 774516.114763387944549, 8983415.301158489659429 ], [ 774520.622792907059193, 8983417.975994698703289 ], [ 774526.56423011503648, 8983419.101221829652786 ], [ 774536.446546867955476, 8983417.763774970546365 ], [ 774547.109045912045985, 8983416.132526990026236 ], [ 774557.14662996714469, 8983415.701096339151263 ], [ 774591.391047970042564, 8983380.889219619333744 ], [ 774629.239143262850121, 8983364.818463759496808 ], [ 774652.120048795943148, 8983352.105517009273171 ], [ 774674.477764553041197, 8983350.177366169169545 ], [ 774684.303425626014359, 8983356.815564680844545 ], [ 774696.270919585018419, 8983369.639444610103965 ], [ 774702.275988918961957, 8983384.283688370138407 ], [ 774705.069260525982827, 8983392.680826360359788 ], [ 774727.47488415800035, 8983420.206403369084001 ], [ 774744.053000872954726, 8983444.154787028208375 ], [ 774798.242090357933193, 8983531.743139179423451 ] ] ] } },
{ "type": "Feature", "properties": { "LAYER": "08.Sungai_alur", "GM_TYPE": "Unknown Line Type", "ELEVATION": 0 }, "geometry": { "type": "MultiLineString", "coordinates": [ [ [ 774520.622792907059193, 8983417.975994698703289 ], [ 774512.482322809053585, 8983423.484084410592914 ], [ 774505.216839695931412, 8983428.341346679255366 ] ] ] } }
]
}
