{
"type": "FeatureCollection",
"name": "09_oe_po_mnamabang",
"crs": { "type": "name", "properties": { "name": "urn:ogc:def:crs:EPSG::32751" } },
"features": [
{ "type": "Feature", "properties": { "NAME": "OB.1", "LAYER": "MNama Bang", "GM_TYPE": "Text", "ELEVATION": 67 }, "geometry": { "type": "Point", "coordinates": [ 777632.575637422967702, 8983061.03588648699224 ] } },
{ "type": "Feature", "properties": { "NAME": "OB.2", "LAYER": "MNama Bang", "GM_TYPE": "Text", "ELEVATION": 28 }, "geometry": { "type": "Point", "coordinates": [ 776907.382761491346173, 8983104.092476615682244 ] } },
{ "type": "Feature", "properties": { "NAME": "OB.3", "LAYER": "MNama Bang", "GM_TYPE": "Text", "ELEVATION": 25 }, "geometry": { "type": "Point", "coordinates": [ 775402.981723973876797, 8982876.609115209430456 ] } },
{ "type": "Feature", "properties": { "NAME": "OB.4", "LAYER": "MNama Bang", "GM_TYPE": "Text", "ELEVATION": 0 }, "geometry": { "type": "Point", "coordinates": [ 774538.148497145622969, 8983465.137621825560927 ] } },
{ "type": "Feature", "properties": { "NAME": "OB.6", "LAYER": "MNama Bang", "GM_TYPE": "Text", "ELEVATION": 0 }, "geometry": { "type": "Point", "coordinates": [ 773440.787988527445123, 8983136.00159970857203 ] } },
{ "type": "Feature", "properties": { "NAME": "OB.7", "LAYER": "MNama Bang", "GM_TYPE": "Text", "ELEVATION": 0 }, "geometry": { "type": "Point", "coordinates": [ 773701.894955643219873, 8982425.170137448236346 ] } },
{ "type": "Feature", "properties": { "NAME": "OB.8", "LAYER": "MNama Bang", "GM_TYPE": "Text", "ELEVATION": 0 }, "geometry": { "type": "Point", "coordinates": [ 773828.069480822887272, 8981050.564876481890678 ] } },
{ "type": "Feature", "properties": { "NAME": "Sp.I.1", "LAYER": "MNama Bang", "GM_TYPE": "Text", "ELEVATION": 0 }, "geometry": { "type": "Point", "coordinates": [ 775337.422446206095628, 8982198.073167122900486 ] } },
{ "type": "Feature", "properties": { "NAME": "Sp.I.2", "LAYER": "MNama Bang", "GM_TYPE": "Text", "ELEVATION": 0 }, "geometry": { "type": "Point", "coordinates": [ 775281.495958221727051, 8981607.612005241215229 ] } },
{ "type": "Feature", "properties": { "NAME": "Sp.I.4", "LAYER": "MNama Bang", "GM_TYPE": "Text", "ELEVATION": 0 }, "geometry": { "type": "Point", "coordinates": [ 775233.391941816196777, 8980628.453546207398176 ] } },
{ "type": "Feature", "properties": { "NAME": "Sp.I.5", "LAYER": "MNama Bang", "GM_TYPE": "Text", "ELEVATION": 0 }, "geometry": { "type": "Point", "coordinates": [ 775159.3777205463266, 8979884.028873693197966 ] } },
{ "type": "Feature", "properties": { "NAME": "Sp.I.3", "LAYER": "MNama Bang", "GM_TYPE": "Text", "ELEVATION": 0 }, "geometry": { "type": "Point", "coordinates": [ 775285.861035485984758, 8981392.421057429164648 ] } },
{ "type": "Feature", "properties": { "NAME": "Sp.II.2", "LAYER": "MNama Bang", "GM_TYPE": "Text", "ELEVATION": 0 }, "geometry": { "type": "Point", "coordinates": [ 776795.46209380030632, 8982086.712259992957115 ] } },
{ "type": "Feature", "properties": { "NAME": "Sp.II.3", "LAYER": "MNama Bang", "GM_TYPE": "Text", "ELEVATION": 0 }, "geometry": { "type": "Point", "coordinates": [ 776726.057083726162091, 8981538.725591188296676 ] } },
{ "type": "Feature", "properties": { "NAME": "Sp.II.4", "LAYER": "MNama Bang", "GM_TYPE": "Text", "ELEVATION": 0 }, "geometry": { "type": "Point", "coordinates": [ 776684.210606819251552, 8980712.689810568466783 ] } },
{ "type": "Feature", "properties": { "NAME": "Sp.II.1", "LAYER": "MNama Bang", "GM_TYPE": "Text", "ELEVATION": 0 }, "geometry": { "type": "Point", "coordinates": [ 777169.742334613227285, 8982490.951122626662254 ] } },
{ "type": "Feature", "properties": { "NAME": "OB.5", "LAYER": "MNama Bang", "GM_TYPE": "Text", "ELEVATION": 22 }, "geometry": { "type": "Point", "coordinates": [ 774149.049436678760685, 8983835.505741380155087 ] } },
{ "type": "Feature", "properties": { "NAME": "T.1", "LAYER": "MNama Bang", "GM_TYPE": "Text", "ELEVATION": 0 }, "geometry": { "type": "Point", "coordinates": [ 772173.651360434945673, 8982133.036756198853254 ] } },
{ "type": "Feature", "properties": { "NAME": "T.2", "LAYER": "MNama Bang", "GM_TYPE": "Text", "ELEVATION": 0 }, "geometry": { "type": "Point", "coordinates": [ 771931.292940645013005, 8981866.906677829101682 ] } },
{ "type": "Feature", "properties": { "NAME": "T.3", "LAYER": "MNama Bang", "GM_TYPE": "Text", "ELEVATION": 0 }, "geometry": { "type": "Point", "coordinates": [ 771775.147219563135877, 8981931.831465411931276 ] } },
{ "type": "Feature", "properties": { "NAME": "T.1", "LAYER": "MNama Bang", "GM_TYPE": "Text", "ELEVATION": 0 }, "geometry": { "type": "Point", "coordinates": [ 771126.06302399688866, 8981600.00462101213634 ] } },
{ "type": "Feature", "properties": { "NAME": "T.2", "LAYER": "MNama Bang", "GM_TYPE": "Text", "ELEVATION": 0 }, "geometry": { "type": "Point", "coordinates": [ 771117.665225598611869, 8981435.858931396156549 ] } },
{ "type": "Feature", "properties": { "NAME": "T.4", "LAYER": "MNama Bang", "GM_TYPE": "Text", "ELEVATION": 0 }, "geometry": { "type": "Point", "coordinates": [ 771058.076155634247698, 8980236.059515697881579 ] } },
{ "type": "Feature", "properties": { "NAME": "T.5", "LAYER": "MNama Bang", "GM_TYPE": "Text", "ELEVATION": 0 }, "geometry": { "type": "Point", "coordinates": [ 771211.744923445046879, 8979982.578830506652594 ] } },
{ "type": "Feature", "properties": { "NAME": "T.6", "LAYER": "MNama Bang", "GM_TYPE": "Text", "ELEVATION": 0 }, "geometry": { "type": "Point", "coordinates": [ 771309.633739979355596, 8979820.868862042203546 ] } },
{ "type": "Feature", "properties": { "NAME": "K.2", "LAYER": "MNama Bang", "GM_TYPE": "Text", "ELEVATION": 0 }, "geometry": { "type": "Point", "coordinates": [ 771578.838237525778823, 8979424.450146481394768 ] } },
{ "type": "Feature", "properties": { "NAME": "T.1", "LAYER": "MNama Bang", "GM_TYPE": "Text", "ELEVATION": 0 }, "geometry": { "type": "Point", "coordinates": [ 772017.761480947607197, 8981314.762105546891689 ] } },
{ "type": "Feature", "properties": { "NAME": "T.2", "LAYER": "MNama Bang", "GM_TYPE": "Text", "ELEVATION": 0 }, "geometry": { "type": "Point", "coordinates": [ 771761.713901121751405, 8981251.963367665186524 ] } },
{ "type": "Feature", "properties": { "NAME": "T.3", "LAYER": "MNama Bang", "GM_TYPE": "Text", "ELEVATION": 0 }, "geometry": { "type": "Point", "coordinates": [ 771523.124544538441114, 8981083.865356726571918 ] } },
{ "type": "Feature", "properties": { "NAME": "T.4", "LAYER": "MNama Bang", "GM_TYPE": "Text", "ELEVATION": 0 }, "geometry": { "type": "Point", "coordinates": [ 771673.34938384545967, 8980877.189675500616431 ] } },
{ "type": "Feature", "properties": { "NAME": "T.2", "LAYER": "MNama Bang", "GM_TYPE": "Text", "ELEVATION": 0 }, "geometry": { "type": "Point", "coordinates": [ 772163.787120971712284, 8981082.047050453722477 ] } },
{ "type": "Feature", "properties": { "NAME": "T.1", "LAYER": "MNama Bang", "GM_TYPE": "Text", "ELEVATION": 0 }, "geometry": { "type": "Point", "coordinates": [ 772151.731345268897712, 8981295.993220059201121 ] } },
{ "type": "Feature", "properties": { "NAME": "T.3", "LAYER": "MNama Bang", "GM_TYPE": "Text", "ELEVATION": 0 }, "geometry": { "type": "Point", "coordinates": [ 772289.249243963975459, 8980878.585917543619871 ] } },
{ "type": "Feature", "properties": { "NAME": "T.4", "LAYER": "MNama Bang", "GM_TYPE": "Text", "ELEVATION": 0 }, "geometry": { "type": "Point", "coordinates": [ 772388.876241173129529, 8980721.572777660563588 ] } },
{ "type": "Feature", "properties": { "NAME": "K.2", "LAYER": "MNama Bang", "GM_TYPE": "Text", "ELEVATION": 26 }, "geometry": { "type": "Point", "coordinates": [ 771604.901524236891419, 8981778.739364793524146 ] } },
{ "type": "Feature", "properties": { "NAME": "K.2", "LAYER": "MNama Bang", "GM_TYPE": "Text", "ELEVATION": 26 }, "geometry": { "type": "Point", "coordinates": [ 771094.563432422699407, 8981435.265825459733605 ] } },
{ "type": "Feature", "properties": { "NAME": "K.1", "LAYER": "MNama Bang", "GM_TYPE": "Text", "ELEVATION": 26 }, "geometry": { "type": "Point", "coordinates": [ 771101.1492425162578, 8981598.916823899373412 ] } },
{ "type": "Feature", "properties": { "NAME": "K.1", "LAYER": "MNama Bang", "GM_TYPE": "Text", "ELEVATION": 26 }, "geometry": { "type": "Point", "coordinates": [ 771113.330799682065845, 8981192.053640205413103 ] } },
{ "type": "Feature", "properties": { "NAME": "K.1", "LAYER": "MNama Bang", "GM_TYPE": "Text", "ELEVATION": 26 }, "geometry": { "type": "Point", "coordinates": [ 771444.470672896830365, 8980561.176489640027285 ] } },
{ "type": "Feature", "properties": { "NAME": "K.3", "LAYER": "MNama Bang", "GM_TYPE": "Text", "ELEVATION": 26 }, "geometry": { "type": "Point", "coordinates": [ 771891.282970216241665, 8979499.447687303647399 ] } },
{ "type": "Feature", "properties": { "NAME": "K.4", "LAYER": "MNama Bang", "GM_TYPE": "Text", "ELEVATION": 26 }, "geometry": { "type": "Point", "coordinates": [ 772310.915442964644171, 8979574.439614852890372 ] } },
{ "type": "Feature", "properties": { "NAME": "K.1", "LAYER": "MNama Bang", "GM_TYPE": "Text", "ELEVATION": 26 }, "geometry": { "type": "Point", "coordinates": [ 772456.348869786714204, 8980508.939593050628901 ] } },
{ "type": "Feature", "properties": { "NAME": "K.1", "LAYER": "MNama Bang", "GM_TYPE": "Text", "ELEVATION": 26 }, "geometry": { "type": "Point", "coordinates": [ 771894.447463180287741, 8980569.858967430889606 ] } },
{ "type": "Feature", "properties": { "NAME": "K.1", "LAYER": "MNama Bang", "GM_TYPE": "Text", "ELEVATION": 47 }, "geometry": { "type": "Point", "coordinates": [ 771761.199996136594564, 8981749.11128962226212 ] } },
{ "type": "Feature", "properties": { "NAME": "T.7", "LAYER": "MNama Bang", "GM_TYPE": "Text", "ELEVATION": 0 }, "geometry": { "type": "Point", "coordinates": [ 771416.609763616230339, 8979608.698505090549588 ] } },
{ "type": "Feature", "properties": { "NAME": "K.1", "LAYER": "MNama Bang", "GM_TYPE": "Text", "ELEVATION": 0 }, "geometry": { "type": "Point", "coordinates": [ 771620.286755374749191, 8979897.943677712231874 ] } },
{ "type": "Feature", "properties": { "NAME": "T.1", "LAYER": "MNama Bang", "GM_TYPE": "Text", "ELEVATION": 0 }, "geometry": { "type": "Point", "coordinates": [ 772210.41767470468767, 8982137.545025620609522 ] } },
{ "type": "Feature", "properties": { "NAME": "T.2", "LAYER": "MNama Bang", "GM_TYPE": "Text", "ELEVATION": 0 }, "geometry": { "type": "Point", "coordinates": [ 772198.974596956861205, 8981930.385412767529488 ] } },
{ "type": "Feature", "properties": { "NAME": "K.1", "LAYER": "MNama Bang", "GM_TYPE": "Text", "ELEVATION": 0 }, "geometry": { "type": "Point", "coordinates": [ 772188.549470813712105, 8981721.434430664405227 ] } },
{ "type": "Feature", "properties": { "NAME": "T.1", "LAYER": "MNama Bang", "GM_TYPE": "Text", "ELEVATION": 0 }, "geometry": { "type": "Point", "coordinates": [ 772651.332691100309603, 8982618.941558852791786 ] } },
{ "type": "Feature", "properties": { "NAME": "K.1", "LAYER": "MNama Bang", "GM_TYPE": "Text", "ELEVATION": 0 }, "geometry": { "type": "Point", "coordinates": [ 772624.729768072254956, 8982627.116735432296991 ] } },
{ "type": "Feature", "properties": { "NAME": "Bk.1", "LAYER": "MNama Bang", "GM_TYPE": "Text", "ELEVATION": 22 }, "geometry": { "type": "Point", "coordinates": [ 772680.214383053360507, 8982576.426302721723914 ] } },
{ "type": "Feature", "properties": { "NAME": "Bk.2", "LAYER": "MNama Bang", "GM_TYPE": "Text", "ELEVATION": 22 }, "geometry": { "type": "Point", "coordinates": [ 772235.039685597876087, 8982135.795426512137055 ] } },
{ "type": "Feature", "properties": { "NAME": "Bk.3", "LAYER": "MNama Bang", "GM_TYPE": "Text", "ELEVATION": 40 }, "geometry": { "type": "Point", "coordinates": [ 772185.714418800896965, 8981326.886987034231424 ] } },
{ "type": "Feature", "properties": { "NAME": "Bk.4", "LAYER": "MNama Bang", "GM_TYPE": "Text", "ELEVATION": 22 }, "geometry": { "type": "Point", "coordinates": [ 771151.325731679447927, 8981773.04121820628643 ] } },
{ "type": "Feature", "properties": { "NAME": "Bk.5", "LAYER": "MNama Bang", "GM_TYPE": "Text", "ELEVATION": 22 }, "geometry": { "type": "Point", "coordinates": [ 771118.680862873326987, 8981005.060572734102607 ] } },
{ "type": "Feature", "properties": { "NAME": "OEBABA MAIN CANAL", "LAYER": "MNama Bang", "GM_TYPE": "Text", "ELEVATION": 2 }, "geometry": { "type": "Point", "coordinates": [ 776540.076283494243398, 8983517.896359799429774 ] } },
{ "type": "Feature", "properties": { "NAME": "BELAKO SECONDARY CANAL", "LAYER": "MNama Bang", "GM_TYPE": "Text", "ELEVATION": 2 }, "geometry": { "type": "Point", "coordinates": [ 771810.171752334921621, 8983581.499000227078795 ] } },
{ "type": "Feature", "properties": { "NAME": "SP II SECONDARY CANAL", "LAYER": "MNama Bang", "GM_TYPE": "Text", "ELEVATION": 2 }, "geometry": { "type": "Point", "coordinates": [ 777481.257526034140028, 8982404.060107477009296 ] } },
{ "type": "Feature", "properties": { "NAME": "SP I SECONDARY CANAL", "LAYER": "MNama Bang", "GM_TYPE": "Text", "ELEVATION": 2 }, "geometry": { "type": "Point", "coordinates": [ 775213.624356015585363, 8981887.765944549813867 ] } }
]
}
