{
"type": "FeatureCollection",
"name": "09_oe_ar_aliranair",
"crs": { "type": "name", "properties": { "name": "urn:ogc:def:crs:EPSG::32751" } },
"features": [
{ "type": "Feature", "properties": { "LAYER": "aliran air tgl 28 peb 09", "GM_TYPE": "Unknown Area Type", "ELEVATION": 0 }, "geometry": { "type": "MultiPolygon", "coordinates": [ [ [ [ 777852.200603605713695, 8982952.567621553316712 ], [ 777831.622595981694758, 8982913.559078484773636 ], [ 777831.115697057452053, 8982817.888297026976943 ], [ 777835.590387950185686, 8982754.502110255882144 ], [ 777830.284084547427483, 8982661.609210103750229 ], [ 777793.782048493623734, 8982626.865498032420874 ], [ 777670.097713012713939, 8982657.567957822233438 ], [ 777701.646363632753491, 8982752.165308488532901 ], [ 777710.273084527812898, 8982777.93329413048923 ], [ 777763.605409450945444, 8982866.04360132291913 ], [ 777776.564312445116229, 8982931.913920950144529 ], [ 777782.155928644817322, 8983024.223137395456433 ], [ 777785.134117470588535, 8983034.388853896409273 ], [ 777817.621498108957894, 8983059.525214612483978 ], [ 777825.068695071153343, 8983066.656744368374348 ], [ 777841.329005871899426, 8983078.855840237811208 ], [ 777855.369783855974674, 8983112.986606981605291 ], [ 777871.89115217665676, 8983127.346977729350328 ], [ 777871.907708983519115, 8983127.124026114121079 ], [ 777874.898640622384846, 8983137.016277743503451 ], [ 777882.250431446242146, 8983147.181310970336199 ], [ 777922.009477472747676, 8983179.882671007886529 ], [ 777963.231337810051627, 8983209.74623055383563 ], [ 778013.592579226009548, 8983238.431855859234929 ], [ 778088.695385599625297, 8983272.543129308149219 ], [ 778178.261369778891094, 8983259.585726408287883 ], [ 778211.971390846068971, 8983270.682472970336676 ], [ 778230.083846002351493, 8983280.524598058313131 ], [ 778263.230149807408452, 8983320.452404104173183 ], [ 778290.944287705700845, 8983285.219181470572948 ], [ 778281.232053174288012, 8983262.736989224329591 ], [ 778272.344054079148918, 8983247.440313132479787 ], [ 778265.210825472255237, 8983235.748800609260798 ], [ 778231.452590236091055, 8983213.633151467889547 ], [ 778231.523458389565349, 8983213.852904312312603 ], [ 778226.112569401040673, 8983201.637321619316936 ], [ 778225.550674517755397, 8983201.062945790588856 ], [ 778086.138667081017047, 8983190.692392122000456 ], [ 778058.375046798028052, 8983156.043532818555832 ], [ 777987.996264942456037, 8983147.999723415821791 ], [ 777940.042204221826978, 8983100.886901201680303 ], [ 777935.390581342042424, 8983093.694854915142059 ], [ 777915.50675637612585, 8983077.394792487844825 ], [ 777892.786910319584422, 8983053.066436979919672 ], [ 777882.509604257997125, 8983034.511114995926619 ], [ 777866.186374608427286, 8983007.841561689972878 ], [ 777852.200603605713695, 8982952.567621553316712 ] ], [ [ 777874.984272258356214, 8983071.760628933086991 ], [ 777894.70343283645343, 8983089.630930716171861 ], [ 777918.393229270353913, 8983102.704558709636331 ], [ 777927.227280758321285, 8983098.046809298917651 ], [ 777930.713778652250767, 8983105.419728819280863 ], [ 777936.653280258993618, 8983114.244258103892207 ], [ 777954.558744038455188, 8983164.426867628470063 ], [ 777897.60605232801754, 8983135.825474651530385 ], [ 777885.765109002124518, 8983131.011949375271797 ], [ 777884.428109536413103, 8983120.818585133180022 ], [ 777880.043767454219051, 8983108.044947331771255 ], [ 777875.537617966649123, 8983101.034993065521121 ], [ 777862.411295840516686, 8983084.965442860499024 ], [ 777857.056316743255593, 8983076.184550864621997 ], [ 777848.711399935302325, 8983041.349532512947917 ], [ 777853.898033427540213, 8983035.808027854189277 ], [ 777874.984272258356214, 8983071.760628933086991 ] ] ] ] } }
]
}
