{
"type": "FeatureCollection",
"name": "09_oe_li_mluas",
"crs": { "type": "name", "properties": { "name": "urn:ogc:def:crs:EPSG::32751" } },
"features": [
{ "type": "Feature", "properties": { "LAYER": "MLuas", "GM_TYPE": "Unknown Line Type", "ELEVATION": 0 }, "geometry": { "type": "MultiLineString", "coordinates": [ [ [ 777252.530931254616007, 8982870.391247194260359 ], [ 777310.216203188174404, 8982870.391247194260359 ] ] ] } },
{ "type": "Feature", "properties": { "LAYER": "MLuas", "GM_TYPE": "Unknown Line Type", "ELEVATION": 0 }, "geometry": { "type": "MultiLineString", "coordinates": [ [ [ 777317.546617878368124, 8982758.371168307960033 ], [ 777375.231889812159352, 8982758.371168307960033 ] ] ] } },
{ "type": "Feature", "properties": { "LAYER": "MLuas", "GM_TYPE": "Unknown Line Type", "ELEVATION": 27 }, "geometry": { "type": "MultiLineString", "coordinates": [ [ [ 777444.143240088364109, 8982731.237820748239756 ], [ 777501.828512022155337, 8982731.237820748239756 ] ] ] } },
{ "type": "Feature", "properties": { "LAYER": "MLuas", "GM_TYPE": "Unknown Line Type", "ELEVATION": 0 }, "geometry": { "type": "MultiLineString", "coordinates": [ [ [ 777249.466201422153972, 8982478.123758096247911 ], [ 777307.151473355712369, 8982478.123758096247911 ] ] ] } },
{ "type": "Feature", "properties": { "LAYER": "MLuas", "GM_TYPE": "Unknown Line Type", "ELEVATION": 0 }, "geometry": { "type": "MultiLineString", "coordinates": [ [ [ 777096.545761215966195, 8982246.1729716937989 ], [ 777154.231033149641007, 8982246.1729716937989 ] ] ] } },
{ "type": "Feature", "properties": { "LAYER": "MLuas", "GM_TYPE": "Unknown Line Type", "ELEVATION": 19 }, "geometry": { "type": "MultiLineString", "coordinates": [ [ [ 776844.341338620986789, 8982008.482580844312906 ], [ 776902.026610554545186, 8982008.482580844312906 ] ] ] } },
{ "type": "Feature", "properties": { "LAYER": "MLuas", "GM_TYPE": "Unknown Line Type", "ELEVATION": 0 }, "geometry": { "type": "MultiLineString", "coordinates": [ [ [ 777080.524067038320936, 8981840.137220215052366 ], [ 777138.209338971879333, 8981840.137220215052366 ] ] ] } },
{ "type": "Feature", "properties": { "LAYER": "MLuas", "GM_TYPE": "Unknown Line Type", "ELEVATION": 0 }, "geometry": { "type": "MultiLineString", "coordinates": [ [ [ 777264.091498932568356, 8981956.71041276678443 ], [ 777321.776770866243169, 8981956.71041276678443 ] ] ] } },
{ "type": "Feature", "properties": { "LAYER": "MLuas", "GM_TYPE": "Unknown Line Type", "ELEVATION": 0 }, "geometry": { "type": "MultiLineString", "coordinates": [ [ [ 777474.082169563625939, 8981639.68663071654737 ], [ 777531.767441497300752, 8981639.68663071654737 ] ] ] } },
{ "type": "Feature", "properties": { "LAYER": "MLuas", "GM_TYPE": "Unknown Line Type", "ELEVATION": 0 }, "geometry": { "type": "MultiLineString", "coordinates": [ [ [ 777219.563847800949588, 8981596.974143613129854 ], [ 777277.249119734740816, 8981596.974143613129854 ] ] ] } },
{ "type": "Feature", "properties": { "LAYER": "MLuas", "GM_TYPE": "Unknown Line Type", "ELEVATION": 0 }, "geometry": { "type": "MultiLineString", "coordinates": [ [ [ 776883.074289661133662, 8981731.685432789847255 ], [ 776940.759561594808474, 8981731.685432789847255 ] ] ] } },
{ "type": "Feature", "properties": { "LAYER": "MLuas", "GM_TYPE": "Unknown Line Type", "ELEVATION": 0 }, "geometry": { "type": "MultiLineString", "coordinates": [ [ [ 776758.57499381096568, 8981617.214331960305572 ], [ 776816.260265744640492, 8981617.214331960305572 ] ] ] } },
{ "type": "Feature", "properties": { "LAYER": "MLuas", "GM_TYPE": "Unknown Line Type", "ELEVATION": 0 }, "geometry": { "type": "MultiLineString", "coordinates": [ [ [ 777320.09955569379963, 8981377.652559410780668 ], [ 777377.784827627358027, 8981377.652559410780668 ] ] ] } },
{ "type": "Feature", "properties": { "LAYER": "MLuas", "GM_TYPE": "Unknown Line Type", "ELEVATION": 0 }, "geometry": { "type": "MultiLineString", "coordinates": [ [ [ 776854.544576225802302, 8981431.070222374051809 ], [ 776912.229848159477115, 8981431.070222374051809 ] ] ] } },
{ "type": "Feature", "properties": { "LAYER": "MLuas", "GM_TYPE": "Unknown Line Type", "ELEVATION": 0 }, "geometry": { "type": "MultiLineString", "coordinates": [ [ [ 776843.534823724883609, 8981267.675040680915117 ], [ 776901.220095658442006, 8981267.675040680915117 ] ] ] } },
{ "type": "Feature", "properties": { "LAYER": "MLuas", "GM_TYPE": "Unknown Line Type", "ELEVATION": 0 }, "geometry": { "type": "MultiLineString", "coordinates": [ [ [ 777288.643119976390153, 8981201.688522743061185 ], [ 777346.328391910064965, 8981201.688522743061185 ] ] ] } },
{ "type": "Feature", "properties": { "LAYER": "MLuas", "GM_TYPE": "Unknown Line Type", "ELEVATION": 0 }, "geometry": { "type": "MultiLineString", "coordinates": [ [ [ 776828.58179649617523, 8981103.306481510400772 ], [ 776886.267068429850042, 8981103.306481510400772 ] ] ] } },
{ "type": "Feature", "properties": { "LAYER": "MLuas", "GM_TYPE": "Unknown Line Type", "ELEVATION": 0 }, "geometry": { "type": "MultiLineString", "coordinates": [ [ [ 777285.801651504938491, 8981017.794361419975758 ], [ 777343.486923438496888, 8981017.794361419975758 ] ] ] } },
{ "type": "Feature", "properties": { "LAYER": "MLuas", "GM_TYPE": "Unknown Line Type", "ELEVATION": 0 }, "geometry": { "type": "MultiLineString", "coordinates": [ [ [ 776834.963484977371991, 8980942.471961762756109 ], [ 776892.648756911046803, 8980942.471961762756109 ] ] ] } },
{ "type": "Feature", "properties": { "LAYER": "MLuas", "GM_TYPE": "Unknown Line Type", "ELEVATION": 0 }, "geometry": { "type": "MultiLineString", "coordinates": [ [ [ 777265.150715768453665, 8980869.005235128104687 ], [ 777322.835987702128477, 8980869.005235128104687 ] ] ] } },
{ "type": "Feature", "properties": { "LAYER": "MLuas", "GM_TYPE": "Unknown Line Type", "ELEVATION": 0 }, "geometry": { "type": "MultiLineString", "coordinates": [ [ [ 776814.012478704447858, 8980773.727399606257677 ], [ 776871.697750638239086, 8980773.727399606257677 ] ] ] } },
{ "type": "Feature", "properties": { "LAYER": "MLuas", "GM_TYPE": "Unknown Line Type", "ELEVATION": 0 }, "geometry": { "type": "MultiLineString", "coordinates": [ [ [ 777222.81917070352938, 8980739.72630175948143 ], [ 777280.504442637087777, 8980739.72630175948143 ] ] ] } },
{ "type": "Feature", "properties": { "LAYER": "MLuas", "GM_TYPE": "Unknown Line Type", "ELEVATION": 0 }, "geometry": { "type": "MultiLineString", "coordinates": [ [ [ 776719.894088253378868, 8980538.135898374021053 ], [ 776777.57936018705368, 8980538.135898374021053 ] ] ] } },
{ "type": "Feature", "properties": { "LAYER": "MLuas", "GM_TYPE": "Unknown Line Type", "ELEVATION": 0 }, "geometry": { "type": "MultiLineString", "coordinates": [ [ [ 777009.872208584682085, 8980522.068579189479351 ], [ 777067.557480518473312, 8980522.068579189479351 ] ] ] } },
{ "type": "Feature", "properties": { "LAYER": "MLuas", "GM_TYPE": "Unknown Line Type", "ELEVATION": 0 }, "geometry": { "type": "MultiLineString", "coordinates": [ [ [ 777333.457286966964602, 8980523.38037345930934 ], [ 777391.14255890075583, 8980523.38037345930934 ] ] ] } },
{ "type": "Feature", "properties": { "LAYER": "MLuas", "GM_TYPE": "Unknown Line Type", "ELEVATION": 0 }, "geometry": { "type": "MultiLineString", "coordinates": [ [ [ 777056.889988087816164, 8980248.509778842329979 ], [ 777114.575260021490976, 8980248.509778842329979 ] ] ] } },
{ "type": "Feature", "properties": { "LAYER": "MLuas", "GM_TYPE": "Unknown Line Type", "ELEVATION": 0 }, "geometry": { "type": "MultiLineString", "coordinates": [ [ [ 776697.995667886338197, 8980253.466056503355503 ], [ 776755.680939819896594, 8980253.466056503355503 ] ] ] } },
{ "type": "Feature", "properties": { "LAYER": "MLuas", "GM_TYPE": "Unknown Line Type", "ELEVATION": 0 }, "geometry": { "type": "MultiLineString", "coordinates": [ [ [ 776673.912408340023831, 8979954.825253907591105 ], [ 776731.597680273815058, 8979954.825253907591105 ] ] ] } },
{ "type": "Feature", "properties": { "LAYER": "MLuas", "GM_TYPE": "Unknown Line Type", "ELEVATION": 0 }, "geometry": { "type": "MultiLineString", "coordinates": [ [ [ 777001.135442454600707, 8979961.041085209697485 ], [ 777058.820714388391934, 8979961.041085209697485 ] ] ] } },
{ "type": "Feature", "properties": { "LAYER": "MLuas", "GM_TYPE": "Unknown Line Type", "ELEVATION": 0 }, "geometry": { "type": "MultiLineString", "coordinates": [ [ [ 775247.685795119265094, 8980373.201552551239729 ], [ 775305.371067052939907, 8980373.201552551239729 ] ] ] } },
{ "type": "Feature", "properties": { "LAYER": "MLuas", "GM_TYPE": "Unknown Line Type", "ELEVATION": 9 }, "geometry": { "type": "MultiLineString", "coordinates": [ [ [ 775501.122999411541969, 8980292.024859983474016 ], [ 775558.808271345333196, 8980292.024859983474016 ] ] ] } },
{ "type": "Feature", "properties": { "LAYER": "MLuas", "GM_TYPE": "Unknown Line Type", "ELEVATION": 0 }, "geometry": { "type": "MultiLineString", "coordinates": [ [ [ 775827.777250883169472, 8980153.516327321529388 ], [ 775885.462522816844285, 8980153.516327321529388 ] ] ] } },
{ "type": "Feature", "properties": { "LAYER": "MLuas", "GM_TYPE": "Unknown Line Type", "ELEVATION": 0 }, "geometry": { "type": "MultiLineString", "coordinates": [ [ [ 775228.804868455743417, 8979990.316306848078966 ], [ 775286.490140389534645, 8979990.316306848078966 ] ] ] } },
{ "type": "Feature", "properties": { "LAYER": "MLuas", "GM_TYPE": "Unknown Line Type", "ELEVATION": 0 }, "geometry": { "type": "MultiLineString", "coordinates": [ [ [ 775473.651088177692145, 8979963.609351273626089 ], [ 775531.336360111366957, 8979963.609351273626089 ] ] ] } },
{ "type": "Feature", "properties": { "LAYER": "MLuas", "GM_TYPE": "Unknown Line Type", "ELEVATION": 0 }, "geometry": { "type": "MultiLineString", "coordinates": [ [ [ 775814.609406156465411, 8979947.984260182827711 ], [ 775872.294678090256639, 8979947.984260182827711 ] ] ] } },
{ "type": "Feature", "properties": { "LAYER": "MLuas", "GM_TYPE": "Unknown Line Type", "ELEVATION": 0 }, "geometry": { "type": "MultiLineString", "coordinates": [ [ [ 776189.366049066884443, 8979891.870267076417804 ], [ 776247.051321000559255, 8979891.870267076417804 ] ] ] } },
{ "type": "Feature", "properties": { "LAYER": "MLuas", "GM_TYPE": "Unknown Line Type", "ELEVATION": 9 }, "geometry": { "type": "MultiLineString", "coordinates": [ [ [ 776188.535457847756334, 8980084.039486499503255 ], [ 776246.220729781547561, 8980084.039486499503255 ] ] ] } },
{ "type": "Feature", "properties": { "LAYER": "MLuas", "GM_TYPE": "Unknown Line Type", "ELEVATION": 10 }, "geometry": { "type": "MultiLineString", "coordinates": [ [ [ 776140.589399544056505, 8980290.193824451416731 ], [ 776198.274671477731317, 8980290.193824451416731 ] ] ] } },
{ "type": "Feature", "properties": { "LAYER": "MLuas", "GM_TYPE": "Unknown Line Type", "ELEVATION": 0 }, "geometry": { "type": "MultiLineString", "coordinates": [ [ [ 776452.913469383725896, 8980454.003976125270128 ], [ 776510.598741317517124, 8980454.003976125270128 ] ] ] } },
{ "type": "Feature", "properties": { "LAYER": "MLuas", "GM_TYPE": "Unknown Line Type", "ELEVATION": 0 }, "geometry": { "type": "MultiLineString", "coordinates": [ [ [ 776272.00249893264845, 8980641.042412765324116 ], [ 776329.687770866323262, 8980641.042412765324116 ] ] ] } },
{ "type": "Feature", "properties": { "LAYER": "MLuas", "GM_TYPE": "Unknown Line Type", "ELEVATION": 0 }, "geometry": { "type": "MultiLineString", "coordinates": [ [ [ 776013.776371579384431, 8980519.914603615179658 ], [ 776071.461643512942828, 8980519.914603615179658 ] ] ] } },
{ "type": "Feature", "properties": { "LAYER": "MLuas", "GM_TYPE": "Unknown Line Type", "ELEVATION": 0 }, "geometry": { "type": "MultiLineString", "coordinates": [ [ [ 776080.798214276554063, 8980847.692112289369106 ], [ 776138.483486210345291, 8980847.692112289369106 ] ] ] } },
{ "type": "Feature", "properties": { "LAYER": "MLuas", "GM_TYPE": "Unknown Line Type", "ELEVATION": 0 }, "geometry": { "type": "MultiLineString", "coordinates": [ [ [ 776466.87770043942146, 8980869.482167478650808 ], [ 776524.562972373096272, 8980869.482167478650808 ] ] ] } },
{ "type": "Feature", "properties": { "LAYER": "MLuas", "GM_TYPE": "Unknown Line Type", "ELEVATION": 14 }, "geometry": { "type": "MultiLineString", "coordinates": [ [ [ 776503.533502836246043, 8981125.97325823828578 ], [ 776561.218774769920856, 8981125.97325823828578 ] ] ] } },
{ "type": "Feature", "properties": { "LAYER": "MLuas", "GM_TYPE": "Unknown Line Type", "ELEVATION": 0 }, "geometry": { "type": "MultiLineString", "coordinates": [ [ [ 776025.481847662129439, 8981092.197985861450434 ], [ 776083.167119595687836, 8981092.197985861450434 ] ] ] } },
{ "type": "Feature", "properties": { "LAYER": "MLuas", "GM_TYPE": "Unknown Line Type", "ELEVATION": 0 }, "geometry": { "type": "MultiLineString", "coordinates": [ [ [ 776448.940520677948371, 8981396.296921219676733 ], [ 776506.625792611623183, 8981396.296921219676733 ] ] ] } },
{ "type": "Feature", "properties": { "LAYER": "MLuas", "GM_TYPE": "Unknown Line Type", "ELEVATION": 0 }, "geometry": { "type": "MultiLineString", "coordinates": [ [ [ 776554.742518633720465, 8981394.283990327268839 ], [ 776612.427790567395277, 8981394.283990327268839 ] ] ] } },
{ "type": "Feature", "properties": { "LAYER": "MLuas", "GM_TYPE": "Unknown Line Type", "ELEVATION": 0 }, "geometry": { "type": "MultiLineString", "coordinates": [ [ [ 776425.75525223929435, 8981728.126738598570228 ], [ 776483.440524172969162, 8981728.126738598570228 ] ] ] } },
{ "type": "Feature", "properties": { "LAYER": "MLuas", "GM_TYPE": "Unknown Line Type", "ELEVATION": 0 }, "geometry": { "type": "MultiLineString", "coordinates": [ [ [ 776613.330289966193959, 8981770.422004109248519 ], [ 776671.015561899868771, 8981770.422004109248519 ] ] ] } },
{ "type": "Feature", "properties": { "LAYER": "MLuas", "GM_TYPE": "Unknown Line Type", "ELEVATION": 0 }, "geometry": { "type": "MultiLineString", "coordinates": [ [ [ 776515.293723186478019, 8981952.388169534504414 ], [ 776572.978995120152831, 8981952.388169534504414 ] ] ] } },
{ "type": "Feature", "properties": { "LAYER": "MLuas", "GM_TYPE": "Unknown Line Type", "ELEVATION": 18 }, "geometry": { "type": "MultiLineString", "coordinates": [ [ [ 776413.026732202153653, 8982031.746493954211473 ], [ 776470.712004135944881, 8982031.746493954211473 ] ] ] } },
{ "type": "Feature", "properties": { "LAYER": "MLuas", "GM_TYPE": "Unknown Line Type", "ELEVATION": 0 }, "geometry": { "type": "MultiLineString", "coordinates": [ [ [ 776295.271603151224554, 8982113.114791188389063 ], [ 776352.956875084899366, 8982113.114791188389063 ] ] ] } },
{ "type": "Feature", "properties": { "LAYER": "MLuas", "GM_TYPE": "Unknown Line Type", "ELEVATION": 0 }, "geometry": { "type": "MultiLineString", "coordinates": [ [ [ 776851.140681567951106, 8982948.226372696459293 ], [ 776908.825953501742333, 8982948.226372696459293 ] ] ] } },
{ "type": "Feature", "properties": { "LAYER": "MLuas", "GM_TYPE": "Unknown Line Type", "ELEVATION": 0 }, "geometry": { "type": "MultiLineString", "coordinates": [ [ [ 776694.746030814247206, 8982737.717476677149534 ], [ 776752.431302747922018, 8982737.717476677149534 ] ] ] } },
{ "type": "Feature", "properties": { "LAYER": "MLuas", "GM_TYPE": "Unknown Line Type", "ELEVATION": 0 }, "geometry": { "type": "MultiLineString", "coordinates": [ [ [ 777022.2655019168742, 8982666.033162232488394 ], [ 777079.950773850549012, 8982666.033162232488394 ] ] ] } },
{ "type": "Feature", "properties": { "LAYER": "MLuas", "GM_TYPE": "Unknown Line Type", "ELEVATION": 0 }, "geometry": { "type": "MultiLineString", "coordinates": [ [ [ 776876.866338622523472, 8982473.85707688331604 ], [ 776934.551610556314699, 8982473.85707688331604 ] ] ] } },
{ "type": "Feature", "properties": { "LAYER": "MLuas", "GM_TYPE": "Unknown Line Type", "ELEVATION": 0 }, "geometry": { "type": "MultiLineString", "coordinates": [ [ [ 776695.114465890452266, 8982402.892239388078451 ], [ 776752.799737824243493, 8982402.892239388078451 ] ] ] } },
{ "type": "Feature", "properties": { "LAYER": "MLuas", "GM_TYPE": "Unknown Line Type", "ELEVATION": 0 }, "geometry": { "type": "MultiLineString", "coordinates": [ [ [ 776567.450248475652188, 8982523.484220519661903 ], [ 776625.135520409443416, 8982523.484220519661903 ] ] ] } },
{ "type": "Feature", "properties": { "LAYER": "MLuas", "GM_TYPE": "Unknown Line Type", "ELEVATION": 24 }, "geometry": { "type": "MultiLineString", "coordinates": [ [ [ 776207.515656230854802, 8983243.593641098588705 ], [ 776265.200928164413199, 8983243.593641098588705 ] ] ] } },
{ "type": "Feature", "properties": { "LAYER": "MLuas", "GM_TYPE": "Unknown Line Type", "ELEVATION": 22 }, "geometry": { "type": "MultiLineString", "coordinates": [ [ [ 776412.14970640046522, 8983122.538546655327082 ], [ 776469.834978334140033, 8983122.538546655327082 ] ] ] } },
{ "type": "Feature", "properties": { "LAYER": "MLuas", "GM_TYPE": "Unknown Line Type", "ELEVATION": 0 }, "geometry": { "type": "MultiLineString", "coordinates": [ [ [ 776636.87348614865914, 8983031.297362867742777 ], [ 776694.558758082450368, 8983031.297362867742777 ] ] ] } },
{ "type": "Feature", "properties": { "LAYER": "MLuas", "GM_TYPE": "Unknown Line Type", "ELEVATION": 0 }, "geometry": { "type": "MultiLineString", "coordinates": [ [ [ 776079.73550230928231, 8982995.67352931573987 ], [ 776137.420774243073538, 8982995.67352931573987 ] ] ] } },
{ "type": "Feature", "properties": { "LAYER": "MLuas", "GM_TYPE": "Unknown Line Type", "ELEVATION": 0 }, "geometry": { "type": "MultiLineString", "coordinates": [ [ [ 776375.370485509745777, 8982914.07734626531601 ], [ 776433.055757443537004, 8982914.07734626531601 ] ] ] } },
{ "type": "Feature", "properties": { "LAYER": "MLuas", "GM_TYPE": "Unknown Line Type", "ELEVATION": 0 }, "geometry": { "type": "MultiLineString", "coordinates": [ [ [ 775944.027348964824341, 8982818.783197060227394 ], [ 776001.712620898382738, 8982818.783197060227394 ] ] ] } },
{ "type": "Feature", "properties": { "LAYER": "MLuas", "GM_TYPE": "Unknown Line Type", "ELEVATION": 0 }, "geometry": { "type": "MultiLineString", "coordinates": [ [ [ 776264.670834431424737, 8982690.922750119119883 ], [ 776322.356106365099549, 8982690.922750119119883 ] ] ] } },
{ "type": "Feature", "properties": { "LAYER": "MLuas", "GM_TYPE": "Unknown Line Type", "ELEVATION": 0 }, "geometry": { "type": "MultiLineString", "coordinates": [ [ [ 775600.529988128459081, 8982773.067200198769569 ], [ 775658.215260062133893, 8982773.067200198769569 ] ] ] } },
{ "type": "Feature", "properties": { "LAYER": "MLuas", "GM_TYPE": "Unknown Line Type", "ELEVATION": 0 }, "geometry": { "type": "MultiLineString", "coordinates": [ [ [ 775934.607845823979005, 8982621.527727715671062 ], [ 775992.293117757653818, 8982621.527727715671062 ] ] ] } },
{ "type": "Feature", "properties": { "LAYER": "MLuas", "GM_TYPE": "Unknown Line Type", "ELEVATION": 20 }, "geometry": { "type": "MultiLineString", "coordinates": [ [ [ 776223.148630170035176, 8982429.148588176816702 ], [ 776280.833902103593573, 8982429.148588176816702 ] ] ] } },
{ "type": "Feature", "properties": { "LAYER": "MLuas", "GM_TYPE": "Unknown Line Type", "ELEVATION": 0 }, "geometry": { "type": "MultiLineString", "coordinates": [ [ [ 776122.083701137918979, 8982245.153735011816025 ], [ 776179.768973071593791, 8982245.153735011816025 ] ] ] } },
{ "type": "Feature", "properties": { "LAYER": "MLuas", "GM_TYPE": "Unknown Line Type", "ELEVATION": 20 }, "geometry": { "type": "MultiLineString", "coordinates": [ [ [ 775845.910598924499936, 8982456.884361535310745 ], [ 775903.595870858058333, 8982456.884361535310745 ] ] ] } },
{ "type": "Feature", "properties": { "LAYER": "MLuas", "GM_TYPE": "Unknown Line Type", "ELEVATION": 0 }, "geometry": { "type": "MultiLineString", "coordinates": [ [ [ 775485.08449893258512, 8982587.939412770792842 ], [ 775542.769770866259933, 8982587.939412770792842 ] ] ] } },
{ "type": "Feature", "properties": { "LAYER": "MLuas", "GM_TYPE": "Unknown Line Type", "ELEVATION": 19 }, "geometry": { "type": "MultiLineString", "coordinates": [ [ [ 775459.433739359956235, 8982415.244373513385653 ], [ 775517.119011293631047, 8982415.244373513385653 ] ] ] } },
{ "type": "Feature", "properties": { "LAYER": "MLuas", "GM_TYPE": "Unknown Line Type", "ELEVATION": 0 }, "geometry": { "type": "MultiLineString", "coordinates": [ [ [ 775792.309498932678252, 8982286.072412766516209 ], [ 775849.994770866353065, 8982286.072412766516209 ] ] ] } },
{ "type": "Feature", "properties": { "LAYER": "MLuas", "GM_TYPE": "Unknown Line Type", "ELEVATION": 0 }, "geometry": { "type": "MultiLineString", "coordinates": [ [ [ 776033.317931167432107, 8982021.900854792445898 ], [ 776091.003203100990504, 8982021.900854792445898 ] ] ] } },
{ "type": "Feature", "properties": { "LAYER": "MLuas", "GM_TYPE": "Unknown Line Type", "ELEVATION": 0 }, "geometry": { "type": "MultiLineString", "coordinates": [ [ [ 775413.806613767519593, 8982239.898518327623606 ], [ 775471.49188570107799, 8982239.898518327623606 ] ] ] } },
{ "type": "Feature", "properties": { "LAYER": "MLuas", "GM_TYPE": "Unknown Line Type", "ELEVATION": 16 }, "geometry": { "type": "MultiLineString", "coordinates": [ [ [ 775722.383889581076801, 8982076.542636316269636 ], [ 775780.069161514751613, 8982076.542636316269636 ] ] ] } },
{ "type": "Feature", "properties": { "LAYER": "MLuas", "GM_TYPE": "Unknown Line Type", "ELEVATION": 0 }, "geometry": { "type": "MultiLineString", "coordinates": [ [ [ 775467.223509326111525, 8981911.538691585883498 ], [ 775524.908781259786338, 8981911.538691585883498 ] ] ] } },
{ "type": "Feature", "properties": { "LAYER": "MLuas", "GM_TYPE": "Unknown Line Type", "ELEVATION": 0 }, "geometry": { "type": "MultiLineString", "coordinates": [ [ [ 775325.555731058819219, 8981924.945222336798906 ], [ 775383.241002992494032, 8981924.945222336798906 ] ] ] } },
{ "type": "Feature", "properties": { "LAYER": "MLuas", "GM_TYPE": "Unknown Line Type", "ELEVATION": 0 }, "geometry": { "type": "MultiLineString", "coordinates": [ [ [ 775662.424019328784198, 8981875.469574857503176 ], [ 775720.10929126245901, 8981875.469574857503176 ] ] ] } },
{ "type": "Feature", "properties": { "LAYER": "MLuas", "GM_TYPE": "Unknown Line Type", "ELEVATION": 0 }, "geometry": { "type": "MultiLineString", "coordinates": [ [ [ 775888.745904787327163, 8981824.519214017316699 ], [ 775946.43117672088556, 8981824.519214017316699 ] ] ] } },
{ "type": "Feature", "properties": { "LAYER": "MLuas", "GM_TYPE": "Unknown Line Type", "ELEVATION": 0 }, "geometry": { "type": "MultiLineString", "coordinates": [ [ [ 775985.962366241379641, 8981669.860361084342003 ], [ 776043.647638175170869, 8981669.860361084342003 ] ] ] } },
{ "type": "Feature", "properties": { "LAYER": "MLuas", "GM_TYPE": "Unknown Line Type", "ELEVATION": 0 }, "geometry": { "type": "MultiLineString", "coordinates": [ [ [ 775459.32814515195787, 8981650.073505524545908 ], [ 775517.013417085749097, 8981650.073505524545908 ] ] ] } },
{ "type": "Feature", "properties": { "LAYER": "MLuas", "GM_TYPE": "Unknown Line Type", "ELEVATION": 0 }, "geometry": { "type": "MultiLineString", "coordinates": [ [ [ 775414.267809401731938, 8981489.566796254366636 ], [ 775471.953081335290335, 8981489.566796254366636 ] ] ] } },
{ "type": "Feature", "properties": { "LAYER": "MLuas", "GM_TYPE": "Unknown Line Type", "ELEVATION": 0 }, "geometry": { "type": "MultiLineString", "coordinates": [ [ [ 775737.760934681165963, 8981455.082003494724631 ], [ 775795.446206614957191, 8981455.082003494724631 ] ] ] } },
{ "type": "Feature", "properties": { "LAYER": "MLuas", "GM_TYPE": "Unknown Line Type", "ELEVATION": 0 }, "geometry": { "type": "MultiLineString", "coordinates": [ [ [ 775593.191898663644679, 8981258.389281045645475 ], [ 775650.877170597319491, 8981258.389281045645475 ] ] ] } },
{ "type": "Feature", "properties": { "LAYER": "MLuas", "GM_TYPE": "Unknown Line Type", "ELEVATION": 0 }, "geometry": { "type": "MultiLineString", "coordinates": [ [ [ 775587.866422544815578, 8981048.536610627546906 ], [ 775645.551694478373975, 8981048.536610627546906 ] ] ] } },
{ "type": "Feature", "properties": { "LAYER": "MLuas", "GM_TYPE": "Unknown Line Type", "ELEVATION": 12 }, "geometry": { "type": "MultiLineString", "coordinates": [ [ [ 775594.089993401546963, 8980849.628000762313604 ], [ 775651.77526533510536, 8980849.628000762313604 ] ] ] } },
{ "type": "Feature", "properties": { "LAYER": "MLuas", "GM_TYPE": "Unknown Line Type", "ELEVATION": 0 }, "geometry": { "type": "MultiLineString", "coordinates": [ [ [ 775581.314498932799324, 8980744.30841276422143 ], [ 775638.999770866474137, 8980744.30841276422143 ] ] ] } },
{ "type": "Feature", "properties": { "LAYER": "MLuas", "GM_TYPE": "Unknown Line Type", "ELEVATION": 0 }, "geometry": { "type": "MultiLineString", "coordinates": [ [ [ 775602.695313806994818, 8980555.369428120553493 ], [ 775660.380585740553215, 8980555.369428120553493 ] ] ] } },
{ "type": "Feature", "properties": { "LAYER": "MLuas", "GM_TYPE": "Unknown Line Type", "ELEVATION": 0 }, "geometry": { "type": "MultiLineString", "coordinates": [ [ [ 775743.945805958821438, 8980419.096497444435954 ], [ 775801.631077892379835, 8980419.096497444435954 ] ] ] } },
{ "type": "Feature", "properties": { "LAYER": "MLuas", "GM_TYPE": "Unknown Line Type", "ELEVATION": 12 }, "geometry": { "type": "MultiLineString", "coordinates": [ [ [ 774916.031179649988189, 8981356.639572279527783 ], [ 774973.716451583663002, 8981356.639572279527783 ] ] ] } },
{ "type": "Feature", "properties": { "LAYER": "MLuas", "GM_TYPE": "Unknown Line Type", "ELEVATION": 0 }, "geometry": { "type": "MultiLineString", "coordinates": [ [ [ 775119.949276820523664, 8981442.159456487745047 ], [ 775177.634548754198477, 8981442.159456487745047 ] ] ] } },
{ "type": "Feature", "properties": { "LAYER": "MLuas", "GM_TYPE": "Unknown Line Type", "ELEVATION": 0 }, "geometry": { "type": "MultiLineString", "coordinates": [ [ [ 774973.494534079916775, 8981150.914748307317495 ], [ 775031.179806013591588, 8981150.914748307317495 ] ] ] } },
{ "type": "Feature", "properties": { "LAYER": "MLuas", "GM_TYPE": "Unknown Line Type", "ELEVATION": 0 }, "geometry": { "type": "MultiLineString", "coordinates": [ [ [ 775030.607824940700084, 8980981.439437011256814 ], [ 775088.293096874374896, 8980981.439437011256814 ] ] ] } },
{ "type": "Feature", "properties": { "LAYER": "MLuas", "GM_TYPE": "Unknown Line Type", "ELEVATION": 10 }, "geometry": { "type": "MultiLineString", "coordinates": [ [ [ 774734.782717920606956, 8980873.518665958195925 ], [ 774792.467989854281768, 8980873.518665958195925 ] ] ] } },
{ "type": "Feature", "properties": { "LAYER": "MLuas", "GM_TYPE": "Unknown Line Type", "ELEVATION": 0 }, "geometry": { "type": "MultiLineString", "coordinates": [ [ [ 774643.581059259129688, 8980629.079201828688383 ], [ 774701.266331192688085, 8980629.079201828688383 ] ] ] } },
{ "type": "Feature", "properties": { "LAYER": "MLuas", "GM_TYPE": "Unknown Line Type", "ELEVATION": 0 }, "geometry": { "type": "MultiLineString", "coordinates": [ [ [ 775018.047590247355402, 8980718.853279871866107 ], [ 775075.732862181030214, 8980718.853279871866107 ] ] ] } },
{ "type": "Feature", "properties": { "LAYER": "MLuas", "GM_TYPE": "Unknown Line Type", "ELEVATION": 0 }, "geometry": { "type": "MultiLineString", "coordinates": [ [ [ 774978.104464001953602, 8980474.468318492174149 ], [ 775035.789735935628414, 8980474.468318492174149 ] ] ] } },
{ "type": "Feature", "properties": { "LAYER": "MLuas", "GM_TYPE": "Unknown Line Type", "ELEVATION": 0 }, "geometry": { "type": "MultiLineString", "coordinates": [ [ [ 774611.959431666648015, 8980386.35672865062952 ], [ 774669.644703600439243, 8980386.35672865062952 ] ] ] } },
{ "type": "Feature", "properties": { "LAYER": "MLuas", "GM_TYPE": "Unknown Line Type", "ELEVATION": 9 }, "geometry": { "type": "MultiLineString", "coordinates": [ [ [ 774360.019819548237137, 8980118.617349278181791 ], [ 774417.705091481795534, 8980118.617349278181791 ] ] ] } },
{ "type": "Feature", "properties": { "LAYER": "MLuas", "GM_TYPE": "Unknown Line Type", "ELEVATION": 9 }, "geometry": { "type": "MultiLineString", "coordinates": [ [ [ 774637.261723029660061, 8980153.520315090194345 ], [ 774694.946994963334873, 8980153.520315090194345 ] ] ] } },
{ "type": "Feature", "properties": { "LAYER": "MLuas", "GM_TYPE": "Unknown Line Type", "ELEVATION": 0 }, "geometry": { "type": "MultiLineString", "coordinates": [ [ [ 775001.394667971646413, 8980218.507342137396336 ], [ 775059.079939905321226, 8980218.507342137396336 ] ] ] } },
{ "type": "Feature", "properties": { "LAYER": "MLuas", "GM_TYPE": "Unknown Line Type", "ELEVATION": 0 }, "geometry": { "type": "MultiLineString", "coordinates": [ [ [ 774966.702860223944299, 8980009.428154485300183 ], [ 775024.388132157502696, 8980009.428154485300183 ] ] ] } },
{ "type": "Feature", "properties": { "LAYER": "MLuas", "GM_TYPE": "Unknown Line Type", "ELEVATION": 0 }, "geometry": { "type": "MultiLineString", "coordinates": [ [ [ 774240.036149031715468, 8979857.961055122315884 ], [ 774297.72142096539028, 8979857.961055122315884 ] ] ] } },
{ "type": "Feature", "properties": { "LAYER": "MLuas", "GM_TYPE": "Unknown Line Type", "ELEVATION": 0 }, "geometry": { "type": "MultiLineString", "coordinates": [ [ [ 774629.623459695838392, 8979920.770454594865441 ], [ 774687.308731629513204, 8979920.770454594865441 ] ] ] } },
{ "type": "Feature", "properties": { "LAYER": "MLuas", "GM_TYPE": "Unknown Line Type", "ELEVATION": 0 }, "geometry": { "type": "MultiLineString", "coordinates": [ [ [ 773779.653559316182509, 8980231.771471526473761 ], [ 773837.338831249857321, 8980231.771471526473761 ] ] ] } },
{ "type": "Feature", "properties": { "LAYER": "MLuas", "GM_TYPE": "Unknown Line Type", "ELEVATION": 0 }, "geometry": { "type": "MultiLineString", "coordinates": [ [ [ 774077.514528266503476, 8980173.715563967823982 ], [ 774135.199800200061873, 8980173.715563967823982 ] ] ] } },
{ "type": "Feature", "properties": { "LAYER": "MLuas", "GM_TYPE": "Unknown Line Type", "ELEVATION": 0 }, "geometry": { "type": "MultiLineString", "coordinates": [ [ [ 773857.751264908351004, 8980023.133071534335613 ], [ 773915.436536842025816, 8980023.133071534335613 ] ] ] } },
{ "type": "Feature", "properties": { "LAYER": "MLuas", "GM_TYPE": "Unknown Line Type", "ELEVATION": 0 }, "geometry": { "type": "MultiLineString", "coordinates": [ [ [ 773809.446738266153261, 8979889.142984474077821 ], [ 773867.132010199944489, 8979889.142984474077821 ] ] ] } },
{ "type": "Feature", "properties": { "LAYER": "MLuas", "GM_TYPE": "Unknown Line Type", "ELEVATION": 0 }, "geometry": { "type": "MultiLineString", "coordinates": [ [ [ 773863.760245529701933, 8980445.322819102555513 ], [ 773921.445517463376746, 8980445.322819102555513 ] ] ] } },
{ "type": "Feature", "properties": { "LAYER": "MLuas", "GM_TYPE": "Unknown Line Type", "ELEVATION": 0 }, "geometry": { "type": "MultiLineString", "coordinates": [ [ [ 774189.585608347551897, 8980396.065764918923378 ], [ 774247.270880281226709, 8980396.065764918923378 ] ] ] } },
{ "type": "Feature", "properties": { "LAYER": "MLuas", "GM_TYPE": "Unknown Line Type", "ELEVATION": 0 }, "geometry": { "type": "MultiLineString", "coordinates": [ [ [ 774283.724964107852429, 8980619.684156335890293 ], [ 774341.410236041527241, 8980619.684156335890293 ] ] ] } },
{ "type": "Feature", "properties": { "LAYER": "MLuas", "GM_TYPE": "Unknown Line Type", "ELEVATION": 0 }, "geometry": { "type": "MultiLineString", "coordinates": [ [ [ 773955.84585105755832, 8980681.551630949601531 ], [ 774013.531122991349548, 8980681.551630949601531 ] ] ] } },
{ "type": "Feature", "properties": { "LAYER": "MLuas", "GM_TYPE": "Unknown Line Type", "ELEVATION": 12 }, "geometry": { "type": "MultiLineString", "coordinates": [ [ [ 773938.085203082649969, 8980869.31422490440309 ], [ 773995.770475016208366, 8980869.31422490440309 ] ] ] } },
{ "type": "Feature", "properties": { "LAYER": "MLuas", "GM_TYPE": "Unknown Line Type", "ELEVATION": 0 }, "geometry": { "type": "MultiLineString", "coordinates": [ [ [ 774344.491379011655226, 8980825.241403203457594 ], [ 774402.176650945446454, 8980825.241403203457594 ] ] ] } },
{ "type": "Feature", "properties": { "LAYER": "MLuas", "GM_TYPE": "Unknown Line Type", "ELEVATION": 0 }, "geometry": { "type": "MultiLineString", "coordinates": [ [ [ 773896.648803965654224, 8981155.811181217432022 ], [ 773954.334075899329036, 8981155.811181217432022 ] ] ] } },
{ "type": "Feature", "properties": { "LAYER": "MLuas", "GM_TYPE": "Unknown Line Type", "ELEVATION": 0 }, "geometry": { "type": "MultiLineString", "coordinates": [ [ [ 774183.097907728049904, 8981091.155216608196497 ], [ 774240.783179661841132, 8981091.155216608196497 ] ] ] } },
{ "type": "Feature", "properties": { "LAYER": "MLuas", "GM_TYPE": "Unknown Line Type", "ELEVATION": 0 }, "geometry": { "type": "MultiLineString", "coordinates": [ [ [ 774479.574763900251128, 8981030.338662123307586 ], [ 774537.260035833809525, 8981030.338662123307586 ] ] ] } },
{ "type": "Feature", "properties": { "LAYER": "MLuas", "GM_TYPE": "Unknown Line Type", "ELEVATION": 0 }, "geometry": { "type": "MultiLineString", "coordinates": [ [ [ 774623.599436590448022, 8981260.181147918105125 ], [ 774681.28470852423925, 8981260.181147918105125 ] ] ] } },
{ "type": "Feature", "properties": { "LAYER": "MLuas", "GM_TYPE": "Unknown Line Type", "ELEVATION": 0 }, "geometry": { "type": "MultiLineString", "coordinates": [ [ [ 774322.329862827202305, 8981319.060980193316936 ], [ 774380.015134760993533, 8981319.060980193316936 ] ] ] } },
{ "type": "Feature", "properties": { "LAYER": "MLuas", "GM_TYPE": "Unknown Line Type", "ELEVATION": 14 }, "geometry": { "type": "MultiLineString", "coordinates": [ [ [ 773969.907459743320942, 8981398.147843485698104 ], [ 774027.592731676995754, 8981398.147843485698104 ] ] ] } },
{ "type": "Feature", "properties": { "LAYER": "MLuas", "GM_TYPE": "Unknown Line Type", "ELEVATION": 0 }, "geometry": { "type": "MultiLineString", "coordinates": [ [ [ 773944.196105855982751, 8981685.702956777065992 ], [ 774001.881377789657563, 8981685.702956777065992 ] ] ] } },
{ "type": "Feature", "properties": { "LAYER": "MLuas", "GM_TYPE": "Unknown Line Type", "ELEVATION": 0 }, "geometry": { "type": "MultiLineString", "coordinates": [ [ [ 774219.848187917028554, 8981633.713444508612156 ], [ 774277.533459850703366, 8981633.713444508612156 ] ] ] } },
{ "type": "Feature", "properties": { "LAYER": "MLuas", "GM_TYPE": "Unknown Line Type", "ELEVATION": 0 }, "geometry": { "type": "MultiLineString", "coordinates": [ [ [ 774585.361474247649312, 8981557.657289866358042 ], [ 774643.046746181324124, 8981557.657289866358042 ] ] ] } },
{ "type": "Feature", "properties": { "LAYER": "MLuas", "GM_TYPE": "Unknown Line Type", "ELEVATION": 0 }, "geometry": { "type": "MultiLineString", "coordinates": [ [ [ 773893.096102044219151, 8982019.066829793155193 ], [ 773950.781373977893963, 8982019.066829793155193 ] ] ] } },
{ "type": "Feature", "properties": { "LAYER": "MLuas", "GM_TYPE": "Unknown Line Type", "ELEVATION": 0 }, "geometry": { "type": "MultiLineString", "coordinates": [ [ [ 774151.376559419091791, 8981961.048021625727415 ], [ 774209.061831352883019, 8981961.048021625727415 ] ] ] } },
{ "type": "Feature", "properties": { "LAYER": "MLuas", "GM_TYPE": "Unknown Line Type", "ELEVATION": 14 }, "geometry": { "type": "MultiLineString", "coordinates": [ [ [ 774333.475994094042107, 8981928.57616619952023 ], [ 774391.161266027600504, 8981928.57616619952023 ] ] ] } },
{ "type": "Feature", "properties": { "LAYER": "MLuas", "GM_TYPE": "Unknown Line Type", "ELEVATION": 0 }, "geometry": { "type": "MultiLineString", "coordinates": [ [ [ 774023.340744395041838, 8982251.122633434832096 ], [ 774081.026016328716651, 8982251.122633434832096 ] ] ] } },
{ "type": "Feature", "properties": { "LAYER": "MLuas", "GM_TYPE": "Unknown Line Type", "ELEVATION": 0 }, "geometry": { "type": "MultiLineString", "coordinates": [ [ [ 774015.258218835806474, 8982467.136191386729479 ], [ 774072.943490769481286, 8982467.136191386729479 ] ] ] } },
{ "type": "Feature", "properties": { "LAYER": "MLuas", "GM_TYPE": "Unknown Line Type", "ELEVATION": 0 }, "geometry": { "type": "MultiLineString", "coordinates": [ [ [ 774000.725101951975375, 8982716.578226879239082 ], [ 774058.410373885650188, 8982716.578226879239082 ] ] ] } },
{ "type": "Feature", "properties": { "LAYER": "MLuas", "GM_TYPE": "Unknown Line Type", "ELEVATION": 0 }, "geometry": { "type": "MultiLineString", "coordinates": [ [ [ 773974.478434433694929, 8982956.728615183383226 ], [ 774032.163706367369741, 8982956.728615183383226 ] ] ] } },
{ "type": "Feature", "properties": { "LAYER": "MLuas", "GM_TYPE": "Unknown Line Type", "ELEVATION": 0 }, "geometry": { "type": "MultiLineString", "coordinates": [ [ [ 773956.856700501171872, 8983182.04236239567399 ], [ 774014.541972434846684, 8983182.04236239567399 ] ] ] } },
{ "type": "Feature", "properties": { "LAYER": "MLuas", "GM_TYPE": "Unknown Line Type", "ELEVATION": 0 }, "geometry": { "type": "MultiLineString", "coordinates": [ [ [ 773601.080469462787732, 8983236.964803457260132 ], [ 773658.765741396462545, 8983236.964803457260132 ] ] ] } },
{ "type": "Feature", "properties": { "LAYER": "MLuas", "GM_TYPE": "Unknown Line Type", "ELEVATION": 0 }, "geometry": { "type": "MultiLineString", "coordinates": [ [ [ 773540.95806224597618, 8982988.621311921626329 ], [ 773598.643334179650992, 8982988.621311921626329 ] ] ] } },
{ "type": "Feature", "properties": { "LAYER": "MLuas", "GM_TYPE": "Unknown Line Type", "ELEVATION": 0 }, "geometry": { "type": "MultiLineString", "coordinates": [ [ [ 773681.346225894754753, 8982718.677248455584049 ], [ 773739.031497828429565, 8982718.677248455584049 ] ] ] } },
{ "type": "Feature", "properties": { "LAYER": "MLuas", "GM_TYPE": "Unknown Line Type", "ELEVATION": 0 }, "geometry": { "type": "MultiLineString", "coordinates": [ [ [ 773982.684529225807637, 8983702.461589584127069 ], [ 774040.369801159366034, 8983702.461589584127069 ] ] ] } },
{ "type": "Feature", "properties": { "LAYER": "MLuas", "GM_TYPE": "Unknown Line Type", "ELEVATION": 0 }, "geometry": { "type": "MultiLineString", "coordinates": [ [ [ 773747.493527328944765, 8983629.123054526746273 ], [ 773805.178799262852408, 8983629.123054526746273 ] ] ] } },
{ "type": "Feature", "properties": { "LAYER": "MLuas", "GM_TYPE": "Unknown Line Type", "ELEVATION": 0 }, "geometry": { "type": "MultiLineString", "coordinates": [ [ [ 773742.495076882885769, 8983441.076558511704206 ], [ 773800.180348816560581, 8983441.076558511704206 ] ] ] } },
{ "type": "Feature", "properties": { "LAYER": "MLuas", "GM_TYPE": "Unknown Line Type", "ELEVATION": 0 }, "geometry": { "type": "MultiLineString", "coordinates": [ [ [ 774140.125108663341962, 8983524.285032529383898 ], [ 774197.810380596900359, 8983524.285032529383898 ] ] ] } },
{ "type": "Feature", "properties": { "LAYER": "MLuas", "GM_TYPE": "Unknown Line Type", "ELEVATION": 0 }, "geometry": { "type": "MultiLineString", "coordinates": [ [ [ 774271.343306470196694, 8983391.534768596291542 ], [ 774329.028578403871506, 8983391.534768596291542 ] ] ] } },
{ "type": "Feature", "properties": { "LAYER": "MLuas", "GM_TYPE": "Unknown Line Type", "ELEVATION": 0 }, "geometry": { "type": "MultiLineString", "coordinates": [ [ [ 774321.806429997552186, 8983104.873217020183802 ], [ 774379.491701931226999, 8983104.873217020183802 ] ] ] } },
{ "type": "Feature", "properties": { "LAYER": "MLuas", "GM_TYPE": "Unknown Line Type", "ELEVATION": 0 }, "geometry": { "type": "MultiLineString", "coordinates": [ [ [ 774436.210072911926545, 8982826.102983076125383 ], [ 774493.895344845484942, 8982826.102983076125383 ] ] ] } },
{ "type": "Feature", "properties": { "LAYER": "MLuas", "GM_TYPE": "Unknown Line Type", "ELEVATION": 19 }, "geometry": { "type": "MultiLineString", "coordinates": [ [ [ 774483.059870588826016, 8982628.834168497473001 ], [ 774540.745142522617243, 8982628.834168497473001 ] ] ] } },
{ "type": "Feature", "properties": { "LAYER": "MLuas", "GM_TYPE": "Unknown Line Type", "ELEVATION": 0 }, "geometry": { "type": "MultiLineString", "coordinates": [ [ [ 774495.456869261222892, 8982441.227048587054014 ], [ 774553.142141194781289, 8982441.227048587054014 ] ] ] } },
{ "type": "Feature", "properties": { "LAYER": "MLuas", "GM_TYPE": "Unknown Line Type", "ELEVATION": 0 }, "geometry": { "type": "MultiLineString", "coordinates": [ [ [ 775033.037760414881632, 8982602.51538684591651 ], [ 775090.723032348556444, 8982602.51538684591651 ] ] ] } },
{ "type": "Feature", "properties": { "LAYER": "MLuas", "GM_TYPE": "Unknown Line Type", "ELEVATION": 22 }, "geometry": { "type": "MultiLineString", "coordinates": [ [ [ 774985.403488552197814, 8982762.277865137904882 ], [ 775043.088760485989042, 8982762.277865137904882 ] ] ] } },
{ "type": "Feature", "properties": { "LAYER": "MLuas", "GM_TYPE": "Unknown Line Type", "ELEVATION": 18 }, "geometry": { "type": "MultiLineString", "coordinates": [ [ [ 775038.894939225399867, 8982439.36857620999217 ], [ 775096.580211159074679, 8982439.36857620999217 ] ] ] } },
{ "type": "Feature", "properties": { "LAYER": "MLuas", "GM_TYPE": "Unknown Line Type", "ELEVATION": 0 }, "geometry": { "type": "MultiLineString", "coordinates": [ [ [ 774534.632218488142826, 8982273.870506003499031 ], [ 774592.317490421701223, 8982273.870506003499031 ] ] ] } },
{ "type": "Feature", "properties": { "LAYER": "MLuas", "GM_TYPE": "Unknown Line Type", "ELEVATION": 0 }, "geometry": { "type": "MultiLineString", "coordinates": [ [ [ 775032.184500996489078, 8982237.106540359556675 ], [ 775089.86977293016389, 8982237.106540359556675 ] ] ] } },
{ "type": "Feature", "properties": { "LAYER": "MLuas", "GM_TYPE": "Unknown Line Type", "ELEVATION": 0 }, "geometry": { "type": "MultiLineString", "coordinates": [ [ [ 774592.149763310444541, 8982085.501974001526833 ], [ 774649.835035244119354, 8982085.501974001526833 ] ] ] } },
{ "type": "Feature", "properties": { "LAYER": "MLuas", "GM_TYPE": "Unknown Line Type", "ELEVATION": 0 }, "geometry": { "type": "MultiLineString", "coordinates": [ [ [ 775047.799084322759882, 8982046.656114406883717 ], [ 775105.484356256551109, 8982046.656114406883717 ] ] ] } },
{ "type": "Feature", "properties": { "LAYER": "MLuas", "GM_TYPE": "Unknown Line Type", "ELEVATION": 0 }, "geometry": { "type": "MultiLineString", "coordinates": [ [ [ 774676.564729188219644, 8981903.01447419822216 ], [ 774734.250001121778041, 8981903.01447419822216 ] ] ] } },
{ "type": "Feature", "properties": { "LAYER": "MLuas", "GM_TYPE": "Unknown Line Type", "ELEVATION": 0 }, "geometry": { "type": "MultiLineString", "coordinates": [ [ [ 775092.289663644740358, 8981861.205118589103222 ], [ 775149.97493557841517, 8981861.205118589103222 ] ] ] } },
{ "type": "Feature", "properties": { "LAYER": "MLuas", "GM_TYPE": "Unknown Line Type", "ELEVATION": 13 }, "geometry": { "type": "MultiLineString", "coordinates": [ [ [ 774831.904841799638234, 8981707.347351673990488 ], [ 774889.590113733196631, 8981707.347351673990488 ] ] ] } },
{ "type": "Feature", "properties": { "LAYER": "MLuas", "GM_TYPE": "Unknown Line Type", "ELEVATION": 0 }, "geometry": { "type": "MultiLineString", "coordinates": [ [ [ 775008.305542400572449, 8981620.473584650084376 ], [ 775065.990814334247261, 8981620.473584650084376 ] ] ] } },
{ "type": "Feature", "properties": { "LAYER": "MLuas", "GM_TYPE": "Unknown Line Type", "ELEVATION": 0 }, "geometry": { "type": "MultiLineString", "coordinates": [ [ [ 773231.387512649525888, 8982922.776207147166133 ], [ 773289.072784583084285, 8982922.776207147166133 ] ] ] } },
{ "type": "Feature", "properties": { "LAYER": "MLuas", "GM_TYPE": "Unknown Line Type", "ELEVATION": 0 }, "geometry": { "type": "MultiLineString", "coordinates": [ [ [ 773048.16078936168924, 8982756.125206345692277 ], [ 773105.846061295247637, 8982756.125206345692277 ] ] ] } },
{ "type": "Feature", "properties": { "LAYER": "MLuas", "GM_TYPE": "Unknown Line Type", "ELEVATION": 0 }, "geometry": { "type": "MultiLineString", "coordinates": [ [ [ 773342.28788363118656, 8982750.34540594369173 ], [ 773399.973155564744957, 8982750.34540594369173 ] ] ] } },
{ "type": "Feature", "properties": { "LAYER": "MLuas", "GM_TYPE": "Unknown Line Type", "ELEVATION": 20 }, "geometry": { "type": "MultiLineString", "coordinates": [ [ [ 773042.77872284676414, 8982517.534169334918261 ], [ 773100.463994780555367, 8982517.534169334918261 ] ] ] } },
{ "type": "Feature", "properties": { "LAYER": "MLuas", "GM_TYPE": "Unknown Line Type", "ELEVATION": 0 }, "geometry": { "type": "MultiLineString", "coordinates": [ [ [ 773458.603654735139571, 8982505.057112079113722 ], [ 773516.288926668581553, 8982505.057112079113722 ] ] ] } },
{ "type": "Feature", "properties": { "LAYER": "MLuas", "GM_TYPE": "Unknown Line Type", "ELEVATION": 0 }, "geometry": { "type": "MultiLineString", "coordinates": [ [ [ 773744.539183350279927, 8982498.246300339698792 ], [ 773802.224455284071155, 8982498.246300339698792 ] ] ] } },
{ "type": "Feature", "properties": { "LAYER": "MLuas", "GM_TYPE": "Unknown Line Type", "ELEVATION": 0 }, "geometry": { "type": "MultiLineString", "coordinates": [ [ [ 773762.284626147244126, 8982323.18033692240715 ], [ 773819.969898081035353, 8982323.18033692240715 ] ] ] } },
{ "type": "Feature", "properties": { "LAYER": "MLuas", "GM_TYPE": "Unknown Line Type", "ELEVATION": 0 }, "geometry": { "type": "MultiLineString", "coordinates": [ [ [ 773584.535746183129959, 8982171.03583450242877 ], [ 773642.221018116688356, 8982171.03583450242877 ] ] ] } },
{ "type": "Feature", "properties": { "LAYER": "MLuas", "GM_TYPE": "Unknown Line Type", "ELEVATION": 16 }, "geometry": { "type": "MultiLineString", "coordinates": [ [ [ 773655.911009283270687, 8981916.339344073086977 ], [ 773713.596281216945499, 8981916.339344073086977 ] ] ] } },
{ "type": "Feature", "properties": { "LAYER": "MLuas", "GM_TYPE": "Unknown Line Type", "ELEVATION": 0 }, "geometry": { "type": "MultiLineString", "coordinates": [ [ [ 773379.321782456943765, 8981722.704867765307426 ], [ 773437.007054390618578, 8981722.704867765307426 ] ] ] } },
{ "type": "Feature", "properties": { "LAYER": "MLuas", "GM_TYPE": "Unknown Line Type", "ELEVATION": 16 }, "geometry": { "type": "MultiLineString", "coordinates": [ [ [ 773010.092466699890792, 8981795.926025081425905 ], [ 773067.777738633565605, 8981795.926025081425905 ] ] ] } },
{ "type": "Feature", "properties": { "LAYER": "MLuas", "GM_TYPE": "Unknown Line Type", "ELEVATION": 0 }, "geometry": { "type": "MultiLineString", "coordinates": [ [ [ 772867.452586111612618, 8981876.439736496657133 ], [ 772925.13785804528743, 8981876.439736496657133 ] ] ] } },
{ "type": "Feature", "properties": { "LAYER": "MLuas", "GM_TYPE": "Unknown Line Type", "ELEVATION": 0 }, "geometry": { "type": "MultiLineString", "coordinates": [ [ [ 772943.495250947657041, 8981609.723772279918194 ], [ 773001.180522881215438, 8981609.723772279918194 ] ] ] } },
{ "type": "Feature", "properties": { "LAYER": "MLuas", "GM_TYPE": "Unknown Line Type", "ELEVATION": 0 }, "geometry": { "type": "MultiLineString", "coordinates": [ [ [ 772972.284763091593049, 8981402.898787178099155 ], [ 773029.970035025151446, 8981402.898787178099155 ] ] ] } },
{ "type": "Feature", "properties": { "LAYER": "MLuas", "GM_TYPE": "Unknown Line Type", "ELEVATION": 0 }, "geometry": { "type": "MultiLineString", "coordinates": [ [ [ 772885.00430695025716, 8981141.026228029280901 ], [ 772942.689578883931972, 8981141.026228029280901 ] ] ] } },
{ "type": "Feature", "properties": { "LAYER": "MLuas", "GM_TYPE": "Unknown Line Type", "ELEVATION": 13 }, "geometry": { "type": "MultiLineString", "coordinates": [ [ [ 773146.015268002054654, 8981110.624767653644085 ], [ 773203.700539935845882, 8981110.624767653644085 ] ] ] } },
{ "type": "Feature", "properties": { "LAYER": "MLuas", "GM_TYPE": "Unknown Line Type", "ELEVATION": 0 }, "geometry": { "type": "MultiLineString", "coordinates": [ [ [ 772876.380382683128119, 8980868.425563421100378 ], [ 772934.065654616802931, 8980868.425563421100378 ] ] ] } },
{ "type": "Feature", "properties": { "LAYER": "MLuas", "GM_TYPE": "Unknown Line Type", "ELEVATION": 0 }, "geometry": { "type": "MultiLineString", "coordinates": [ [ [ 773162.805700161377899, 8980818.268811319023371 ], [ 773220.490972095169127, 8980818.268811319023371 ] ] ] } },
{ "type": "Feature", "properties": { "LAYER": "MLuas", "GM_TYPE": "Unknown Line Type", "ELEVATION": 0 }, "geometry": { "type": "MultiLineString", "coordinates": [ [ [ 772911.125179677968845, 8980618.024805970489979 ], [ 772968.810451611643657, 8980618.024805970489979 ] ] ] } },
{ "type": "Feature", "properties": { "LAYER": "MLuas", "GM_TYPE": "Unknown Line Type", "ELEVATION": 0 }, "geometry": { "type": "MultiLineString", "coordinates": [ [ [ 772860.164899258757941, 8980407.898176047950983 ], [ 772917.850171192549169, 8980407.898176047950983 ] ] ] } },
{ "type": "Feature", "properties": { "LAYER": "MLuas", "GM_TYPE": "Unknown Line Type", "ELEVATION": 0 }, "geometry": { "type": "MultiLineString", "coordinates": [ [ [ 772821.532171861384995, 8980165.555456589907408 ], [ 772879.217443794943392, 8980165.555456589907408 ] ] ] } },
{ "type": "Feature", "properties": { "LAYER": "MLuas", "GM_TYPE": "Unknown Line Type", "ELEVATION": 0 }, "geometry": { "type": "MultiLineString", "coordinates": [ [ [ 773066.285971607547253, 8980056.452160302549601 ], [ 773123.971243541222066, 8980056.452160302549601 ] ] ] } },
{ "type": "Feature", "properties": { "LAYER": "MLuas", "GM_TYPE": "Unknown Line Type", "ELEVATION": 0 }, "geometry": { "type": "MultiLineString", "coordinates": [ [ [ 773201.092870380030945, 8980263.368847064673901 ], [ 773258.778142313822173, 8980263.368847064673901 ] ] ] } },
{ "type": "Feature", "properties": { "LAYER": "MLuas", "GM_TYPE": "Unknown Line Type", "ELEVATION": 0 }, "geometry": { "type": "MultiLineString", "coordinates": [ [ [ 773300.261085613747127, 8980425.219186663627625 ], [ 773357.946357547538355, 8980425.219186663627625 ] ] ] } },
{ "type": "Feature", "properties": { "LAYER": "MLuas", "GM_TYPE": "Unknown Line Type", "ELEVATION": 0 }, "geometry": { "type": "MultiLineString", "coordinates": [ [ [ 773467.042638118495233, 8980529.2189801633358 ], [ 773524.727910052286461, 8980529.2189801633358 ] ] ] } },
{ "type": "Feature", "properties": { "LAYER": "MLuas", "GM_TYPE": "Unknown Line Type", "ELEVATION": 12 }, "geometry": { "type": "MultiLineString", "coordinates": [ [ [ 773534.899484531604685, 8980737.502112038433552 ], [ 773592.584756465046667, 8980737.502112038433552 ] ] ] } },
{ "type": "Feature", "properties": { "LAYER": "MLuas", "GM_TYPE": "Unknown Line Type", "ELEVATION": 0 }, "geometry": { "type": "MultiLineString", "coordinates": [ [ [ 773658.741416808799841, 8980879.148962367326021 ], [ 773716.426688742358238, 8980879.148962367326021 ] ] ] } },
{ "type": "Feature", "properties": { "LAYER": "MLuas", "GM_TYPE": "Unknown Line Type", "ELEVATION": 13 }, "geometry": { "type": "MultiLineString", "coordinates": [ [ [ 773667.444875341956504, 8981137.369660507887602 ], [ 773725.130147275747731, 8981137.369660507887602 ] ] ] } },
{ "type": "Feature", "properties": { "LAYER": "MLuas", "GM_TYPE": "Unknown Line Type", "ELEVATION": 0 }, "geometry": { "type": "MultiLineString", "coordinates": [ [ [ 773389.401529057649896, 8981133.870343126356602 ], [ 773447.086800991324708, 8981133.870343126356602 ] ] ] } },
{ "type": "Feature", "properties": { "LAYER": "MLuas", "GM_TYPE": "Unknown Line Type", "ELEVATION": 0 }, "geometry": { "type": "MultiLineString", "coordinates": [ [ [ 773653.175527225015685, 8981396.467511422932148 ], [ 773710.860799158574082, 8981396.467511422932148 ] ] ] } },
{ "type": "Feature", "properties": { "LAYER": "MLuas", "GM_TYPE": "Unknown Line Type", "ELEVATION": 0 }, "geometry": { "type": "MultiLineString", "coordinates": [ [ [ 773611.977245524758473, 8981587.70592850446701 ], [ 773669.662517458549701, 8981587.70592850446701 ] ] ] } },
{ "type": "Feature", "properties": { "LAYER": "MLuas", "GM_TYPE": "Unknown Line Type", "ELEVATION": 0 }, "geometry": { "type": "MultiLineString", "coordinates": [ [ [ 773320.394629616755992, 8981343.469121497124434 ], [ 773378.079901550430804, 8981343.469121497124434 ] ] ] } },
{ "type": "Feature", "properties": { "LAYER": "MLuas", "GM_TYPE": "Unknown Line Type", "ELEVATION": 0 }, "geometry": { "type": "MultiLineString", "coordinates": [ [ [ 773231.944589445134625, 8981879.515753369778395 ], [ 773289.629861378809437, 8981879.515753369778395 ] ] ] } },
{ "type": "Feature", "properties": { "LAYER": "MLuas", "GM_TYPE": "Unknown Line Type", "ELEVATION": 0 }, "geometry": { "type": "MultiLineString", "coordinates": [ [ [ 773439.849464893224649, 8982314.373293206095695 ], [ 773497.534736826783046, 8982314.373293206095695 ] ] ] } },
{ "type": "Feature", "properties": { "LAYER": "MLuas", "GM_TYPE": "Unknown Line Type", "ELEVATION": 0 }, "geometry": { "type": "MultiLineString", "coordinates": [ [ [ 773022.067216342547908, 8982352.423167804256082 ], [ 773079.752488276339136, 8982352.423167804256082 ] ] ] } },
{ "type": "Feature", "properties": { "LAYER": "MLuas", "GM_TYPE": "Unknown Line Type", "ELEVATION": 0 }, "geometry": { "type": "MultiLineString", "coordinates": [ [ [ 773014.319309085956775, 8982212.541516585275531 ], [ 773072.004581019748002, 8982212.541516585275531 ] ] ] } },
{ "type": "Feature", "properties": { "LAYER": "MLuas", "GM_TYPE": "Unknown Line Type", "ELEVATION": 0 }, "geometry": { "type": "MultiLineString", "coordinates": [ [ [ 772941.711897792643867, 8982044.049332307651639 ], [ 772999.39716972631868, 8982044.049332307651639 ] ] ] } },
{ "type": "Feature", "properties": { "LAYER": "MLuas", "GM_TYPE": "Unknown Line Type", "ELEVATION": 12 }, "geometry": { "type": "MultiLineString", "coordinates": [ [ [ 775274.751030399929732, 8981116.240818718448281 ], [ 775332.436302333488129, 8981116.240818718448281 ] ] ] } },
{ "type": "Feature", "properties": { "LAYER": "MLuas", "GM_TYPE": "Unknown Line Type", "ELEVATION": 0 }, "geometry": { "type": "MultiLineString", "coordinates": [ [ [ 775264.210087102139369, 8980719.032571196556091 ], [ 775321.895359035930596, 8980719.032571196556091 ] ] ] } },
{ "type": "Feature", "properties": { "LAYER": "MLuas", "GM_TYPE": "Unknown Line Type", "ELEVATION": 0 }, "geometry": { "type": "MultiLineString", "coordinates": [ [ [ 776248.642883756081574, 8981653.119685351848602 ], [ 776306.328155689872801, 8981653.119685351848602 ] ] ] } },
{ "type": "Feature", "properties": { "LAYER": "MLuas", "GM_TYPE": "Unknown Line Type", "ELEVATION": 0 }, "geometry": { "type": "MultiLineString", "coordinates": [ [ [ 776025.7887330573285, 8981441.448617178946733 ], [ 776083.474004991003312, 8981441.448617178946733 ] ] ] } },
{ "type": "Feature", "properties": { "LAYER": "MLuas", "GM_TYPE": "Unknown Line Type", "ELEVATION": 0 }, "geometry": { "type": "MultiLineString", "coordinates": [ [ [ 776278.322157055488788, 8981382.345545964315534 ], [ 776336.0074289891636, 8981382.345545964315534 ] ] ] } },
{ "type": "Feature", "properties": { "LAYER": "MLuas", "GM_TYPE": "Unknown Line Type", "ELEVATION": 0 }, "geometry": { "type": "MultiLineString", "coordinates": [ [ [ 776424.863077589543536, 8980205.699850900098681 ], [ 776482.548349523334764, 8980205.699850900098681 ] ] ] } },
{ "type": "Feature", "properties": { "LAYER": "MLuas", "GM_TYPE": "Unknown Line Type", "ELEVATION": 0 }, "geometry": { "type": "MultiLineString", "coordinates": [ [ [ 776417.395100212539546, 8979950.424496101215482 ], [ 776475.080372146214359, 8979950.424496101215482 ] ] ] } },
{ "type": "Feature", "properties": { "LAYER": "MLuas", "GM_TYPE": "Unknown Line Type", "ELEVATION": 0 }, "geometry": { "type": "MultiLineString", "coordinates": [ [ [ 773429.827694489387795, 8980067.07250727340579 ], [ 773487.512966423062608, 8980067.07250727340579 ] ] ] } },
{ "type": "Feature", "properties": { "LAYER": "MLuas", "GM_TYPE": "Unknown Line Type", "ELEVATION": 19 }, "geometry": { "type": "MultiLineString", "coordinates": [ [ [ 776923.985809334670193, 8982150.577605850994587 ], [ 776981.671081268345006, 8982150.577605850994587 ] ] ] } },
{ "type": "Feature", "properties": { "LAYER": "MLuas", "GM_TYPE": "Unknown Line Type", "ELEVATION": 0 }, "geometry": { "type": "MultiLineString", "coordinates": [ [ [ 771079.095640406943858, 8980800.679068937897682 ], [ 771136.78091234061867, 8980800.679068937897682 ] ] ] } },
{ "type": "Feature", "properties": { "LAYER": "MLuas", "GM_TYPE": "Unknown Line Type", "ELEVATION": 0 }, "geometry": { "type": "MultiLineString", "coordinates": [ [ [ 771007.07408932398539, 8980538.714556958526373 ], [ 771064.759361257660203, 8980538.714556958526373 ] ] ] } },
{ "type": "Feature", "properties": { "LAYER": "MLuas", "GM_TYPE": "Unknown Line Type", "ELEVATION": 0 }, "geometry": { "type": "MultiLineString", "coordinates": [ [ [ 771098.373834156431258, 8980342.915519021451473 ], [ 771156.05910609010607, 8980342.915519021451473 ] ] ] } },
{ "type": "Feature", "properties": { "LAYER": "MLuas", "GM_TYPE": "Unknown Line Type", "ELEVATION": 0 }, "geometry": { "type": "MultiLineString", "coordinates": [ [ [ 771207.711115589248948, 8980113.6271419133991 ], [ 771265.39638752292376, 8980113.6271419133991 ] ] ] } },
{ "type": "Feature", "properties": { "LAYER": "MLuas", "GM_TYPE": "Unknown Line Type", "ELEVATION": 0 }, "geometry": { "type": "MultiLineString", "coordinates": [ [ [ 771500.466953481547534, 8980143.726632272824645 ], [ 771558.152225415222347, 8980143.726632272824645 ] ] ] } },
{ "type": "Feature", "properties": { "LAYER": "MLuas", "GM_TYPE": "Unknown Line Type", "ELEVATION": 0 }, "geometry": { "type": "MultiLineString", "coordinates": [ [ [ 771724.796009015059099, 8980005.913256032392383 ], [ 771782.481280948850326, 8980005.913256032392383 ] ] ] } },
{ "type": "Feature", "properties": { "LAYER": "MLuas", "GM_TYPE": "Unknown Line Type", "ELEVATION": 0 }, "geometry": { "type": "MultiLineString", "coordinates": [ [ [ 771374.29292035207618, 8979920.271761246025562 ], [ 771431.978192285750993, 8979920.271761246025562 ] ] ] } },
{ "type": "Feature", "properties": { "LAYER": "MLuas", "GM_TYPE": "Unknown Line Type", "ELEVATION": 0 }, "geometry": { "type": "MultiLineString", "coordinates": [ [ [ 771508.851375621045008, 8979746.82064657099545 ], [ 771566.536647554836236, 8979746.82064657099545 ] ] ] } },
{ "type": "Feature", "properties": { "LAYER": "MLuas", "GM_TYPE": "Unknown Line Type", "ELEVATION": 0 }, "geometry": { "type": "MultiLineString", "coordinates": [ [ [ 771835.481177549343556, 8979846.555030832067132 ], [ 771893.166449483134784, 8979846.555030832067132 ] ] ] } },
{ "type": "Feature", "properties": { "LAYER": "MLuas", "GM_TYPE": "Unknown Line Type", "ELEVATION": 0 }, "geometry": { "type": "MultiLineString", "coordinates": [ [ [ 771808.343020939966664, 8979603.116589844226837 ], [ 771866.028292873757891, 8979603.116589844226837 ] ] ] } },
{ "type": "Feature", "properties": { "LAYER": "MLuas", "GM_TYPE": "Unknown Line Type", "ELEVATION": 0 }, "geometry": { "type": "MultiLineString", "coordinates": [ [ [ 771558.398356853751466, 8979561.02224543876946 ], [ 771616.083628787309863, 8979561.02224543876946 ] ] ] } },
{ "type": "Feature", "properties": { "LAYER": "MLuas", "GM_TYPE": "Unknown Line Type", "ELEVATION": 0 }, "geometry": { "type": "MultiLineString", "coordinates": [ [ [ 772238.795237784506753, 8979722.046464454382658 ], [ 772296.48050971806515, 8979722.046464454382658 ] ] ] } },
{ "type": "Feature", "properties": { "LAYER": "MLuas", "GM_TYPE": "Unknown Line Type", "ELEVATION": 11 }, "geometry": { "type": "MultiLineString", "coordinates": [ [ [ 772124.780268182279542, 8979906.562536220997572 ], [ 772182.465540115954354, 8979906.562536220997572 ] ] ] } },
{ "type": "Feature", "properties": { "LAYER": "MLuas", "GM_TYPE": "Unknown Line Type", "ELEVATION": 0 }, "geometry": { "type": "MultiLineString", "coordinates": [ [ [ 771447.144972182577476, 8980713.84555366076529 ], [ 771504.830244116252288, 8980713.84555366076529 ] ] ] } },
{ "type": "Feature", "properties": { "LAYER": "MLuas", "GM_TYPE": "Unknown Line Type", "ELEVATION": 0 }, "geometry": { "type": "MultiLineString", "coordinates": [ [ [ 771281.567816060152836, 8980601.193951245397329 ], [ 771339.253087993944064, 8980601.193951245397329 ] ] ] } },
{ "type": "Feature", "properties": { "LAYER": "MLuas", "GM_TYPE": "Unknown Line Type", "ELEVATION": 0 }, "geometry": { "type": "MultiLineString", "coordinates": [ [ [ 771591.311319164116867, 8980470.004736125469208 ], [ 771648.996591097675264, 8980470.004736125469208 ] ] ] } },
{ "type": "Feature", "properties": { "LAYER": "MLuas", "GM_TYPE": "Unknown Line Type", "ELEVATION": 0 }, "geometry": { "type": "MultiLineString", "coordinates": [ [ [ 771436.692800343735144, 8980357.749462781473994 ], [ 771494.378072277409956, 8980357.749462781473994 ] ] ] } },
{ "type": "Feature", "properties": { "LAYER": "MLuas", "GM_TYPE": "Unknown Line Type", "ELEVATION": 0 }, "geometry": { "type": "MultiLineString", "coordinates": [ [ [ 771548.591103916754946, 8980886.529726272448897 ], [ 771606.276375850546174, 8980886.529726272448897 ] ] ] } },
{ "type": "Feature", "properties": { "LAYER": "MLuas", "GM_TYPE": "Unknown Line Type", "ELEVATION": 0 }, "geometry": { "type": "MultiLineString", "coordinates": [ [ [ 771697.9239849812584, 8980663.398271216079593 ], [ 771755.609256915049627, 8980663.398271216079593 ] ] ] } },
{ "type": "Feature", "properties": { "LAYER": "MLuas", "GM_TYPE": "Unknown Line Type", "ELEVATION": 0 }, "geometry": { "type": "MultiLineString", "coordinates": [ [ [ 772009.51106634864118, 8980384.304082907736301 ], [ 772067.196338282315992, 8980384.304082907736301 ] ] ] } },
{ "type": "Feature", "properties": { "LAYER": "MLuas", "GM_TYPE": "Unknown Line Type", "ELEVATION": 0 }, "geometry": { "type": "MultiLineString", "coordinates": [ [ [ 771841.224466586252674, 8980203.191331112757325 ], [ 771898.909738520043902, 8980203.191331112757325 ] ] ] } },
{ "type": "Feature", "properties": { "LAYER": "MLuas", "GM_TYPE": "Unknown Line Type", "ELEVATION": 0 }, "geometry": { "type": "MultiLineString", "coordinates": [ [ [ 772182.344604565296322, 8980185.53403633646667 ], [ 772240.029876498971134, 8980185.53403633646667 ] ] ] } },
{ "type": "Feature", "properties": { "LAYER": "MLuas", "GM_TYPE": "Unknown Line Type", "ELEVATION": 0 }, "geometry": { "type": "MultiLineString", "coordinates": [ [ [ 772391.542326405644417, 8980210.121051928028464 ], [ 772449.227598339435644, 8980210.121051928028464 ] ] ] } },
{ "type": "Feature", "properties": { "LAYER": "MLuas", "GM_TYPE": "Unknown Line Type", "ELEVATION": 0 }, "geometry": { "type": "MultiLineString", "coordinates": [ [ [ 772243.602921663783491, 8980497.874729990959167 ], [ 772301.288193597458303, 8980497.874729990959167 ] ] ] } },
{ "type": "Feature", "properties": { "LAYER": "MLuas", "GM_TYPE": "Unknown Line Type", "ELEVATION": 15 }, "geometry": { "type": "MultiLineString", "coordinates": [ [ [ 772185.339426478953101, 8980711.541667992249131 ], [ 772243.024698412744328, 8980711.541667992249131 ] ] ] } },
{ "type": "Feature", "properties": { "LAYER": "MLuas", "GM_TYPE": "Unknown Line Type", "ELEVATION": 0 }, "geometry": { "type": "MultiLineString", "coordinates": [ [ [ 772087.019748465623707, 8980915.275593258440495 ], [ 772144.705020399298519, 8980915.275593258440495 ] ] ] } },
{ "type": "Feature", "properties": { "LAYER": "MLuas", "GM_TYPE": "Unknown Line Type", "ELEVATION": 0 }, "geometry": { "type": "MultiLineString", "coordinates": [ [ [ 772030.724419923964888, 8981118.277861816808581 ], [ 772088.409691857756115, 8981118.277861816808581 ] ] ] } },
{ "type": "Feature", "properties": { "LAYER": "MLuas", "GM_TYPE": "Unknown Line Type", "ELEVATION": 0 }, "geometry": { "type": "MultiLineString", "coordinates": [ [ [ 772318.65872126375325, 8981210.852549474686384 ], [ 772376.343993197544478, 8981210.852549474686384 ] ] ] } },
{ "type": "Feature", "properties": { "LAYER": "MLuas", "GM_TYPE": "Unknown Line Type", "ELEVATION": 0 }, "geometry": { "type": "MultiLineString", "coordinates": [ [ [ 772510.886771708843298, 8980811.325812747702003 ], [ 772568.572043642518111, 8980811.325812747702003 ] ] ] } },
{ "type": "Feature", "properties": { "LAYER": "MLuas", "GM_TYPE": "Unknown Line Type", "ELEVATION": 0 }, "geometry": { "type": "MultiLineString", "coordinates": [ [ [ 772572.358082821243443, 8980621.853789281100035 ], [ 772630.04335475503467, 8980621.853789281100035 ] ] ] } },
{ "type": "Feature", "properties": { "LAYER": "MLuas", "GM_TYPE": "Unknown Line Type", "ELEVATION": 0 }, "geometry": { "type": "MultiLineString", "coordinates": [ [ [ 772575.860097269993275, 8980369.301859060302377 ], [ 772633.545369203668088, 8980369.301859060302377 ] ] ] } },
{ "type": "Feature", "properties": { "LAYER": "MLuas", "GM_TYPE": "Unknown Line Type", "ELEVATION": 0 }, "geometry": { "type": "MultiLineString", "coordinates": [ [ [ 772618.97137568355538, 8980094.839369732886553 ], [ 772676.656647617230192, 8980094.839369732886553 ] ] ] } },
{ "type": "Feature", "properties": { "LAYER": "MLuas", "GM_TYPE": "Unknown Line Type", "ELEVATION": 0 }, "geometry": { "type": "MultiLineString", "coordinates": [ [ [ 772361.870120057021268, 8981629.23619419708848 ], [ 772419.55539199069608, 8981629.23619419708848 ] ] ] } },
{ "type": "Feature", "properties": { "LAYER": "MLuas", "GM_TYPE": "Unknown Line Type", "ELEVATION": 0 }, "geometry": { "type": "MultiLineString", "coordinates": [ [ [ 772659.347264180425555, 8981516.629785697907209 ], [ 772717.032536113983952, 8981516.629785697907209 ] ] ] } },
{ "type": "Feature", "properties": { "LAYER": "MLuas", "GM_TYPE": "Unknown Line Type", "ELEVATION": 0 }, "geometry": { "type": "MultiLineString", "coordinates": [ [ [ 772322.107560503529385, 8981427.206023855134845 ], [ 772379.792832437204197, 8981427.206023855134845 ] ] ] } },
{ "type": "Feature", "properties": { "LAYER": "MLuas", "GM_TYPE": "Unknown Line Type", "ELEVATION": 0 }, "geometry": { "type": "MultiLineString", "coordinates": [ [ [ 772632.695783501025289, 8981195.029700294137001 ], [ 772690.381055434700102, 8981195.029700294137001 ] ] ] } },
{ "type": "Feature", "properties": { "LAYER": "MLuas", "GM_TYPE": "Unknown Line Type", "ELEVATION": 0 }, "geometry": { "type": "MultiLineString", "coordinates": [ [ [ 770922.758144088555127, 8981312.104163454845548 ], [ 770980.44341602222994, 8981312.104163454845548 ] ] ] } },
{ "type": "Feature", "properties": { "LAYER": "MLuas", "GM_TYPE": "Unknown Line Type", "ELEVATION": 0 }, "geometry": { "type": "MultiLineString", "coordinates": [ [ [ 771238.063935294165276, 8981329.939906466752291 ], [ 771295.749207227956504, 8981329.939906466752291 ] ] ] } },
{ "type": "Feature", "properties": { "LAYER": "MLuas", "GM_TYPE": "Unknown Line Type", "ELEVATION": 0 }, "geometry": { "type": "MultiLineString", "coordinates": [ [ [ 771901.211599348345771, 8980697.386880092322826 ], [ 771958.896871282020584, 8980697.386880092322826 ] ] ] } },
{ "type": "Feature", "properties": { "LAYER": "MLuas", "GM_TYPE": "Unknown Line Type", "ELEVATION": 0 }, "geometry": { "type": "MultiLineString", "coordinates": [ [ [ 772050.998173787491396, 8981973.748602168634534 ], [ 772108.683445721166208, 8981973.748602168634534 ] ] ] } },
{ "type": "Feature", "properties": { "LAYER": "MLuas", "GM_TYPE": "Unknown Line Type", "ELEVATION": 0 }, "geometry": { "type": "MultiLineString", "coordinates": [ [ [ 771896.84481894178316, 8981778.911418164148927 ], [ 771954.530090875457972, 8981778.911418164148927 ] ] ] } },
{ "type": "Feature", "properties": { "LAYER": "MLuas", "GM_TYPE": "Unknown Line Type", "ELEVATION": 0 }, "geometry": { "type": "MultiLineString", "coordinates": [ [ [ 771896.102931326604448, 8981600.935551356524229 ], [ 771953.788203260279261, 8981600.935551356524229 ] ] ] } },
{ "type": "Feature", "properties": { "LAYER": "MLuas", "GM_TYPE": "Unknown Line Type", "ELEVATION": 0 }, "geometry": { "type": "MultiLineString", "coordinates": [ [ [ 771784.100182879250497, 8981406.105254225432873 ], [ 771841.785454813041724, 8981406.105254225432873 ] ] ] } },
{ "type": "Feature", "properties": { "LAYER": "MLuas", "GM_TYPE": "Unknown Line Type", "ELEVATION": 0 }, "geometry": { "type": "MultiLineString", "coordinates": [ [ [ 771661.535577503032982, 8981708.320183642208576 ], [ 771719.220849436707795, 8981708.320183642208576 ] ] ] } },
{ "type": "Feature", "properties": { "LAYER": "MLuas", "GM_TYPE": "Unknown Line Type", "ELEVATION": 0 }, "geometry": { "type": "MultiLineString", "coordinates": [ [ [ 771466.560116831678897, 8981559.401828970760107 ], [ 771524.245388765353709, 8981559.401828970760107 ] ] ] } },
{ "type": "Feature", "properties": { "LAYER": "MLuas", "GM_TYPE": "Unknown Line Type", "ELEVATION": 0 }, "geometry": { "type": "MultiLineString", "coordinates": [ [ [ 771194.163567563751712, 8981536.330249836668372 ], [ 771251.848839497426525, 8981536.330249836668372 ] ] ] } },
{ "type": "Feature", "properties": { "LAYER": "MLuas", "GM_TYPE": "Unknown Line Type", "ELEVATION": 0 }, "geometry": { "type": "MultiLineString", "coordinates": [ [ [ 770897.480166962253861, 8981526.765412855893373 ], [ 770955.165438895928673, 8981526.765412855893373 ] ] ] } },
{ "type": "Feature", "properties": { "LAYER": "MLuas", "GM_TYPE": "Unknown Line Type", "ELEVATION": 0 }, "geometry": { "type": "MultiLineString", "coordinates": [ [ [ 771337.095450787455775, 8981121.03913558460772 ], [ 771394.780722721014172, 8981121.03913558460772 ] ] ] } },
{ "type": "Feature", "properties": { "LAYER": "MLuas", "GM_TYPE": "Unknown Line Type", "ELEVATION": 0 }, "geometry": { "type": "MultiLineString", "coordinates": [ [ [ 771644.007900737575255, 8981067.880152560770512 ], [ 771701.693172671250068, 8981067.880152560770512 ] ] ] } },
{ "type": "Feature", "properties": { "LAYER": "MLuas", "GM_TYPE": "Unknown Line Type", "ELEVATION": 0 }, "geometry": { "type": "MultiLineString", "coordinates": [ [ [ 771856.081165534094907, 8981136.972403666004539 ], [ 771913.766437467653304, 8981136.972403666004539 ] ] ] } },
{ "type": "Feature", "properties": { "LAYER": "MLuas", "GM_TYPE": "Unknown Line Type", "ELEVATION": 20 }, "geometry": { "type": "MultiLineString", "coordinates": [ [ [ 770976.708838901249692, 8981036.353969475254416 ], [ 771034.394110835040919, 8981036.353969475254416 ] ] ] } },
{ "type": "Feature", "properties": { "LAYER": "MLuas", "GM_TYPE": "Unknown Line Type", "ELEVATION": 0 }, "geometry": { "type": "MultiLineString", "coordinates": [ [ [ 771223.914246004656889, 8980988.618336882442236 ], [ 771281.599517938331701, 8980988.618336882442236 ] ] ] } },
{ "type": "Feature", "properties": { "LAYER": "MLuas", "GM_TYPE": "Unknown Line Type", "ELEVATION": 0 }, "geometry": { "type": "MultiLineString", "coordinates": [ [ [ 771427.635753955575638, 8981360.148117853328586 ], [ 771485.32102588925045, 8981360.148117853328586 ] ] ] } },
{ "type": "Feature", "properties": { "LAYER": "MLuas", "GM_TYPE": "Unknown Line Type", "ELEVATION": -16 }, "geometry": { "type": "MultiLineString", "coordinates": [ [ [ 772633.671003021416254, 8981004.105095200240612 ], [ 772691.356274954974651, 8981004.105095200240612 ] ] ] } },
{ "type": "Feature", "properties": { "LAYER": "MLuas", "GM_TYPE": "Unknown Line Type", "ELEVATION": -16 }, "geometry": { "type": "MultiLineString", "coordinates": [ [ [ 772329.082673342549242, 8980957.714391039684415 ], [ 772386.767945276224054, 8980957.714391039684415 ] ] ] } },
{ "type": "Feature", "properties": { "LAYER": "MLuas", "GM_TYPE": "Unknown Line Type", "ELEVATION": 0 }, "geometry": { "type": "MultiLineString", "coordinates": [ [ [ 772559.366364150657319, 8979727.987890323624015 ], [ 772617.051636084448546, 8979727.987890323624015 ] ] ] } },
{ "type": "Feature", "properties": { "LAYER": "MLuas", "GM_TYPE": "Unknown Line Type", "ELEVATION": 0 }, "geometry": { "type": "MultiLineString", "coordinates": [ [ [ 772582.75869193172548, 8979509.418597811833024 ], [ 772640.443963865283877, 8979509.418597811833024 ] ] ] } },
{ "type": "Feature", "properties": { "LAYER": "MLuas", "GM_TYPE": "Unknown Line Type", "ELEVATION": 21 }, "geometry": { "type": "MultiLineString", "coordinates": [ [ [ 772268.918637510156259, 8982057.684857994318008 ], [ 772326.603909443947487, 8982057.684857994318008 ] ] ] } },
{ "type": "Feature", "properties": { "LAYER": "MLuas", "GM_TYPE": "Unknown Line Type", "ELEVATION": 0 }, "geometry": { "type": "MultiLineString", "coordinates": [ [ [ 772571.472354616853409, 8982054.187226256355643 ], [ 772629.157626550644636, 8982054.187226256355643 ] ] ] } },
{ "type": "Feature", "properties": { "LAYER": "MLuas", "GM_TYPE": "Unknown Line Type", "ELEVATION": 0 }, "geometry": { "type": "MultiLineString", "coordinates": [ [ [ 772573.265689454157837, 8981834.862266315147281 ], [ 772630.950961387832649, 8981834.862266315147281 ] ] ] } },
{ "type": "Feature", "properties": { "LAYER": "MLuas", "GM_TYPE": "Unknown Line Type", "ELEVATION": 0 }, "geometry": { "type": "MultiLineString", "coordinates": [ [ [ 772266.794715507188812, 8981830.176044663414359 ], [ 772324.479987440863624, 8981830.176044663414359 ] ] ] } },
{ "type": "Feature", "properties": { "LAYER": "MLuas", "GM_TYPE": "Unknown Line Type", "ELEVATION": 0 }, "geometry": { "type": "MultiLineString", "coordinates": [ [ [ 772312.613092134706676, 8982229.834414150565863 ], [ 772370.298364068265073, 8982229.834414150565863 ] ] ] } },
{ "type": "Feature", "properties": { "LAYER": "MLuas", "GM_TYPE": "Unknown Line Type", "ELEVATION": 0 }, "geometry": { "type": "MultiLineString", "coordinates": [ [ [ 772485.717417132109404, 8982319.08117762580514 ], [ 772543.402689065667801, 8982319.08117762580514 ] ] ] } },
{ "type": "Feature", "properties": { "LAYER": "MLuas", "GM_TYPE": "Unknown Line Type", "ELEVATION": 0 }, "geometry": { "type": "MultiLineString", "coordinates": [ [ [ 772714.16984181269072, 8982509.499583404511213 ], [ 772771.855113746249117, 8982509.499583404511213 ] ] ] } },
{ "type": "Feature", "properties": { "LAYER": "MLuas", "GM_TYPE": "Unknown Line Type", "ELEVATION": 0 }, "geometry": { "type": "MultiLineString", "coordinates": [ [ [ 772698.410263731726445, 8982271.909547803923488 ], [ 772756.095535665168427, 8982271.909547803923488 ] ] ] } },
{ "type": "Feature", "properties": { "LAYER": "MLuas", "GM_TYPE": "Unknown Line Type", "ELEVATION": 0 }, "geometry": { "type": "MultiLineString", "coordinates": [ [ [ 773634.901313882204704, 8983767.616139687597752 ], [ 773692.586585815763101, 8983767.616139687597752 ] ] ] } },
{ "type": "Feature", "properties": { "LAYER": "MLuas", "GM_TYPE": "Unknown Line Type", "ELEVATION": 0 }, "geometry": { "type": "MultiLineString", "coordinates": [ [ [ 773303.196193623356521, 8983487.22597867436707 ], [ 773360.881465557147749, 8983487.22597867436707 ] ] ] } },
{ "type": "Feature", "properties": { "LAYER": "MLuas", "GM_TYPE": "Unknown Line Type", "ELEVATION": 0 }, "geometry": { "type": "MultiLineString", "coordinates": [ [ [ 773045.821156722842716, 8983335.152862977236509 ], [ 773103.506428656517528, 8983335.152862977236509 ] ] ] } },
{ "type": "Feature", "properties": { "LAYER": "MLuas", "GM_TYPE": "Unknown Line Type", "ELEVATION": 0 }, "geometry": { "type": "MultiLineString", "coordinates": [ [ [ 773032.620310366852209, 8983046.274574035778642 ], [ 773090.305582300643437, 8983046.274574035778642 ] ] ] } },
{ "type": "Feature", "properties": { "LAYER": "MLuas", "GM_TYPE": "Unknown Line Type", "ELEVATION": 0 }, "geometry": { "type": "MultiLineString", "coordinates": [ [ [ 773292.020550684654154, 8983301.012118643149734 ], [ 773349.705822618445382, 8983301.012118643149734 ] ] ] } }
]
}
