{
"type": "FeatureCollection",
"name": "09_oe_ar_bangbagi",
"crs": { "type": "name", "properties": { "name": "urn:ogc:def:crs:EPSG::32751" } },
"features": [
{ "type": "Feature", "properties": { "LAYER": "Bang bagi", "GM_TYPE": "Unknown Area Type", "ELEVATION": 0 }, "geometry": { "type": "MultiPolygon", "coordinates": [ [ [ [ 773240.347327635623515, 8980571.316194385290146 ], [ 773182.356157723814249, 8980506.004746435210109 ], [ 773147.132335391128436, 8980442.124612953513861 ], [ 772768.913018180755898, 8980560.891320563852787 ], [ 772778.102307023014873, 8980769.119643958285451 ], [ 773248.119777698069811, 8980605.836672086268663 ], [ 773240.347327635623515, 8980571.316194385290146 ] ] ] ] } },
{ "type": "Feature", "properties": { "LAYER": "Bang bagi", "GM_TYPE": "Unknown Area Type", "ELEVATION": 0 }, "geometry": { "type": "MultiPolygon", "coordinates": [ [ [ [ 773307.049118768773042, 8981106.132162239402533 ], [ 773325.252288933261298, 8981060.031955605372787 ], [ 773354.865380321047269, 8980991.347330385819077 ], [ 773367.200751609751023, 8980900.974083915352821 ], [ 773103.931045631412417, 8980959.736750090494752 ], [ 773014.354571493458934, 8981273.270850032567978 ], [ 773047.60600795946084, 8981271.589731058105826 ], [ 773100.599723833380267, 8981268.917993703857064 ], [ 773151.151607185369357, 8981266.711905905976892 ], [ 773216.853412859258242, 8981263.915901925414801 ], [ 773259.275720233679749, 8981261.791127163916826 ], [ 773264.450519214849919, 8981208.161007322371006 ], [ 773288.485057986341417, 8981153.321045262739062 ], [ 773307.049118768773042, 8981106.132162239402533 ] ] ] ] } },
{ "type": "Feature", "properties": { "LAYER": "Bang bagi", "GM_TYPE": "Unknown Area Type", "ELEVATION": 0 }, "geometry": { "type": "MultiPolygon", "coordinates": [ [ [ [ 773239.339391810819507, 8981371.143693702295423 ], [ 773245.50485485966783, 8981323.626216234639287 ], [ 773256.399896628106944, 8981277.955222910270095 ], [ 773217.593751290347427, 8981279.898877633735538 ], [ 773151.840536096249707, 8981282.697069374844432 ], [ 773101.351338367210701, 8981284.900421584025025 ], [ 773048.41305387171451, 8981287.569364212453365 ], [ 772998.014008305384777, 8981290.117428369820118 ], [ 772939.278589739231393, 8981292.470623131841421 ], [ 772801.521123392041773, 8981299.787571812048554 ], [ 772809.89471967832651, 8981489.532387254759669 ], [ 773228.81663861265406, 8981469.566705150529742 ], [ 773232.294314072350971, 8981415.134120227769017 ], [ 773239.339391810819507, 8981371.143693702295423 ] ] ] ] } },
{ "type": "Feature", "properties": { "LAYER": "Bang bagi", "GM_TYPE": "Unknown Area Type", "ELEVATION": 0 }, "geometry": { "type": "MultiPolygon", "coordinates": [ [ [ [ 773212.941422449890524, 8981567.070188591256738 ], [ 773227.026088726823218, 8981497.592396406456828 ], [ 773228.431693822261877, 8981475.59186196513474 ], [ 772810.159248838666826, 8981495.526590352877975 ], [ 772819.146480361232534, 8981699.176316022872925 ], [ 772849.517691782093607, 8981697.250930523499846 ], [ 772851.560999336652458, 8981696.743777967989445 ], [ 772851.653272622614168, 8981697.115545200183988 ], [ 772953.850612143753096, 8981690.636736281216145 ], [ 773171.27013575064484, 8981682.922810537740588 ], [ 773206.830944448243827, 8981676.700132295489311 ], [ 773212.574218649649993, 8981662.66906431876123 ], [ 773213.990093842730857, 8981616.932498110458255 ], [ 773212.941422449890524, 8981567.070188591256738 ] ] ] ] } },
{ "type": "Feature", "properties": { "LAYER": "Bang bagi", "GM_TYPE": "Unknown Area Type", "ELEVATION": 0 }, "geometry": { "type": "MultiPolygon", "coordinates": [ [ [ [ 773368.761750759324059, 8980829.496493883430958 ], [ 773342.497261057957076, 8980793.257498983293772 ], [ 773338.942850014311261, 8980718.200101936236024 ], [ 773322.163653630297631, 8980645.960905194282532 ], [ 773277.090685261762701, 8980640.85649499297142 ], [ 773251.168369076796807, 8980619.376653671264648 ], [ 773249.446156357531436, 8980611.727636270225048 ], [ 773104.415078229736537, 8980662.111094180494547 ], [ 773046.334466202300973, 8980966.444853864610195 ], [ 773367.786306430003606, 8980894.6957435477525 ], [ 773368.761750759324059, 8980829.496493883430958 ] ] ] ] } },
{ "type": "Feature", "properties": { "LAYER": "Bang bagi", "GM_TYPE": "Unknown Area Type", "ELEVATION": 0 }, "geometry": { "type": "MultiPolygon", "coordinates": [ [ [ [ 773039.954404689837247, 8980967.868904624134302 ], [ 773097.873059587785974, 8980664.383776184171438 ], [ 772778.378382310504094, 8980775.375481085851789 ], [ 772789.341847441508435, 8981023.806453483179212 ], [ 773039.954404689837247, 8980967.868904624134302 ] ] ] ] } },
{ "type": "Feature", "properties": { "LAYER": "Bang bagi", "GM_TYPE": "Unknown Area Type", "ELEVATION": 0 }, "geometry": { "type": "MultiPolygon", "coordinates": [ [ [ [ 773050.950477372854948, 8980265.223449790850282 ], [ 772902.076089823618531, 8979983.423306981101632 ], [ 772743.689481072826311, 8979989.328609658405185 ], [ 772759.80766518402379, 8980354.564974656328559 ], [ 773050.950477372854948, 8980265.223449790850282 ] ] ] ] } },
{ "type": "Feature", "properties": { "LAYER": "Bang bagi", "GM_TYPE": "Unknown Area Type", "ELEVATION": 0 }, "geometry": { "type": "MultiPolygon", "coordinates": [ [ [ [ 773008.023047412163578, 8981273.590957859531045 ], [ 773097.265949439490214, 8980961.224421532824636 ], [ 772789.610501730814576, 8981029.894131563603878 ], [ 772800.815688337315805, 8981283.802487306296825 ], [ 772938.533981099491939, 8981276.487619331106544 ], [ 772997.289784566732123, 8981274.133607851341367 ], [ 773008.023047412163578, 8981273.590957859531045 ] ] ] ] } },
{ "type": "Feature", "properties": { "LAYER": "Bang bagi", "GM_TYPE": "Unknown Area Type", "ELEVATION": 0 }, "geometry": { "type": "MultiPolygon", "coordinates": [ [ [ [ 773144.176437572692521, 8980436.763946939259768 ], [ 773082.09710208803881, 8980324.180020043626428 ], [ 773053.803611244889908, 8980270.62406668625772 ], [ 772760.080935928621329, 8980360.75726112537086 ], [ 772768.639278822694905, 8980554.688415367156267 ], [ 773144.176437572692521, 8980436.763946939259768 ] ] ] ] } },
{ "type": "Feature", "properties": { "LAYER": "Bang bagi", "GM_TYPE": "Unknown Area Type", "ELEVATION": 0 }, "geometry": { "type": "MultiPolygon", "coordinates": [ [ [ [ 773142.910140204243362, 8981810.096773058176041 ], [ 773150.147898182156496, 8981762.649120016023517 ], [ 773171.274766424787231, 8981746.3296715375036 ], [ 773187.899085029610433, 8981719.826403727754951 ], [ 773200.260540211223997, 8981692.062594352290034 ], [ 773172.731835777405649, 8981696.87975899502635 ], [ 772954.54182266315911, 8981704.621021281927824 ], [ 772861.604640814824961, 8981710.512781726196408 ], [ 773102.764899866655469, 8982023.507576148957014 ], [ 773116.400005876785144, 8981962.618079703301191 ], [ 773066.932020668988116, 8981903.90012008883059 ], [ 773142.910140204243362, 8981810.096773058176041 ] ] ] ] } },
{ "type": "Feature", "properties": { "LAYER": "Bang bagi", "GM_TYPE": "Unknown Area Type", "ELEVATION": 0 }, "geometry": { "type": "MultiPolygon", "coordinates": [ [ [ [ 775219.848671699524857, 8981152.779578488320112 ], [ 774695.840106181218289, 8980930.613597888499498 ], [ 774764.103233710047789, 8981098.592598982155323 ], [ 774781.728459236095659, 8981149.580848850309849 ], [ 775214.984219980193302, 8981351.094833491370082 ], [ 775230.554812437505461, 8981335.214339828118682 ], [ 775230.115339128533378, 8981334.271661570295691 ], [ 775229.679847123334184, 8981333.32713745906949 ], [ 775229.248344170744531, 8981332.380784308537841 ], [ 775228.820837955689058, 8981331.432618964463472 ], [ 775228.397336085094139, 8981330.482658306136727 ], [ 775227.977846102556214, 8981329.530919246375561 ], [ 775227.562375471112318, 8981328.57741872780025 ], [ 775227.150931590585969, 8981327.62217372469604 ], [ 775226.743521784082986, 8981326.665201241150498 ], [ 775226.340153303812258, 8981325.706518314778805 ], [ 775225.940833331085742, 8981324.746142011135817 ], [ 775225.545568976202048, 8981323.784089427441359 ], [ 775225.154367272625677, 8981322.820377688854933 ], [ 775224.767235188628547, 8981321.855023954063654 ], [ 775224.384179612156004, 8981320.888045407831669 ], [ 775224.005207363399677, 8981319.919459262862802 ], [ 775223.630325190140866, 8981318.949282763525844 ], [ 775223.259539764840156, 8981317.977533180266619 ], [ 775222.892857689294033, 8981317.004227811470628 ], [ 775222.530285489861853, 8981316.029383985325694 ], [ 775222.17182962235529, 8981315.053019056096673 ], [ 775221.8174964672653, 8981314.075150405988097 ], [ 775221.467292332090437, 8981313.095795439556241 ], [ 775221.121223453199491, 8981312.114971594884992 ], [ 775220.779295988264494, 8981311.132696330547333 ], [ 775220.441516027320176, 8981310.148987134918571 ], [ 775220.107889581704512, 8981309.163861518725753 ], [ 775219.778422591742128, 8981308.17733701877296 ], [ 775219.453120922204107, 8981307.189431199803948 ], [ 775219.131990363355726, 8981306.200161647051573 ], [ 775218.815036633517593, 8981305.209545969963074 ], [ 775218.502265374641865, 8981304.217601807788014 ], [ 775218.193682153243572, 8981303.224346814677119 ], [ 775217.889292464475147, 8981302.229798674583435 ], [ 775217.589101726538502, 8981301.23397509381175 ], [ 775217.293115282431245, 8981300.236893799155951 ], [ 775217.001338403555565, 8981299.238572537899017 ], [ 775216.713776282733306, 8981298.239029087126255 ], [ 775216.430434039095417, 8981297.238281238824129 ], [ 775216.151316718547605, 8981296.236346807330847 ], [ 775215.876429286086932, 8981295.233243629336357 ], [ 775215.60577663895674, 8981294.228989563882351 ], [ 775215.33936359337531, 8981293.223602486774325 ], [ 775215.077194894198328, 8981292.217100298032165 ], [ 775214.819275205140002, 8981291.209500912576914 ], [ 775214.565609120181762, 8981290.200822271406651 ], [ 775214.316201156238094, 8981289.191082328557968 ], [ 775214.071055749082007, 8981288.180299060419202 ], [ 775213.830177266499959, 8981287.168490462005138 ], [ 775213.593569997232407, 8981286.155674543231726 ], [ 775213.361238148994744, 8981285.141869336366653 ], [ 775213.133185861282982, 8981284.127092888578773 ], [ 775212.909417194779962, 8981283.111363265663385 ], [ 775212.689936128561385, 8981282.094698548316956 ], [ 775212.474746574065648, 8981281.077116837725043 ], [ 775212.26385236135684, 8981280.05863624624908 ], [ 775212.057257243199274, 8981279.039274904876947 ], [ 775211.854964898549952, 8981278.01905096322298 ], [ 775211.656978928949684, 8981276.997982582077384 ], [ 775211.463302858406678, 8981275.976087937131524 ], [ 775211.273940133512951, 8981274.953385222703218 ], [ 775211.088894126936793, 8981273.929892642423511 ], [ 775210.908168134046718, 8981272.90562842041254 ], [ 775210.731765370583162, 8981271.880610786378384 ], [ 775210.559688974637538, 8981270.854857990518212 ], [ 775210.39194201445207, 8981269.828388290479779 ], [ 775210.228527472820133, 8981268.801219964399934 ], [ 775210.069448259077035, 8981267.773371294140816 ], [ 775209.914707206306048, 8981266.744860580191016 ], [ 775209.764307068428025, 8981265.715706128627062 ], [ 775209.618250523228198, 8981264.685926264151931 ], [ 775209.476540171075612, 8981263.655539317056537 ], [ 775209.33917853445746, 8981262.624563630670309 ], [ 775209.206168057979085, 8981261.593017559498549 ], [ 775209.07751111057587, 8981260.560919465497136 ], [ 775208.953209983184934, 8981259.528287723660469 ], [ 775208.8332668854855, 8981258.495140716433525 ], [ 775208.717683956609108, 8981257.461496837437153 ], [ 775208.606463252101094, 8981256.427374484017491 ], [ 775208.499606751720421, 8981255.392792070284486 ], [ 775208.397116359206848, 8981254.357768010348082 ], [ 775208.298993898439221, 8981253.32232073135674 ], [ 775208.205241115414537, 8981252.286468666046858 ], [ 775208.115859679994173, 8981251.250230256468058 ], [ 775208.030851182295009, 8981250.213623946532607 ], [ 775207.950217136298306, 8981249.17666819319129 ], [ 775207.873958977987058, 8981248.139381455257535 ], [ 775207.80207806522958, 8981247.101782197132707 ], [ 775207.734575676149689, 8981246.063888892531395 ], [ 775207.671453012502752, 8981245.025720017030835 ], [ 775207.612711200024933, 8981243.987294053658843 ], [ 775207.558351282496005, 8981242.948629485443234 ], [ 775207.50837422744371, 8981241.909744804725051 ], [ 775207.462780926143751, 8981240.870658507570624 ], [ 775207.421572189894505, 8981239.831389088183641 ], [ 775207.384748751763254, 8981238.791955050081015 ], [ 775207.3523112667026, 8981237.752374896779656 ], [ 775207.324260313180275, 8981236.71266713552177 ], [ 775207.300596389686689, 8981235.672850275412202 ], [ 775207.281319918343797, 8981234.632942827418447 ], [ 775207.266431242809631, 8981233.592963302507997 ], [ 775207.255930626881309, 8981232.552930215373635 ], [ 775207.249818257754669, 8981231.512862080708146 ], [ 775207.248094246024266, 8981230.472777415066957 ], [ 775207.250758618465625, 8981229.432694733142853 ], [ 775207.257811331190169, 8981228.392632551491261 ], [ 775207.269252257770859, 8981227.352609382942319 ], [ 775207.285081193549559, 8981226.312643744051456 ], [ 775207.305297857383266, 8981225.272754149511456 ], [ 775207.329901889665052, 8981224.232959108427167 ], [ 775207.35889285209123, 8981223.193277133628726 ], [ 775207.392270228359848, 8981222.153726732358336 ], [ 775207.43003342510201, 8981221.114326413720846 ], [ 775207.472181768622249, 8981220.075094677507877 ], [ 775207.518714508623816, 8981219.036050025373697 ], [ 775207.569630820071325, 8981217.997210955247283 ], [ 775207.624929791782051, 8981216.958595959469676 ], [ 775207.68461044144351, 8981215.920223528519273 ], [ 775207.748671708162874, 8981214.882112149149179 ], [ 775207.817112450371496, 8981213.844280298799276 ], [ 775207.889931448036805, 8981212.806746453046799 ], [ 775207.967127406154759, 8981211.769529085606337 ], [ 775208.048698951024562, 8981210.732646659016609 ], [ 775208.134644630132243, 8981209.6961176302284 ], [ 775208.224962912383489, 8981208.659960456192493 ], [ 775208.31965219147969, 8981207.624193578958511 ], [ 775208.418710782541893, 8981206.588835436850786 ], [ 775208.522136917919852, 8981205.55390446446836 ], [ 775208.629928760812618, 8981204.519419083371758 ], [ 775208.742084391531534, 8981203.485397709533572 ], [ 775208.858601809828542, 8981202.451858753338456 ], [ 775208.979478945955634, 8981201.418820612132549 ], [ 775209.104713647509925, 8981200.38630167581141 ], [ 775209.234303681179881, 8981199.354320324957371 ], [ 775209.368246744386852, 8981198.322894932702184 ], [ 775209.506540451315232, 8981197.292043859139085 ], [ 775209.649182337801903, 8981196.261785456910729 ], [ 775209.796169867855497, 8981195.232138063758612 ], [ 775209.947500422713347, 8981194.203120013698936 ], [ 775210.103171310271136, 8981193.174749623984098 ], [ 775210.263179755536839, 8981192.147045200690627 ], [ 775210.427522914018482, 8981191.120025040581822 ], [ 775210.596197858219966, 8981190.093707425519824 ], [ 775210.769201585324481, 8981189.068110626190901 ], [ 775210.946531017194502, 8981188.043252900242805 ], [ 775211.128182994551025, 8981187.019152492284775 ], [ 775211.314154284656979, 8981185.995827635750175 ], [ 775211.504441577475518, 8981184.973296545445919 ], [ 775211.699041483690962, 8981183.951577425003052 ], [ 775211.897950540529564, 8981182.930688463151455 ], [ 775212.101165207568556, 8981181.910647835582495 ], [ 775212.308681865455583, 8981180.891473697498441 ], [ 775212.520496820914559, 8981179.873184196650982 ], [ 775212.736606303369626, 8981178.855797458440065 ], [ 775212.957006464945152, 8981177.839331593364477 ], [ 775213.181693383608945, 8981176.823804698884487 ], [ 775213.410663056536578, 8981175.809234851971269 ], [ 775213.643911410705186, 8981174.795640116557479 ], [ 775213.881434291834012, 8981173.783038532361388 ], [ 775214.12322747183498, 8981172.771448129788041 ], [ 775214.369286646833643, 8981171.76088691689074 ], [ 775214.61960743565578, 8981170.751372881233692 ], [ 775214.874185383087024, 8981169.742923997342587 ], [ 775215.133015956147574, 8981168.735558215528727 ], [ 775215.396094548283145, 8981167.729293469339609 ], [ 775215.663416475174017, 8981166.724147671833634 ], [ 775215.934976976481266, 8981165.720138719305396 ], [ 775216.210771221783943, 8981164.717284481972456 ], [ 775216.490794297656976, 8981163.71560281701386 ], [ 775216.775041221757419, 8981162.715111551806331 ], [ 775217.063506932463497, 8981161.715828498825431 ], [ 775217.356186294113286, 8981160.717771448194981 ], [ 775217.653074096771888, 8981159.720958167687058 ], [ 775217.954165056697093, 8981158.725406402722001 ], [ 775218.259453810402192, 8981157.731133874505758 ], [ 775218.568934927694499, 8981156.738158283755183 ], [ 775218.882602894795127, 8981155.746497306972742 ], [ 775219.200452131568454, 8981154.756168600171804 ], [ 775219.522476976038888, 8981153.767189793288708 ], [ 775219.848671699524857, 8981152.779578488320112 ] ] ] ] } },
{ "type": "Feature", "properties": { "LAYER": "Bang bagi", "GM_TYPE": "Unknown Area Type", "ELEVATION": 0 }, "geometry": { "type": "MultiPolygon", "coordinates": [ [ [ [ 775168.222610347671434, 8980617.963275680318475 ], [ 774817.989551555830985, 8980533.26062723621726 ], [ 774892.786495706881396, 8980799.164114417508245 ], [ 775204.797230086405762, 8980896.300028514117002 ], [ 775190.155369501677342, 8980646.79982048086822 ], [ 775168.222610347671434, 8980617.963275680318475 ] ] ] ] } },
{ "type": "Feature", "properties": { "LAYER": "Bang bagi", "GM_TYPE": "Unknown Area Type", "ELEVATION": 0 }, "geometry": { "type": "MultiPolygon", "coordinates": [ [ [ [ 774811.301719577051699, 8980531.643198307603598 ], [ 774486.012557042646222, 8980452.973144512623549 ], [ 774510.407307247980498, 8980533.72332221083343 ], [ 774526.008187379571609, 8980603.318617539480329 ], [ 774560.987954466952942, 8980695.867813846096396 ], [ 774885.955418314551935, 8980797.03744737431407 ], [ 774811.301719577051699, 8980531.643198307603598 ] ] ] ] } },
{ "type": "Feature", "properties": { "LAYER": "Bang bagi", "GM_TYPE": "Unknown Area Type", "ELEVATION": 0 }, "geometry": { "type": "MultiPolygon", "coordinates": [ [ [ [ 775205.172870477545075, 8980902.701015271246433 ], [ 774894.723812881857157, 8980806.051286054775119 ], [ 774959.356469158548862, 8981035.820682184770703 ], [ 775219.456465354422107, 8981146.096304595470428 ], [ 775205.172870477545075, 8980902.701015271246433 ] ] ] ] } },
{ "type": "Feature", "properties": { "LAYER": "Bang bagi", "GM_TYPE": "Unknown Area Type", "ELEVATION": 0 }, "geometry": { "type": "MultiPolygon", "coordinates": [ [ [ [ 774952.279615894076414, 8981032.820280762389302 ], [ 774887.892735488363542, 8980803.924619009718299 ], [ 774563.679803922772408, 8980702.989888247102499 ], [ 774591.840433859615587, 8980777.497064400464296 ], [ 774622.316091008018702, 8980838.087608711794019 ], [ 774665.910144966328517, 8980885.191303379833698 ], [ 774690.409400228294544, 8980921.79413141682744 ], [ 774952.279615894076414, 8981032.820280762389302 ] ] ] ] } },
{ "type": "Feature", "properties": { "LAYER": "Bang bagi", "GM_TYPE": "Unknown Area Type", "ELEVATION": 0 }, "geometry": { "type": "MultiPolygon", "coordinates": [ [ [ [ 775261.993116287398152, 8982023.167569417506456 ], [ 774930.074425606057048, 8981880.235576095059514 ], [ 774843.351456551929004, 8982053.48556886613369 ], [ 775265.389956192695536, 8982204.71240308880806 ], [ 775272.788655733456835, 8982192.478163180872798 ], [ 775272.740111520513892, 8982192.344365457072854 ], [ 775272.691925174323842, 8982192.210438434034586 ], [ 775272.644097041455097, 8982192.076383067294955 ], [ 775272.596627462422475, 8982191.942200317978859 ], [ 775272.549516776227392, 8982191.807891141623259 ], [ 775272.502765320125036, 8982191.673456501215696 ], [ 775272.456373427528888, 8982191.538897354155779 ], [ 775272.410341430222616, 8982191.404214665293694 ], [ 775272.364669658127241, 8982191.269409397616982 ], [ 775272.319358435808681, 8982191.134482510387897 ], [ 775272.274408089579083, 8982190.999434972181916 ], [ 775272.229818938416429, 8982190.864267745986581 ], [ 775272.185591301647946, 8982190.728981798514724 ], [ 775272.141725496272556, 8982190.593578096479177 ], [ 775272.098221836262383, 8982190.458057606592774 ], [ 775272.055080629535951, 8982190.322421299293637 ], [ 775272.012302186340094, 8982190.186670145019889 ], [ 775271.969886812963523, 8982190.050805110484362 ], [ 775271.927834812435322, 8982189.914827167987823 ], [ 775271.88614648359362, 8982189.778737291693687 ], [ 775271.844822127837688, 8982189.642536450177431 ], [ 775271.803862036671489, 8982189.506225619465113 ], [ 775271.763266504043713, 8982189.36980577558279 ], [ 775271.723035821923986, 8982189.233277888968587 ], [ 775271.683170276694, 8982189.096642939373851 ], [ 775271.643670151242986, 8982188.959901900961995 ], [ 775271.604535730089992, 8982188.823055751621723 ], [ 775271.565767294494435, 8982188.686105469241738 ], [ 775271.527365118032321, 8982188.549052033573389 ], [ 775271.489329476375133, 8982188.411896422505379 ], [ 775271.451660641469061, 8982188.274639617651701 ], [ 775271.414358883281238, 8982188.137282600626349 ], [ 775271.377424468402751, 8982187.999826351180673 ], [ 775271.340857659815811, 8982187.862271852791309 ], [ 775271.304658720153384, 8982187.724620088934898 ], [ 775271.268827906809747, 8982187.586872043088078 ], [ 775271.233365475432947, 8982187.449028698727489 ], [ 775271.198271681554615, 8982187.311091043055058 ], [ 775271.163546775234863, 8982187.173060059547424 ], [ 775271.129191002808511, 8982187.034936737269163 ], [ 775271.095204612822272, 8982186.896722061559558 ], [ 775271.061587845906615, 8982186.758417019620538 ], [ 775271.028340943390504, 8982186.620022602379322 ], [ 775270.995464140432887, 8982186.48153979703784 ], [ 775270.962957676267251, 8982186.342969592660666 ], [ 775270.930821781046689, 8982186.204312982037663 ], [ 775270.899056684691459, 8982186.065570956096053 ], [ 775270.867662613512948, 8982185.926744503900409 ], [ 775270.836639792076312, 8982185.78783462010324 ], [ 775270.805988443084061, 8982185.648842295631766 ], [ 775270.775708783650771, 8982185.509768525138497 ], [ 775270.745801032986492, 8982185.370614301413298 ], [ 775270.716265402617864, 8982185.231380620971322 ], [ 775270.687102104420774, 8982185.092068476602435 ], [ 775270.6583113464294, 8982184.952678864821792 ], [ 775270.629893334698863, 8982184.813212782144547 ], [ 775270.601848273770884, 8982184.6736712269485 ], [ 775270.574176360736601, 8982184.534055193886161 ], [ 775270.546877796179615, 8982184.39436568133533 ], [ 775270.519952775444835, 8982184.254603687673807 ], [ 775270.493401488172822, 8982184.114770213142037 ], [ 775270.467224125983194, 8982183.974866256117821 ], [ 775270.441420876653865, 8982183.834892816841602 ], [ 775270.415991924470291, 8982183.694850895553827 ], [ 775270.390937448129989, 8982183.554741492494941 ], [ 775270.366257629939355, 8982183.414565611630678 ], [ 775270.341952646733262, 8982183.274324249476194 ], [ 775270.318022669991478, 8982183.134018413722515 ], [ 775270.294467870960943, 8982182.993649104610085 ], [ 775270.27128841902595, 8982182.853217326104641 ], [ 775270.248484480311163, 8982182.712724082171917 ], [ 775270.226056216750294, 8982182.572170374915004 ], [ 775270.204003788530827, 8982182.431557212024927 ], [ 775270.182327352580614, 8982182.290885595604777 ], [ 775270.161027065129019, 8982182.15015653334558 ], [ 775270.14010307949502, 8982182.009371027350426 ], [ 775270.119555542827584, 8982181.86853008903563 ], [ 775270.099384602508508, 8982181.727634720504284 ], [ 775270.079590404289775, 8982181.586685931310058 ], [ 775270.060173087986186, 8982181.445684729143977 ], [ 775270.041132793645374, 8982181.304632119834423 ], [ 775270.022469655843452, 8982181.163529112935066 ], [ 775270.004183807177469, 8982181.022376716136932 ], [ 775269.986275382107124, 8982180.881175937131047 ], [ 775269.968744505778886, 8982180.739927787333727 ], [ 775269.951591303572059, 8982180.598633276298642 ], [ 775269.934815900749527, 8982180.457293411716819 ], [ 775269.918418413144536, 8982180.315909205004573 ], [ 775269.902398960548453, 8982180.174481665715575 ], [ 775269.886757655302063, 8982180.033011807128787 ], [ 775269.87149461323861, 8982179.891500638797879 ], [ 775269.856609939364716, 8982179.749949170276523 ], [ 775269.842103742295876, 8982179.608358416706324 ], [ 775269.827976123080589, 8982179.466729387640953 ], [ 775269.81422718660906, 8982179.325063096359372 ], [ 775269.800857028574683, 8982179.183360554277897 ], [ 775269.787865744670853, 8982179.041622774675488 ], [ 775269.775253430358134, 8982178.899850772693753 ], [ 775269.763020172016695, 8982178.758045557886362 ], [ 775269.751166057772934, 8982178.616208145394921 ], [ 775269.739691174123436, 8982178.474339550361037 ], [ 775269.728595601627603, 8982178.332440784201026 ], [ 775269.717879421310499, 8982178.190512862056494 ], [ 775269.707542708027177, 8982178.048556799069047 ], [ 775269.697585535468534, 8982177.906573610380292 ], [ 775269.688007976743393, 8982177.76456430926919 ], [ 775269.678810099605471, 8982177.622529909014702 ], [ 775269.669991968083195, 8982177.480471428483725 ], [ 775269.661553646321408, 8982177.338389880955219 ], [ 775269.653495194623247, 8982177.196286281570792 ], [ 775269.645816671312787, 8982177.054161647334695 ], [ 775269.638518131105229, 8982176.912016993388534 ], [ 775269.631599625223316, 8982176.769853334873915 ], [ 775269.625061202561483, 8982176.62767168879509 ], [ 775269.618902912246995, 8982176.48547307215631 ], [ 775269.613124798052013, 8982176.343258498236537 ], [ 775269.607726897695102, 8982176.201028985902667 ], [ 775269.602709252852947, 8982176.058785552158952 ], [ 775269.598071899730712, 8982175.916529212146997 ], [ 775269.593814870691858, 8982175.77426098100841 ], [ 775269.589938194141723, 8982175.631981879472733 ], [ 775269.586441900697537, 8982175.48969292268157 ], [ 775269.583326015272178, 8982175.347395127639174 ], [ 775269.580590557074174, 8982175.205089509487152 ], [ 775269.578235549037345, 8982175.0627770870924 ], [ 775269.576261006644927, 8982174.920458879321814 ], [ 775269.574666943750344, 8982174.778135899454355 ], [ 775269.573453372111544, 8982174.635809168219566 ], [ 775269.572620299528353, 8982174.493479698896408 ], [ 775269.572167734266259, 8982174.351148514077067 ], [ 775269.572095676790923, 8982174.20881662517786 ], [ 775269.572404129547067, 8982174.066485054790974 ], [ 775269.573093089275062, 8982173.924154816195369 ], [ 775269.574162550852634, 8982173.781826928257942 ], [ 775269.575612507527694, 8982173.639502407982945 ], [ 775269.577442948357202, 8982173.49718227237463 ], [ 775269.579653862863779, 8982173.354867538437247 ], [ 775269.582245230791159, 8982173.212559225037694 ], [ 775269.585217035841197, 8982173.070258347317576 ], [ 775269.588569256127812, 8982172.927965922281146 ], [ 775269.592301869532093, 8982172.7856829687953 ], [ 775269.59641484671738, 8982172.643410502001643 ], [ 775269.60090816009324, 8982172.501149538904428 ], [ 775269.605781778227538, 8982172.358901096507907 ], [ 775269.6110356641002, 8982172.21666619181633 ], [ 775269.616669780691154, 8982172.074445841833949 ], [ 775269.622684089234099, 8982171.932241061702371 ], [ 775269.629078545141965, 8982171.790052868425846 ], [ 775269.63585310371127, 8982171.647882277145982 ], [ 775269.6430077169789, 8982171.505730304867029 ], [ 775269.650542332557961, 8982171.36359796859324 ], [ 775269.65845689678099, 8982171.22148628346622 ], [ 775269.666751351789571, 8982171.079396264627576 ], [ 775269.675425641587935, 8982170.937328929081559 ], [ 775269.684479703078978, 8982170.795285290107131 ], [ 775269.693913468974642, 8982170.653266362845898 ], [ 775269.703726874082349, 8982170.511273164302111 ], [ 775269.713919849251397, 8982170.369306707754731 ], [ 775269.724492319859564, 8982170.227368008345366 ], [ 775269.73544420930557, 8982170.08545808121562 ], [ 775269.746775442734361, 8982169.943577939644456 ], [ 775269.758485936326906, 8982169.801728598773479 ], [ 775269.770575607544743, 8982169.659911070019007 ], [ 775269.783044370356947, 8982169.518126368522644 ], [ 775269.795892135123722, 8982169.376375509425998 ], [ 775269.809118808014318, 8982169.234659502282739 ], [ 775269.822724297526293, 8982169.092979362234473 ], [ 775269.83670850598719, 8982168.951336100697517 ], [ 775269.851071332464926, 8982168.809730730950832 ], [ 775269.865812673699111, 8982168.668164266273379 ], [ 775269.8809324267786, 8982168.526637714356184 ], [ 775269.896430480876006, 8982168.385152092203498 ], [ 775269.91230672725942, 8982168.243708405643702 ], [ 775269.928561051608995, 8982168.102307667955756 ], [ 775269.945193337392993, 8982167.960950890555978 ], [ 775269.962203466449864, 8982167.819639084860682 ], [ 775269.97959131677635, 8982167.678373256698251 ], [ 775269.997356764273718, 8982167.537154417484999 ], [ 775270.01549968321342, 8982167.395983578637242 ], [ 775270.034019941929728, 8982167.254861745983362 ], [ 775264.939373278408311, 8982116.986280601471663 ], [ 775263.64532597840298, 8982065.770186208188534 ], [ 775261.993116287398152, 8982023.167569417506456 ] ] ] ] } },
{ "type": "Feature", "properties": { "LAYER": "Bang bagi", "GM_TYPE": "Unknown Area Type", "ELEVATION": 0 }, "geometry": { "type": "MultiPolygon", "coordinates": [ [ [ [ 774927.244694092776626, 8981872.484361704438925 ], [ 775022.408909965422936, 8981682.370947787538171 ], [ 774769.690129523864016, 8981556.673751236870885 ], [ 774618.377784060779959, 8981739.479007197543979 ], [ 774927.244694092776626, 8981872.484361704438925 ] ] ] ] } },
{ "type": "Feature", "properties": { "LAYER": "Bang bagi", "GM_TYPE": "Unknown Area Type", "ELEVATION": 0 }, "geometry": { "type": "MultiPolygon", "coordinates": [ [ [ [ 774773.619266130612232, 8981551.926836362108588 ], [ 775249.634534817305394, 8981788.68717797473073 ], [ 775248.470138258417137, 8981766.719430636614561 ], [ 775248.138692759326659, 8981716.952942123636603 ], [ 775244.623536763945594, 8981667.179182836785913 ], [ 775243.202752920216881, 8981642.157037967815995 ], [ 775233.634418880101293, 8981641.836611244827509 ], [ 775118.155243620625697, 8981569.400779724121094 ], [ 774961.010914566810243, 8981496.905430480837822 ], [ 774939.7891998316627, 8981461.781137682497501 ], [ 774910.087414252455346, 8981435.248388512060046 ], [ 774882.126802719896659, 8981420.835431102663279 ], [ 774773.619266130612232, 8981551.926836362108588 ] ], [ [ 774957.110174956964329, 8981508.778998550027609 ], [ 774970.503032100037672, 8981508.778998550027609 ], [ 774970.503032100037672, 8981515.528998548164964 ], [ 774957.110174956964329, 8981515.528998548164964 ], [ 774957.110174956964329, 8981508.778998550027609 ] ], [ [ 774999.207741890917532, 8981522.164182469248772 ], [ 775010.672027605236508, 8981522.164182469248772 ], [ 775010.672027605236508, 8981528.914182471111417 ], [ 774999.207741890917532, 8981528.914182471111417 ], [ 774999.207741890917532, 8981522.164182469248772 ] ] ] ] } },
{ "type": "Feature", "properties": { "LAYER": "Bang bagi", "GM_TYPE": "Unknown Area Type", "ELEVATION": 0 }, "geometry": { "type": "MultiPolygon", "coordinates": [ [ [ [ 774924.554543333360925, 8981877.858584990724921 ], [ 774614.391425994923338, 8981744.295053135603666 ], [ 774469.383589460048825, 8981919.483631389215589 ], [ 774835.460700740804896, 8982050.658115867525339 ], [ 774838.977571653435007, 8982048.819172322750092 ], [ 774837.698199052014388, 8982047.948716521263123 ], [ 774836.43297126959078, 8982047.057825833559036 ], [ 774835.182214671629481, 8982046.146730067208409 ], [ 774833.946251895395108, 8982045.215664241462946 ], [ 774832.725401757052168, 8982044.264868523925543 ], [ 774831.519979175296612, 8982043.29458817280829 ], [ 774830.330295092076994, 8982042.305073473602533 ], [ 774829.156656385748647, 8982041.296579673886299 ], [ 774827.999365798430517, 8982040.269366916269064 ], [ 774826.858721853466704, 8982039.223700167611241 ], [ 774825.735018781619146, 8982038.159849159419537 ], [ 774824.628546442603692, 8982037.078088315203786 ], [ 774823.539590254775248, 8982035.978696677833796 ], [ 774822.468431111308746, 8982034.861957831308246 ], [ 774821.415345322689973, 8982033.728159843012691 ], [ 774820.380604530102573, 8982032.577595176175237 ], [ 774819.364475648384541, 8982031.410560620948672 ], [ 774818.367220787913539, 8982030.227357214316726 ], [ 774817.389097192208283, 8982029.02829016558826 ], [ 774816.430357167846523, 8982027.813668774440885 ], [ 774815.491248023346998, 8982026.583806352689862 ], [ 774814.572012004093267, 8982025.33902014605701 ], [ 774813.67288622725755, 8982024.079631250351667 ], [ 774812.794102623010986, 8982022.805964522063732 ], [ 774811.935887874220498, 8982021.518348507583141 ], [ 774811.09846335707698, 8982020.217115346342325 ], [ 774810.282045089406893, 8982018.902600694447756 ], [ 774809.486843663617037, 8982017.575143633410335 ], [ 774808.713064204668626, 8982016.23508657887578 ], [ 774807.960906309541315, 8982014.882775202393532 ], [ 774807.230563997873105, 8982013.518558334559202 ], [ 774806.522225661203265, 8982012.142787873744965 ], [ 774805.836074018152431, 8982010.755818702280521 ], [ 774805.172286061337218, 8982009.358008593320847 ], [ 774804.531033013947308, 8982007.949718108400702 ], [ 774803.912480289349332, 8982006.531310519203544 ], [ 774803.31678744405508, 8982005.103151706978679 ], [ 774802.744108138256706, 8982003.665610067546368 ], [ 774802.194590093102306, 8982002.219056412577629 ], [ 774801.668375057866797, 8982000.763863883912563 ], [ 774801.16559877153486, 8981999.300407849252224 ], [ 774800.686390925664455, 8981997.829065810889006 ], [ 774800.230875130393542, 8981996.350217299535871 ], [ 774799.799168887431733, 8981994.864243786782026 ], [ 774799.391383556299843, 8981993.371528582647443 ], [ 774799.007624326972291, 8981991.872456733137369 ], [ 774798.647990187164396, 8981990.367414923384786 ], [ 774798.312573907664046, 8981988.856791384518147 ], [ 774798.001462008920498, 8981987.340975781902671 ], [ 774797.714734741603024, 8981985.82035912014544 ], [ 774797.452466067275964, 8981984.295333644375205 ], [ 774797.214723638840951, 8981982.766292737796903 ], [ 774797.001568783307448, 8981981.233630815520883 ], [ 774796.813056481303647, 8981979.69774323143065 ], [ 774796.649235364398919, 8981978.159026170149446 ], [ 774796.510147685650736, 8981976.617876540869474 ], [ 774796.395829325192608, 8981975.074691889807582 ], [ 774796.306309770792723, 8981973.52987027913332 ], [ 774796.241612114245072, 8981971.983810197561979 ], [ 774796.201753046596423, 8981970.436910456046462 ], [ 774796.186742846155539, 8981968.889570076018572 ], [ 774796.196585386991501, 8981967.342188196256757 ], [ 774796.23127812857274, 8981965.795163964852691 ], [ 774796.29081212321762, 8981964.24889644049108 ], [ 774796.375172012485564, 8981962.703784478828311 ], [ 774796.484336038934998, 8981961.16022665053606 ], [ 774796.618276040186174, 8981959.618621112778783 ], [ 774796.776957466965541, 8981958.079365525394678 ], [ 774796.960339388460852, 8981956.542856940999627 ], [ 774797.168374501052313, 8981955.009491704404354 ], [ 774797.401009140186943, 8981953.479665346443653 ], [ 774797.658183300052769, 8981951.953772490844131 ], [ 774797.939830639516003, 8981950.432206740602851 ], [ 774798.245878509362228, 8981948.91536058485508 ], [ 774798.576247963821515, 8981947.4036252964288 ], [ 774798.93085378408432, 8981945.897390829399228 ], [ 774799.309604498674162, 8981944.397045716643333 ], [ 774799.712402406497858, 8981942.902976976707578 ], [ 774800.139143610140309, 8981941.415570003911853 ], [ 774800.589718027738854, 8981939.935208475217223 ], [ 774801.064009433379397, 8981938.462274255231023 ], [ 774801.561895483988337, 8981936.997147284448147 ], [ 774802.083247749949805, 8981935.540205497294664 ], [ 774802.627931746188551, 8981934.09182471036911 ], [ 774803.195806972100399, 8981932.652378536760807 ], [ 774803.786726943450049, 8981931.222238283604383 ], [ 774804.40053923218511, 8981929.801772855222225 ], [ 774805.037085504969582, 8981928.391348663717508 ], [ 774805.696201563696377, 8981926.991329528391361 ], [ 774806.377717388328165, 8981925.602076584473252 ], [ 774807.081457181368023, 8981924.223948193714023 ], [ 774807.807239412330091, 8981922.857299845665693 ], [ 774808.554876865353435, 8981921.502484064549208 ], [ 774809.324176686699502, 8981920.159850331023335 ], [ 774810.114940435043536, 8981918.829744977876544 ], [ 774810.926964131183922, 8981917.512511104345322 ], [ 774811.76003831368871, 8981916.208488496020436 ], [ 774812.613948088604957, 8981914.918013524264097 ], [ 774813.488473191042431, 8981913.641419067978859 ], [ 774814.383388035697863, 8981912.379034427925944 ], [ 774815.298461777623743, 8981911.131185237318277 ], [ 774816.233458372298628, 8981909.898193378001451 ], [ 774817.188136640121229, 8981908.680376904085279 ], [ 774818.162250316236168, 8981907.478049950674176 ], [ 774819.155548128765076, 8981906.291522659361362 ], [ 774820.167773856432177, 8981905.121101096272469 ], [ 774821.198666393873282, 8981903.967087173834443 ], [ 774822.247959822183475, 8981902.82977857068181 ], [ 774823.315383472945541, 8981901.709468653425574 ], [ 774824.400662005878985, 8981900.606446413323283 ], [ 774825.503515469725244, 8981899.520996371284127 ], [ 774826.623659384436905, 8981898.453398520126939 ], [ 774827.760804807534441, 8981897.403928251937032 ], [ 774828.914658409892581, 8981896.372856274247169 ], [ 774830.084922553389333, 8981895.360448554158211 ], [ 774831.271295370650478, 8981894.366966245695949 ], [ 774832.473470832104795, 8981893.392665615305305 ], [ 774833.691138837253675, 8981892.437797987833619 ], [ 774834.923985286150128, 8981891.502609668299556 ], [ 774836.171692166128196, 8981890.587341893464327 ], [ 774837.433937628054991, 8981889.692230755463243 ], [ 774838.710396077716723, 8981888.817507151514292 ], [ 774840.00073824939318, 8981887.963396713137627 ], [ 774841.304631297593005, 8981887.130119763314724 ], [ 774842.621738882618956, 8981886.317891243845224 ], [ 774843.951721253339201, 8981885.526920668780804 ], [ 774845.294235343812034, 8981884.757412074133754 ], [ 774846.648934846627526, 8981884.009563952684402 ], [ 774848.015470318845473, 8981883.28356921300292 ], [ 774849.393489259877242, 8981882.579615125432611 ], [ 774850.782636207994074, 8981881.897883277386427 ], [ 774852.182552831596695, 8981881.238549519330263 ], [ 774853.59287802153267, 8981880.601783929392695 ], [ 774855.013247983530164, 8981879.987750761210918 ], [ 774856.443296329234727, 8981879.396608406677842 ], [ 774857.882654179236852, 8981878.828509349375963 ], [ 774859.330950248637237, 8981878.283600132912397 ], [ 774860.787810947513208, 8981877.762021314352751 ], [ 774862.252860476262867, 8981877.263907438144088 ], [ 774863.725720925955102, 8981876.789386993274093 ], [ 774865.206012370646931, 8981876.338582381606102 ], [ 774866.693352966685779, 8981875.911609888076782 ], [ 774868.187359052477404, 8981875.508579650893807 ], [ 774869.687645249650814, 8981875.129595633596182 ], [ 774871.193824557005428, 8981874.774755595251918 ], [ 774872.705508454353549, 8981874.444151066243649 ], [ 774874.222306999494322, 8981874.137867325916886 ], [ 774875.743828934617341, 8981873.855983382090926 ], [ 774877.269681782112457, 8981873.598571944981813 ], [ 774878.799471945036203, 8981873.365699416026473 ], [ 774880.33280481339898, 8981873.157425863668323 ], [ 774881.869284862536006, 8981872.973805014044046 ], [ 774883.40851575625129, 8981872.814884230494499 ], [ 774884.950100446352735, 8981872.680704506114125 ], [ 774886.493641283130273, 8981872.571300454437733 ], [ 774888.038740105344914, 8981872.486700296401978 ], [ 774889.584998354432173, 8981872.426925852894783 ], [ 774891.132017171592452, 8981872.39199254475534 ], [ 774892.679397502099164, 8981872.381909383460879 ], [ 774894.226740198326297, 8981872.396678967401385 ], [ 774895.773646120564081, 8981872.436297489330173 ], [ 774897.319716242258437, 8981872.500754727050662 ], [ 774898.864551754319109, 8981872.590034056454897 ], [ 774900.407754164305516, 8981872.704112445935607 ], [ 774901.948925402830355, 8981872.842960469424725 ], [ 774903.487667920649983, 8981873.00654231198132 ], [ 774905.023584801121615, 8981873.194815775379539 ], [ 774906.55627984914463, 8981873.407732296735048 ], [ 774908.085357708274387, 8981873.645236952230334 ], [ 774909.610423948965035, 8981873.907268477603793 ], [ 774911.131085179164074, 8981874.19375928118825 ], [ 774912.646949142683297, 8981874.504635462537408 ], [ 774914.157624821527861, 8981874.839816832914948 ], [ 774915.662722534616478, 8981875.199216928333044 ], [ 774917.161854042555206, 8981875.582743044942617 ], [ 774918.654632640536875, 8981875.990296248346567 ], [ 774920.140673265908845, 8981876.421771412715316 ], [ 774921.619592594448477, 8981876.877057239413261 ], [ 774923.091009134310298, 8981877.356036281213164 ], [ 774924.554543333360925, 8981877.858584990724921 ] ] ] ] } },
{ "type": "Feature", "properties": { "LAYER": "Bang bagi", "GM_TYPE": "Unknown Area Type", "ELEVATION": 0 }, "geometry": { "type": "MultiPolygon", "coordinates": [ [ [ [ 775249.999347844044678, 8981795.569816319271922 ], [ 775027.781109418720007, 8981685.042970852926373 ], [ 774932.764576364774257, 8981874.861352814361453 ], [ 775261.682320032850839, 8982016.501067781820893 ], [ 775261.725254115764983, 8982016.065474096685648 ], [ 775261.692474179901183, 8982015.794967632740736 ], [ 775261.660023822798394, 8982015.524421434849501 ], [ 775261.627903092186898, 8982015.253835901618004 ], [ 775261.596112035331316, 8982014.983211439102888 ], [ 775261.564650701824576, 8982014.712548445910215 ], [ 775261.533519133343361, 8982014.441847326233983 ], [ 775261.502717381110415, 8982014.171108478680253 ], [ 775261.472245489014313, 8982013.900332307443023 ], [ 775261.4421035007108, 8982013.629519212990999 ], [ 775261.412291463697329, 8982013.35866959951818 ], [ 775261.38280941999983, 8982013.087783865630627 ], [ 775261.35365741327405, 8982012.816862415522337 ], [ 775261.324835489154793, 8982012.545905651524663 ], [ 775261.296343689551577, 8982012.274913975968957 ], [ 775261.268182054511271, 8982012.003887789323926 ], [ 775261.240350627689622, 8982011.732827495783567 ], [ 775261.212849451228976, 8982011.461733495816588 ], [ 775261.185678565059789, 8982011.190606193616986 ], [ 775261.158838007249869, 8982010.919445991516113 ], [ 775261.132327821687795, 8982010.648253289982677 ], [ 775261.106148046557792, 8982010.377028491348028 ], [ 775261.080298718181439, 8982010.105772001668811 ], [ 775261.054779876489192, 8982009.834484221413732 ], [ 775261.029591561644338, 8982009.563165552914143 ], [ 775261.004733808105811, 8982009.291816398501396 ], [ 775260.980206652078778, 8982009.02043716236949 ], [ 775260.956010133726522, 8982008.74902824498713 ], [ 775260.932144285645336, 8982008.47759005241096 ], [ 775260.908609144040383, 8982008.206122985109687 ], [ 775260.885404745349661, 8982007.934627447277308 ], [ 775260.862531122169457, 8982007.663103841245174 ], [ 775260.839988308958709, 8982007.391552571207285 ], [ 775260.817776338197291, 8982007.119974037632346 ], [ 775260.795895246439613, 8982006.848368646577001 ], [ 775260.774345062323846, 8982006.576736798509955 ], [ 775260.753125818562694, 8982006.305078897625208 ], [ 775260.732237547636032, 8982006.03339534625411 ], [ 775260.711680280510336, 8982005.761686550453305 ], [ 775260.691454047802836, 8982005.4899529106915 ], [ 775260.671558878384531, 8982005.218194831162691 ], [ 775260.651994802989066, 8982004.946412716060877 ], [ 775260.632761850487441, 8982004.674606967717409 ], [ 775260.613860049750656, 8982004.402777990326285 ], [ 775260.595289426040836, 8982004.130926186218858 ], [ 775260.577050011837855, 8982003.859051959589124 ], [ 775260.559141828562133, 8982003.587155714631081 ], [ 775260.54156490706373, 8982003.315237853676081 ], [ 775260.52431927237194, 8982003.043298780918121 ], [ 775260.507404949748889, 8982002.7713389005512 ], [ 775260.490821964223869, 8982002.499358614906669 ], [ 775260.474570341175422, 8982002.227358328178525 ], [ 775260.458650101791136, 8982001.955338442698121 ], [ 775260.443061275058426, 8982001.683299366384745 ], [ 775260.427803878788836, 8982001.411241497844458 ], [ 775260.412877937895246, 8982001.139165244996548 ], [ 775260.39828347589355, 8982000.867071010172367 ], [ 775260.384020512225106, 8982000.594959195703268 ], [ 775260.370089068310335, 8982000.322830207645893 ], [ 775260.356489167548716, 8982000.05068445019424 ], [ 775260.343220825772732, 8981999.778522323817015 ], [ 775260.330284066149034, 8981999.506344236433506 ], [ 775260.317678904626518, 8981999.234150590375066 ], [ 775260.305405364604667, 8981998.961941789835691 ], [ 775260.293463459820487, 8981998.689718237146735 ], [ 775260.281853209948167, 8981998.41748033836484 ], [ 775260.270574632799253, 8981998.145228497684002 ], [ 775260.259627744089812, 8981997.872963117435575 ], [ 775260.249012559768744, 8981997.6006846036762 ], [ 775260.238729097414762, 8981997.328393360599875 ], [ 775260.22877736936789, 8981997.056089788675308 ], [ 775260.219157393090427, 8981996.783774297684431 ], [ 775260.209869180805981, 8981996.511447288095951 ], [ 775260.200912748347037, 8981996.239109164103866 ], [ 775260.192288107937202, 8981995.966760329902172 ], [ 775260.1839952734299, 8981995.694401193410158 ], [ 775260.176034255069681, 8981995.422032153233886 ], [ 775260.168405065080151, 8981995.149653617292643 ], [ 775260.161107715568505, 8981994.877265989780426 ], [ 775260.154142218641937, 8981994.604869673028588 ], [ 775260.147508582798764, 8981994.332465073093772 ], [ 775260.141206818050705, 8981994.060052594169974 ], [ 775260.135236933012493, 8981993.787632638588548 ], [ 775260.129598937812261, 8981993.515205612406135 ], [ 775260.124292840948328, 8981993.242771921679378 ], [ 775260.119318650686182, 8981992.970331966876984 ], [ 775260.114676373777911, 8981992.697886154055595 ], [ 775260.110366014647298, 8981992.425434889271855 ], [ 775260.106387583771721, 8981992.152978574857116 ], [ 775260.102741085691378, 8981991.880517615005374 ], [ 775260.099426525179297, 8981991.608052415773273 ], [ 775260.096443906775676, 8981991.335583381354809 ], [ 775260.093793235253543, 8981991.063110914081335 ], [ 775260.09147451526951, 8981990.790635420009494 ], [ 775260.089487751480192, 8981990.518157303333282 ], [ 775260.087832942954265, 8981990.245676968246698 ], [ 775260.086510094348341, 8981989.973194818943739 ], [ 775260.085519208572805, 8981989.700711261481047 ], [ 775260.084860286558978, 8981989.428226698189974 ], [ 775260.084533329121768, 8981989.155741535127163 ], [ 775260.084538335446268, 8981988.883256174623966 ], [ 775260.084875306580216, 8981988.610771024599671 ], [ 775260.085544241359457, 8981988.338286485522985 ], [ 775260.086545140948147, 8981988.065802963450551 ], [ 775260.0878780024359, 8981987.793320864439011 ], [ 775260.089542823145166, 8981987.520840590819716 ], [ 775260.091539600281976, 8981987.248362546786666 ], [ 775260.093868332798593, 8981986.975887138396502 ], [ 775260.096529016271234, 8981986.703414767980576 ], [ 775260.099521647789516, 8981986.430945843458176 ], [ 775260.102846220834181, 8981986.158480765298009 ], [ 775260.106502732727677, 8981985.886019939556718 ], [ 775260.110491174971685, 8981985.613563772290945 ], [ 775260.114811544888653, 8981985.341112665832043 ], [ 775260.119463833980262, 8981985.068667024374008 ], [ 775260.124448035960086, 8981984.796227252110839 ], [ 775260.12976414419245, 8981984.523793755099177 ], [ 775260.135412150295451, 8981984.251366937533021 ], [ 775260.141392044024542, 8981983.978947201743722 ], [ 775260.147703820839524, 8981983.706534953787923 ], [ 775260.15434746677056, 8981983.434130597859621 ], [ 775260.161322975181974, 8981983.161734538152814 ], [ 775260.168630332336761, 8981982.889347178861499 ], [ 775260.176269531482831, 8981982.616968922317028 ], [ 775260.18424055876676, 8981982.344600176438689 ], [ 775260.192543402197771, 8981982.072241343557835 ], [ 775260.2011780514149, 8981981.799892827868462 ], [ 775260.210144492448308, 8981981.527555033564568 ], [ 775260.219442709581926, 8981981.25522836484015 ], [ 775260.229072694433853, 8981980.982913225889206 ], [ 775260.239034427329898, 8981980.710610022768378 ], [ 775260.249327896395698, 8981980.438319155946374 ], [ 775260.25995308556594, 8981980.166041031479836 ], [ 775260.270909979240969, 8981979.893776055425406 ], [ 775260.282198561471887, 8981979.621524628251791 ], [ 775260.29381881642621, 8981979.349287156015635 ], [ 775260.305770722683519, 8981979.077064044773579 ], [ 775260.318054268253036, 8981978.80485569499433 ], [ 775260.330669429851696, 8981978.532662510871887 ], [ 775260.3436161915306, 8981978.260484898462892 ], [ 775260.35689453384839, 8981977.988323261961341 ], [ 775260.370504437247291, 8981977.716178001835942 ], [ 775260.384445880306885, 8981977.444049526005983 ], [ 775260.398718843469396, 8981977.171938236802816 ], [ 775260.413323305314407, 8981976.899844538420439 ], [ 775260.428259244421497, 8981976.627768833190203 ], [ 775260.443526637624018, 8981976.355711527168751 ], [ 775260.459125461406074, 8981976.083673022687435 ], [ 775260.475055696442723, 8981975.811653723940253 ], [ 775260.49131731572561, 8981975.539654035121202 ], [ 775260.507910295855254, 8981975.267674358561635 ], [ 775260.524834611685947, 8981974.995715098455548 ], [ 775260.542090240167454, 8981974.723776660859585 ], [ 775260.559677153942175, 8981974.451859446242452 ], [ 775260.577595326351002, 8981974.179963858798146 ], [ 775260.595844733878039, 8981973.908090302720666 ], [ 775260.614425345906056, 8981973.636239180341363 ], [ 775260.633337135310285, 8981973.36441089771688 ], [ 775260.652580077177845, 8981973.092605857178569 ], [ 775260.672154140542261, 8981972.820824461057782 ], [ 775260.692059294786304, 8981972.549067113548517 ], [ 775260.712295512901619, 8981972.277334216982126 ], [ 775260.732862766017206, 8981972.005626175552607 ], [ 775260.75376101967413, 8981971.733943393453956 ], [ 775260.774990245001391, 8981971.462286273017526 ], [ 775260.796550411265343, 8981971.190655216574669 ], [ 775260.818441485753283, 8981970.919050628319383 ], [ 775260.840663434239104, 8981970.647472912445664 ], [ 775260.863216225756332, 8981970.375922469422221 ], [ 775260.886099827941507, 8981970.104399705305696 ], [ 775260.909314204240218, 8981969.832905018702149 ], [ 775260.932859320309944, 8981969.56143881753087 ], [ 775260.956735143554397, 8981969.290001502260566 ], [ 775260.980941635672934, 8981969.018593475222588 ], [ 775261.005478762439452, 8981968.747215140610933 ], [ 775261.030346489162184, 8981968.475866900756955 ], [ 775261.05554477404803, 8981968.204549157992005 ], [ 775261.081073584384285, 8981967.933262314647436 ], [ 775261.106932880240493, 8981967.6620067730546 ], [ 775261.133122623316012, 8981967.390782939270139 ], [ 775261.159642775543034, 8981967.119591211900115 ], [ 775257.384340432588942, 8981917.254032032564282 ], [ 775253.198611336410977, 8981867.691575601696968 ], [ 775251.156247402541339, 8981817.396123694255948 ], [ 775249.999347844044678, 8981795.569816319271922 ] ] ] ] } },
{ "type": "Feature", "properties": { "LAYER": "Bang bagi", "GM_TYPE": "Unknown Area Type", "ELEVATION": 0 }, "geometry": { "type": "MultiPolygon", "coordinates": [ [ [ [ 774934.817007938981988, 8981463.281277619302273 ], [ 774934.817007938981988, 8981470.031277619302273 ], [ 774948.20986508205533, 8981470.031277619302273 ], [ 774948.20986508205533, 8981463.281277619302273 ], [ 774934.817007938981988, 8981463.281277619302273 ] ] ] ] } },
{ "type": "Feature", "properties": { "LAYER": "Bang bagi", "GM_TYPE": "Unknown Area Type", "ELEVATION": 0 }, "geometry": { "type": "MultiPolygon", "coordinates": [ [ [ [ 775050.448975250124931, 8981542.247433109208941 ], [ 775050.448975250124931, 8981548.997433107346296 ], [ 775063.841832392849028, 8981548.997433107346296 ], [ 775063.841832392849028, 8981542.247433109208941 ], [ 775050.448975250124931, 8981542.247433109208941 ] ] ] ] } },
{ "type": "Feature", "properties": { "LAYER": "Bang bagi", "GM_TYPE": "Unknown Area Type", "ELEVATION": 0 }, "geometry": { "type": "MultiPolygon", "coordinates": [ [ [ [ 775115.735897838138044, 8981565.046612709760666 ], [ 775115.735897838138044, 8981571.796612709760666 ], [ 775129.128754980862141, 8981571.796612709760666 ], [ 775129.128754980862141, 8981565.046612709760666 ], [ 775115.735897838138044, 8981565.046612709760666 ] ] ] ] } },
{ "type": "Feature", "properties": { "LAYER": "Bang bagi", "GM_TYPE": "Unknown Area Type", "ELEVATION": 0 }, "geometry": { "type": "MultiPolygon", "coordinates": [ [ [ [ 775076.429539956036024, 8981551.908578630536795 ], [ 775076.429539956036024, 8981558.658578630536795 ], [ 775089.60811138455756, 8981558.658578630536795 ], [ 775089.60811138455756, 8981551.908578630536795 ], [ 775076.429539956036024, 8981551.908578630536795 ] ] ] ] } },
{ "type": "Feature", "properties": { "LAYER": "Bang bagi", "GM_TYPE": "Unknown Area Type", "ELEVATION": 0 }, "geometry": { "type": "MultiPolygon", "coordinates": [ [ [ [ 772153.038269499666058, 8979567.520083183422685 ], [ 772114.565524739562534, 8979554.699682958424091 ], [ 772098.696022329037078, 8979548.870282972231507 ], [ 772069.59341006341856, 8979537.033482164144516 ], [ 771990.378126812400296, 8979508.251600971445441 ], [ 771927.572673376882449, 8979481.24830287322402 ], [ 771888.168634207802825, 8979476.945578832179308 ], [ 772098.393960954854265, 8979789.173510396853089 ], [ 772528.754478184855543, 8979907.104594860225916 ], [ 772605.521572126308456, 8979896.646765680983663 ], [ 772295.456796330516227, 8979555.677232360467315 ], [ 772264.833875933894888, 8979560.607597002759576 ], [ 772224.811188095365651, 8979546.372570537030697 ], [ 772179.720827683224343, 8979559.097174514085054 ], [ 772153.038269499666058, 8979567.520083183422685 ] ] ] ] } },
{ "type": "Feature", "properties": { "LAYER": "Bang bagi", "GM_TYPE": "Unknown Area Type", "ELEVATION": 0 }, "geometry": { "type": "MultiPolygon", "coordinates": [ [ [ [ 772723.875229845754802, 8979841.140775937587023 ], [ 772706.187330186832696, 8979430.480629745870829 ], [ 772688.110759427654557, 8979423.152098162099719 ], [ 772667.370712972944602, 8979422.494298171252012 ], [ 772628.195092012174428, 8979415.587439237162471 ], [ 772588.122123141190968, 8979412.262391991913319 ], [ 772548.91769376245793, 8979419.802337933331728 ], [ 772525.104319387581199, 8979450.784879917278886 ], [ 772502.432997755939141, 8979453.776539904996753 ], [ 772474.497619512956589, 8979477.79336485825479 ], [ 772399.355251790722832, 8979560.37754513323307 ], [ 772380.667806618846953, 8979556.11302719078958 ], [ 772356.970809799619019, 8979550.162050580605865 ], [ 772323.876912022242323, 8979548.965670239180326 ], [ 772310.403448567376472, 8979553.270785009488463 ], [ 772302.530934651033022, 8979554.538278892636299 ], [ 772612.737516114255413, 8979895.663751929998398 ], [ 772643.511806681053713, 8979891.471431272104383 ], [ 772725.19415902311448, 8979882.612256636843085 ], [ 772723.875229845754802, 8979841.140775937587023 ] ] ] ] } },
{ "type": "Feature", "properties": { "LAYER": "Bang bagi", "GM_TYPE": "Unknown Area Type", "ELEVATION": 0 }, "geometry": { "type": "MultiPolygon", "coordinates": [ [ [ [ 771790.833518619067036, 8979711.114354578778148 ], [ 771391.053091000299901, 8979601.563088860362768 ], [ 771386.532947017345577, 8979630.764520343393087 ], [ 771288.298852241248824, 8979812.919974077492952 ], [ 771616.252503479481675, 8979890.91826680675149 ], [ 771790.833518619067036, 8979711.114354578778148 ] ] ] ] } },
{ "type": "Feature", "properties": { "LAYER": "Bang bagi", "GM_TYPE": "Unknown Area Type", "ELEVATION": 0 }, "geometry": { "type": "MultiPolygon", "coordinates": [ [ [ [ 772089.52415364375338, 8979786.742929631844163 ], [ 771880.361348984297365, 8979476.09306232444942 ], [ 771867.319889697711915, 8979474.669000180438161 ], [ 771837.531389152631164, 8979457.159564938396215 ], [ 771787.575876864255406, 8979417.207032274454832 ], [ 771736.277314883191139, 8979412.096006486564875 ], [ 771719.046550407307222, 8979409.331366304308176 ], [ 771686.393995074671693, 8979409.607509950175881 ], [ 771655.805901452782564, 8979395.782874770462513 ], [ 771609.680866203387268, 8979395.219269249588251 ], [ 771575.403642339399084, 8979398.732852252200246 ], [ 771796.607487689354457, 8979706.47538953460753 ], [ 772089.52415364375338, 8979786.742929631844163 ] ] ] ] } },
{ "type": "Feature", "properties": { "LAYER": "Bang bagi", "GM_TYPE": "Unknown Area Type", "ELEVATION": 0 }, "geometry": { "type": "MultiPolygon", "coordinates": [ [ [ [ 771175.400656820856966, 8980039.819436587393284 ], [ 771121.613533150055446, 8980077.973477581515908 ], [ 771039.439764301641844, 8980096.449498597532511 ], [ 770984.810553410439752, 8980099.807702194899321 ], [ 770958.661242904374376, 8980120.696097111329436 ], [ 771029.65606898709666, 8980224.699538264423609 ], [ 771031.023591116652824, 8980229.089712092652917 ], [ 771271.269385947845876, 8980246.222159013152122 ], [ 771466.861123006790876, 8980044.778952289372683 ], [ 771183.248584412969649, 8979978.246949214488268 ], [ 771191.629036729689687, 8980002.563188208267093 ], [ 771175.400656820856966, 8980039.819436587393284 ] ] ] ] } },
{ "type": "Feature", "properties": { "LAYER": "Bang bagi", "GM_TYPE": "Unknown Area Type", "ELEVATION": 0 }, "geometry": { "type": "MultiPolygon", "coordinates": [ [ [ [ 771168.155045648105443, 8980634.617442037910223 ], [ 770896.209746993379667, 8980645.970981765538454 ], [ 770900.645079594338313, 8980692.009488111361861 ], [ 770932.642762306146324, 8980732.351047674193978 ], [ 770993.232550173182972, 8980794.585436031222343 ], [ 771054.485973493545316, 8980912.483835389837623 ], [ 771082.778191480319947, 8981011.042576184496284 ], [ 771085.42614408780355, 8981020.851084357127547 ], [ 771257.628131187171675, 8980863.250040093436837 ], [ 771258.391490607755259, 8980862.261531258001924 ], [ 771168.155045648105443, 8980634.617442037910223 ] ] ] ] } },
{ "type": "Feature", "properties": { "LAYER": "Bang bagi", "GM_TYPE": "Unknown Area Type", "ELEVATION": 0 }, "geometry": { "type": "MultiPolygon", "coordinates": [ [ [ [ 771397.636790629010648, 8980261.248928708955646 ], [ 771032.93988154665567, 8980235.241603830829263 ], [ 771045.094626167905517, 8980274.262136330828071 ], [ 770986.595335466205142, 8980310.932706698775291 ], [ 770923.205209162668325, 8980306.284412603825331 ], [ 770841.067505907732993, 8980407.172690538689494 ], [ 770843.463991972967051, 8980436.750849556177855 ], [ 771253.836209859116934, 8980432.792367083951831 ], [ 771274.841084667597897, 8980382.356441972777247 ], [ 771367.339544337359257, 8980278.160136135295033 ], [ 771397.636790629010648, 8980261.248928708955646 ] ] ] ] } },
{ "type": "Feature", "properties": { "LAYER": "Bang bagi", "GM_TYPE": "Unknown Area Type", "ELEVATION": 0 }, "geometry": { "type": "MultiPolygon", "coordinates": [ [ [ [ 771251.327215113211423, 8980438.816848173737526 ], [ 770845.061580940615386, 8980442.735718224197626 ], [ 770849.713518947246484, 8980459.465998146682978 ], [ 770854.186058299033903, 8980553.200674299150705 ], [ 770876.314115971792489, 8980618.876060336828232 ], [ 770871.720093413023278, 8980640.988182162865996 ], [ 771172.356854540994391, 8980628.436792489141226 ], [ 771251.327215113211423, 8980438.816848173737526 ] ] ] ] } },
{ "type": "Feature", "properties": { "LAYER": "Bang bagi", "GM_TYPE": "Unknown Area Type", "ELEVATION": 0 }, "geometry": { "type": "MultiPolygon", "coordinates": [ [ [ [ 772090.839048538357019, 8979793.324446052312851 ], [ 771797.438966259825975, 8979712.924436060711741 ], [ 771623.046542082680389, 8979892.534115295857191 ], [ 771924.8234381218208, 8979964.306704465299845 ], [ 772090.839048538357019, 8979793.324446052312851 ] ] ] ] } },
{ "type": "Feature", "properties": { "LAYER": "Bang bagi", "GM_TYPE": "Unknown Area Type", "ELEVATION": 0 }, "geometry": { "type": "MultiPolygon", "coordinates": [ [ [ [ 772087.347820305032656, 8980009.127771336585283 ], [ 771618.181734562851489, 8979897.544462058693171 ], [ 771478.546353735146113, 8980041.357280069962144 ], [ 771794.275709221372381, 8980115.423492217436433 ], [ 771811.452319213654846, 8980106.264961441978812 ], [ 771919.57862765644677, 8980044.65621673874557 ], [ 772001.265676622861065, 8980020.916350604966283 ], [ 772087.347820305032656, 8980009.127771336585283 ] ] ] ] } },
{ "type": "Feature", "properties": { "LAYER": "Bang bagi", "GM_TYPE": "Unknown Area Type", "ELEVATION": 0 }, "geometry": { "type": "MultiPolygon", "coordinates": [ [ [ [ 772516.200428161071613, 8979909.885623903945088 ], [ 772097.444496180978604, 8979795.13452753610909 ], [ 771931.617476728511974, 8979965.922552950680256 ], [ 772101.927316915942356, 8980006.42790094576776 ], [ 772203.17946662963368, 8979980.978166928514838 ], [ 772286.483516634907573, 8979962.511757666245103 ], [ 772400.956497872131877, 8979936.028377186506987 ], [ 772516.200428161071613, 8979909.885623903945088 ] ] ] ] } },
{ "type": "Feature", "properties": { "LAYER": "Bang bagi", "GM_TYPE": "Unknown Area Type", "ELEVATION": 0 }, "geometry": { "type": "MultiPolygon", "coordinates": [ [ [ [ 771787.405857993406244, 8979703.95387994684279 ], [ 771568.521535284933634, 8979399.438301863148808 ], [ 771547.117716636741534, 8979401.632297905161977 ], [ 771511.164890835760161, 8979378.111882790923119 ], [ 771447.557196236331947, 8979415.588419541716576 ], [ 771449.244969092076644, 8979424.283343069255352 ], [ 771444.279099876293913, 8979434.441578477621078 ], [ 771428.238792588119395, 8979501.69433250464499 ], [ 771393.642785265343264, 8979584.832918329164386 ], [ 771391.976896354928613, 8979595.595040302723646 ], [ 771787.405857993406244, 8979703.95387994684279 ] ] ] ] } },
{ "type": "Feature", "properties": { "LAYER": "Bang bagi", "GM_TYPE": "Unknown Area Type", "ELEVATION": 0 }, "geometry": { "type": "MultiPolygon", "coordinates": [ [ [ [ 771611.387695959536359, 8979895.928613569587469 ], [ 771285.350970859639347, 8979818.386229675263166 ], [ 771280.118216455681249, 8979828.089324662461877 ], [ 771256.882189087453298, 8979831.196968952193856 ], [ 771230.602825248381123, 8979856.792343022301793 ], [ 771207.064778059604578, 8979885.197785621508956 ], [ 771172.517788787255995, 8979947.111089091747999 ], [ 771180.937752970727161, 8979971.541973454877734 ], [ 771471.734876804053783, 8980039.75939160771668 ], [ 771611.387695959536359, 8979895.928613569587469 ] ] ] ] } },
{ "type": "Feature", "properties": { "LAYER": "Bang bagi", "GM_TYPE": "Unknown Area Type", "ELEVATION": 0 }, "geometry": { "type": "MultiPolygon", "coordinates": [ [ [ [ 771473.672599938814528, 8980046.376840753480792 ], [ 771279.090777627076022, 8980246.779919361695647 ], [ 771407.105779298581183, 8980255.908945834264159 ], [ 771454.002860895707272, 8980226.381903477013111 ], [ 771584.409155551344156, 8980210.123025353997946 ], [ 771650.675275862333365, 8980191.990928331390023 ], [ 771786.248879582853988, 8980119.703380199149251 ], [ 771473.672599938814528, 8980046.376840753480792 ] ] ] ] } }
]
}
