{
"type": "FeatureCollection",
"name": "09_oe_ar_teksbm",
"crs": { "type": "name", "properties": { "name": "urn:ogc:def:crs:EPSG::32751" } },
"features": [
{ "type": "Feature", "properties": { "LAYER": "Texk BM", "GM_TYPE": "Unknown Area Type", "ELEVATION": 0 }, "geometry": { "type": "MultiPolygon", "coordinates": [ [ [ [ 777748.893044159165584, 8983137.950108585879207 ], [ 777688.893044159165584, 8983137.950108606368303 ], [ 777688.893044155556709, 8983169.950108591467142 ], [ 777748.893044159165584, 8983169.950108582153916 ], [ 777833.305000000051223, 8983114.20299999974668 ], [ 777748.893044159631245, 8983165.950108582153916 ], [ 777748.893044159165584, 8983137.950108585879207 ] ] ] ] } },
{ "type": "Feature", "properties": { "LAYER": "Texk BM", "GM_TYPE": "Unknown Area Type", "ELEVATION": 0 }, "geometry": { "type": "MultiPolygon", "coordinates": [ [ [ [ 777773.323982136324048, 8983094.651320142671466 ], [ 777713.323982132365927, 8983094.65132013708353 ], [ 777713.323982132365927, 8983126.651320144534111 ], [ 777773.323982121422887, 8983126.65132013708353 ], [ 777823.579852579045109, 8983100.170787289738655 ], [ 777773.323982134344988, 8983122.651320146396756 ], [ 777773.323982136324048, 8983094.651320142671466 ] ] ] ] } },
{ "type": "Feature", "properties": { "LAYER": "Texk BM", "GM_TYPE": "Unknown Area Type", "ELEVATION": 0 }, "geometry": { "type": "MultiPolygon", "coordinates": [ [ [ [ 772808.066408541868441, 8982586.294780511409044 ], [ 772748.066408541868441, 8982586.294780530035496 ], [ 772748.066408538259566, 8982618.294780515134335 ], [ 772808.066408541868441, 8982618.294780507683754 ], [ 772857.173286751960404, 8982613.985927779227495 ], [ 772808.066408542450517, 8982614.294780507683754 ], [ 772808.066408541868441, 8982586.294780511409044 ] ] ] ] } },
{ "type": "Feature", "properties": { "LAYER": "Texk BM", "GM_TYPE": "Unknown Area Type", "ELEVATION": 0 }, "geometry": { "type": "MultiPolygon", "coordinates": [ [ [ [ 772808.236423593247309, 8982629.939937740564346 ], [ 772748.236423589405604, 8982629.939937736839056 ], [ 772748.236423589405604, 8982661.939937742426991 ], [ 772808.236423578346148, 8982661.939937738701701 ], [ 772858.492294035968371, 8982635.459404889494181 ], [ 772808.236423591268249, 8982657.939937744289637 ], [ 772808.236423593247309, 8982629.939937740564346 ] ] ] ] } },
{ "type": "Feature", "properties": { "LAYER": "Texk BM", "GM_TYPE": "Unknown Area Type", "ELEVATION": 0 }, "geometry": { "type": "MultiPolygon", "coordinates": [ [ [ [ 773324.793708092067391, 8983167.236291082575917 ], [ 773264.793708092067391, 8983167.236291101202369 ], [ 773264.7937080883421, 8983199.236291086301208 ], [ 773324.793708092067391, 8983199.236291078850627 ], [ 773385.119153927196749, 8983135.54861868917942 ], [ 773324.793708092533052, 8983195.236291078850627 ], [ 773324.793708092067391, 8983167.236291082575917 ] ] ] ] } },
{ "type": "Feature", "properties": { "LAYER": "Texk BM", "GM_TYPE": "Unknown Area Type", "ELEVATION": 0 }, "geometry": { "type": "MultiPolygon", "coordinates": [ [ [ [ 773324.397998879197985, 8983125.917351491749287 ], [ 773264.397998875472695, 8983125.917351488023996 ], [ 773264.397998875472695, 8983157.917351495474577 ], [ 773324.397998864180408, 8983157.917351489886642 ], [ 773374.653869322151877, 8983131.436818640679121 ], [ 773324.397998877451755, 8983153.917351495474577 ], [ 773324.397998879197985, 8983125.917351491749287 ] ] ] ] } },
{ "type": "Feature", "properties": { "LAYER": "Texk BM", "GM_TYPE": "Unknown Area Type", "ELEVATION": 0 }, "geometry": { "type": "MultiPolygon", "coordinates": [ [ [ [ 773909.945926718180999, 8983718.853694809600711 ], [ 773849.945926718064584, 8983718.853694828227162 ], [ 773849.945926714455709, 8983750.853694813326001 ], [ 773909.945926718180999, 8983750.853694805875421 ], [ 773943.117610759101808, 8983758.234521940350533 ], [ 773909.94592671864666, 8983746.853694807738066 ], [ 773909.945926718180999, 8983718.853694809600711 ] ] ] ] } },
{ "type": "Feature", "properties": { "LAYER": "Texk BM", "GM_TYPE": "Unknown Area Type", "ELEVATION": 0 }, "geometry": { "type": "MultiPolygon", "coordinates": [ [ [ [ 773909.387465796200559, 8983766.32678011059761 ], [ 773849.387465792475268, 8983766.326780108734965 ], [ 773849.387465792475268, 8983798.326780114322901 ], [ 773909.387465781299397, 8983798.32678010687232 ], [ 773959.643336239154451, 8983771.846247259527445 ], [ 773909.387465794337913, 8983794.326780112460256 ], [ 773909.387465796200559, 8983766.32678011059761 ] ] ] ] } },
{ "type": "Feature", "properties": { "LAYER": "Texk BM", "GM_TYPE": "Unknown Area Type", "ELEVATION": 0 }, "geometry": { "type": "MultiPolygon", "coordinates": [ [ [ [ 774449.64439692220185, 8983481.197273632511497 ], [ 774389.644396922318265, 8983481.197273651137948 ], [ 774389.644396918592975, 8983513.197273636236787 ], [ 774449.64439692220185, 8983513.197273628786206 ], [ 774492.252613912918605, 8983454.25936396047473 ], [ 774449.644396922667511, 8983509.197273630648851 ], [ 774449.64439692220185, 8983481.197273632511497 ] ] ] ] } },
{ "type": "Feature", "properties": { "LAYER": "Texk BM", "GM_TYPE": "Unknown Area Type", "ELEVATION": 0 }, "geometry": { "type": "MultiPolygon", "coordinates": [ [ [ [ 774447.770502848085016, 8983437.452302679419518 ], [ 774387.770502844359726, 8983437.452302679419518 ], [ 774387.770502844359726, 8983469.452302685007453 ], [ 774447.770502833183855, 8983469.452302677556872 ], [ 774498.026373291038908, 8983442.971769830211997 ], [ 774447.770502846222371, 8983465.452302686870098 ], [ 774447.770502848085016, 8983437.452302679419518 ] ] ] ] } },
{ "type": "Feature", "properties": { "LAYER": "Texk BM", "GM_TYPE": "Unknown Area Type", "ELEVATION": 0 }, "geometry": { "type": "MultiPolygon", "coordinates": [ [ [ [ 775873.077664871467277, 8980271.312613122165203 ], [ 775813.077664871350862, 8980271.312613140791655 ], [ 775813.077664867625572, 8980303.312613127753139 ], [ 775873.077664871467277, 8980303.312613118439913 ], [ 775915.685881861951202, 8980244.374703450128436 ], [ 775873.077664871816523, 8980299.312613118439913 ], [ 775873.077664871467277, 8980271.312613122165203 ] ] ] ] } },
{ "type": "Feature", "properties": { "LAYER": "Texk BM", "GM_TYPE": "Unknown Area Type", "ELEVATION": 0 }, "geometry": { "type": "MultiPolygon", "coordinates": [ [ [ [ 775883.432879607426003, 8980181.8572415150702 ], [ 775823.432879603700712, 8980181.857241509482265 ], [ 775823.432879603700712, 8980213.857241516932845 ], [ 775883.432879592641257, 8980213.857241507619619 ], [ 775929.716721790027805, 8980237.972713980823755 ], [ 775883.432879605446942, 8980209.857241516932845 ], [ 775883.432879607426003, 8980181.8572415150702 ] ] ] ] } },
{ "type": "Feature", "properties": { "LAYER": "Texk BM", "GM_TYPE": "Unknown Area Type", "ELEVATION": 0 }, "geometry": { "type": "MultiPolygon", "coordinates": [ [ [ [ 777346.314989534323104, 8981501.509800521656871 ], [ 777286.314989534323104, 8981501.509800540283322 ], [ 777286.314989530597813, 8981533.509800525382161 ], [ 777346.314989534323104, 8981533.509800517931581 ], [ 777388.923206525156274, 8981474.571890849620104 ], [ 777346.314989534788765, 8981529.509800517931581 ], [ 777346.314989534323104, 8981501.509800521656871 ] ] ] ] } },
{ "type": "Feature", "properties": { "LAYER": "Texk BM", "GM_TYPE": "Unknown Area Type", "ELEVATION": 0 }, "geometry": { "type": "MultiPolygon", "coordinates": [ [ [ [ 777317.636474691447802, 8981425.889369063079357 ], [ 777257.636474687838927, 8981425.889369059354067 ], [ 777257.636474687838927, 8981457.889369066804647 ], [ 777317.636474676546641, 8981457.889369059354067 ], [ 777363.920316874049604, 8981482.004841530695558 ], [ 777317.636474689585157, 8981453.889369066804647 ], [ 777317.636474691447802, 8981425.889369063079357 ] ] ] ] } },
{ "type": "Feature", "properties": { "LAYER": "Texk BM", "GM_TYPE": "Unknown Area Type", "ELEVATION": 0 }, "geometry": { "type": "MultiPolygon", "coordinates": [ [ [ [ 775073.900741572841071, 8979808.606630137190223 ], [ 775013.900741572957486, 8979808.606630155816674 ], [ 775013.90074156911578, 8979840.606630140915513 ], [ 775073.900741572841071, 8979840.606630133464932 ], [ 775115.082916770013981, 8979873.798688929527998 ], [ 775073.900741573306732, 8979836.606630135327578 ], [ 775073.900741572841071, 8979808.606630137190223 ] ] ] ] } },
{ "type": "Feature", "properties": { "LAYER": "Texk BM", "GM_TYPE": "Unknown Area Type", "ELEVATION": 0 }, "geometry": { "type": "MultiPolygon", "coordinates": [ [ [ [ 775074.177015287452377, 8979846.627068482339382 ], [ 775014.177015283843502, 8979846.627068478614092 ], [ 775014.177015283843502, 8979878.627068487927318 ], [ 775074.177015272551216, 8979878.627068478614092 ], [ 775120.460857470054179, 8979902.742540949955583 ], [ 775074.177015285589732, 8979874.627068486064672 ], [ 775074.177015287452377, 8979846.627068482339382 ] ] ] ] } },
{ "type": "Feature", "properties": { "LAYER": "Texk BM", "GM_TYPE": "Unknown Area Type", "ELEVATION": 0 }, "geometry": { "type": "MultiPolygon", "coordinates": [ [ [ [ 775160.824149703024887, 8980553.075322577729821 ], [ 775100.824149703024887, 8980553.075322596356273 ], [ 775100.824149699066766, 8980585.075322581455112 ], [ 775160.824149703024887, 8980585.075322574004531 ], [ 775202.006324900197797, 8980618.267381370067596 ], [ 775160.824149703374133, 8980581.075322572141886 ], [ 775160.824149703024887, 8980553.075322577729821 ] ] ] ] } },
{ "type": "Feature", "properties": { "LAYER": "Texk BM", "GM_TYPE": "Unknown Area Type", "ELEVATION": 0 }, "geometry": { "type": "MultiPolygon", "coordinates": [ [ [ [ 775136.02765547670424, 8980629.972889861091971 ], [ 775076.02765547297895, 8980629.972889857366681 ], [ 775076.02765547297895, 8980661.972889864817262 ], [ 775136.027655461803079, 8980661.972889857366681 ], [ 775189.969857331016101, 8980615.647116240113974 ], [ 775136.027655474841595, 8980657.972889864817262 ], [ 775136.02765547670424, 8980629.972889861091971 ] ] ] ] } },
{ "type": "Feature", "properties": { "LAYER": "Texk BM", "GM_TYPE": "Unknown Area Type", "ELEVATION": 0 }, "geometry": { "type": "MultiPolygon", "coordinates": [ [ [ [ 775193.344538695644587, 8981363.018918327987194 ], [ 775133.344538695761003, 8981363.018918346613646 ], [ 775133.344538692035712, 8981395.018918331712484 ], [ 775193.344538695644587, 8981395.018918322399259 ], [ 775234.526713892933913, 8981428.210977120324969 ], [ 775193.344538696343079, 8981391.018918324261904 ], [ 775193.344538695644587, 8981363.018918327987194 ] ] ] ] } },
{ "type": "Feature", "properties": { "LAYER": "Texk BM", "GM_TYPE": "Unknown Area Type", "ELEVATION": 0 }, "geometry": { "type": "MultiPolygon", "coordinates": [ [ [ [ 775186.648303069872782, 8981458.089481249451637 ], [ 775126.648303066147491, 8981458.089481249451637 ], [ 775126.648303066147491, 8981490.089481255039573 ], [ 775186.64830305497162, 8981490.089481247588992 ], [ 775240.590504924068227, 8981443.763707630336285 ], [ 775186.648303068010136, 8981486.089481256902218 ], [ 775186.648303069872782, 8981458.089481249451637 ] ] ] ] } },
{ "type": "Feature", "properties": { "LAYER": "Texk BM", "GM_TYPE": "Unknown Area Type", "ELEVATION": 0 }, "geometry": { "type": "MultiPolygon", "coordinates": [ [ [ [ 775209.320826769806445, 8981529.684114778414369 ], [ 775149.320826769806445, 8981529.684114795178175 ], [ 775149.320826765964739, 8981561.684114780277014 ], [ 775209.320826769806445, 8981561.684114776551723 ], [ 775250.503001966862939, 8981594.876173572614789 ], [ 775209.320826770272106, 8981557.684114774689078 ], [ 775209.320826769806445, 8981529.684114778414369 ] ] ] ] } },
{ "type": "Feature", "properties": { "LAYER": "Texk BM", "GM_TYPE": "Unknown Area Type", "ELEVATION": 0 }, "geometry": { "type": "MultiPolygon", "coordinates": [ [ [ [ 775176.5145906037651, 8981604.97923999093473 ], [ 775116.51459060003981, 8981604.979239987209439 ], [ 775116.51459060003981, 8981636.97923999466002 ], [ 775176.514590588863939, 8981636.979239985346794 ], [ 775230.456792457844131, 8981590.653466368094087 ], [ 775176.514590601902455, 8981632.97923999466002 ], [ 775176.5145906037651, 8981604.97923999093473 ] ] ] ] } },
{ "type": "Feature", "properties": { "LAYER": "Texk BM", "GM_TYPE": "Unknown Area Type", "ELEVATION": 0 }, "geometry": { "type": "MultiPolygon", "coordinates": [ [ [ [ 775249.81692007870879, 8982151.387718077749014 ], [ 775189.81692007870879, 8982151.387718096375465 ], [ 775189.8169200749835, 8982183.387718079611659 ], [ 775249.81692007870879, 8982183.387718075886369 ], [ 775290.999095275765285, 8982216.579776870086789 ], [ 775249.816920079290867, 8982179.387718074023724 ], [ 775249.81692007870879, 8982151.387718077749014 ] ] ] ] } },
{ "type": "Feature", "properties": { "LAYER": "Texk BM", "GM_TYPE": "Unknown Area Type", "ELEVATION": 0 }, "geometry": { "type": "MultiPolygon", "coordinates": [ [ [ [ 775246.090257175848819, 8982227.911490621045232 ], [ 775186.090257172123529, 8982227.911490617319942 ], [ 775186.090257172123529, 8982259.911490626633167 ], [ 775246.090257160947658, 8982259.911490617319942 ], [ 775300.032459030044265, 8982213.585717001929879 ], [ 775246.090257173986174, 8982255.911490624770522 ], [ 775246.090257175848819, 8982227.911490621045232 ] ] ] ] } },
{ "type": "Feature", "properties": { "LAYER": "Texk BM", "GM_TYPE": "Unknown Area Type", "ELEVATION": 0 }, "geometry": { "type": "MultiPolygon", "coordinates": [ [ [ [ 776820.55400303285569, 8983037.626192836090922 ], [ 776760.55400303285569, 8983037.626192856580019 ], [ 776760.554003029246815, 8983069.626192841678858 ], [ 776820.55400303285569, 8983069.626192834228277 ], [ 776861.7361782300286, 8983102.818251630291343 ], [ 776820.554003033437766, 8983065.626192834228277 ], [ 776820.55400303285569, 8983037.626192836090922 ] ] ] ] } },
{ "type": "Feature", "properties": { "LAYER": "Texk BM", "GM_TYPE": "Unknown Area Type", "ELEVATION": 0 }, "geometry": { "type": "MultiPolygon", "coordinates": [ [ [ [ 776846.254328608512878, 8983140.389603970572352 ], [ 776786.254328604904003, 8983140.389603966847062 ], [ 776786.254328604904003, 8983172.389603974297643 ], [ 776846.254328593611717, 8983172.389603966847062 ], [ 776882.851298362016678, 8983095.01610011048615 ], [ 776846.254328606650233, 8983168.389603974297643 ], [ 776846.254328608512878, 8983140.389603970572352 ] ] ] ] } },
{ "type": "Feature", "properties": { "LAYER": "Texk BM", "GM_TYPE": "Unknown Area Type", "ELEVATION": 0 }, "geometry": { "type": "MultiPolygon", "coordinates": [ [ [ [ 775578.279209834290668, 8982952.094839440658689 ], [ 775518.279209834174253, 8982952.094839457422495 ], [ 775518.279209830448963, 8982984.094839442521334 ], [ 775578.279209834290668, 8982984.094839435070753 ], [ 775649.343875064048916, 8982919.430654250085354 ], [ 775578.27920983475633, 8982980.094839435070753 ], [ 775578.279209834290668, 8982952.094839440658689 ] ] ] ] } },
{ "type": "Feature", "properties": { "LAYER": "Texk BM", "GM_TYPE": "Unknown Area Type", "ELEVATION": 0 }, "geometry": { "type": "MultiPolygon", "coordinates": [ [ [ [ 775579.9861372258747, 8982912.215149439871311 ], [ 775519.986137222149409, 8982912.215149436146021 ], [ 775519.986137222149409, 8982944.215149441733956 ], [ 775579.986137210973538, 8982944.215149436146021 ], [ 775634.854423019103706, 8982910.329543389379978 ], [ 775579.986137224012055, 8982940.215149443596601 ], [ 775579.9861372258747, 8982912.215149439871311 ] ] ] ] } },
{ "type": "Feature", "properties": { "LAYER": "Texk BM", "GM_TYPE": "Unknown Area Type", "ELEVATION": 0 }, "geometry": { "type": "MultiPolygon", "coordinates": [ [ [ [ 775368.744057866511866, 8982792.147177714854479 ], [ 775308.744057862553746, 8982792.147177711129189 ], [ 775308.744057862553746, 8982824.147177718579769 ], [ 775368.744057851610705, 8982824.147177711129189 ], [ 775421.298227099119686, 8982817.337656380608678 ], [ 775368.744057864649221, 8982820.147177718579769 ], [ 775368.744057866511866, 8982792.147177714854479 ] ] ] ] } },
{ "type": "Feature", "properties": { "LAYER": "Texk BM", "GM_TYPE": "Unknown Area Type", "ELEVATION": 0 }, "geometry": { "type": "MultiPolygon", "coordinates": [ [ [ [ 775356.958186019677669, 8982734.320509117096663 ], [ 775296.958186019561253, 8982734.320509135723114 ], [ 775296.958186015835963, 8982766.320509120821953 ], [ 775356.958186019677669, 8982766.320509113371372 ], [ 775429.88206733984407, 8982818.731929680332541 ], [ 775356.95818602014333, 8982762.320509113371372 ], [ 775356.958186019677669, 8982734.320509117096663 ] ] ] ] } },
{ "type": "Feature", "properties": { "LAYER": "Texk BM", "GM_TYPE": "Unknown Area Type", "ELEVATION": 0 }, "geometry": { "type": "MultiPolygon", "coordinates": [ [ [ [ 776672.155620838748291, 8981885.725088594481349 ], [ 776612.155620838748291, 8981885.725088614970446 ], [ 776612.155620835139416, 8981917.725088598206639 ], [ 776672.155620838748291, 8981917.725088590756059 ], [ 776701.486737009952776, 8981930.453950619325042 ], [ 776672.155620839213952, 8981913.725088590756059 ], [ 776672.155620838748291, 8981885.725088594481349 ] ] ] ] } },
{ "type": "Feature", "properties": { "LAYER": "Texk BM", "GM_TYPE": "Unknown Area Type", "ELEVATION": 0 }, "geometry": { "type": "MultiPolygon", "coordinates": [ [ [ [ 776678.255874699563719, 8981932.173058582469821 ], [ 776618.255874695954844, 8981932.173058578744531 ], [ 776618.255874695954844, 8981964.173058584332466 ], [ 776678.255874684662558, 8981964.173058580607176 ], [ 776711.694166765897535, 8981933.760194059461355 ], [ 776678.25587469781749, 8981960.173058586195111 ], [ 776678.255874699563719, 8981932.173058582469821 ] ] ] ] } },
{ "type": "Feature", "properties": { "LAYER": "Texk BM", "GM_TYPE": "Unknown Area Type", "ELEVATION": 0 }, "geometry": { "type": "MultiPolygon", "coordinates": [ [ [ [ 776612.938265020842664, 8980651.12165355682373 ], [ 776552.938265020842664, 8980651.121653573587537 ], [ 776552.938265017117374, 8980683.121653558686376 ], [ 776612.938265020842664, 8980683.121653551235795 ], [ 776642.269381192163564, 8980695.850515579804778 ], [ 776612.938265021308325, 8980679.121653551235795 ], [ 776612.938265020842664, 8980651.12165355682373 ] ] ] ] } },
{ "type": "Feature", "properties": { "LAYER": "Texk BM", "GM_TYPE": "Unknown Area Type", "ELEVATION": 0 }, "geometry": { "type": "MultiPolygon", "coordinates": [ [ [ [ 776600.489011270692572, 8980703.466958243399858 ], [ 776540.489011266850866, 8980703.466958241537213 ], [ 776540.489011266850866, 8980735.466958248987794 ], [ 776600.489011255791411, 8980735.466958239674568 ], [ 776633.927303337142803, 8980705.054093720391393 ], [ 776600.489011268946342, 8980731.466958247125149 ], [ 776600.489011270692572, 8980703.466958243399858 ] ] ] ] } },
{ "type": "Feature", "properties": { "LAYER": "Texk BM", "GM_TYPE": "Unknown Area Type", "ELEVATION": 0 }, "geometry": { "type": "MultiPolygon", "coordinates": [ [ [ [ 772917.671923183952458, 8984088.027510086074471 ], [ 772857.671923183836043, 8984088.027510106563568 ], [ 772857.671923180227168, 8984120.027510089799762 ], [ 772917.671923183952458, 8984120.027510082349181 ], [ 772947.003039355156943, 8984132.756372110918164 ], [ 772917.671923184301704, 8984116.027510082349181 ], [ 772917.671923183952458, 8984088.027510086074471 ] ] ] ] } },
{ "type": "Feature", "properties": { "LAYER": "Texk BM", "GM_TYPE": "Unknown Area Type", "ELEVATION": 0 }, "geometry": { "type": "MultiPolygon", "coordinates": [ [ [ [ 772921.186280750669539, 8984146.028532434254885 ], [ 772861.186280746944249, 8984146.028532428666949 ], [ 772861.186280746944249, 8984178.02853243611753 ], [ 772921.186280735768378, 8984178.028532428666949 ], [ 772954.624572817003354, 8984147.615667909383774 ], [ 772921.186280748806894, 8984174.02853243611753 ], [ 772921.186280750669539, 8984146.028532434254885 ] ] ] ] } },
{ "type": "Feature", "properties": { "LAYER": "Texk BM", "GM_TYPE": "Unknown Area Type", "ELEVATION": 0 }, "geometry": { "type": "MultiPolygon", "coordinates": [ [ [ [ 773672.159649770939723, 8982324.400409715250134 ], [ 773612.159649770939723, 8982324.400409733876586 ], [ 773612.159649767098017, 8982356.40040971711278 ], [ 773672.159649770939723, 8982356.400409711524844 ], [ 773701.490765942027792, 8982369.129271741956472 ], [ 773672.159649771288969, 8982352.400409713387489 ], [ 773672.159649770939723, 8982324.400409715250134 ] ] ] ] } },
{ "type": "Feature", "properties": { "LAYER": "Texk BM", "GM_TYPE": "Unknown Area Type", "ELEVATION": 0 }, "geometry": { "type": "MultiPolygon", "coordinates": [ [ [ [ 773763.476635400671512, 8982209.389859892427921 ], [ 773703.476635396946222, 8982209.389859888702631 ], [ 773703.476635396946222, 8982241.389859894290566 ], [ 773763.476635385770351, 8982241.389859890565276 ], [ 773796.914927467005327, 8982210.976995369419456 ], [ 773763.476635398925282, 8982237.389859896153212 ], [ 773763.476635400671512, 8982209.389859892427921 ] ] ] ] } },
{ "type": "Feature", "properties": { "LAYER": "Texk BM", "GM_TYPE": "Unknown Area Type", "ELEVATION": 0 }, "geometry": { "type": "MultiPolygon", "coordinates": [ [ [ [ 772820.934782475815155, 8982076.144459154456854 ], [ 772760.93478247593157, 8982076.14445917122066 ], [ 772760.93478247220628, 8982108.144459158182144 ], [ 772820.934782475815155, 8982108.144459152594209 ], [ 772850.26589864701964, 8982120.873321179300547 ], [ 772820.934782476280816, 8982104.144459150731564 ], [ 772820.934782475815155, 8982076.144459154456854 ] ] ] ] } },
{ "type": "Feature", "properties": { "LAYER": "Texk BM", "GM_TYPE": "Unknown Area Type", "ELEVATION": 0 }, "geometry": { "type": "MultiPolygon", "coordinates": [ [ [ [ 772840.834729053080082, 8982127.389937676489353 ], [ 772780.834729049354792, 8982127.389937672764063 ], [ 772780.834729049354792, 8982159.389937680214643 ], [ 772840.834729038178921, 8982159.389937672764063 ], [ 772883.68337770702783, 8982119.575533600524068 ], [ 772840.834729051217437, 8982155.389937680214643 ], [ 772840.834729053080082, 8982127.389937676489353 ] ] ] ] } },
{ "type": "Feature", "properties": { "LAYER": "Texk BM", "GM_TYPE": "Unknown Area Type", "ELEVATION": 0 }, "geometry": { "type": "MultiPolygon", "coordinates": [ [ [ [ 773220.806848450680263, 8981228.487848214805126 ], [ 773160.806848450913094, 8981228.487848233431578 ], [ 773160.806848447071388, 8981260.487848218530416 ], [ 773220.806848450680263, 8981260.487848211079836 ], [ 773250.137964622001164, 8981273.216710239648819 ], [ 773220.806848451378755, 8981256.487848211079836 ], [ 773220.806848450680263, 8981228.487848214805126 ] ] ] ] } },
{ "type": "Feature", "properties": { "LAYER": "Texk BM", "GM_TYPE": "Unknown Area Type", "ELEVATION": 0 }, "geometry": { "type": "MultiPolygon", "coordinates": [ [ [ [ 773245.049341532052495, 8981273.979216776788235 ], [ 773185.049341528327204, 8981273.979216771200299 ], [ 773185.049341528327204, 8981305.97921677865088 ], [ 773245.049341517034918, 8981305.979216769337654 ], [ 773287.897990185883828, 8981266.164812700822949 ], [ 773245.049341530073434, 8981301.97921677865088 ], [ 773245.049341532052495, 8981273.979216776788235 ] ] ] ] } },
{ "type": "Feature", "properties": { "LAYER": "Texk BM", "GM_TYPE": "Unknown Area Type", "ELEVATION": 0 }, "geometry": { "type": "MultiPolygon", "coordinates": [ [ [ [ 772723.429619207861833, 8980259.311501184478402 ], [ 772663.429619207745418, 8980259.311501203104854 ], [ 772663.429619204252958, 8980291.311501188203692 ], [ 772723.429619207861833, 8980291.311501180753112 ], [ 772752.760735379066318, 8980304.040363209322095 ], [ 772723.42961920844391, 8980287.311501180753112 ], [ 772723.429619207861833, 8980259.311501184478402 ] ] ] ] } },
{ "type": "Feature", "properties": { "LAYER": "Texk BM", "GM_TYPE": "Unknown Area Type", "ELEVATION": 0 }, "geometry": { "type": "MultiPolygon", "coordinates": [ [ [ [ 772732.625652891001664, 8980314.493264235556126 ], [ 772672.625652887276374, 8980314.493264231830835 ], [ 772672.625652887276374, 8980346.493264239281416 ], [ 772732.625652876100503, 8980346.49326423369348 ], [ 772775.474301544949412, 8980306.67886015959084 ], [ 772732.625652889255434, 8980342.493264239281416 ], [ 772732.625652891001664, 8980314.493264235556126 ] ] ] ] } },
{ "type": "Feature", "properties": { "LAYER": "Texk BM", "GM_TYPE": "Unknown Area Type", "ELEVATION": 0 }, "geometry": { "type": "MultiPolygon", "coordinates": [ [ [ [ 772693.498859483050182, 8979848.507294196635485 ], [ 772633.498859483166598, 8979848.507294213399291 ], [ 772633.498859479324892, 8979880.50729419849813 ], [ 772693.498859483050182, 8979880.507294192910194 ], [ 772723.11526151408907, 8979838.86031393148005 ], [ 772693.498859483632259, 8979876.507294191047549 ], [ 772693.498859483050182, 8979848.507294196635485 ] ] ] ] } },
{ "type": "Feature", "properties": { "LAYER": "Texk BM", "GM_TYPE": "Unknown Area Type", "ELEVATION": 0 }, "geometry": { "type": "MultiPolygon", "coordinates": [ [ [ [ 772693.614282081485726, 8979810.609313331544399 ], [ 772633.614282077876851, 8979810.609313329681754 ], [ 772633.614282077876851, 8979842.609313337132335 ], [ 772693.614282066817395, 8979842.609313329681754 ], [ 772727.052574148052372, 8979812.196448810398579 ], [ 772693.614282079739496, 8979838.609313337132335 ], [ 772693.614282081485726, 8979810.609313331544399 ] ] ] ] } },
{ "type": "Feature", "properties": { "LAYER": "Texk BM", "GM_TYPE": "Unknown Area Type", "ELEVATION": 0 }, "geometry": { "type": "MultiPolygon", "coordinates": [ [ [ [ 772127.38905312854331, 8981275.296537177637219 ], [ 772067.389053128426895, 8981275.296537196263671 ], [ 772067.38905312481802, 8981307.29653718136251 ], [ 772127.38905312854331, 8981307.296537173911929 ], [ 772149.428091487148777, 8981321.515434959903359 ], [ 772127.389053128892556, 8981303.296537175774574 ], [ 772127.38905312854331, 8981275.296537177637219 ] ] ] ] } },
{ "type": "Feature", "properties": { "LAYER": "Texk BM", "GM_TYPE": "Unknown Area Type", "ELEVATION": 0 }, "geometry": { "type": "MultiPolygon", "coordinates": [ [ [ [ 772093.632178261643276, 8981312.167809432372451 ], [ 772033.632178257917985, 8981312.167809428647161 ], [ 772033.632178257917985, 8981344.167809436097741 ], [ 772093.632178246742114, 8981344.167809430509806 ], [ 772127.070470328093506, 8981313.754944909363985 ], [ 772093.63217825978063, 8981340.167809436097741 ], [ 772093.632178261643276, 8981312.167809432372451 ] ] ] ] } },
{ "type": "Feature", "properties": { "LAYER": "Texk BM", "GM_TYPE": "Unknown Area Type", "ELEVATION": 0 }, "geometry": { "type": "MultiPolygon", "coordinates": [ [ [ [ 772198.314193533849902, 8982612.594819337129593 ], [ 772138.314193533966318, 8982612.594819355756044 ], [ 772138.314193530241027, 8982644.594819342717528 ], [ 772198.314193533849902, 8982644.594819333404303 ], [ 772232.431915770983323, 8982665.493847690522671 ], [ 772198.314193534431979, 8982640.594819333404303 ], [ 772198.314193533849902, 8982612.594819337129593 ] ] ] ] } },
{ "type": "Feature", "properties": { "LAYER": "Texk BM", "GM_TYPE": "Unknown Area Type", "ELEVATION": 0 }, "geometry": { "type": "MultiPolygon", "coordinates": [ [ [ [ 772215.412792768445797, 8982683.739827111363411 ], [ 772155.412792764604092, 8982683.739827107638121 ], [ 772155.412792764604092, 8982715.739827115088701 ], [ 772215.412792753428221, 8982715.739827107638121 ], [ 772250.145216795150191, 8982664.42461071908474 ], [ 772215.412792766466737, 8982711.739827115088701 ], [ 772215.412792768445797, 8982683.739827111363411 ] ] ] ] } },
{ "type": "Feature", "properties": { "LAYER": "Texk BM", "GM_TYPE": "Unknown Area Type", "ELEVATION": 0 }, "geometry": { "type": "MultiPolygon", "coordinates": [ [ [ [ 771571.058695381158032, 8981921.247844405472279 ], [ 771511.058695381158032, 8981921.247844422236085 ], [ 771511.058695377316326, 8981953.247844407334924 ], [ 771571.058695381158032, 8981953.247844401746988 ], [ 771615.635810614097863, 8981997.158500999212265 ], [ 771571.058695381507277, 8981949.247844401746988 ], [ 771571.058695381158032, 8981921.247844405472279 ] ] ] ] } },
{ "type": "Feature", "properties": { "LAYER": "Texk BM", "GM_TYPE": "Unknown Area Type", "ELEVATION": 0 }, "geometry": { "type": "MultiPolygon", "coordinates": [ [ [ [ 771551.670850866474211, 8981984.281521173194051 ], [ 771491.670850862865336, 8981984.28152116946876 ], [ 771491.670850862865336, 8982016.281521176919341 ], [ 771551.67085085157305, 8982016.28152116946876 ], [ 771585.109142933040857, 8981985.868656650185585 ], [ 771551.670850864844397, 8982012.281521176919341 ], [ 771551.670850866474211, 8981984.281521173194051 ] ] ] ] } },
{ "type": "Feature", "properties": { "LAYER": "Texk BM", "GM_TYPE": "Unknown Area Type", "ELEVATION": 0 }, "geometry": { "type": "MultiPolygon", "coordinates": [ [ [ [ 770735.960627803113312, 8981648.456340068951249 ], [ 770675.960627803113312, 8981648.456340087577701 ], [ 770675.960627799388021, 8981680.456340072676539 ], [ 770735.960627803113312, 8981680.456340065225959 ], [ 770782.812538279104047, 8981706.086707850918174 ], [ 770735.960627803578973, 8981676.456340065225959 ], [ 770735.960627803113312, 8981648.456340068951249 ] ] ] ] } },
{ "type": "Feature", "properties": { "LAYER": "Texk BM", "GM_TYPE": "Unknown Area Type", "ELEVATION": 0 }, "geometry": { "type": "MultiPolygon", "coordinates": [ [ [ [ 770752.997781004756689, 8981728.800907660275698 ], [ 770692.997781000914983, 8981728.800907656550407 ], [ 770692.997781000914983, 8981760.800907662138343 ], [ 770752.997780989855528, 8981760.800907656550407 ], [ 770800.53428775689099, 8981716.584755949676037 ], [ 770752.997781002894044, 8981756.800907664000988 ], [ 770752.997781004756689, 8981728.800907660275698 ] ] ] ] } },
{ "type": "Feature", "properties": { "LAYER": "Texk BM", "GM_TYPE": "Unknown Area Type", "ELEVATION": 0 }, "geometry": { "type": "MultiPolygon", "coordinates": [ [ [ [ 772169.595299922977574, 8982178.599469974637032 ], [ 772109.595299922861159, 8982178.599469993263483 ], [ 772109.595299919252284, 8982210.599469978362322 ], [ 772169.595299922977574, 8982210.599469970911741 ], [ 772206.637531524989754, 8982167.9337851498276 ], [ 772169.595299923443235, 8982206.599469972774386 ], [ 772169.595299922977574, 8982178.599469974637032 ] ] ] ] } },
{ "type": "Feature", "properties": { "LAYER": "Texk BM", "GM_TYPE": "Unknown Area Type", "ELEVATION": 0 }, "geometry": { "type": "MultiPolygon", "coordinates": [ [ [ [ 772169.913811968639493, 8982136.792339995503426 ], [ 772109.913811964914203, 8982136.792339991778135 ], [ 772109.913811964914203, 8982168.792339997366071 ], [ 772169.913811953738332, 8982168.79233998991549 ], [ 772203.352104035089724, 8982138.379475470632315 ], [ 772169.913811966660433, 8982164.792339997366071 ], [ 772169.913811968639493, 8982136.792339995503426 ] ] ] ] } },
{ "type": "Feature", "properties": { "LAYER": "Texk BM", "GM_TYPE": "Unknown Area Type", "ELEVATION": 0 }, "geometry": { "type": "MultiPolygon", "coordinates": [ [ [ [ 770925.206720378948376, 8981795.747927714139223 ], [ 770865.206720378948376, 8981795.747927732765675 ], [ 770865.206720375223085, 8981827.747927717864513 ], [ 770925.206720378948376, 8981827.747927708551288 ], [ 770962.248951980960555, 8981785.082242889329791 ], [ 770925.206720379530452, 8981823.747927710413933 ], [ 770925.206720378948376, 8981795.747927714139223 ] ] ] ] } },
{ "type": "Feature", "properties": { "LAYER": "Texk BM", "GM_TYPE": "Unknown Area Type", "ELEVATION": 0 }, "geometry": { "type": "MultiPolygon", "coordinates": [ [ [ [ 770939.421894010156393, 8981733.052136199548841 ], [ 770879.421894006314687, 8981733.05213619582355 ], [ 770879.421894006314687, 8981765.052136203274131 ], [ 770939.421893995255232, 8981765.05213619582355 ], [ 770968.218335965881124, 8981773.740916468203068 ], [ 770939.421894008177333, 8981761.052136205136776 ], [ 770939.421894010156393, 8981733.052136199548841 ] ] ] ] } },
{ "type": "Feature", "properties": { "LAYER": "Texk BM", "GM_TYPE": "Unknown Area Type", "ELEVATION": 0 }, "geometry": { "type": "MultiPolygon", "coordinates": [ [ [ [ 772145.063831109320745, 8980596.502228058874607 ], [ 772085.063831109320745, 8980596.502228075638413 ], [ 772085.063831105479039, 8980628.502228060737252 ], [ 772145.063831109320745, 8980628.502228053286672 ], [ 772182.864199729985557, 8980603.257616860792041 ], [ 772145.063831109669991, 8980624.502228053286672 ], [ 772145.063831109320745, 8980596.502228058874607 ] ] ] ] } },
{ "type": "Feature", "properties": { "LAYER": "Texk BM", "GM_TYPE": "Unknown Area Type", "ELEVATION": 0 }, "geometry": { "type": "MultiPolygon", "coordinates": [ [ [ [ 772145.90077408333309, 8980632.615949669852853 ], [ 772085.900774079491384, 8980632.615949664264917 ], [ 772085.900774079491384, 8980664.615949671715498 ], [ 772145.900774068315513, 8980664.615949662402272 ], [ 772187.964819682063535, 8980627.479737190529704 ], [ 772145.900774081354029, 8980660.615949671715498 ], [ 772145.90077408333309, 8980632.615949669852853 ] ] ] ] } },
{ "type": "Feature", "properties": { "LAYER": "Texk BM", "GM_TYPE": "Unknown Area Type", "ELEVATION": 0 }, "geometry": { "type": "MultiPolygon", "coordinates": [ [ [ [ 772876.249102696543559, 8983392.535377766937017 ], [ 772816.249102696543559, 8983392.535377785563469 ], [ 772816.249102692818269, 8983424.535377770662308 ], [ 772876.249102696543559, 8983424.535377761349082 ], [ 772901.467009273008443, 8983443.134781759232283 ], [ 772876.249102696892805, 8983420.535377763211727 ], [ 772876.249102696543559, 8983392.535377766937017 ] ] ] ] } },
{ "type": "Feature", "properties": { "LAYER": "Texk BM", "GM_TYPE": "Unknown Area Type", "ELEVATION": 0 }, "geometry": { "type": "MultiPolygon", "coordinates": [ [ [ [ 772875.094479815219529, 8983448.464756978675723 ], [ 772815.094479811494239, 8983448.464756974950433 ], [ 772815.094479811494239, 8983480.464756982401013 ], [ 772875.094479800434783, 8983480.464756976813078 ], [ 772917.158525414182805, 8983443.328544501215219 ], [ 772875.094479813356884, 8983476.464756982401013 ], [ 772875.094479815219529, 8983448.464756978675723 ] ] ] ] } },
{ "type": "Feature", "properties": { "LAYER": "Texk BM", "GM_TYPE": "Unknown Area Type", "ELEVATION": 0 }, "geometry": { "type": "MultiPolygon", "coordinates": [ [ [ [ 775705.386482763686217, 8983411.163914883509278 ], [ 775705.386482765548863, 8983439.163914887234569 ], [ 775667.336780027137138, 8983386.21274328045547 ], [ 775705.386482778587379, 8983443.163914881646633 ], [ 775765.386482767295092, 8983443.163914887234569 ], [ 775765.386482767295092, 8983411.163914879783988 ], [ 775705.386482763686217, 8983411.163914883509278 ] ] ] ] } },
{ "type": "Feature", "properties": { "LAYER": "Texk BM", "GM_TYPE": "Unknown Area Type", "ELEVATION": 0 }, "geometry": { "type": "MultiPolygon", "coordinates": [ [ [ [ 775694.494035238982178, 8983306.478114798665047 ], [ 775694.494035232113674, 8983334.478114796802402 ], [ 775676.307754875975661, 8983359.037877161055803 ], [ 775694.494035231531598, 8983338.478114796802402 ], [ 775754.494035235256888, 8983338.478114815428853 ], [ 775754.494035238982178, 8983306.478114830330014 ], [ 775694.494035238982178, 8983306.478114798665047 ] ] ] ] } }
]
}
