{
"type": "FeatureCollection",
"name": "09_oe_li_legend",
"crs": { "type": "name", "properties": { "name": "urn:ogc:def:crs:EPSG::32751" } },
"features": [
{ "type": "Feature", "properties": { "LAYER": "Legend", "GM_TYPE": "Unknown Line Type", "ELEVATION": 0 }, "geometry": { "type": "MultiLineString", "coordinates": [ [ [ 777833.305000010994263, 8983114.202999990433455 ], [ 777867.900456407340243, 8983287.066391829401255 ], [ 777654.165129876346327, 8983287.066391829401255 ] ] ] } },
{ "type": "Feature", "properties": { "LAYER": "Legend", "GM_TYPE": "Unknown Line Type", "ELEVATION": 0 }, "geometry": { "type": "MultiLineString", "coordinates": [ [ [ 777823.57985257927794, 8983100.170787289738655 ], [ 777823.57985257927794, 8983219.197913732379675 ], [ 777660.972498249146156, 8983219.197913732379675 ] ] ] } },
{ "type": "Feature", "properties": { "LAYER": "Legend", "GM_TYPE": "Unknown Line Type", "ELEVATION": 0 }, "geometry": { "type": "MultiLineString", "coordinates": [ [ [ 776861.736178231774829, 8983102.818251630291343 ], [ 776789.022245059488341, 8983036.949243523180485 ], [ 776576.238994052633643, 8983036.949243523180485 ] ] ] } },
{ "type": "Feature", "properties": { "LAYER": "Legend", "GM_TYPE": "Unknown Line Type", "ELEVATION": 0 }, "geometry": { "type": "MultiLineString", "coordinates": [ [ [ 775634.854423017473891, 8982910.329543391242623 ], [ 775561.554957688669674, 8982938.530550718307495 ], [ 775429.206872188136913, 8982938.530550718307495 ] ] ] } },
{ "type": "Feature", "properties": { "LAYER": "Legend", "GM_TYPE": "Unknown Line Type", "ELEVATION": 0 }, "geometry": { "type": "MultiLineString", "coordinates": [ [ [ 775649.343875084770843, 8982919.430654233321548 ], [ 775570.196847742772661, 8983020.098467886447906 ], [ 775363.887884418130852, 8983020.098467886447906 ] ] ] } },
{ "type": "Feature", "properties": { "LAYER": "Legend", "GM_TYPE": "Unknown Line Type", "ELEVATION": 0 }, "geometry": { "type": "MultiLineString", "coordinates": [ [ [ 775429.882067334488966, 8982818.690790887922049 ], [ 775429.882067334488966, 8982718.864940630272031 ], [ 775661.410953935468569, 8982718.864940630272031 ] ] ] } },
{ "type": "Feature", "properties": { "LAYER": "Legend", "GM_TYPE": "Unknown Line Type", "ELEVATION": 0 }, "geometry": { "type": "MultiLineString", "coordinates": [ [ [ 775421.298227097489871, 8982817.337656382471323 ], [ 775421.298227097489871, 8982647.912225941196084 ], [ 775576.597279552719556, 8982647.912225941196084 ] ] ] } },
{ "type": "Feature", "properties": { "LAYER": "Legend", "GM_TYPE": "Unknown Line Type", "ELEVATION": 0 }, "geometry": { "type": "MultiLineString", "coordinates": [ [ [ 774498.026373289292678, 8983442.971769832074642 ], [ 774576.246733214124106, 8983578.668091237545013 ], [ 774822.978796726791188, 8983578.668091237545013 ] ] ] } },
{ "type": "Feature", "properties": { "LAYER": "Legend", "GM_TYPE": "Unknown Line Type", "ELEVATION": 0 }, "geometry": { "type": "MultiLineString", "coordinates": [ [ [ 774492.25261391478125, 8983454.25936396047473 ], [ 774574.836628730525263, 8983664.404974669218063 ], [ 774820.70300714741461, 8983664.404974669218063 ] ] ] } },
{ "type": "Feature", "properties": { "LAYER": "Legend", "GM_TYPE": "Unknown Line Type", "ELEVATION": 0 }, "geometry": { "type": "MultiLineString", "coordinates": [ [ [ 776882.851298360386863, 8983095.01610011421144 ], [ 776819.472568498458713, 8982976.139353206381202 ], [ 776664.749271355569363, 8982976.139353206381202 ] ] ] } },
{ "type": "Feature", "properties": { "LAYER": "Legend", "GM_TYPE": "Unknown Line Type", "ELEVATION": 0 }, "geometry": { "type": "MultiLineString", "coordinates": [ [ [ 773959.643336239270866, 8983771.846247259527445 ], [ 773992.146305820439011, 8983712.350182680413127 ], [ 774115.730136828613468, 8983712.350182680413127 ] ] ] } },
{ "type": "Feature", "properties": { "LAYER": "Legend", "GM_TYPE": "Unknown Line Type", "ELEVATION": 0 }, "geometry": { "type": "MultiLineString", "coordinates": [ [ [ 773943.117610756657086, 8983758.234521940350533 ], [ 773988.859159194515087, 8983651.542027287185192 ], [ 774225.413714066846296, 8983651.542027287185192 ] ] ] } },
{ "type": "Feature", "properties": { "LAYER": "Legend", "GM_TYPE": "Unknown Line Type", "ELEVATION": 0 }, "geometry": { "type": "MultiLineString", "coordinates": [ [ [ 773384.979462792514823, 8983135.696095481514931 ], [ 773384.979462792514823, 8983288.219153163954616 ], [ 773117.793766133720055, 8983288.219153163954616 ] ] ] } },
{ "type": "Feature", "properties": { "LAYER": "Legend", "GM_TYPE": "Unknown Line Type", "ELEVATION": 0 }, "geometry": { "type": "MultiLineString", "coordinates": [ [ [ 773374.653869320289232, 8983131.436818642541766 ], [ 773345.543609064538032, 8983228.750132432207465 ], [ 773194.212786475778557, 8983228.750132432207465 ] ] ] } },
{ "type": "Feature", "properties": { "LAYER": "Legend", "GM_TYPE": "Unknown Line Type", "ELEVATION": 0 }, "geometry": { "type": "MultiLineString", "coordinates": [ [ [ 772858.492294034454972, 8982635.459404889494181 ], [ 772805.498899042489938, 8982750.801471898332238 ], [ 772658.026382879237644, 8982750.801471898332238 ] ] ] } },
{ "type": "Feature", "properties": { "LAYER": "Legend", "GM_TYPE": "Unknown Line Type", "ELEVATION": 0 }, "geometry": { "type": "MultiLineString", "coordinates": [ [ [ 772857.173286754172295, 8982613.985927779227495 ], [ 772803.182085152482614, 8982689.068847317248583 ], [ 772510.239780462346971, 8982689.068847317248583 ] ] ] } },
{ "type": "Feature", "properties": { "LAYER": "Legend", "GM_TYPE": "Unknown Line Type", "ELEVATION": 0 }, "geometry": { "type": "MultiLineString", "coordinates": [ [ [ 772883.683377705514431, 8982119.575533602386713 ], [ 772945.390764459967613, 8982005.648366736248136 ], [ 773118.623311565257609, 8982005.648366736248136 ] ] ] } },
{ "type": "Feature", "properties": { "LAYER": "Legend", "GM_TYPE": "Unknown Line Type", "ELEVATION": 0 }, "geometry": { "type": "MultiLineString", "coordinates": [ [ [ 772850.2658986489987, 8982120.873321179300547 ], [ 772930.529969999101013, 8981924.69866063259542 ], [ 773208.351139410049655, 8981924.69866063259542 ] ] ] } },
{ "type": "Feature", "properties": { "LAYER": "Legend", "GM_TYPE": "Unknown Line Type", "ELEVATION": 0 }, "geometry": { "type": "MultiLineString", "coordinates": [ [ [ 773701.490765938186087, 8982369.129271738231182 ], [ 773645.129320872831158, 8982430.391593392938375 ], [ 773390.533501681988128, 8982430.391593392938375 ] ] ] } },
{ "type": "Feature", "properties": { "LAYER": "Legend", "GM_TYPE": "Unknown Line Type", "ELEVATION": 0 }, "geometry": { "type": "MultiLineString", "coordinates": [ [ [ 773796.914927467354573, 8982210.976995369419456 ], [ 773716.175723926280625, 8982117.621376929804683 ], [ 773569.346645139623433, 8982117.621376929804683 ] ] ] } },
{ "type": "Feature", "properties": { "LAYER": "Legend", "GM_TYPE": "Unknown Line Type", "ELEVATION": 0 }, "geometry": { "type": "MultiLineString", "coordinates": [ [ [ 773287.897990186233073, 8981266.164812700822949 ], [ 773348.167938061640598, 8981168.176273286342621 ], [ 773509.888590866932645, 8981168.176273286342621 ] ] ] } },
{ "type": "Feature", "properties": { "LAYER": "Legend", "GM_TYPE": "Unknown Line Type", "ELEVATION": 0 }, "geometry": { "type": "MultiLineString", "coordinates": [ [ [ 773250.137964623747393, 8981273.216710239648819 ], [ 773250.137964623747393, 8981161.658209122717381 ], [ 772973.33135887584649, 8981161.658209122717381 ] ] ] } },
{ "type": "Feature", "properties": { "LAYER": "Legend", "GM_TYPE": "Unknown Line Type", "ELEVATION": 0 }, "geometry": { "type": "MultiLineString", "coordinates": [ [ [ 772752.760735376272351, 8980304.04036320745945 ], [ 772790.764907817938365, 8980174.161107815802097 ], [ 773048.295128329191357, 8980174.161107815802097 ] ] ] } },
{ "type": "Feature", "properties": { "LAYER": "Legend", "GM_TYPE": "Unknown Line Type", "ELEVATION": 0 }, "geometry": { "type": "MultiLineString", "coordinates": [ [ [ 772775.474301545182243, 8980306.67886015959084 ], [ 772790.059177438728511, 8980253.789005788043141 ], [ 772937.001740507781506, 8980253.789005788043141 ] ] ] } },
{ "type": "Feature", "properties": { "LAYER": "Legend", "GM_TYPE": "Unknown Line Type", "ELEVATION": 0 }, "geometry": { "type": "MultiLineString", "coordinates": [ [ [ 775120.46085746854078, 8979902.742540951818228 ], [ 775059.304450400173664, 8979983.28171600215137 ], [ 774908.371434586937539, 8979983.28171600215137 ] ] ] } },
{ "type": "Feature", "properties": { "LAYER": "Legend", "GM_TYPE": "Unknown Line Type", "ELEVATION": 0 }, "geometry": { "type": "MultiLineString", "coordinates": [ [ [ 775115.082916770246811, 8979873.798688931390643 ], [ 775059.780899356002919, 8979913.554768264293671 ], [ 774787.689997855341062, 8979913.554768264293671 ] ] ] } },
{ "type": "Feature", "properties": { "LAYER": "Legend", "GM_TYPE": "Unknown Line Type", "ELEVATION": 0 }, "geometry": { "type": "MultiLineString", "coordinates": [ [ [ 775929.716721790260635, 8980237.972713980823755 ], [ 775929.716721790260635, 8980075.753244994208217 ], [ 775757.807299283100292, 8980075.753244994208217 ] ] ] } },
{ "type": "Feature", "properties": { "LAYER": "Legend", "GM_TYPE": "Unknown Line Type", "ELEVATION": 0 }, "geometry": { "type": "MultiLineString", "coordinates": [ [ [ 775915.685881855548359, 8980244.374703457579017 ], [ 775915.685881855548359, 8980140.299825772643089 ], [ 775694.341522919130512, 8980140.299825772643089 ] ] ] } },
{ "type": "Feature", "properties": { "LAYER": "Legend", "GM_TYPE": "Unknown Line Type", "ELEVATION": 0 }, "geometry": { "type": "MultiLineString", "coordinates": [ [ [ 776633.927303335396573, 8980705.054093720391393 ], [ 776572.741475181654096, 8980800.61326745711267 ], [ 776435.246170213446021, 8980800.61326745711267 ] ] ] } },
{ "type": "Feature", "properties": { "LAYER": "Legend", "GM_TYPE": "Unknown Line Type", "ELEVATION": 0 }, "geometry": { "type": "MultiLineString", "coordinates": [ [ [ 777388.923206518753432, 8981474.571890857070684 ], [ 777388.923206518753432, 8981390.791884521022439 ], [ 777655.043077721493319, 8981390.791884521022439 ] ] ] } },
{ "type": "Feature", "properties": { "LAYER": "Legend", "GM_TYPE": "Unknown Line Type", "ELEVATION": 0 }, "geometry": { "type": "MultiLineString", "coordinates": [ [ [ 777363.920316874049604, 8981481.804841531440616 ], [ 777363.920316874049604, 8981319.650376014411449 ], [ 777539.607359414105304, 8981319.650376014411449 ] ] ] } },
{ "type": "Feature", "properties": { "LAYER": "Legend", "GM_TYPE": "Unknown Line Type", "ELEVATION": 0 }, "geometry": { "type": "MultiLineString", "coordinates": [ [ [ 776711.69416676426772, 8981933.760194061324 ], [ 776780.302018935908563, 8981875.010812157765031 ], [ 776998.424205737537704, 8981875.010812157765031 ] ] ] } },
{ "type": "Feature", "properties": { "LAYER": "Legend", "GM_TYPE": "Unknown Line Type", "ELEVATION": 0 }, "geometry": { "type": "MultiLineString", "coordinates": [ [ [ 776701.486737006111071, 8981930.453950617462397 ], [ 776759.599048385163769, 8981820.707182474434376 ], [ 777011.609862156328745, 8981820.707182474434376 ] ] ] } },
{ "type": "Feature", "properties": { "LAYER": "Legend", "GM_TYPE": "Unknown Line Type", "ELEVATION": 0 }, "geometry": { "type": "MultiLineString", "coordinates": [ [ [ 775202.006324901944026, 8980618.267381370067596 ], [ 775227.9405516438419, 8980494.909414231777191 ], [ 775470.158566178288311, 8980494.909414231777191 ] ] ] } },
{ "type": "Feature", "properties": { "LAYER": "Legend", "GM_TYPE": "Unknown Line Type", "ELEVATION": 0 }, "geometry": { "type": "MultiLineString", "coordinates": [ [ [ 775189.969857329269871, 8980615.647116240113974 ], [ 775157.410687102470547, 8980669.49690773524344 ], [ 775071.80637848994229, 8980669.49690773524344 ] ] ] } },
{ "type": "Feature", "properties": { "LAYER": "Legend", "GM_TYPE": "Unknown Line Type", "ELEVATION": 0 }, "geometry": { "type": "MultiLineString", "coordinates": [ [ [ 773701.490765939233825, 8982369.129271738231182 ], [ 773657.064055953174829, 8982280.614689342677593 ], [ 773435.501325577497482, 8982280.614689342677593 ] ] ] } },
{ "type": "Feature", "properties": { "LAYER": "Legend", "GM_TYPE": "Unknown Line Type", "ELEVATION": 0 }, "geometry": { "type": "MultiLineString", "coordinates": [ [ [ 776642.269381192163564, 8980695.850515579804778 ], [ 776617.586732674157247, 8980861.204873509705067 ], [ 776404.969980275607668, 8980861.204873509705067 ] ] ] } },
{ "type": "Feature", "properties": { "LAYER": "Legend", "GM_TYPE": "Unknown Line Type", "ELEVATION": 0 }, "geometry": { "type": "MultiLineString", "coordinates": [ [ [ 772232.431915768655017, 8982665.49384768679738 ], [ 772178.440714167081751, 8982740.576767224818468 ], [ 771914.729904735344462, 8982740.576767224818468 ] ] ] } },
{ "type": "Feature", "properties": { "LAYER": "Legend", "GM_TYPE": "Unknown Line Type", "ELEVATION": 0 }, "geometry": { "type": "MultiLineString", "coordinates": [ [ [ 772250.145216795266606, 8982664.42461071908474 ], [ 772168.080623324145563, 8982803.177955377846956 ], [ 771951.62136760703288, 8982803.177955377846956 ] ] ] } },
{ "type": "Feature", "properties": { "LAYER": "Legend", "GM_TYPE": "Unknown Line Type", "ELEVATION": 0 }, "geometry": { "type": "MultiLineString", "coordinates": [ [ [ 772203.352104035788216, 8982138.379475470632315 ], [ 772235.706532174139284, 8982102.018753837794065 ], [ 772372.059937328682281, 8982102.018753837794065 ] ] ] } },
{ "type": "Feature", "properties": { "LAYER": "Legend", "GM_TYPE": "Unknown Line Type", "ELEVATION": 0 }, "geometry": { "type": "MultiLineString", "coordinates": [ [ [ 772206.637531482148916, 8982167.933785194531083 ], [ 772251.35849432379473, 8982194.100504864007235 ], [ 772477.318328842986375, 8982194.100504864007235 ] ] ] } },
{ "type": "Feature", "properties": { "LAYER": "Legend", "GM_TYPE": "Unknown Line Type", "ELEVATION": 0 }, "geometry": { "type": "MultiLineString", "coordinates": [ [ [ 772127.070470326347277, 8981313.754944909363985 ], [ 772084.722338949912228, 8981379.741596711799502 ], [ 771869.84941658237949, 8981379.741596711799502 ] ] ] } },
{ "type": "Feature", "properties": { "LAYER": "Legend", "GM_TYPE": "Unknown Line Type", "ELEVATION": 0 }, "geometry": { "type": "MultiLineString", "coordinates": [ [ [ 772149.428091477486305, 8981321.515434952452779 ], [ 772096.072337693534791, 8981449.604614125564694 ], [ 771932.87151858699508, 8981449.604614125564694 ] ] ] } },
{ "type": "Feature", "properties": { "LAYER": "Legend", "GM_TYPE": "Unknown Line Type", "ELEVATION": 0 }, "geometry": { "type": "MultiLineString", "coordinates": [ [ [ 772182.864199735573493, 8980603.257616857066751 ], [ 772218.7502163721947, 8980551.260026086121798 ], [ 772453.967375131556764, 8980551.260026086121798 ] ] ] } },
{ "type": "Feature", "properties": { "LAYER": "Legend", "GM_TYPE": "Unknown Line Type", "ELEVATION": 0 }, "geometry": { "type": "MultiLineString", "coordinates": [ [ [ 772187.96481968217995, 8980627.479737190529704 ], [ 772227.889893396059051, 8980670.522681720554829 ], [ 772344.118300985312089, 8980670.522681720554829 ] ] ] } },
{ "type": "Feature", "properties": { "LAYER": "Legend", "GM_TYPE": "Unknown Line Type", "ELEVATION": 0 }, "geometry": { "type": "MultiLineString", "coordinates": [ [ [ 772723.115261507336982, 8979838.860313940793276 ], [ 772777.745731347939, 8979792.769130669534206 ], [ 773007.031611345126294, 8979792.769130669534206 ] ] ] } },
{ "type": "Feature", "properties": { "LAYER": "Legend", "GM_TYPE": "Unknown Line Type", "ELEVATION": 0 }, "geometry": { "type": "MultiLineString", "coordinates": [ [ [ 772727.052574146306142, 8979812.196448810398579 ], [ 772780.30236220615916, 8979744.331508280709386 ], [ 772925.05338432721328, 8979744.331508280709386 ] ] ] } },
{ "type": "Feature", "properties": { "LAYER": "Legend", "GM_TYPE": "Unknown Line Type", "ELEVATION": 0 }, "geometry": { "type": "MultiLineString", "coordinates": [ [ [ 770782.812538274563849, 8981706.086707847192883 ], [ 770782.812538274563849, 8981759.55381921865046 ], [ 770550.825332067208365, 8981759.55381921865046 ] ] ] } },
{ "type": "Feature", "properties": { "LAYER": "Legend", "GM_TYPE": "Unknown Line Type", "ELEVATION": 0 }, "geometry": { "type": "MultiLineString", "coordinates": [ [ [ 770800.534287757356651, 8981716.584755949676037 ], [ 770800.534287757356651, 8981830.46604947373271 ], [ 770632.985938623314723, 8981830.46604947373271 ] ] ] } },
{ "type": "Feature", "properties": { "LAYER": "Legend", "GM_TYPE": "Unknown Line Type", "ELEVATION": 0 }, "geometry": { "type": "MultiLineString", "coordinates": [ [ [ 770968.21833596425131, 8981773.740916473791003 ], [ 770968.21833596425131, 8981937.038893673568964 ], [ 770827.968834950472228, 8981937.038893673568964 ] ] ] } },
{ "type": "Feature", "properties": { "LAYER": "Legend", "GM_TYPE": "Unknown Line Type", "ELEVATION": 0 }, "geometry": { "type": "MultiLineString", "coordinates": [ [ [ 770962.248951938585378, 8981785.082242934033275 ], [ 770962.248951938585378, 8981888.007525036111474 ], [ 770729.950015799840912, 8981888.007525036111474 ] ] ] } },
{ "type": "Feature", "properties": { "LAYER": "Legend", "GM_TYPE": "Unknown Line Type", "ELEVATION": 0 }, "geometry": { "type": "MultiLineString", "coordinates": [ [ [ 771585.109142931294627, 8981985.86865665204823 ], [ 771585.109142931294627, 8982050.320287449285388 ], [ 771466.239741168334149, 8982050.320287449285388 ] ] ] } },
{ "type": "Feature", "properties": { "LAYER": "Legend", "GM_TYPE": "Unknown Line Type", "ELEVATION": 0 }, "geometry": { "type": "MultiLineString", "coordinates": [ [ [ 771615.635810505249538, 8981997.158500891178846 ], [ 771615.635810505249538, 8982099.120735140517354 ], [ 771387.170232512522489, 8982099.120735140517354 ] ] ] } },
{ "type": "Feature", "properties": { "LAYER": "Legend", "GM_TYPE": "Unknown Line Type", "ELEVATION": 0 }, "geometry": { "type": "MultiLineString", "coordinates": [ [ [ 776523.386453414685093, 8983176.600899266079068 ], [ 776523.386453414685093, 8983512.218959180638194 ], [ 777266.664256591233425, 8983512.218959180638194 ] ] ] } },
{ "type": "Feature", "properties": { "LAYER": "Legend", "GM_TYPE": "Unknown Line Type", "ELEVATION": 0 }, "geometry": { "type": "MultiLineString", "coordinates": [ [ [ 773680.279854130232707, 8983691.846760120242834 ], [ 773680.279854130232707, 8984199.268272709101439 ], [ 772750.676596967037767, 8984199.268272709101439 ] ] ] } },
{ "type": "Feature", "properties": { "LAYER": "Legend", "GM_TYPE": "Unknown Line Type", "ELEVATION": 0 }, "geometry": { "type": "MultiLineString", "coordinates": [ [ [ 773061.032278037979268, 8983565.410900155082345 ], [ 771790.6240812279284, 8983565.410900155082345 ] ] ] } },
{ "type": "Feature", "properties": { "LAYER": "Legend", "GM_TYPE": "Unknown Line Type", "ELEVATION": 23 }, "geometry": { "type": "MultiLineString", "coordinates": [ [ [ 777010.465926299453713, 8982396.086930625140667 ], [ 778345.068343399907462, 8982396.086930625140667 ] ] ] } }
]
}
