{
"type": "FeatureCollection",
"name": "09_oe_po_profile",
"crs": { "type": "name", "properties": { "name": "urn:ogc:def:crs:EPSG::32751" } },
"features": [
{ "type": "Feature", "properties": { "NAME": "u/s.14", "LAYER": "profile", "GM_TYPE": "Text", "ELEVATION": 0 }, "geometry": { "type": "Point", "coordinates": [ 778112.587608931120485, 8983511.187959689646959 ] } },
{ "type": "Feature", "properties": { "NAME": "u/s.13", "LAYER": "profile", "GM_TYPE": "Text", "ELEVATION": 0 }, "geometry": { "type": "Point", "coordinates": [ 778073.414631820749491, 8983480.395377736538649 ] } },
{ "type": "Feature", "properties": { "NAME": "u/s.12", "LAYER": "profile", "GM_TYPE": "Text", "ELEVATION": 0 }, "geometry": { "type": "Point", "coordinates": [ 778034.04881128622219, 8983449.690425781533122 ] } },
{ "type": "Feature", "properties": { "NAME": "u/s.11", "LAYER": "profile", "GM_TYPE": "Text", "ELEVATION": 0 }, "geometry": { "type": "Point", "coordinates": [ 777994.679312026128173, 8983419.025551015511155 ] } },
{ "type": "Feature", "properties": { "NAME": "u/s.10", "LAYER": "profile", "GM_TYPE": "Text", "ELEVATION": 0 }, "geometry": { "type": "Point", "coordinates": [ 777977.623685644939542, 8983372.085624260827899 ] } },
{ "type": "Feature", "properties": { "NAME": "u/s.9", "LAYER": "profile", "GM_TYPE": "Text", "ELEVATION": 0 }, "geometry": { "type": "Point", "coordinates": [ 777958.519315091427416, 8983326.740313809365034 ] } },
{ "type": "Feature", "properties": { "NAME": "u/s.8", "LAYER": "profile", "GM_TYPE": "Text", "ELEVATION": 0 }, "geometry": { "type": "Point", "coordinates": [ 777935.347951783332974, 8983283.676918713375926 ] } },
{ "type": "Feature", "properties": { "NAME": "u/s.7", "LAYER": "profile", "GM_TYPE": "Text", "ELEVATION": 0 }, "geometry": { "type": "Point", "coordinates": [ 777910.454059244249947, 8983240.462235236540437 ] } },
{ "type": "Feature", "properties": { "NAME": "u/s.6", "LAYER": "profile", "GM_TYPE": "Text", "ELEVATION": 0 }, "geometry": { "type": "Point", "coordinates": [ 777888.582754085771739, 8983195.922336587682366 ] } },
{ "type": "Feature", "properties": { "NAME": "u/s.5", "LAYER": "profile", "GM_TYPE": "Text", "ELEVATION": 0 }, "geometry": { "type": "Point", "coordinates": [ 777857.106375553645194, 8983157.15304172411561 ] } },
{ "type": "Feature", "properties": { "NAME": "u/s.4", "LAYER": "profile", "GM_TYPE": "Text", "ELEVATION": 0 }, "geometry": { "type": "Point", "coordinates": [ 777852.252923662774265, 8983148.39989310130477 ] } },
{ "type": "Feature", "properties": { "NAME": "u/s.3", "LAYER": "profile", "GM_TYPE": "Text", "ELEVATION": 0 }, "geometry": { "type": "Point", "coordinates": [ 777847.316595317446627, 8983139.64744614623487 ] } },
{ "type": "Feature", "properties": { "NAME": "u/s.2", "LAYER": "profile", "GM_TYPE": "Text", "ELEVATION": 0 }, "geometry": { "type": "Point", "coordinates": [ 777842.660933971521445, 8983130.90098967961967 ] } },
{ "type": "Feature", "properties": { "NAME": "u/s.1", "LAYER": "profile", "GM_TYPE": "Text", "ELEVATION": 0 }, "geometry": { "type": "Point", "coordinates": [ 777837.993202458601445, 8983122.037932017818093 ] } },
{ "type": "Feature", "properties": { "NAME": "AS", "LAYER": "profile", "GM_TYPE": "Text", "ELEVATION": 0 }, "geometry": { "type": "Point", "coordinates": [ 777838.36053076654207, 8983109.448504453524947 ] } },
{ "type": "Feature", "properties": { "NAME": "d/s.1", "LAYER": "profile", "GM_TYPE": "Text", "ELEVATION": 0 }, "geometry": { "type": "Point", "coordinates": [ 777831.143192290444858, 8983102.616576693952084 ] } },
{ "type": "Feature", "properties": { "NAME": "d/s.2", "LAYER": "profile", "GM_TYPE": "Text", "ELEVATION": 0 }, "geometry": { "type": "Point", "coordinates": [ 777823.816078571602702, 8983095.763260113075376 ] } },
{ "type": "Feature", "properties": { "NAME": "d/s.3", "LAYER": "profile", "GM_TYPE": "Text", "ELEVATION": 0 }, "geometry": { "type": "Point", "coordinates": [ 777816.525535309338011, 8983088.728471517562866 ] } },
{ "type": "Feature", "properties": { "NAME": "d/s.4", "LAYER": "profile", "GM_TYPE": "Text", "ELEVATION": 0 }, "geometry": { "type": "Point", "coordinates": [ 777809.345987176522613, 8983081.931836159899831 ] } },
{ "type": "Feature", "properties": { "NAME": "d/s.5", "LAYER": "profile", "GM_TYPE": "Text", "ELEVATION": 0 }, "geometry": { "type": "Point", "coordinates": [ 777802.187089058686979, 8983075.226029708981514 ] } },
{ "type": "Feature", "properties": { "NAME": "d/s.6", "LAYER": "profile", "GM_TYPE": "Text", "ELEVATION": 0 }, "geometry": { "type": "Point", "coordinates": [ 777766.071428818744607, 8983039.714872878044844 ] } },
{ "type": "Feature", "properties": { "NAME": "d/s.7", "LAYER": "profile", "GM_TYPE": "Text", "ELEVATION": 0 }, "geometry": { "type": "Point", "coordinates": [ 777749.887311906553805, 8982992.529305776581168 ] } },
{ "type": "Feature", "properties": { "NAME": "d/s.8", "LAYER": "profile", "GM_TYPE": "Text", "ELEVATION": 0 }, "geometry": { "type": "Point", "coordinates": [ 777734.188888780772686, 8982944.997573805972934 ] } },
{ "type": "Feature", "properties": { "NAME": "d/s.9", "LAYER": "profile", "GM_TYPE": "Text", "ELEVATION": 0 }, "geometry": { "type": "Point", "coordinates": [ 777718.276392631232738, 8982897.466708717867732 ] } },
{ "type": "Feature", "properties": { "NAME": "d/s.10", "LAYER": "profile", "GM_TYPE": "Text", "ELEVATION": 0 }, "geometry": { "type": "Point", "coordinates": [ 777689.645066629163921, 8982857.084060125052929 ] } },
{ "type": "Feature", "properties": { "NAME": "d/s.11", "LAYER": "profile", "GM_TYPE": "Text", "ELEVATION": 0 }, "geometry": { "type": "Point", "coordinates": [ 777677.49328782374505, 8982808.776186799630523 ] } },
{ "type": "Feature", "properties": { "NAME": "d/s.12", "LAYER": "profile", "GM_TYPE": "Text", "ELEVATION": 0 }, "geometry": { "type": "Point", "coordinates": [ 777665.370821418822743, 8982760.386706383898854 ] } },
{ "type": "Feature", "properties": { "NAME": "d/s.13", "LAYER": "profile", "GM_TYPE": "Text", "ELEVATION": 0 }, "geometry": { "type": "Point", "coordinates": [ 777653.517236487008631, 8982712.021478617563844 ] } },
{ "type": "Feature", "properties": { "NAME": "d/s.14", "LAYER": "profile", "GM_TYPE": "Text", "ELEVATION": 0 }, "geometry": { "type": "Point", "coordinates": [ 777641.534379018121399, 8982663.751333072781563 ] } }
]
}
