{
"type": "FeatureCollection",
"name": "09_oe_li_mbox",
"crs": { "type": "name", "properties": { "name": "urn:ogc:def:crs:EPSG::32751" } },
"features": [
{ "type": "Feature", "properties": { "LAYER": "MBox", "GM_TYPE": "Unknown Line Type", "ELEVATION": 0 }, "geometry": { "type": "MultiLineString", "coordinates": [ [ [ 777582.394747018814087, 8983022.167808815836906 ], [ 777586.394747018814087, 8983022.167808815836906 ], [ 777586.394747018814087, 8983018.167808817699552 ], [ 777582.394747018814087, 8983018.167808817699552 ], [ 777582.394747018814087, 8983022.167808815836906 ] ] ] } },
{ "type": "Feature", "properties": { "LAYER": "MBox", "GM_TYPE": "Unknown Line Type", "ELEVATION": 0 }, "geometry": { "type": "MultiLineString", "coordinates": [ [ [ 776641.573971181176603, 8980684.817614234983921 ], [ 776641.573971181176603, 8980688.817614233121276 ], [ 776645.573971181176603, 8980688.817614233121276 ], [ 776645.573971181176603, 8980684.817614234983921 ], [ 776641.573971181176603, 8980684.817614234983921 ] ] ] } },
{ "type": "Feature", "properties": { "LAYER": "MBox", "GM_TYPE": "Unknown Line Type", "ELEVATION": 0 }, "geometry": { "type": "MultiLineString", "coordinates": [ [ [ 776612.232738287304528, 8980400.367961309850216 ], [ 776612.232738287304528, 8980404.367961311712861 ], [ 776616.232738287188113, 8980404.367961311712861 ], [ 776616.232738287188113, 8980400.367961309850216 ], [ 776612.232738287304528, 8980400.367961309850216 ] ] ] } },
{ "type": "Feature", "properties": { "LAYER": "MBox", "GM_TYPE": "Unknown Line Type", "ELEVATION": 0 }, "geometry": { "type": "MultiLineString", "coordinates": [ [ [ 776692.298508276930079, 8981501.311514742672443 ], [ 776692.298508276930079, 8981505.311514742672443 ], [ 776696.298508276930079, 8981505.311514742672443 ], [ 776696.298508276930079, 8981501.311514742672443 ], [ 776692.298508276930079, 8981501.311514742672443 ] ] ] } },
{ "type": "Feature", "properties": { "LAYER": "MBox", "GM_TYPE": "Unknown Line Type", "ELEVATION": 0 }, "geometry": { "type": "MultiLineString", "coordinates": [ [ [ 776683.719380470342003, 8981355.61488401889801 ], [ 776683.719380470342003, 8981359.61488401889801 ], [ 776687.719380470342003, 8981359.61488401889801 ], [ 776687.719380470342003, 8981355.61488401889801 ], [ 776683.719380470342003, 8981355.61488401889801 ] ] ] } },
{ "type": "Feature", "properties": { "LAYER": "MBox", "GM_TYPE": "Unknown Line Type", "ELEVATION": 0 }, "geometry": { "type": "MultiLineString", "coordinates": [ [ [ 777095.72646035021171, 8981331.291651248931885 ], [ 777095.72646035021171, 8981335.29165125079453 ], [ 777099.726460350328125, 8981335.29165125079453 ], [ 777099.726460350328125, 8981331.291651248931885 ], [ 777095.72646035021171, 8981331.291651248931885 ] ] ] } },
{ "type": "Feature", "properties": { "LAYER": "MBox", "GM_TYPE": "Unknown Line Type", "ELEVATION": 0 }, "geometry": { "type": "MultiLineString", "coordinates": [ [ [ 776666.099832325009629, 8981347.392771769315004 ], [ 776666.099832325009629, 8981351.392771769315004 ], [ 776670.099832325009629, 8981351.392771769315004 ], [ 776670.099832325009629, 8981347.392771769315004 ], [ 776666.099832325009629, 8981347.392771769315004 ] ] ] } },
{ "type": "Feature", "properties": { "LAYER": "MBox", "GM_TYPE": "Unknown Line Type", "ELEVATION": 0 }, "geometry": { "type": "MultiLineString", "coordinates": [ [ [ 776209.666414130711928, 8981033.622038304805756 ], [ 776207.51436390564777, 8981036.993785606697202 ], [ 776210.886111201019958, 8981039.145835829898715 ], [ 776213.038161426084116, 8981035.774088531732559 ], [ 776209.666414130711928, 8981033.622038304805756 ] ] ] } },
{ "type": "Feature", "properties": { "LAYER": "MBox", "GM_TYPE": "Unknown Line Type", "ELEVATION": 0 }, "geometry": { "type": "MultiLineString", "coordinates": [ [ [ 776629.806922420859337, 8980680.901551257818937 ], [ 776628.166709333658218, 8980684.549797555431724 ], [ 776631.81495562940836, 8980686.190010642632842 ], [ 776633.455168715678155, 8980682.541764345020056 ], [ 776629.806922420859337, 8980680.901551257818937 ] ] ] } },
{ "type": "Feature", "properties": { "LAYER": "MBox", "GM_TYPE": "Unknown Line Type", "ELEVATION": 0 }, "geometry": { "type": "MultiLineString", "coordinates": [ [ [ 776600.144022528780624, 8980400.269454900175333 ], [ 776600.144022528780624, 8980404.269454900175333 ], [ 776604.144022528780624, 8980404.269454900175333 ], [ 776604.144022528780624, 8980400.269454900175333 ], [ 776600.144022528780624, 8980400.269454900175333 ] ] ] } },
{ "type": "Feature", "properties": { "LAYER": "MBox", "GM_TYPE": "Unknown Line Type", "ELEVATION": 0 }, "geometry": { "type": "MultiLineString", "coordinates": [ [ [ 775942.859779855934903, 8981322.892235524952412 ], [ 775942.859779855934903, 8981326.892235524952412 ], [ 775946.859779855934903, 8981326.892235524952412 ], [ 775946.859779855934903, 8981322.892235524952412 ], [ 775942.859779855934903, 8981322.892235524952412 ] ] ] } },
{ "type": "Feature", "properties": { "LAYER": "MBox", "GM_TYPE": "Unknown Line Type", "ELEVATION": 0 }, "geometry": { "type": "MultiLineString", "coordinates": [ [ [ 775930.838454437325709, 8981137.388556528836489 ], [ 775930.838454437325709, 8981141.388556530699134 ], [ 775934.838454437325709, 8981141.388556530699134 ], [ 775934.838454437325709, 8981137.388556528836489 ], [ 775930.838454437325709, 8981137.388556528836489 ] ] ] } },
{ "type": "Feature", "properties": { "LAYER": "MBox", "GM_TYPE": "Unknown Line Type", "ELEVATION": 0 }, "geometry": { "type": "MultiLineString", "coordinates": [ [ [ 776159.589109404827468, 8981537.663226034492254 ], [ 776159.589109404827468, 8981541.663226034492254 ], [ 776163.589109404827468, 8981541.663226034492254 ], [ 776163.589109404827468, 8981537.663226034492254 ], [ 776159.589109404827468, 8981537.663226034492254 ] ] ] } },
{ "type": "Feature", "properties": { "LAYER": "MBox", "GM_TYPE": "Unknown Line Type", "ELEVATION": 0 }, "geometry": { "type": "MultiLineString", "coordinates": [ [ [ 775199.463889670441858, 8980604.307794820517302 ], [ 775199.463889670441858, 8980608.307794820517302 ], [ 775203.463889670441858, 8980608.307794820517302 ], [ 775203.463889670441858, 8980604.307794820517302 ], [ 775199.463889670441858, 8980604.307794820517302 ] ] ] } },
{ "type": "Feature", "properties": { "LAYER": "MBox", "GM_TYPE": "Unknown Line Type", "ELEVATION": 0 }, "geometry": { "type": "MultiLineString", "coordinates": [ [ [ 775232.653554826742038, 8981356.904468011111021 ], [ 775232.653554826742038, 8981360.904468011111021 ], [ 775236.653554826742038, 8981360.904468011111021 ], [ 775236.653554826742038, 8981356.904468011111021 ], [ 775232.653554826742038, 8981356.904468011111021 ] ] ] } },
{ "type": "Feature", "properties": { "LAYER": "MBox", "GM_TYPE": "Unknown Line Type", "ELEVATION": 0 }, "geometry": { "type": "MultiLineString", "coordinates": [ [ [ 775220.410748886875808, 8981144.037899322807789 ], [ 775220.410748886875808, 8981148.037899322807789 ], [ 775224.410748886875808, 8981148.037899322807789 ], [ 775224.410748886875808, 8981144.037899322807789 ], [ 775220.410748886875808, 8981144.037899322807789 ] ] ] } },
{ "type": "Feature", "properties": { "LAYER": "MBox", "GM_TYPE": "Unknown Line Type", "ELEVATION": 0 }, "geometry": { "type": "MultiLineString", "coordinates": [ [ [ 775187.753098463523202, 8980608.971098642796278 ], [ 775187.753098463523202, 8980612.971098642796278 ], [ 775191.753098463406786, 8980612.971098642796278 ], [ 775191.753098463406786, 8980608.971098642796278 ], [ 775187.753098463523202, 8980608.971098642796278 ] ] ] } },
{ "type": "Feature", "properties": { "LAYER": "MBox", "GM_TYPE": "Unknown Line Type", "ELEVATION": 0 }, "geometry": { "type": "MultiLineString", "coordinates": [ [ [ 775164.824004784924909, 8980343.241529315710068 ], [ 775164.824004784924909, 8980347.241529315710068 ], [ 775168.824004784924909, 8980347.241529315710068 ], [ 775168.824004784924909, 8980343.241529315710068 ], [ 775164.824004784924909, 8980343.241529315710068 ] ] ] } },
{ "type": "Feature", "properties": { "LAYER": "MBox", "GM_TYPE": "Unknown Line Type", "ELEVATION": 0 }, "geometry": { "type": "MultiLineString", "coordinates": [ [ [ 773794.176393238944001, 8981032.66894856095314 ], [ 773794.176393238944001, 8981036.66894856095314 ], [ 773798.176393238944001, 8981036.66894856095314 ], [ 773798.176393238944001, 8981032.66894856095314 ], [ 773794.176393238944001, 8981032.66894856095314 ] ] ] } },
{ "type": "Feature", "properties": { "LAYER": "MBox", "GM_TYPE": "Unknown Line Type", "ELEVATION": 0 }, "geometry": { "type": "MultiLineString", "coordinates": [ [ [ 773773.111282254802063, 8980817.260285589843988 ], [ 773773.111282254802063, 8980821.260285591706634 ], [ 773777.111282254918478, 8980821.260285591706634 ], [ 773777.111282254918478, 8980817.260285589843988 ], [ 773773.111282254802063, 8980817.260285589843988 ] ] ] } },
{ "type": "Feature", "properties": { "LAYER": "MBox", "GM_TYPE": "Unknown Line Type", "ELEVATION": 0 }, "geometry": { "type": "MultiLineString", "coordinates": [ [ [ 773754.695407780120149, 8980556.901920557022095 ], [ 773754.695407780120149, 8980560.90192055888474 ], [ 773758.695407780120149, 8980560.90192055888474 ], [ 773758.695407780120149, 8980556.901920557022095 ], [ 773754.695407780120149, 8980556.901920557022095 ] ] ] } },
{ "type": "Feature", "properties": { "LAYER": "MBox", "GM_TYPE": "Unknown Line Type", "ELEVATION": 0 }, "geometry": { "type": "MultiLineString", "coordinates": [ [ [ 773525.786719160154462, 8980943.991456529125571 ], [ 773524.392593519762158, 8980947.740644935518503 ], [ 773528.141781925340183, 8980949.134770575910807 ], [ 773529.535907565732487, 8980945.38558217138052 ], [ 773525.786719160154462, 8980943.991456529125571 ] ] ] } },
{ "type": "Feature", "properties": { "LAYER": "MBox", "GM_TYPE": "Unknown Line Type", "ELEVATION": 0 }, "geometry": { "type": "MultiLineString", "coordinates": [ [ [ 773788.066155213746242, 8981036.611267928034067 ], [ 773786.672029573353939, 8981040.360456332564354 ], [ 773790.421217978815548, 8981041.754581972956657 ], [ 773791.815343619207852, 8981038.005393568426371 ], [ 773788.066155213746242, 8981036.611267928034067 ] ] ] } },
{ "type": "Feature", "properties": { "LAYER": "MBox", "GM_TYPE": "Unknown Line Type", "ELEVATION": 0 }, "geometry": { "type": "MultiLineString", "coordinates": [ [ [ 773348.203274750849232, 8980700.052093774080276 ], [ 773344.284762006020173, 8980700.855373211205006 ], [ 773345.088041443144903, 8980704.773885959759355 ], [ 773349.006554188090377, 8980703.97060652077198 ], [ 773348.203274750849232, 8980700.052093774080276 ] ] ] } },
{ "type": "Feature", "properties": { "LAYER": "MBox", "GM_TYPE": "Unknown Line Type", "ELEVATION": 0 }, "geometry": { "type": "MultiLineString", "coordinates": [ [ [ 773252.047638379619457, 8980563.58891448751092 ], [ 773248.129125634673983, 8980564.392193924635649 ], [ 773248.932405071682297, 8980568.310706669464707 ], [ 773252.850917816627771, 8980567.507427234202623 ], [ 773252.047638379619457, 8980563.58891448751092 ] ] ] } },
{ "type": "Feature", "properties": { "LAYER": "MBox", "GM_TYPE": "Unknown Line Type", "ELEVATION": 0 }, "geometry": { "type": "MultiLineString", "coordinates": [ [ [ 774478.764674424892291, 8983442.524945620447397 ], [ 774475.495748569956049, 8983444.830183949321508 ], [ 774477.800986898946576, 8983448.099109804257751 ], [ 774481.069912753766403, 8983445.793871473520994 ], [ 774478.764674424892291, 8983442.524945620447397 ] ] ] } },
{ "type": "Feature", "properties": { "LAYER": "MBox", "GM_TYPE": "Unknown Line Type", "ELEVATION": 0 }, "geometry": { "type": "MultiLineString", "coordinates": [ [ [ 774320.695999301970005, 8983576.366176603361964 ], [ 774322.919328335556202, 8983573.04099871776998 ], [ 774319.594150444492698, 8983570.817669682204723 ], [ 774317.370821410790086, 8983574.142847575247288 ], [ 774320.695999301970005, 8983576.366176603361964 ] ] ] } },
{ "type": "Feature", "properties": { "LAYER": "MBox", "GM_TYPE": "Unknown Line Type", "ELEVATION": 0 }, "geometry": { "type": "MultiLineString", "coordinates": [ [ [ 773390.179925493663177, 8983128.989941345527768 ], [ 773386.91099963884335, 8983131.295179672539234 ], [ 773389.216237967601046, 8983134.564105525612831 ], [ 773392.485163822537288, 8983132.25886719673872 ], [ 773390.179925493663177, 8983128.989941345527768 ] ] ] } },
{ "type": "Feature", "properties": { "LAYER": "MBox", "GM_TYPE": "Unknown Line Type", "ELEVATION": 0 }, "geometry": { "type": "MultiLineString", "coordinates": [ [ [ 773490.060248752706684, 8982846.716067982837558 ], [ 773487.960529049742036, 8982850.120649769902229 ], [ 773491.365110840415582, 8982852.220369469374418 ], [ 773493.464830543613061, 8982848.815787680447102 ], [ 773490.060248752706684, 8982846.716067982837558 ] ] ] } },
{ "type": "Feature", "properties": { "LAYER": "MBox", "GM_TYPE": "Unknown Line Type", "ELEVATION": 0 }, "geometry": { "type": "MultiLineString", "coordinates": [ [ [ 773722.00203641410917, 8982379.218035683035851 ], [ 773718.012367111630738, 8982379.505331438034773 ], [ 773718.299662874080241, 8982383.49500073865056 ], [ 773722.289332174696028, 8982383.207704983651638 ], [ 773722.00203641410917, 8982379.218035683035851 ] ] ] } },
{ "type": "Feature", "properties": { "LAYER": "MBox", "GM_TYPE": "Unknown Line Type", "ELEVATION": 0 }, "geometry": { "type": "MultiLineString", "coordinates": [ [ [ 773848.912667844211683, 8982368.169358970597386 ], [ 773844.92299854173325, 8982368.456654723733664 ], [ 773845.210294304182753, 8982372.446324024349451 ], [ 773849.19996360479854, 8982372.159028269350529 ], [ 773848.912667844211683, 8982368.169358970597386 ] ] ] } },
{ "type": "Feature", "properties": { "LAYER": "MBox", "GM_TYPE": "Unknown Line Type", "ELEVATION": 0 }, "geometry": { "type": "MultiLineString", "coordinates": [ [ [ 773840.943377981428057, 8982203.886791102588177 ], [ 773836.953708678949624, 8982204.174086857587099 ], [ 773837.241004441399127, 8982208.163756158202887 ], [ 773841.230673742014915, 8982207.876460403203964 ], [ 773840.943377981428057, 8982203.886791102588177 ] ] ] } },
{ "type": "Feature", "properties": { "LAYER": "MBox", "GM_TYPE": "Unknown Line Type", "ELEVATION": 0 }, "geometry": { "type": "MultiLineString", "coordinates": [ [ [ 773829.214546220959164, 8981857.076733212918043 ], [ 773825.224876918480732, 8981857.364028967916965 ], [ 773825.51217268104665, 8981861.353698268532753 ], [ 773829.501841981546022, 8981861.066402513533831 ], [ 773829.214546220959164, 8981857.076733212918043 ] ] ] } },
{ "type": "Feature", "properties": { "LAYER": "MBox", "GM_TYPE": "Unknown Line Type", "ELEVATION": 0 }, "geometry": { "type": "MultiLineString", "coordinates": [ [ [ 773819.397841580677778, 8981575.873581444844604 ], [ 773815.408172278199345, 8981576.160877197980881 ], [ 773815.695468040648848, 8981580.150546498596668 ], [ 773819.685137341264635, 8981579.863250743597746 ], [ 773819.397841580677778, 8981575.873581444844604 ] ] ] } },
{ "type": "Feature", "properties": { "LAYER": "MBox", "GM_TYPE": "Unknown Line Type", "ELEVATION": 0 }, "geometry": { "type": "MultiLineString", "coordinates": [ [ [ 775378.643638126086444, 8982851.827075576409698 ], [ 775379.336816425900906, 8982855.766555722802877 ], [ 775383.276296572294086, 8982855.073377422988415 ], [ 775382.583118274342269, 8982851.13389727473259 ], [ 775378.643638126086444, 8982851.827075576409698 ] ] ] } },
{ "type": "Feature", "properties": { "LAYER": "MBox", "GM_TYPE": "Unknown Line Type", "ELEVATION": 24 }, "geometry": { "type": "MultiLineString", "coordinates": [ [ [ 774702.569747817353345, 8982821.136658225208521 ], [ 774701.913138006348163, 8982825.082398150116205 ], [ 774705.858877930324525, 8982825.739007962867618 ], [ 774706.515487741329707, 8982821.793268036097288 ], [ 774702.569747817353345, 8982821.136658225208521 ] ] ] } },
{ "type": "Feature", "properties": { "LAYER": "MBox", "GM_TYPE": "Unknown Line Type", "ELEVATION": 24 }, "geometry": { "type": "MultiLineString", "coordinates": [ [ [ 774672.554549861000851, 8983000.628091413527727 ], [ 774673.247728160815313, 8983004.567571561783552 ], [ 774677.187208307324909, 8983003.874393260106444 ], [ 774676.494030009256676, 8982999.934913113713264 ], [ 774672.554549861000851, 8983000.628091413527727 ] ] ] } },
{ "type": "Feature", "properties": { "LAYER": "MBox", "GM_TYPE": "Unknown Line Type", "ELEVATION": 0 }, "geometry": { "type": "MultiLineString", "coordinates": [ [ [ 775274.88385422131978, 8982204.829913038760424 ], [ 775274.642233389546163, 8982208.822608791291714 ], [ 775278.634929140447639, 8982209.064229622483253 ], [ 775278.876549973385409, 8982205.071533873677254 ], [ 775274.88385422131978, 8982204.829913038760424 ] ] ] } },
{ "type": "Feature", "properties": { "LAYER": "MBox", "GM_TYPE": "Unknown Line Type", "ELEVATION": 0 }, "geometry": { "type": "MultiLineString", "coordinates": [ [ [ 772847.678792289807461, 8981697.707348642870784 ], [ 772848.64236295898445, 8981701.589555691927671 ], [ 772852.524570008157752, 8981700.625985018908978 ], [ 772851.560999336885288, 8981696.743777967989445 ], [ 772847.678792289807461, 8981697.707348642870784 ] ] ] } },
{ "type": "Feature", "properties": { "LAYER": "MBox", "GM_TYPE": "Unknown Line Type", "ELEVATION": 0 }, "geometry": { "type": "MultiLineString", "coordinates": [ [ [ 773107.536020083585754, 8982037.611122258007526 ], [ 773110.770208217436448, 8982039.964848477393389 ], [ 773113.123934438684955, 8982036.730660347267985 ], [ 773109.889746304950677, 8982034.376934122294188 ], [ 773107.536020083585754, 8982037.611122258007526 ] ] ] } },
{ "type": "Feature", "properties": { "LAYER": "MBox", "GM_TYPE": "Unknown Line Type", "ELEVATION": 0 }, "geometry": { "type": "MultiLineString", "coordinates": [ [ [ 772804.524792019859888, 8981486.620249956846237 ], [ 772804.524792019859888, 8981490.620249956846237 ], [ 772808.524792019976303, 8981490.620249956846237 ], [ 772808.524792019976303, 8981486.620249956846237 ], [ 772804.524792019859888, 8981486.620249956846237 ] ] ] } },
{ "type": "Feature", "properties": { "LAYER": "MBox", "GM_TYPE": "Unknown Line Type", "ELEVATION": 0 }, "geometry": { "type": "MultiLineString", "coordinates": [ [ [ 772795.660898107569665, 8981281.899945352226496 ], [ 772795.660898107569665, 8981285.899945350363851 ], [ 772799.660898107569665, 8981285.899945350363851 ], [ 772799.660898107569665, 8981281.899945352226496 ], [ 772795.660898107569665, 8981281.899945352226496 ] ] ] } },
{ "type": "Feature", "properties": { "LAYER": "MBox", "GM_TYPE": "Unknown Line Type", "ELEVATION": 0 }, "geometry": { "type": "MultiLineString", "coordinates": [ [ [ 772784.061497859540395, 8981021.444138936698437 ], [ 772784.061497859540395, 8981025.444138936698437 ], [ 772788.061497859540395, 8981025.444138936698437 ], [ 772788.061497859540395, 8981021.444138936698437 ], [ 772784.061497859540395, 8981021.444138936698437 ] ] ] } },
{ "type": "Feature", "properties": { "LAYER": "MBox", "GM_TYPE": "Unknown Line Type", "ELEVATION": 0 }, "geometry": { "type": "MultiLineString", "coordinates": [ [ [ 773375.647180282277986, 8983132.729671958833933 ], [ 773374.965199798112735, 8983136.671106038615108 ], [ 773378.90663387789391, 8983137.353086518123746 ], [ 773379.588614363106899, 8983133.411652438342571 ], [ 773375.647180282277986, 8983132.729671958833933 ] ] ] } },
{ "type": "Feature", "properties": { "LAYER": "MBox", "GM_TYPE": "Unknown Line Type", "ELEVATION": 0 }, "geometry": { "type": "MultiLineString", "coordinates": [ [ [ 772945.572940047248267, 8982849.390655117109418 ], [ 772945.792388570844196, 8982853.384630875661969 ], [ 772949.786364325555041, 8982853.165182344615459 ], [ 772949.566915801842697, 8982849.171206589788198 ], [ 772945.572940047248267, 8982849.390655117109418 ] ] ] } },
{ "type": "Feature", "properties": { "LAYER": "MBox", "GM_TYPE": "Unknown Line Type", "ELEVATION": 0 }, "geometry": { "type": "MultiLineString", "coordinates": [ [ [ 772902.32778227259405, 8982618.523062031716108 ], [ 772906.325401476817206, 8982618.385074019432068 ], [ 772906.187413460691459, 8982614.387454813346267 ], [ 772902.189794252859429, 8982614.525442831218243 ], [ 772902.32778227259405, 8982618.523062031716108 ] ] ] } },
{ "type": "Feature", "properties": { "LAYER": "MBox", "GM_TYPE": "Unknown Line Type", "ELEVATION": 0 }, "geometry": { "type": "MultiLineString", "coordinates": [ [ [ 773717.844059057999402, 8982369.389607898890972 ], [ 773714.34169798437506, 8982367.457389770075679 ], [ 773712.409479861264117, 8982370.959750840440392 ], [ 773715.911840933375061, 8982372.891968976706266 ], [ 773717.844059057999402, 8982369.389607898890972 ] ] ] } },
{ "type": "Feature", "properties": { "LAYER": "MBox", "GM_TYPE": "Unknown Line Type", "ELEVATION": 0 }, "geometry": { "type": "MultiLineString", "coordinates": [ [ [ 773817.283349356381223, 8982164.498674105852842 ], [ 773814.246072648908012, 8982161.895800657570362 ], [ 773811.643199206097052, 8982164.933077365159988 ], [ 773814.680475911824033, 8982167.535950817167759 ], [ 773817.283349356381223, 8982164.498674105852842 ] ] ] } },
{ "type": "Feature", "properties": { "LAYER": "MBox", "GM_TYPE": "Unknown Line Type", "ELEVATION": 0 }, "geometry": { "type": "MultiLineString", "coordinates": [ [ [ 775428.957765432656743, 8982815.488810330629349 ], [ 775429.65094373235479, 8982819.428290478885174 ], [ 775433.59042387874797, 8982818.735112179070711 ], [ 775432.897245580796152, 8982814.795632030814886 ], [ 775428.957765432656743, 8982815.488810330629349 ] ] ] } },
{ "type": "Feature", "properties": { "LAYER": "MBox", "GM_TYPE": "Unknown Line Type", "ELEVATION": 0 }, "geometry": { "type": "MultiLineString", "coordinates": [ [ [ 775372.704574296018109, 8982710.107427880167961 ], [ 775373.397752595832571, 8982714.046908028423786 ], [ 775377.337232742225751, 8982713.353729728609324 ], [ 775376.644054444273934, 8982709.414249582216144 ], [ 775372.704574296018109, 8982710.107427880167961 ] ] ] } },
{ "type": "Feature", "properties": { "LAYER": "MBox", "GM_TYPE": "Unknown Line Type", "ELEVATION": -23 }, "geometry": { "type": "MultiLineString", "coordinates": [ [ [ 775350.342291194363497, 8982564.851970672607422 ], [ 775351.035469494294375, 8982568.791450820863247 ], [ 775354.974949640687555, 8982568.098272521048784 ], [ 775354.281771342852153, 8982564.158792372792959 ], [ 775350.342291194363497, 8982564.851970672607422 ] ] ] } },
{ "type": "Feature", "properties": { "LAYER": "MBox", "GM_TYPE": "Unknown Line Type", "ELEVATION": 0 }, "geometry": { "type": "MultiLineString", "coordinates": [ [ [ 776851.823645803146064, 8983107.623675243929029 ], [ 776855.655404226039536, 8983106.475795727223158 ], [ 776854.507524709333666, 8983102.644037306308746 ], [ 776850.675766286556609, 8983103.791916824877262 ], [ 776851.823645803146064, 8983107.623675243929029 ] ] ] } },
{ "type": "Feature", "properties": { "LAYER": "MBox", "GM_TYPE": "Unknown Line Type", "ELEVATION": 54 }, "geometry": { "type": "MultiLineString", "coordinates": [ [ [ 776352.773022623965517, 8983335.516816973686218 ], [ 776354.055787168676034, 8983339.305552270263433 ], [ 776357.844522461644374, 8983338.022787723690271 ], [ 776356.561757916817442, 8983334.234052430838346 ], [ 776352.773022623965517, 8983335.516816973686218 ] ] ] } },
{ "type": "Feature", "properties": { "LAYER": "MBox", "GM_TYPE": "Unknown Line Type", "ELEVATION": 0 }, "geometry": { "type": "MultiLineString", "coordinates": [ [ [ 776065.422693872242235, 8983187.199176181107759 ], [ 776067.892129651852883, 8983190.345902565866709 ], [ 776071.038856034749188, 8983187.876466784626245 ], [ 776068.569420255254954, 8983184.729740399867296 ], [ 776065.422693872242235, 8983187.199176181107759 ] ] ] } },
{ "type": "Feature", "properties": { "LAYER": "MBox", "GM_TYPE": "Unknown Line Type", "ELEVATION": 0 }, "geometry": { "type": "MultiLineString", "coordinates": [ [ [ 776581.491543566226028, 8983163.530210345983505 ], [ 776585.323301988886669, 8983162.38233083114028 ], [ 776584.175422472180799, 8983158.550572410225868 ], [ 776580.343664049520157, 8983159.698451928794384 ], [ 776581.491543566226028, 8983163.530210345983505 ] ] ] } },
{ "type": "Feature", "properties": { "LAYER": "MBox", "GM_TYPE": "Unknown Line Type", "ELEVATION": 0 }, "geometry": { "type": "MultiLineString", "coordinates": [ [ [ 777124.526955703273416, 8982503.607111014425755 ], [ 777122.699609249830246, 8982500.048908531665802 ], [ 777119.141406763345003, 8982501.876254983246326 ], [ 777120.968753216671757, 8982505.434457469731569 ], [ 777124.526955703273416, 8982503.607111014425755 ] ] ] } },
{ "type": "Feature", "properties": { "LAYER": "MBox", "GM_TYPE": "Unknown Line Type", "ELEVATION": 24 }, "geometry": { "type": "MultiLineString", "coordinates": [ [ [ 776206.82674032333307, 8981817.676888778805733 ], [ 776210.292870693607256, 8981815.680406808853149 ], [ 776208.296388725517318, 8981812.214276436716318 ], [ 776204.830258353380486, 8981814.210758408531547 ], [ 776206.82674032333307, 8981817.676888778805733 ] ] ] } },
{ "type": "Feature", "properties": { "LAYER": "MBox", "GM_TYPE": "Unknown Line Type", "ELEVATION": 58 }, "geometry": { "type": "MultiLineString", "coordinates": [ [ [ 776707.902626835042611, 8982039.95854820869863 ], [ 776711.713265929720365, 8982041.174701858311892 ], [ 776712.929419579333626, 8982037.364062763750553 ], [ 776709.118780486518517, 8982036.147909112274647 ], [ 776707.902626835042611, 8982039.95854820869863 ] ] ] } },
{ "type": "Feature", "properties": { "LAYER": "MBox", "GM_TYPE": "Unknown Line Type", "ELEVATION": 22 }, "geometry": { "type": "MultiLineString", "coordinates": [ [ [ 776581.924731428036466, 8981752.537136845290661 ], [ 776585.919183895341121, 8981752.326543647795916 ], [ 776585.708590703317896, 8981748.332091189920902 ], [ 776581.714138234150596, 8981748.542684383690357 ], [ 776581.924731428036466, 8981752.537136845290661 ] ] ] } },
{ "type": "Feature", "properties": { "LAYER": "MBox", "GM_TYPE": "Unknown Line Type", "ELEVATION": 0 }, "geometry": { "type": "MultiLineString", "coordinates": [ [ [ 777131.311726739280857, 8982496.667612597346306 ], [ 777132.891578569542617, 8982492.992824416607618 ], [ 777129.216790388803929, 8982491.412972580641508 ], [ 777127.636938554816879, 8982495.087760761380196 ], [ 777131.311726739280857, 8982496.667612597346306 ] ] ] } },
{ "type": "Feature", "properties": { "LAYER": "MBox", "GM_TYPE": "Unknown Line Type", "ELEVATION": 0 }, "geometry": { "type": "MultiLineString", "coordinates": [ [ [ 777663.329262796323746, 8983012.056705132126808 ], [ 777663.329262796440162, 8983016.056705130264163 ], [ 777667.329262795043178, 8983016.056705132126808 ], [ 777667.329262795276009, 8983012.056705132126808 ], [ 777663.329262796323746, 8983012.056705132126808 ] ] ] } },
{ "type": "Feature", "properties": { "LAYER": "MBox", "GM_TYPE": "Unknown Line Type", "ELEVATION": 0 }, "geometry": { "type": "MultiLineString", "coordinates": [ [ [ 776554.244503941852599, 8982315.430796397849917 ], [ 776550.934411601629108, 8982317.676523162052035 ], [ 776553.180138364434242, 8982320.986615501344204 ], [ 776556.490230706403963, 8982318.740888737142086 ], [ 776554.244503941852599, 8982315.430796397849917 ] ] ] } },
{ "type": "Feature", "properties": { "LAYER": "MBox", "GM_TYPE": "Unknown Line Type", "ELEVATION": 0 }, "geometry": { "type": "MultiLineString", "coordinates": [ [ [ 776779.616762248449959, 8982138.169619670137763 ], [ 776783.088230528053828, 8982136.182433718815446 ], [ 776785.075416475650854, 8982139.653901992365718 ], [ 776781.603948196978308, 8982141.641087947413325 ], [ 776779.616762248449959, 8982138.169619670137763 ] ] ] } },
{ "type": "Feature", "properties": { "LAYER": "MBox", "GM_TYPE": "Unknown Line Type", "ELEVATION": 0 }, "geometry": { "type": "MultiLineString", "coordinates": [ [ [ 777054.962152587017044, 8981986.879039380699396 ], [ 777058.296055377810262, 8981984.668814914301038 ], [ 777060.506279841298237, 8981988.002717699855566 ], [ 777057.172377051902004, 8981990.21294217184186 ], [ 777054.962152587017044, 8981986.879039380699396 ] ] ] } },
{ "type": "Feature", "properties": { "LAYER": "MBox", "GM_TYPE": "Unknown Line Type", "ELEVATION": -24 }, "geometry": { "type": "MultiLineString", "coordinates": [ [ [ 776756.745905388845131, 8982178.044050220400095 ], [ 776753.435813048738055, 8982180.289776986464858 ], [ 776755.681539811543189, 8982183.599869325757027 ], [ 776758.99163215351291, 8982181.354142561554909 ], [ 776756.745905388845131, 8982178.044050220400095 ] ] ] } },
{ "type": "Feature", "properties": { "LAYER": "MBox", "GM_TYPE": "Unknown Line Type", "ELEVATION": 0 }, "geometry": { "type": "MultiLineString", "coordinates": [ [ [ 772177.909995692200027, 8982144.643924601376057 ], [ 772177.909995692200027, 8982148.643924601376057 ], [ 772181.909995692083612, 8982148.643924601376057 ], [ 772181.909995692083612, 8982144.643924601376057 ], [ 772177.909995692200027, 8982144.643924601376057 ] ] ] } },
{ "type": "Feature", "properties": { "LAYER": "MBox", "GM_TYPE": "Unknown Line Type", "ELEVATION": 0 }, "geometry": { "type": "MultiLineString", "coordinates": [ [ [ 771768.129780463990755, 8981927.141753699630499 ], [ 771768.129780463990755, 8981931.141753701493144 ], [ 771772.129780463990755, 8981931.141753701493144 ], [ 771772.129780463990755, 8981927.141753699630499 ], [ 771768.129780463990755, 8981927.141753699630499 ] ] ] } },
{ "type": "Feature", "properties": { "LAYER": "MBox", "GM_TYPE": "Unknown Line Type", "ELEVATION": 0 }, "geometry": { "type": "MultiLineString", "coordinates": [ [ [ 772146.985157433780842, 8981305.495687087997794 ], [ 772146.985157433780842, 8981309.495687089860439 ], [ 772150.985157433780842, 8981309.495687089860439 ], [ 772150.985157433780842, 8981305.495687087997794 ], [ 772146.985157433780842, 8981305.495687087997794 ] ] ] } },
{ "type": "Feature", "properties": { "LAYER": "MBox", "GM_TYPE": "Unknown Line Type", "ELEVATION": 0 }, "geometry": { "type": "MultiLineString", "coordinates": [ [ [ 772020.536028189817443, 8981304.134202832356095 ], [ 772020.536028189817443, 8981308.134202832356095 ], [ 772024.536028189701028, 8981308.134202832356095 ], [ 772024.536028189701028, 8981304.134202832356095 ], [ 772020.536028189817443, 8981304.134202832356095 ] ] ] } },
{ "type": "Feature", "properties": { "LAYER": "MBox", "GM_TYPE": "Unknown Line Type", "ELEVATION": 0 }, "geometry": { "type": "MultiLineString", "coordinates": [ [ [ 771756.358044875320047, 8981256.550075640901923 ], [ 771756.358044875320047, 8981260.550075640901923 ], [ 771760.358044875203632, 8981260.550075640901923 ], [ 771760.358044875203632, 8981256.550075640901923 ], [ 771756.358044875320047, 8981256.550075640901923 ] ] ] } },
{ "type": "Feature", "properties": { "LAYER": "MBox", "GM_TYPE": "Unknown Line Type", "ELEVATION": 0 }, "geometry": { "type": "MultiLineString", "coordinates": [ [ [ 771519.53257702360861, 8981080.378080490976572 ], [ 771517.005746606504545, 8981083.47890748642385 ], [ 771520.106573600089177, 8981086.005737902596593 ], [ 771522.633404017076828, 8981082.90491090901196 ], [ 771519.53257702360861, 8981080.378080490976572 ] ] ] } },
{ "type": "Feature", "properties": { "LAYER": "MBox", "GM_TYPE": "Unknown Line Type", "ELEVATION": 0 }, "geometry": { "type": "MultiLineString", "coordinates": [ [ [ 771675.734549016691744, 8980872.404544396325946 ], [ 771672.780994512257166, 8980869.707042627036572 ], [ 771670.083492744714022, 8980872.660597134381533 ], [ 771673.037047249265015, 8980875.358098901808262 ], [ 771675.734549016691744, 8980872.404544396325946 ] ] ] } },
{ "type": "Feature", "properties": { "LAYER": "MBox", "GM_TYPE": "Unknown Line Type", "ELEVATION": 0 }, "geometry": { "type": "MultiLineString", "coordinates": [ [ [ 772156.067179655423388, 8981075.991458334028721 ], [ 772156.067179655423388, 8981079.991458335891366 ], [ 772160.067179655423388, 8981079.991458335891366 ], [ 772160.067179655423388, 8981075.991458334028721 ], [ 772156.067179655423388, 8981075.991458334028721 ] ] ] } },
{ "type": "Feature", "properties": { "LAYER": "MBox", "GM_TYPE": "Unknown Line Type", "ELEVATION": 0 }, "geometry": { "type": "MultiLineString", "coordinates": [ [ [ 772291.033771278918721, 8980874.121773894876242 ], [ 772287.598931839223951, 8980872.071925602853298 ], [ 772285.54908354615327, 8980875.506765043362975 ], [ 772288.983922985848039, 8980877.556613335385919 ], [ 772291.033771278918721, 8980874.121773894876242 ] ] ] } },
{ "type": "Feature", "properties": { "LAYER": "MBox", "GM_TYPE": "Unknown Line Type", "ELEVATION": 0 }, "geometry": { "type": "MultiLineString", "coordinates": [ [ [ 772390.885454068542458, 8980719.130194492638111 ], [ 772387.742416384397075, 8980716.656065532937646 ], [ 772385.268287426442839, 8980719.79910321906209 ], [ 772388.411325111635961, 8980722.2732321806252 ], [ 772390.885454068542458, 8980719.130194492638111 ] ] ] } },
{ "type": "Feature", "properties": { "LAYER": "MBox", "GM_TYPE": "Unknown Line Type", "ELEVATION": 0 }, "geometry": { "type": "MultiLineString", "coordinates": [ [ [ 770890.439600681187585, 8980636.649930592626333 ], [ 770890.439600681187585, 8980640.649930592626333 ], [ 770894.439600681187585, 8980640.649930592626333 ], [ 770894.439600681187585, 8980636.649930592626333 ], [ 770890.439600681187585, 8980636.649930592626333 ] ] ] } },
{ "type": "Feature", "properties": { "LAYER": "MBox", "GM_TYPE": "Unknown Line Type", "ELEVATION": 0 }, "geometry": { "type": "MultiLineString", "coordinates": [ [ [ 770865.949878003448248, 8980433.045339940115809 ], [ 770865.949878003448248, 8980437.045339940115809 ], [ 770869.949878003448248, 8980437.045339940115809 ], [ 770869.949878003448248, 8980433.045339940115809 ], [ 770865.949878003448248, 8980433.045339940115809 ] ] ] } },
{ "type": "Feature", "properties": { "LAYER": "MBox", "GM_TYPE": "Unknown Line Type", "ELEVATION": 0 }, "geometry": { "type": "MultiLineString", "coordinates": [ [ [ 771049.22050615621265, 8980227.534344198182225 ], [ 771049.22050615621265, 8980231.534344198182225 ], [ 771053.220506156329066, 8980231.534344198182225 ], [ 771053.220506156329066, 8980227.534344198182225 ], [ 771049.22050615621265, 8980227.534344198182225 ] ] ] } },
{ "type": "Feature", "properties": { "LAYER": "MBox", "GM_TYPE": "Unknown Line Type", "ELEVATION": 0 }, "geometry": { "type": "MultiLineString", "coordinates": [ [ [ 771204.57824058982078, 8979974.083961371332407 ], [ 771204.57824058982078, 8979978.083961371332407 ], [ 771208.578240589937195, 8979978.083961371332407 ], [ 771208.578240589937195, 8979974.083961371332407 ], [ 771204.57824058982078, 8979974.083961371332407 ] ] ] } },
{ "type": "Feature", "properties": { "LAYER": "MBox", "GM_TYPE": "Unknown Line Type", "ELEVATION": 0 }, "geometry": { "type": "MultiLineString", "coordinates": [ [ [ 771311.689981098636054, 8979816.164557872340083 ], [ 771308.386749348952435, 8979813.908752026036382 ], [ 771306.130943504394963, 8979817.21198377572 ], [ 771309.434175254078582, 8979819.467789620161057 ], [ 771311.689981098636054, 8979816.164557872340083 ] ] ] } },
{ "type": "Feature", "properties": { "LAYER": "MBox", "GM_TYPE": "Unknown Line Type", "ELEVATION": 24 }, "geometry": { "type": "MultiLineString", "coordinates": [ [ [ 771117.925959719344974, 8981591.866018330678344 ], [ 771117.925959719344974, 8981595.866018328815699 ], [ 771121.925959719344974, 8981595.866018328815699 ], [ 771121.925959719344974, 8981591.866018330678344 ], [ 771117.925959719344974, 8981591.866018330678344 ] ] ] } },
{ "type": "Feature", "properties": { "LAYER": "MBox", "GM_TYPE": "Unknown Line Type", "ELEVATION": 24 }, "geometry": { "type": "MultiLineString", "coordinates": [ [ [ 771113.785010577528737, 8981429.846609326079488 ], [ 771113.785010577528737, 8981433.846609324216843 ], [ 771117.785010577412322, 8981433.846609324216843 ], [ 771117.785010577412322, 8981429.846609326079488 ], [ 771113.785010577528737, 8981429.846609326079488 ] ] ] } },
{ "type": "Feature", "properties": { "LAYER": "MBox", "GM_TYPE": "Unknown Line Type", "ELEVATION": 48 }, "geometry": { "type": "MultiLineString", "coordinates": [ [ [ 771080.666966295451857, 8981022.391502190381289 ], [ 771084.52044245833531, 8981021.318785328418016 ], [ 771083.447725592646748, 8981017.465309167280793 ], [ 771079.594249429646879, 8981018.53802603110671 ], [ 771080.666966295451857, 8981022.391502190381289 ] ] ] } },
{ "type": "Feature", "properties": { "LAYER": "MBox", "GM_TYPE": "Unknown Line Type", "ELEVATION": -24 }, "geometry": { "type": "MultiLineString", "coordinates": [ [ [ 771264.85380346304737, 8980855.212103681638837 ], [ 771262.326973045943305, 8980858.31293067522347 ], [ 771265.427800039644353, 8980860.839761093258858 ], [ 771267.954630456748419, 8980857.738934099674225 ], [ 771264.85380346304737, 8980855.212103681638837 ] ] ] } },
{ "type": "Feature", "properties": { "LAYER": "MBox", "GM_TYPE": "Unknown Line Type", "ELEVATION": 0 }, "geometry": { "type": "MultiLineString", "coordinates": [ [ [ 771412.641916942433454, 8979607.090686343610287 ], [ 771408.692871153936721, 8979606.454260878264904 ], [ 771408.056445690570399, 8979610.403306666761637 ], [ 771412.005491478135809, 8979611.039732130244374 ], [ 771412.641916942433454, 8979607.090686343610287 ] ] ] } },
{ "type": "Feature", "properties": { "LAYER": "MBox", "GM_TYPE": "Unknown Line Type", "ELEVATION": 0 }, "geometry": { "type": "MultiLineString", "coordinates": [ [ [ 772203.674501106608659, 8982146.657585348933935 ], [ 772203.674501106608659, 8982150.65758534707129 ], [ 772207.674501106492244, 8982150.65758534707129 ], [ 772207.674501106492244, 8982146.657585348933935 ], [ 772203.674501106608659, 8982146.657585348933935 ] ] ] } },
{ "type": "Feature", "properties": { "LAYER": "MBox", "GM_TYPE": "Unknown Line Type", "ELEVATION": 0 }, "geometry": { "type": "MultiLineString", "coordinates": [ [ [ 772191.738993605249561, 8981941.339317431673408 ], [ 772191.738993605249561, 8981945.339317431673408 ], [ 772195.738993605249561, 8981945.339317431673408 ], [ 772195.738993605249561, 8981941.339317431673408 ], [ 772191.738993605249561, 8981941.339317431673408 ] ] ] } },
{ "type": "Feature", "properties": { "LAYER": "MBox", "GM_TYPE": "Unknown Line Type", "ELEVATION": 0 }, "geometry": { "type": "MultiLineString", "coordinates": [ [ [ 772645.054817897733301, 8982623.097980439662933 ], [ 772645.054817897733301, 8982627.097980439662933 ], [ 772649.054817897616886, 8982627.097980439662933 ], [ 772649.054817897616886, 8982623.097980439662933 ], [ 772645.054817897733301, 8982623.097980439662933 ] ] ] } },
{ "type": "Feature", "properties": { "LAYER": "MBox", "GM_TYPE": "Unknown Line Type", "ELEVATION": 0 }, "geometry": { "type": "MultiLineString", "coordinates": [ [ [ 773861.025518260663375, 8983919.768301885575056 ], [ 773857.756592405843548, 8983922.073540214449167 ], [ 773860.061830734601244, 8983925.342466067522764 ], [ 773863.330756589537486, 8983923.037227738648653 ], [ 773861.025518260663375, 8983919.768301885575056 ] ] ] } },
{ "type": "Feature", "properties": { "LAYER": "MBox", "GM_TYPE": "Unknown Line Type", "ELEVATION": 0 }, "geometry": { "type": "MultiLineString", "coordinates": [ [ [ 773344.85903726995457, 8983544.925720209255815 ], [ 773341.590111415134743, 8983547.230958538129926 ], [ 773343.895349743892439, 8983550.499884391203523 ], [ 773347.164275598828681, 8983548.194646062329412 ], [ 773344.85903726995457, 8983544.925720209255815 ] ] ] } }
]
}
