{
"type": "FeatureCollection",
"name": "09_oe_ar_lahanpotensi",
"crs": { "type": "name", "properties": { "name": "urn:ogc:def:crs:EPSG::32751" } },
"features": [
{ "type": "Feature", "properties": { "LAYER": "Lahan Potensi tapi berair", "GM_TYPE": "Unknown Area Type", "ELEVATION": 0 }, "geometry": { "type": "MultiPolygon", "coordinates": [ [ [ [ 777066.87547590280883, 8979806.849431788548827 ], [ 777058.632855849689804, 8979600.0 ], [ 776400.0, 8979600.0 ], [ 776400.0, 8979789.170064631849527 ], [ 776436.99519163207151, 8979789.170064631849527 ], [ 776578.541318918229081, 8979803.313567528501153 ], [ 776787.321857447852381, 8979803.313567528501153 ], [ 776907.636070542619564, 8979792.705944178625941 ], [ 776989.025091295246966, 8979775.026577025651932 ], [ 777066.87547590280883, 8979806.849431788548827 ] ] ] ] } },
{ "type": "Feature", "properties": { "LAYER": "Lahan Potensi tapi berair", "GM_TYPE": "Unknown Area Type", "ELEVATION": 0 }, "geometry": { "type": "MultiPolygon", "coordinates": [ [ [ [ 776400.0, 8979789.170064631849527 ], [ 776400.0, 8979600.0 ], [ 775400.000000000232831, 8979600.0 ], [ 775400.0, 8979786.274143725633621 ], [ 775497.56783163594082, 8979789.523848293349147 ], [ 775631.026597804506309, 8979826.738895662128925 ], [ 775767.589047186891548, 8979845.34641171246767 ], [ 775978.640087589505129, 8979848.44767203181982 ], [ 776025.195497535518371, 8979839.143906364217401 ], [ 776242.369262547930703, 8979789.170064631849527 ], [ 776400.0, 8979789.170064631849527 ] ] ] ] } },
{ "type": "Feature", "properties": { "LAYER": "Lahan Potensi tapi berair", "GM_TYPE": "Unknown Area Type", "ELEVATION": 0 }, "geometry": { "type": "MultiPolygon", "coordinates": [ [ [ [ 775400.0, 8979786.274143725633621 ], [ 775400.0, 8979600.0 ], [ 774400.0, 8979600.0 ], [ 774400.000000000116415, 8979739.420956509187818 ], [ 774594.393429978052154, 8979783.321342941373587 ], [ 774802.340787183726206, 8979836.042661333456635 ], [ 774966.836482534534298, 8979836.042661333456635 ], [ 775090.984166705748066, 8979823.637635350227356 ], [ 775202.717085729003884, 8979780.220097918063402 ], [ 775311.346289096050896, 8979783.321342943236232 ], [ 775400.0, 8979786.274143725633621 ] ] ] ] } },
{ "type": "Feature", "properties": { "LAYER": "Lahan Potensi tapi berair", "GM_TYPE": "Unknown Area Type", "ELEVATION": 0 }, "geometry": { "type": "MultiPolygon", "coordinates": [ [ [ [ 774399.999999999883585, 8979739.420956509187818 ], [ 774400.0, 8979600.0 ], [ 773400.0, 8979600.0 ], [ 773400.0, 8979925.260035898536444 ], [ 773431.988098162342794, 8979888.730923833325505 ], [ 773513.653980907052755, 8979834.329794326797128 ], [ 773589.875441187643446, 8979834.329794324934483 ], [ 773663.3747064556228, 8979842.489966813474894 ], [ 773780.429091879166663, 8979815.289402067661285 ], [ 773894.761314766248688, 8979779.92866482026875 ], [ 773998.204725133255124, 8979750.008052764460444 ], [ 774117.981305561843328, 8979725.527535317465663 ], [ 774338.479133812594227, 8979725.527535317465663 ], [ 774399.999999999883585, 8979739.420956509187818 ] ] ] ] } },
{ "type": "Feature", "properties": { "LAYER": "Lahan Potensi tapi berair", "GM_TYPE": "Unknown Area Type", "ELEVATION": 0 }, "geometry": { "type": "MultiPolygon", "coordinates": [ [ [ [ 773400.000000000116415, 8979925.260035898536444 ], [ 773400.0, 8979600.0 ], [ 772726.787987838382833, 8979600.0 ], [ 772743.68948107259348, 8979989.328609658405185 ], [ 773142.182670424808748, 8979974.471148431301117 ], [ 773328.544687784509733, 8979967.612570786848664 ], [ 773393.877368024550378, 8979932.25183354690671 ], [ 773400.000000000116415, 8979925.260035898536444 ] ] ] ] } },
{ "type": "Feature", "properties": { "LAYER": "Lahan Potensi tapi berair", "GM_TYPE": "Unknown Area Type", "ELEVATION": 0 }, "geometry": { "type": "MultiPolygon", "coordinates": [ [ [ [ 774995.532909038476646, 8979364.01265187934041 ], [ 774858.693048494984396, 8979364.01265187934041 ], [ 774758.694674331112765, 8979353.496385160833597 ], [ 774648.170189981348813, 8979353.496385160833597 ], [ 774542.908735567354597, 8979353.496385160833597 ], [ 774390.279659361229278, 8979353.496385160833597 ], [ 774253.439798794337548, 8979358.754524372518063 ], [ 774100.810722635244019, 8979369.270791094750166 ], [ 773958.707781813922338, 8979411.335857974365354 ], [ 773821.867921268451028, 8979421.852124705910683 ], [ 773560.786689788103104, 8979439.802220743149519 ], [ 773475.579671451356262, 8979439.802220743149519 ], [ 773400.0, 8979439.802220746874809 ], [ 773400.0, 8979600.0 ], [ 774400.0, 8979600.0 ], [ 775400.0, 8979600.0 ], [ 776400.0, 8979600.0 ], [ 777058.632855849689804, 8979600.0 ], [ 777038.212424838449806, 8979559.384797345846891 ], [ 777024.381391453905962, 8979543.592728186398745 ], [ 777000.671037721796893, 8979532.735674785450101 ], [ 776973.008970950380899, 8979523.852641742676497 ], [ 776922.092453399440274, 8979519.690093081444502 ], [ 776858.660304971388541, 8979511.24040936678648 ], [ 776779.71422673354391, 8979500.724142646417022 ], [ 776690.242013131617568, 8979500.724142646417022 ], [ 776611.295934898662381, 8979500.724142646417022 ], [ 776515.298618389875628, 8979475.523648830130696 ], [ 776395.509996122447774, 8979442.88466983474791 ], [ 776279.72240636695642, 8979411.335857972502708 ], [ 776190.250192709267139, 8979390.303324526175857 ], [ 776058.673412439064123, 8979374.528918597847223 ], [ 775942.885822588461451, 8979369.270791094750166 ], [ 775863.939744413248263, 8979364.012651877477765 ], [ 775737.62601924862247, 8979364.012651881203055 ], [ 775658.67994114139583, 8979369.27079108916223 ], [ 775548.155456666368991, 8979374.528918601572514 ], [ 775437.630947140045464, 8979390.303324529901147 ], [ 775321.843357340083458, 8979390.303324531763792 ], [ 775216.58192808390595, 8979390.303324531763792 ], [ 775137.635849851998501, 8979364.01265187934041 ], [ 774995.532909038476646, 8979364.01265187934041 ] ] ] ] } },
{ "type": "Feature", "properties": { "LAYER": "Lahan Potensi tapi berair", "GM_TYPE": "Unknown Area Type", "ELEVATION": 0 }, "geometry": { "type": "MultiPolygon", "coordinates": [ [ [ [ 773400.0, 8979600.0 ], [ 773400.0, 8979439.802220743149519 ], [ 773397.473277834244072, 8979439.802220743149519 ], [ 773316.99999255174771, 8979444.531505007296801 ], [ 773248.361014658934437, 8979463.448630372062325 ], [ 773182.088928490062244, 8979480.001119354739785 ], [ 773099.248776644351892, 8979501.282881097868085 ], [ 773037.710398294380866, 8979501.282881097868085 ], [ 772988.006327341659926, 8979501.282881097868085 ], [ 772926.467923827469349, 8979496.553596828132868 ], [ 772869.663278498919681, 8979475.271835187450051 ], [ 772751.318493687082082, 8979454.397416278719902 ], [ 772749.24195756111294, 8979600.0 ], [ 773400.0, 8979600.0 ] ] ] ] } },
{ "type": "Feature", "properties": { "LAYER": "Lahan Potensi tapi berair", "GM_TYPE": "Unknown Area Type", "ELEVATION": 0 }, "geometry": { "type": "MultiPolygon", "coordinates": [ [ [ [ 772751.318493687082082, 8979454.397416278719902 ], [ 772743.68948107259348, 8979989.328609658405185 ], [ 773142.182670424808748, 8979974.471148431301117 ], [ 773328.544687783811241, 8979967.612570786848664 ], [ 773393.87736802326981, 8979932.251833550632 ], [ 773431.988098163157701, 8979888.73092383146286 ], [ 773513.653980904724449, 8979834.329794326797128 ], [ 773589.875441184150986, 8979834.329794326797128 ], [ 773663.374706453410909, 8979842.489966811612248 ], [ 773780.429091882542707, 8979815.28940205834806 ], [ 773894.761314743896946, 8979779.928664822131395 ], [ 773998.204725123010576, 8979750.008052768185735 ], [ 774117.981305561959743, 8979725.527535317465663 ], [ 774338.479133812594227, 8979725.527535317465663 ], [ 774594.393429952091537, 8979783.321342945098877 ], [ 774802.34078718314413, 8979836.042661333456635 ], [ 774966.836482523242012, 8979836.042661333456635 ], [ 775090.984166713547893, 8979823.637635350227356 ], [ 775202.717085729236715, 8979780.220097916200757 ], [ 775311.346289119450375, 8979783.321342945098877 ], [ 775497.567831626045518, 8979789.523848293349147 ], [ 775631.026597808115184, 8979826.738895669579506 ], [ 775767.589047173387371, 8979845.346411710605025 ], [ 775978.640087587409653, 8979848.44767203181982 ], [ 776025.195497545762919, 8979839.143906364217401 ], [ 776242.369262550142594, 8979789.170064631849527 ], [ 776436.99519162683282, 8979789.170064631849527 ], [ 776578.541318914853036, 8979803.313567528501153 ], [ 776787.321857476257719, 8979803.313567528501153 ], [ 776907.636070537613705, 8979792.705944180488586 ], [ 776989.025091295246966, 8979775.026577025651932 ], [ 777066.87547590280883, 8979806.849431788548827 ], [ 777058.632855849689804, 8979600.0 ], [ 777038.212424838682637, 8979559.384797342121601 ], [ 777024.38139145320747, 8979543.592728186398745 ], [ 777000.671037724008784, 8979532.735674789175391 ], [ 776973.00897095259279, 8979523.852641742676497 ], [ 776922.092453403864056, 8979519.690093081444502 ], [ 776858.660304971388541, 8979511.24040936678648 ], [ 776779.714226740412414, 8979500.724142646417022 ], [ 776690.242013131617568, 8979500.724142646417022 ], [ 776611.295934900757857, 8979500.724142646417022 ], [ 776515.298618486500345, 8979475.523648826405406 ], [ 776395.509996122447774, 8979442.88466983474791 ], [ 776279.722406330518425, 8979411.335857970640063 ], [ 776190.250192721839994, 8979390.303324531763792 ], [ 776058.673412442905828, 8979374.528918601572514 ], [ 775942.885822650976479, 8979369.270791092887521 ], [ 775863.939744420233183, 8979364.01265187934041 ], [ 775737.626019250717945, 8979364.01265187934041 ], [ 775658.679941019741818, 8979369.270791092887521 ], [ 775548.155456655425951, 8979374.528918601572514 ], [ 775437.630947132012807, 8979390.303324531763792 ], [ 775321.843357340083458, 8979390.303324531763792 ], [ 775216.581928085070103, 8979390.303324531763792 ], [ 775137.635849854326807, 8979364.01265187934041 ], [ 774995.532909038476646, 8979364.01265187934041 ], [ 774858.69304849114269, 8979364.01265187934041 ], [ 774758.69467434566468, 8979353.496385160833597 ], [ 774648.170189981348813, 8979353.496385160833597 ], [ 774542.908735567354597, 8979353.496385160833597 ], [ 774390.279659373685718, 8979353.496385160833597 ], [ 774253.439798826351762, 8979358.754524372518063 ], [ 774100.810722632799298, 8979369.270791092887521 ], [ 773958.707781817065552, 8979411.335857970640063 ], [ 773821.867921269731596, 8979421.852124691009521 ], [ 773560.786689762026072, 8979439.802220743149519 ], [ 773475.579671451356262, 8979439.802220743149519 ], [ 773397.47327783529181, 8979439.802220743149519 ], [ 773316.99999254825525, 8979444.531505009159446 ], [ 773248.361014661146328, 8979463.448630372062325 ], [ 773182.088928444893099, 8979480.001119453459978 ], [ 773099.248776646098122, 8979501.282881097868085 ], [ 773037.710398294380866, 8979501.282881097868085 ], [ 772988.006327342358418, 8979501.282881097868085 ], [ 772926.467923831543885, 8979496.553596828132868 ], [ 772869.663278503227048, 8979475.271835187450051 ], [ 772751.318493687082082, 8979454.397416278719902 ] ] ] ] } }
]
}
