{
"type": "FeatureCollection",
"name": "09_oe_li_mbangsadap",
"crs": { "type": "name", "properties": { "name": "urn:ogc:def:crs:EPSG::32751" } },
"features": [
{ "type": "Feature", "properties": { "LAYER": "MBang Sadap", "GM_TYPE": "Unknown Line Type", "ELEVATION": 0 }, "geometry": { "type": "MultiLineString", "coordinates": [ [ [ 776868.124958535423502, 8983111.40121540799737 ], [ 776862.638931920519099, 8983096.37112851627171 ] ] ] } },
{ "type": "Feature", "properties": { "LAYER": "MBang Sadap", "GM_TYPE": "Unknown Line Type", "ELEVATION": 0 }, "geometry": { "type": "MultiLineString", "coordinates": [ [ [ 776875.640001981402747, 8983108.658202100545168 ], [ 776870.153975366381928, 8983093.628115208819509 ] ] ] } },
{ "type": "Feature", "properties": { "LAYER": "MBang Sadap", "GM_TYPE": "Unknown Line Type", "ELEVATION": 0 }, "geometry": { "type": "MultiLineString", "coordinates": [ [ [ 776868.124958535423502, 8983111.40121540799737 ], [ 776875.640001981402747, 8983108.658202100545168 ] ] ] } },
{ "type": "Feature", "properties": { "LAYER": "MBang Sadap", "GM_TYPE": "Unknown Line Type", "ELEVATION": 0 }, "geometry": { "type": "MultiLineString", "coordinates": [ [ [ 776862.638931920519099, 8983096.37112851627171 ], [ 776870.153975366381928, 8983093.628115208819509 ] ] ] } },
{ "type": "Feature", "properties": { "LAYER": "MBang Sadap", "GM_TYPE": "Unknown Line Type", "ELEVATION": 0 }, "geometry": { "type": "MultiLineString", "coordinates": [ [ [ 776875.167866067728028, 8983119.40360894985497 ], [ 776874.661009521922097, 8983118.014972239732742 ] ] ] } },
{ "type": "Feature", "properties": { "LAYER": "MBang Sadap", "GM_TYPE": "Unknown Line Type", "ELEVATION": 0 }, "geometry": { "type": "MultiLineString", "coordinates": [ [ [ 776873.308258797856979, 8983114.308836206793785 ], [ 776872.507044356083497, 8983112.113746114075184 ] ] ] } },
{ "type": "Feature", "properties": { "LAYER": "MBang Sadap", "GM_TYPE": "Unknown Line Type", "ELEVATION": 0 }, "geometry": { "type": "MultiLineString", "coordinates": [ [ [ 776872.507044356083497, 8983112.113746114075184 ], [ 776872.810249928152189, 8983112.348246298730373 ] ] ] } },
{ "type": "Feature", "properties": { "LAYER": "MBang Sadap", "GM_TYPE": "Unknown Line Type", "ELEVATION": 0 }, "geometry": { "type": "MultiLineString", "coordinates": [ [ [ 776876.38665774394758, 8983114.260930502787232 ], [ 776876.351085494505242, 8983114.577452534809709 ] ] ] } },
{ "type": "Feature", "properties": { "LAYER": "MBang Sadap", "GM_TYPE": "Unknown Line Type", "ELEVATION": 0 }, "geometry": { "type": "MultiLineString", "coordinates": [ [ [ 776875.167866067728028, 8983119.40360894985497 ], [ 776876.685308100422844, 8983119.919520737603307 ] ] ] } },
{ "type": "Feature", "properties": { "LAYER": "MBang Sadap", "GM_TYPE": "Unknown Line Type", "ELEVATION": 0 }, "geometry": { "type": "MultiLineString", "coordinates": [ [ [ 776875.167866067728028, 8983119.40360894985497 ], [ 776874.632701221620664, 8983120.542474091053009 ] ] ] } },
{ "type": "Feature", "properties": { "LAYER": "MBang Sadap", "GM_TYPE": "Unknown Line Type", "ELEVATION": 0 }, "geometry": { "type": "MultiLineString", "coordinates": [ [ [ 776874.661009521922097, 8983118.014972239732742 ], [ 776875.006475015426986, 8983117.13086916692555 ], [ 776873.514878791524097, 8983116.701466858386993 ], [ 776873.851433422300033, 8983115.796973682940006 ] ] ] } },
{ "type": "Feature", "properties": { "LAYER": "MBang Sadap", "GM_TYPE": "Unknown Line Type", "ELEVATION": 0 }, "geometry": { "type": "MultiLineString", "coordinates": [ [ [ 776873.851433422300033, 8983115.796973682940006 ], [ 776874.249827941646799, 8983114.892838155850768 ], [ 776873.308258797856979, 8983114.308836206793785 ] ] ] } },
{ "type": "Feature", "properties": { "LAYER": "MBang Sadap", "GM_TYPE": "Unknown Line Type", "ELEVATION": 31 }, "geometry": { "type": "MultiLineString", "coordinates": [ [ [ 777584.221086062258109, 8983029.225340468809009 ], [ 777584.221086062258109, 8983013.225340466946363 ] ] ] } },
{ "type": "Feature", "properties": { "LAYER": "MBang Sadap", "GM_TYPE": "Unknown Line Type", "ELEVATION": 31 }, "geometry": { "type": "MultiLineString", "coordinates": [ [ [ 777592.221086062258109, 8983029.225340468809009 ], [ 777592.221086062258109, 8983013.225340466946363 ] ] ] } },
{ "type": "Feature", "properties": { "LAYER": "MBang Sadap", "GM_TYPE": "Unknown Line Type", "ELEVATION": 31 }, "geometry": { "type": "MultiLineString", "coordinates": [ [ [ 777584.221086062258109, 8983029.225340468809009 ], [ 777592.221086062258109, 8983029.225340468809009 ] ] ] } },
{ "type": "Feature", "properties": { "LAYER": "MBang Sadap", "GM_TYPE": "Unknown Line Type", "ELEVATION": 31 }, "geometry": { "type": "MultiLineString", "coordinates": [ [ [ 777584.221086062258109, 8983013.225340466946363 ], [ 777592.221086062258109, 8983013.225340466946363 ] ] ] } },
{ "type": "Feature", "properties": { "LAYER": "MBang Sadap", "GM_TYPE": "Unknown Line Type", "ELEVATION": 31 }, "geometry": { "type": "MultiLineString", "coordinates": [ [ [ 777588.09322157735005, 8983039.157480996102095 ], [ 777588.09322157735005, 8983037.679233565926552 ] ] ] } },
{ "type": "Feature", "properties": { "LAYER": "MBang Sadap", "GM_TYPE": "Unknown Line Type", "ELEVATION": 31 }, "geometry": { "type": "MultiLineString", "coordinates": [ [ [ 777588.09322157735005, 8983033.733935248106718 ], [ 777588.09322157735005, 8983031.397192830219865 ] ] ] } },
{ "type": "Feature", "properties": { "LAYER": "MBang Sadap", "GM_TYPE": "Unknown Line Type", "ELEVATION": 31 }, "geometry": { "type": "MultiLineString", "coordinates": [ [ [ 777588.09322157735005, 8983031.397192830219865 ], [ 777588.297642317251302, 8983031.721439834684134 ] ] ] } },
{ "type": "Feature", "properties": { "LAYER": "MBang Sadap", "GM_TYPE": "Unknown Line Type", "ELEVATION": 31 }, "geometry": { "type": "MultiLineString", "coordinates": [ [ [ 777588.09322157735005, 8983031.397192830219865 ], [ 777587.951277683139779, 8983031.68233054690063 ] ] ] } },
{ "type": "Feature", "properties": { "LAYER": "MBang Sadap", "GM_TYPE": "Unknown Line Type", "ELEVATION": 31 }, "geometry": { "type": "MultiLineString", "coordinates": [ [ [ 777588.09322157735005, 8983039.157480996102095 ], [ 777589.341782814939506, 8983040.162413895130157 ] ] ] } },
{ "type": "Feature", "properties": { "LAYER": "MBang Sadap", "GM_TYPE": "Unknown Line Type", "ELEVATION": 31 }, "geometry": { "type": "MultiLineString", "coordinates": [ [ [ 777588.09322157735005, 8983039.157480996102095 ], [ 777587.200007913052104, 8983040.043813088908792 ] ] ] } },
{ "type": "Feature", "properties": { "LAYER": "MBang Sadap", "GM_TYPE": "Unknown Line Type", "ELEVATION": 31 }, "geometry": { "type": "MultiLineString", "coordinates": [ [ [ 777588.09322157735005, 8983037.679233565926552 ], [ 777588.720883414614946, 8983036.967176493257284 ], [ 777587.466939142439514, 8983036.052370831370354 ], [ 777588.09322157735005, 8983035.31810437142849 ] ] ] } },
{ "type": "Feature", "properties": { "LAYER": "MBang Sadap", "GM_TYPE": "Unknown Line Type", "ELEVATION": 31 }, "geometry": { "type": "MultiLineString", "coordinates": [ [ [ 777588.09322157735005, 8983035.31810437142849 ], [ 777588.777472566231154, 8983034.605377335101366 ], [ 777588.09322157735005, 8983033.733935248106718 ] ] ] } },
{ "type": "Feature", "properties": { "LAYER": "MBang Sadap", "GM_TYPE": "Unknown Line Type", "ELEVATION": 0 }, "geometry": { "type": "MultiLineString", "coordinates": [ [ [ 776360.247683588182554, 8983344.538740362972021 ], [ 776353.119199685635976, 8983330.214470148086548 ] ] ] } },
{ "type": "Feature", "properties": { "LAYER": "MBang Sadap", "GM_TYPE": "Unknown Line Type", "ELEVATION": 0 }, "geometry": { "type": "MultiLineString", "coordinates": [ [ [ 776367.40981869737152, 8983340.97449841350317 ], [ 776360.281334792962298, 8983326.650228196755052 ] ] ] } },
{ "type": "Feature", "properties": { "LAYER": "MBang Sadap", "GM_TYPE": "Unknown Line Type", "ELEVATION": 0 }, "geometry": { "type": "MultiLineString", "coordinates": [ [ [ 776360.247683588182554, 8983344.538740362972021 ], [ 776367.40981869737152, 8983340.97449841350317 ] ] ] } },
{ "type": "Feature", "properties": { "LAYER": "MBang Sadap", "GM_TYPE": "Unknown Line Type", "ELEVATION": 0 }, "geometry": { "type": "MultiLineString", "coordinates": [ [ [ 776353.119199685635976, 8983330.214470148086548 ], [ 776360.281334792962298, 8983326.650228196755052 ] ] ] } },
{ "type": "Feature", "properties": { "LAYER": "MBang Sadap", "GM_TYPE": "Unknown Line Type", "ELEVATION": 0 }, "geometry": { "type": "MultiLineString", "coordinates": [ [ [ 776368.139347295975313, 8983351.70550343580544 ], [ 776367.480743357678875, 8983350.38207745552063 ] ] ] } },
{ "type": "Feature", "properties": { "LAYER": "MBang Sadap", "GM_TYPE": "Unknown Line Type", "ELEVATION": 0 }, "geometry": { "type": "MultiLineString", "coordinates": [ [ [ 776365.722993636270985, 8983346.849982507526875 ], [ 776364.681904217111878, 8983344.757974393665791 ] ] ] } },
{ "type": "Feature", "properties": { "LAYER": "MBang Sadap", "GM_TYPE": "Unknown Line Type", "ELEVATION": 0 }, "geometry": { "type": "MultiLineString", "coordinates": [ [ [ 776364.681904217111878, 8983344.757974393665791 ], [ 776365.009377183276229, 8983344.957186378538609 ] ] ] } },
{ "type": "Feature", "properties": { "LAYER": "MBang Sadap", "GM_TYPE": "Unknown Line Type", "ELEVATION": 0 }, "geometry": { "type": "MultiLineString", "coordinates": [ [ [ 776364.681904217111878, 8983344.757974393665791 ], [ 776364.681864022859372, 8983345.076489042490721 ] ] ] } },
{ "type": "Feature", "properties": { "LAYER": "MBang Sadap", "GM_TYPE": "Unknown Line Type", "ELEVATION": 0 }, "geometry": { "type": "MultiLineString", "coordinates": [ [ [ 776368.139347295975313, 8983351.70550343580544 ], [ 776369.704870829242282, 8983352.048914790153503 ] ] ] } },
{ "type": "Feature", "properties": { "LAYER": "MBang Sadap", "GM_TYPE": "Unknown Line Type", "ELEVATION": 0 }, "geometry": { "type": "MultiLineString", "coordinates": [ [ [ 776368.139347295975313, 8983351.70550343580544 ], [ 776367.734570430242456, 8983352.896960906684399 ] ] ] } },
{ "type": "Feature", "properties": { "LAYER": "MBang Sadap", "GM_TYPE": "Unknown Line Type", "ELEVATION": 0 }, "geometry": { "type": "MultiLineString", "coordinates": [ [ [ 776367.480743357678875, 8983350.38207745552063 ], [ 776367.725425258046016, 8983349.464954003691673 ], [ 776366.195236880099401, 8983349.204628881067038 ], [ 776366.428788890945725, 8983348.268236666917801 ] ] ] } },
{ "type": "Feature", "properties": { "LAYER": "MBang Sadap", "GM_TYPE": "Unknown Line Type", "ELEVATION": 0 }, "geometry": { "type": "MultiLineString", "coordinates": [ [ [ 776366.428788890945725, 8983348.268236666917801 ], [ 776366.723834695061669, 8983347.325301241129637 ], [ 776365.722993636270985, 8983346.849982507526875 ] ] ] } },
{ "type": "Feature", "properties": { "LAYER": "MBang Sadap", "GM_TYPE": "Unknown Line Type", "ELEVATION": 0 }, "geometry": { "type": "MultiLineString", "coordinates": [ [ [ 776066.052502593025565, 8983197.94914224371314 ], [ 776077.173833269742317, 8983186.446272864937782 ] ] ] } },
{ "type": "Feature", "properties": { "LAYER": "MBang Sadap", "GM_TYPE": "Unknown Line Type", "ELEVATION": 0 }, "geometry": { "type": "MultiLineString", "coordinates": [ [ [ 776071.803937284275889, 8983203.509807579219341 ], [ 776082.925267959129997, 8983192.006938204169273 ] ] ] } },
{ "type": "Feature", "properties": { "LAYER": "MBang Sadap", "GM_TYPE": "Unknown Line Type", "ELEVATION": 0 }, "geometry": { "type": "MultiLineString", "coordinates": [ [ [ 776066.052502593025565, 8983197.94914224371314 ], [ 776071.803937284275889, 8983203.509807579219341 ] ] ] } },
{ "type": "Feature", "properties": { "LAYER": "MBang Sadap", "GM_TYPE": "Unknown Line Type", "ELEVATION": 0 }, "geometry": { "type": "MultiLineString", "coordinates": [ [ [ 776077.173833269742317, 8983186.446272864937782 ], [ 776082.925267959129997, 8983192.006938204169273 ] ] ] } },
{ "type": "Feature", "properties": { "LAYER": "MBang Sadap", "GM_TYPE": "Unknown Line Type", "ELEVATION": 0 }, "geometry": { "type": "MultiLineString", "coordinates": [ [ [ 776061.932630710420199, 8983207.781105659902096 ], [ 776062.960135616362095, 8983206.71835021674633 ] ] ] } },
{ "type": "Feature", "properties": { "LAYER": "MBang Sadap", "GM_TYPE": "Unknown Line Type", "ELEVATION": 0 }, "geometry": { "type": "MultiLineString", "coordinates": [ [ [ 776065.70244606770575, 8983203.881959512829781 ], [ 776067.32667638733983, 8983202.202006839215755 ] ] ] } },
{ "type": "Feature", "properties": { "LAYER": "MBang Sadap", "GM_TYPE": "Unknown Line Type", "ELEVATION": 0 }, "geometry": { "type": "MultiLineString", "coordinates": [ [ [ 776067.32667638733983, 8983202.202006839215755 ], [ 776067.248261820641346, 8983202.577206939458847 ] ] ] } },
{ "type": "Feature", "properties": { "LAYER": "MBang Sadap", "GM_TYPE": "Unknown Line Type", "ELEVATION": 0 }, "geometry": { "type": "MultiLineString", "coordinates": [ [ [ 776067.32667638733983, 8983202.202006839215755 ], [ 776067.026434332248755, 8983202.308337897062302 ] ] ] } },
{ "type": "Feature", "properties": { "LAYER": "MBang Sadap", "GM_TYPE": "Unknown Line Type", "ELEVATION": 0 }, "geometry": { "type": "MultiLineString", "coordinates": [ [ [ 776061.932630710420199, 8983207.781105659902096 ], [ 776062.13174606859684, 8983209.371435299515724 ] ] ] } },
{ "type": "Feature", "properties": { "LAYER": "MBang Sadap", "GM_TYPE": "Unknown Line Type", "ELEVATION": 0 }, "geometry": { "type": "MultiLineString", "coordinates": [ [ [ 776061.932630710420199, 8983207.781105659902096 ], [ 776060.674398686853237, 8983207.79745801910758 ] ] ] } },
{ "type": "Feature", "properties": { "LAYER": "MBang Sadap", "GM_TYPE": "Unknown Line Type", "ELEVATION": 0 }, "geometry": { "type": "MultiLineString", "coordinates": [ [ [ 776062.960135616362095, 8983206.71835021674633 ], [ 776063.906319011119194, 8983206.642708674073219 ], [ 776063.640687704202719, 8983205.113432489335537 ], [ 776064.601316776243038, 8983205.020865172147751 ] ] ] } },
{ "type": "Feature", "properties": { "LAYER": "MBang Sadap", "GM_TYPE": "Unknown Line Type", "ELEVATION": 0 }, "geometry": { "type": "MultiLineString", "coordinates": [ [ [ 776064.601316776243038, 8983205.020865172147751 ], [ 776065.588649451732635, 8983204.984076142311096 ], [ 776065.70244606770575, 8983203.881959512829781 ] ] ] } },
{ "type": "Feature", "properties": { "LAYER": "MBang Sadap", "GM_TYPE": "Unknown Line Type", "ELEVATION": 43 }, "geometry": { "type": "MultiLineString", "coordinates": [ [ [ 774160.583448827150278, 8983794.790835365653038 ], [ 774148.305423513054848, 8983784.531688500195742 ] ] ] } },
{ "type": "Feature", "properties": { "LAYER": "MBang Sadap", "GM_TYPE": "Unknown Line Type", "ELEVATION": 43 }, "geometry": { "type": "MultiLineString", "coordinates": [ [ [ 774165.713022259995341, 8983788.65182271040976 ], [ 774153.434996945899911, 8983778.392675841227174 ] ] ] } },
{ "type": "Feature", "properties": { "LAYER": "MBang Sadap", "GM_TYPE": "Unknown Line Type", "ELEVATION": 43 }, "geometry": { "type": "MultiLineString", "coordinates": [ [ [ 774160.583448827150278, 8983794.790835365653038 ], [ 774165.713022259995341, 8983788.65182271040976 ] ] ] } },
{ "type": "Feature", "properties": { "LAYER": "MBang Sadap", "GM_TYPE": "Unknown Line Type", "ELEVATION": 43 }, "geometry": { "type": "MultiLineString", "coordinates": [ [ [ 774148.305423513054848, 8983784.531688500195742 ], [ 774153.434996945899911, 8983778.392675841227174 ] ] ] } },
{ "type": "Feature", "properties": { "LAYER": "MBang Sadap", "GM_TYPE": "Unknown Line Type", "ELEVATION": 43 }, "geometry": { "type": "MultiLineString", "coordinates": [ [ [ 774170.687941312789917, 8983798.187904771417379 ], [ 774169.553568853065372, 8983797.240057427436113 ] ] ] } },
{ "type": "Feature", "properties": { "LAYER": "MBang Sadap", "GM_TYPE": "Unknown Line Type", "ELEVATION": 43 }, "geometry": { "type": "MultiLineString", "coordinates": [ [ [ 774166.526039313524961, 8983794.710345247760415 ], [ 774164.732877904549241, 8983793.212033772841096 ] ] ] } },
{ "type": "Feature", "properties": { "LAYER": "MBang Sadap", "GM_TYPE": "Unknown Line Type", "ELEVATION": 43 }, "geometry": { "type": "MultiLineString", "coordinates": [ [ [ 774164.732877904549241, 8983793.212033772841096 ], [ 774165.112771362066269, 8983793.263072183355689 ] ] ] } },
{ "type": "Feature", "properties": { "LAYER": "MBang Sadap", "GM_TYPE": "Unknown Line Type", "ELEVATION": 43 }, "geometry": { "type": "MultiLineString", "coordinates": [ [ [ 774164.732877904549241, 8983793.212033772841096 ], [ 774164.860671954229474, 8983793.50378754734993 ] ] ] } },
{ "type": "Feature", "properties": { "LAYER": "MBang Sadap", "GM_TYPE": "Unknown Line Type", "ELEVATION": 43 }, "geometry": { "type": "MultiLineString", "coordinates": [ [ [ 774170.687941312789917, 8983798.187904771417379 ], [ 774172.259676605579443, 8983797.87414775416255 ] ] ] } },
{ "type": "Feature", "properties": { "LAYER": "MBang Sadap", "GM_TYPE": "Unknown Line Type", "ELEVATION": 43 }, "geometry": { "type": "MultiLineString", "coordinates": [ [ [ 774170.687941312789917, 8983798.187904771417379 ], [ 774170.795366168138571, 8983799.441649213433266 ] ] ] } },
{ "type": "Feature", "properties": { "LAYER": "MBang Sadap", "GM_TYPE": "Unknown Line Type", "ELEVATION": 43 }, "geometry": { "type": "MultiLineString", "coordinates": [ [ [ 774169.553568853065372, 8983797.240057427436113 ], [ 774169.409607615321875, 8983796.301835801452398 ], [ 774167.903582269325852, 8983796.677512921392918 ], [ 774167.741693601128645, 8983795.72610923089087 ] ] ] } },
{ "type": "Feature", "properties": { "LAYER": "MBang Sadap", "GM_TYPE": "Unknown Line Type", "ELEVATION": 43 }, "geometry": { "type": "MultiLineString", "coordinates": [ [ [ 774167.741693601128645, 8983795.72610923089087 ], [ 774167.633503025514074, 8983794.744032837450504 ], [ 774166.526039313524961, 8983794.710345247760415 ] ] ] } },
{ "type": "Feature", "properties": { "LAYER": "MBang Sadap", "GM_TYPE": "Unknown Line Type", "ELEVATION": 20 }, "geometry": { "type": "MultiLineString", "coordinates": [ [ [ 773896.448115098057315, 8983745.043326064944267 ], [ 773904.444717791629955, 8983731.184958722442389 ] ] ] } },
{ "type": "Feature", "properties": { "LAYER": "MBang Sadap", "GM_TYPE": "Unknown Line Type", "ELEVATION": 20 }, "geometry": { "type": "MultiLineString", "coordinates": [ [ [ 773903.377298768493347, 8983749.04162741266191 ], [ 773911.373901461949572, 8983735.183260068297386 ] ] ] } },
{ "type": "Feature", "properties": { "LAYER": "MBang Sadap", "GM_TYPE": "Unknown Line Type", "ELEVATION": 20 }, "geometry": { "type": "MultiLineString", "coordinates": [ [ [ 773896.448115098057315, 8983745.043326064944267 ], [ 773903.377298768493347, 8983749.04162741266191 ] ] ] } },
{ "type": "Feature", "properties": { "LAYER": "MBang Sadap", "GM_TYPE": "Unknown Line Type", "ELEVATION": 20 }, "geometry": { "type": "MultiLineString", "coordinates": [ [ [ 773904.444717791629955, 8983731.184958722442389 ], [ 773911.373901461949572, 8983735.183260068297386 ] ] ] } },
{ "type": "Feature", "properties": { "LAYER": "MBang Sadap", "GM_TYPE": "Unknown Line Type", "ELEVATION": 20 }, "geometry": { "type": "MultiLineString", "coordinates": [ [ [ 773894.837996015092358, 8983755.581274889409542 ], [ 773895.576805850258097, 8983754.300893895328045 ] ] ] } },
{ "type": "Feature", "properties": { "LAYER": "MBang Sadap", "GM_TYPE": "Unknown Line Type", "ELEVATION": 20 }, "geometry": { "type": "MultiLineString", "coordinates": [ [ [ 773897.548617297550663, 8983750.883681811392307 ], [ 773898.716492341598496, 8983748.859717138111591 ] ] ] } },
{ "type": "Feature", "properties": { "LAYER": "MBang Sadap", "GM_TYPE": "Unknown Line Type", "ELEVATION": 20 }, "geometry": { "type": "MultiLineString", "coordinates": [ [ [ 773898.716492341598496, 8983748.859717138111591 ], [ 773898.731496293796226, 8983749.242729984223843 ] ] ] } },
{ "type": "Feature", "properties": { "LAYER": "MBang Sadap", "GM_TYPE": "Unknown Line Type", "ELEVATION": 20 }, "geometry": { "type": "MultiLineString", "coordinates": [ [ [ 773898.716492341598496, 8983748.859717138111591 ], [ 773898.451039613923058, 8983749.035746775567532 ] ] ] } },
{ "type": "Feature", "properties": { "LAYER": "MBang Sadap", "GM_TYPE": "Unknown Line Type", "ELEVATION": 20 }, "geometry": { "type": "MultiLineString", "coordinates": [ [ [ 773894.837996015092358, 8983755.581274889409542 ], [ 773895.417181711411104, 8983757.075710982084274 ] ] ] } },
{ "type": "Feature", "properties": { "LAYER": "MBang Sadap", "GM_TYPE": "Unknown Line Type", "ELEVATION": 20 }, "geometry": { "type": "MultiLineString", "coordinates": [ [ [ 773894.837996015092358, 8983755.581274889409542 ], [ 773893.621362973819487, 8983755.9025524482131 ] ] ] } },
{ "type": "Feature", "properties": { "LAYER": "MBang Sadap", "GM_TYPE": "Unknown Line Type", "ELEVATION": 20 }, "geometry": { "type": "MultiLineString", "coordinates": [ [ [ 773895.576805850258097, 8983754.300893895328045 ], [ 773896.476331215118989, 8983753.997844763100147 ], [ 773895.847438531694934, 8983752.578781820833683 ], [ 773896.756869105272926, 8983752.255806662142277 ] ] ] } },
{ "type": "Feature", "properties": { "LAYER": "MBang Sadap", "GM_TYPE": "Unknown Line Type", "ELEVATION": 20 }, "geometry": { "type": "MultiLineString", "coordinates": [ [ [ 773896.756869105272926, 8983752.255806662142277 ], [ 773897.705743886297569, 8983751.980459801852703 ], [ 773897.548617297550663, 8983750.883681811392307 ] ] ] } },
{ "type": "Feature", "properties": { "LAYER": "MBang Sadap", "GM_TYPE": "Unknown Line Type", "ELEVATION": 44 }, "geometry": { "type": "MultiLineString", "coordinates": [ [ [ 773589.429028917453252, 8983561.848910154774785 ], [ 773604.754722688579932, 8983557.252921637147665 ] ] ] } },
{ "type": "Feature", "properties": { "LAYER": "MBang Sadap", "GM_TYPE": "Unknown Line Type", "ELEVATION": 44 }, "geometry": { "type": "MultiLineString", "coordinates": [ [ [ 773591.727023175219074, 8983569.511757038533688 ], [ 773607.052716946578585, 8983564.915768522769213 ] ] ] } },
{ "type": "Feature", "properties": { "LAYER": "MBang Sadap", "GM_TYPE": "Unknown Line Type", "ELEVATION": 44 }, "geometry": { "type": "MultiLineString", "coordinates": [ [ [ 773589.429028917453252, 8983561.848910154774785 ], [ 773591.727023175219074, 8983569.511757038533688 ] ] ] } },
{ "type": "Feature", "properties": { "LAYER": "MBang Sadap", "GM_TYPE": "Unknown Line Type", "ELEVATION": 44 }, "geometry": { "type": "MultiLineString", "coordinates": [ [ [ 773604.754722688579932, 8983557.252921637147665 ], [ 773607.052716946578585, 8983564.915768522769213 ] ] ] } },
{ "type": "Feature", "properties": { "LAYER": "MBang Sadap", "GM_TYPE": "Unknown Line Type", "ELEVATION": 44 }, "geometry": { "type": "MultiLineString", "coordinates": [ [ [ 773581.027738051721826, 8983568.410858092829585 ], [ 773582.443686014274135, 8983567.986232578754425 ] ] ] } },
{ "type": "Feature", "properties": { "LAYER": "MBang Sadap", "GM_TYPE": "Unknown Line Type", "ELEVATION": 44 }, "geometry": { "type": "MultiLineString", "coordinates": [ [ [ 773586.222713129827753, 8983566.85294846445322 ], [ 773588.460975548368879, 8983566.18172088265419 ] ] ] } },
{ "type": "Feature", "properties": { "LAYER": "MBang Sadap", "GM_TYPE": "Unknown Line Type", "ELEVATION": 44 }, "geometry": { "type": "MultiLineString", "coordinates": [ [ [ 773588.460975548368879, 8983566.18172088265419 ], [ 773588.20911336527206, 8983566.470666207373142 ] ] ] } },
{ "type": "Feature", "properties": { "LAYER": "MBang Sadap", "GM_TYPE": "Unknown Line Type", "ELEVATION": 44 }, "geometry": { "type": "MultiLineString", "coordinates": [ [ [ 773588.460975548368879, 8983566.18172088265419 ], [ 773588.147081438684836, 8983566.1276646964252 ] ] ] } },
{ "type": "Feature", "properties": { "LAYER": "MBang Sadap", "GM_TYPE": "Unknown Line Type", "ELEVATION": 44 }, "geometry": { "type": "MultiLineString", "coordinates": [ [ [ 773581.027738051721826, 8983568.410858092829585 ], [ 773580.423805503523909, 8983569.895466044545174 ] ] ] } },
{ "type": "Feature", "properties": { "LAYER": "MBang Sadap", "GM_TYPE": "Unknown Line Type", "ELEVATION": 44 }, "geometry": { "type": "MultiLineString", "coordinates": [ [ [ 773581.027738051721826, 8983568.410858092829585 ], [ 773579.922184678027406, 8983567.809886403381824 ] ] ] } },
{ "type": "Feature", "properties": { "LAYER": "MBang Sadap", "GM_TYPE": "Unknown Line Type", "ELEVATION": 44 }, "geometry": { "type": "MultiLineString", "coordinates": [ [ [ 773582.443686014274135, 8983567.986232578754425 ], [ 773583.306029467144981, 8983568.382904261350632 ], [ 773583.822086841217242, 8983566.919029124081135 ], [ 773584.705307452240959, 8983567.307999908924103 ] ] ] } },
{ "type": "Feature", "properties": { "LAYER": "MBang Sadap", "GM_TYPE": "Unknown Line Type", "ELEVATION": 44 }, "geometry": { "type": "MultiLineString", "coordinates": [ [ [ 773584.705307452240959, 8983567.307999908924103 ], [ 773585.584547823527828, 8983567.758683398365974 ], [ 773586.222713129827753, 8983566.85294846445322 ] ] ] } }
]
}
