{
"type": "FeatureCollection",
"name": "09_oe_li_teksbm",
"crs": { "type": "name", "properties": { "name": "urn:ogc:def:crs:EPSG::32751" } },
"features": [
{ "type": "Feature", "properties": { "LAYER": "Texk BM", "GM_TYPE": "Unknown Line Type", "ELEVATION": 0 }, "geometry": { "type": "MultiLineString", "coordinates": [ [ [ 777713.323982114787214, 8983102.651320127770305 ], [ 777773.323982118978165, 8983102.651320148259401 ] ] ] } },
{ "type": "Feature", "properties": { "LAYER": "Texk BM", "GM_TYPE": "Unknown Line Type", "ELEVATION": 0 }, "geometry": { "type": "MultiLineString", "coordinates": [ [ [ 777713.323982111993246, 8983110.65132012590766 ], [ 777773.323982119443826, 8983110.651320144534111 ] ] ] } },
{ "type": "Feature", "properties": { "LAYER": "Texk BM", "GM_TYPE": "Unknown Line Type", "ELEVATION": 0 }, "geometry": { "type": "MultiLineString", "coordinates": [ [ [ 777713.323982109315693, 8983118.65132013335824 ], [ 777773.323982113040984, 8983118.651320140808821 ] ] ] } },
{ "type": "Feature", "properties": { "LAYER": "Texk BM", "GM_TYPE": "Unknown Line Type", "ELEVATION": 0 }, "geometry": { "type": "MultiLineString", "coordinates": [ [ [ 777688.893044159980491, 8983161.950108634307981 ], [ 777748.893044163938612, 8983161.95010863058269 ] ] ] } },
{ "type": "Feature", "properties": { "LAYER": "Texk BM", "GM_TYPE": "Unknown Line Type", "ELEVATION": 0 }, "geometry": { "type": "MultiLineString", "coordinates": [ [ [ 777688.893044157419354, 8983153.950108645483851 ], [ 777748.893044161028229, 8983153.950108641758561 ] ] ] } },
{ "type": "Feature", "properties": { "LAYER": "Texk BM", "GM_TYPE": "Unknown Line Type", "ELEVATION": 0 }, "geometry": { "type": "MultiLineString", "coordinates": [ [ [ 777688.893044162075967, 8983145.950108645483851 ], [ 777748.893044154858217, 8983145.9501086268574 ] ] ] } },
{ "type": "Feature", "properties": { "LAYER": "Texk BM", "GM_TYPE": "Unknown Line Type", "ELEVATION": 0 }, "geometry": { "type": "MultiLineString", "coordinates": [ [ [ 772748.066408542799763, 8982610.294780559837818 ], [ 772808.066408546525054, 8982610.294780556112528 ] ] ] } },
{ "type": "Feature", "properties": { "LAYER": "Texk BM", "GM_TYPE": "Unknown Line Type", "ELEVATION": 0 }, "geometry": { "type": "MultiLineString", "coordinates": [ [ [ 772748.066408540122211, 8982602.294780571013689 ], [ 772808.066408543847501, 8982602.294780567288399 ] ] ] } },
{ "type": "Feature", "properties": { "LAYER": "Texk BM", "GM_TYPE": "Unknown Line Type", "ELEVATION": 0 }, "geometry": { "type": "MultiLineString", "coordinates": [ [ [ 772748.066408544545993, 8982594.294780572876334 ], [ 772808.066408537677489, 8982594.294780552387238 ] ] ] } },
{ "type": "Feature", "properties": { "LAYER": "Texk BM", "GM_TYPE": "Unknown Line Type", "ELEVATION": 0 }, "geometry": { "type": "MultiLineString", "coordinates": [ [ [ 772748.23642357182689, 8982637.939937725663185 ], [ 772808.236423575901426, 8982637.939937746152282 ] ] ] } },
{ "type": "Feature", "properties": { "LAYER": "Texk BM", "GM_TYPE": "Unknown Line Type", "ELEVATION": 0 }, "geometry": { "type": "MultiLineString", "coordinates": [ [ [ 772748.236423568916507, 8982645.939937725663185 ], [ 772808.236423576367088, 8982645.939937744289637 ] ] ] } },
{ "type": "Feature", "properties": { "LAYER": "Texk BM", "GM_TYPE": "Unknown Line Type", "ELEVATION": 0 }, "geometry": { "type": "MultiLineString", "coordinates": [ [ [ 772748.236423566238955, 8982653.939937733113766 ], [ 772808.23642356984783, 8982653.939937740564346 ] ] ] } },
{ "type": "Feature", "properties": { "LAYER": "Texk BM", "GM_TYPE": "Unknown Line Type", "ELEVATION": 0 }, "geometry": { "type": "MultiLineString", "coordinates": [ [ [ 773264.793708093115129, 8983191.236291132867336 ], [ 773324.793708096724004, 8983191.236291127279401 ] ] ] } },
{ "type": "Feature", "properties": { "LAYER": "Texk BM", "GM_TYPE": "Unknown Line Type", "ELEVATION": 0 }, "geometry": { "type": "MultiLineString", "coordinates": [ [ [ 773264.793708090204746, 8983183.236291142180562 ], [ 773324.793708093930036, 8983183.236291138455272 ] ] ] } },
{ "type": "Feature", "properties": { "LAYER": "Texk BM", "GM_TYPE": "Unknown Line Type", "ELEVATION": 0 }, "geometry": { "type": "MultiLineString", "coordinates": [ [ [ 773264.793708094861358, 8983175.236291142180562 ], [ 773324.793708087876439, 8983175.236291123554111 ] ] ] } },
{ "type": "Feature", "properties": { "LAYER": "Texk BM", "GM_TYPE": "Unknown Line Type", "ELEVATION": 0 }, "geometry": { "type": "MultiLineString", "coordinates": [ [ [ 773264.39799885766115, 8983133.917351478710771 ], [ 773324.397998861968517, 8983133.917351499199867 ] ] ] } },
{ "type": "Feature", "properties": { "LAYER": "Texk BM", "GM_TYPE": "Unknown Line Type", "ELEVATION": 0 }, "geometry": { "type": "MultiLineString", "coordinates": [ [ [ 773264.397998855100013, 8983141.917351476848125 ], [ 773324.397998862550594, 8983141.917351495474577 ] ] ] } },
{ "type": "Feature", "properties": { "LAYER": "Texk BM", "GM_TYPE": "Unknown Line Type", "ELEVATION": 0 }, "geometry": { "type": "MultiLineString", "coordinates": [ [ [ 773264.39799885218963, 8983149.917351484298706 ], [ 773324.397998855914921, 8983149.917351491749287 ] ] ] } },
{ "type": "Feature", "properties": { "LAYER": "Texk BM", "GM_TYPE": "Unknown Line Type", "ELEVATION": 0 }, "geometry": { "type": "MultiLineString", "coordinates": [ [ [ 773849.945926719228737, 8983742.853694858029485 ], [ 773909.945926722954027, 8983742.853694854304194 ] ] ] } },
{ "type": "Feature", "properties": { "LAYER": "Texk BM", "GM_TYPE": "Unknown Line Type", "ELEVATION": 0 }, "geometry": { "type": "MultiLineString", "coordinates": [ [ [ 773849.945926716318354, 8983734.853694869205356 ], [ 773909.945926720043644, 8983734.853694865480065 ] ] ] } },
{ "type": "Feature", "properties": { "LAYER": "Texk BM", "GM_TYPE": "Unknown Line Type", "ELEVATION": 0 }, "geometry": { "type": "MultiLineString", "coordinates": [ [ [ 773849.945926720974967, 8983726.853694869205356 ], [ 773909.945926714106463, 8983726.853694850578904 ] ] ] } },
{ "type": "Feature", "properties": { "LAYER": "Texk BM", "GM_TYPE": "Unknown Line Type", "ELEVATION": 0 }, "geometry": { "type": "MultiLineString", "coordinates": [ [ [ 773849.387465774780139, 8983774.326780095696449 ], [ 773909.387465778971091, 8983774.326780118048191 ] ] ] } },
{ "type": "Feature", "properties": { "LAYER": "Texk BM", "GM_TYPE": "Unknown Line Type", "ELEVATION": 0 }, "geometry": { "type": "MultiLineString", "coordinates": [ [ [ 773849.387465771986172, 8983782.326780095696449 ], [ 773909.387465779436752, 8983782.326780114322901 ] ] ] } },
{ "type": "Feature", "properties": { "LAYER": "Texk BM", "GM_TYPE": "Unknown Line Type", "ELEVATION": 0 }, "geometry": { "type": "MultiLineString", "coordinates": [ [ [ 773849.387465769192204, 8983790.32678010314703 ], [ 773909.387465772917494, 8983790.32678011059761 ] ] ] } },
{ "type": "Feature", "properties": { "LAYER": "Texk BM", "GM_TYPE": "Unknown Line Type", "ELEVATION": 0 }, "geometry": { "type": "MultiLineString", "coordinates": [ [ [ 774389.644396923133172, 8983505.19727368094027 ], [ 774449.644396926742047, 8983505.19727367721498 ] ] ] } },
{ "type": "Feature", "properties": { "LAYER": "Texk BM", "GM_TYPE": "Unknown Line Type", "ELEVATION": 0 }, "geometry": { "type": "MultiLineString", "coordinates": [ [ [ 774389.64439692045562, 8983497.197273692116141 ], [ 774449.644396924064495, 8983497.197273688390851 ] ] ] } },
{ "type": "Feature", "properties": { "LAYER": "Texk BM", "GM_TYPE": "Unknown Line Type", "ELEVATION": 0 }, "geometry": { "type": "MultiLineString", "coordinates": [ [ [ 774389.644396924995817, 8983489.197273692116141 ], [ 774449.644396918010898, 8983489.19727367348969 ] ] ] } },
{ "type": "Feature", "properties": { "LAYER": "Texk BM", "GM_TYPE": "Unknown Line Type", "ELEVATION": 0 }, "geometry": { "type": "MultiLineString", "coordinates": [ [ [ 774387.770502826664597, 8983445.452302666381001 ], [ 774447.770502830855548, 8983445.452302688732743 ] ] ] } },
{ "type": "Feature", "properties": { "LAYER": "Texk BM", "GM_TYPE": "Unknown Line Type", "ELEVATION": 0 }, "geometry": { "type": "MultiLineString", "coordinates": [ [ [ 774387.770502823870629, 8983453.452302666381001 ], [ 774447.77050283132121, 8983453.452302683144808 ] ] ] } },
{ "type": "Feature", "properties": { "LAYER": "Texk BM", "GM_TYPE": "Unknown Line Type", "ELEVATION": 0 }, "geometry": { "type": "MultiLineString", "coordinates": [ [ [ 774387.770502821076661, 8983461.452302675694227 ], [ 774447.770502824801952, 8983461.452302679419518 ] ] ] } },
{ "type": "Feature", "properties": { "LAYER": "Texk BM", "GM_TYPE": "Unknown Line Type", "ELEVATION": 0 }, "geometry": { "type": "MultiLineString", "coordinates": [ [ [ 775813.077664872282185, 8980295.312613170593977 ], [ 775873.077664876007475, 8980295.312613166868687 ] ] ] } },
{ "type": "Feature", "properties": { "LAYER": "Texk BM", "GM_TYPE": "Unknown Line Type", "ELEVATION": 0 }, "geometry": { "type": "MultiLineString", "coordinates": [ [ [ 775813.077664869488217, 8980287.312613181769848 ], [ 775873.077664873213507, 8980287.312613178044558 ] ] ] } },
{ "type": "Feature", "properties": { "LAYER": "Texk BM", "GM_TYPE": "Unknown Line Type", "ELEVATION": 0 }, "geometry": { "type": "MultiLineString", "coordinates": [ [ [ 775813.07766487414483, 8980279.312613181769848 ], [ 775873.077664867159911, 8980279.312613163143396 ] ] ] } },
{ "type": "Feature", "properties": { "LAYER": "Texk BM", "GM_TYPE": "Unknown Line Type", "ELEVATION": 0 }, "geometry": { "type": "MultiLineString", "coordinates": [ [ [ 775823.432879586121999, 8980189.857241498306394 ], [ 775883.432879590196535, 8980189.857241520658135 ] ] ] } },
{ "type": "Feature", "properties": { "LAYER": "Texk BM", "GM_TYPE": "Unknown Line Type", "ELEVATION": 0 }, "geometry": { "type": "MultiLineString", "coordinates": [ [ [ 775823.432879583328031, 8980197.857241498306394 ], [ 775883.432879590545781, 8980197.857241516932845 ] ] ] } },
{ "type": "Feature", "properties": { "LAYER": "Texk BM", "GM_TYPE": "Unknown Line Type", "ELEVATION": 0 }, "geometry": { "type": "MultiLineString", "coordinates": [ [ [ 775823.432879580417648, 8980205.857241505756974 ], [ 775883.432879584142938, 8980205.857241513207555 ] ] ] } },
{ "type": "Feature", "properties": { "LAYER": "Texk BM", "GM_TYPE": "Unknown Line Type", "ELEVATION": 0 }, "geometry": { "type": "MultiLineString", "coordinates": [ [ [ 777286.314989535254426, 8981525.509800570085645 ], [ 777346.314989538979717, 8981525.509800566360354 ] ] ] } },
{ "type": "Feature", "properties": { "LAYER": "Texk BM", "GM_TYPE": "Unknown Line Type", "ELEVATION": 0 }, "geometry": { "type": "MultiLineString", "coordinates": [ [ [ 777286.314989532460459, 8981517.509800581261516 ], [ 777346.314989536185749, 8981517.509800577536225 ] ] ] } },
{ "type": "Feature", "properties": { "LAYER": "Texk BM", "GM_TYPE": "Unknown Line Type", "ELEVATION": 0 }, "geometry": { "type": "MultiLineString", "coordinates": [ [ [ 777286.314989537117071, 8981509.509800581261516 ], [ 777346.314989530248567, 8981509.509800562635064 ] ] ] } },
{ "type": "Feature", "properties": { "LAYER": "Texk BM", "GM_TYPE": "Unknown Line Type", "ELEVATION": 0 }, "geometry": { "type": "MultiLineString", "coordinates": [ [ [ 777257.636474670143798, 8981433.889369048178196 ], [ 777317.63647467433475, 8981433.889369068667293 ] ] ] } },
{ "type": "Feature", "properties": { "LAYER": "Texk BM", "GM_TYPE": "Unknown Line Type", "ELEVATION": 0 }, "geometry": { "type": "MultiLineString", "coordinates": [ [ [ 777257.636474667233415, 8981441.889369046315551 ], [ 777317.636474674683996, 8981441.889369066804647 ] ] ] } },
{ "type": "Feature", "properties": { "LAYER": "Texk BM", "GM_TYPE": "Unknown Line Type", "ELEVATION": 0 }, "geometry": { "type": "MultiLineString", "coordinates": [ [ [ 777257.636474664555863, 8981449.889369055628777 ], [ 777317.636474668164738, 8981449.889369063079357 ] ] ] } },
{ "type": "Feature", "properties": { "LAYER": "Texk BM", "GM_TYPE": "Unknown Line Type", "ELEVATION": 0 }, "geometry": { "type": "MultiLineString", "coordinates": [ [ [ 775013.900741573888808, 8979832.606630185618997 ], [ 775073.900741577497683, 8979832.606630181893706 ] ] ] } },
{ "type": "Feature", "properties": { "LAYER": "Texk BM", "GM_TYPE": "Unknown Line Type", "ELEVATION": 0 }, "geometry": { "type": "MultiLineString", "coordinates": [ [ [ 775013.900741570978425, 8979824.606630196794868 ], [ 775073.900741574703716, 8979824.606630193069577 ] ] ] } },
{ "type": "Feature", "properties": { "LAYER": "Texk BM", "GM_TYPE": "Unknown Line Type", "ELEVATION": 0 }, "geometry": { "type": "MultiLineString", "coordinates": [ [ [ 775013.900741575751454, 8979816.606630198657513 ], [ 775073.900741568650119, 8979816.606630178168416 ] ] ] } },
{ "type": "Feature", "properties": { "LAYER": "Texk BM", "GM_TYPE": "Unknown Line Type", "ELEVATION": 0 }, "geometry": { "type": "MultiLineString", "coordinates": [ [ [ 775014.177015266031958, 8979854.627068467438221 ], [ 775074.177015270339325, 8979854.627068489789963 ] ] ] } },
{ "type": "Feature", "properties": { "LAYER": "Texk BM", "GM_TYPE": "Unknown Line Type", "ELEVATION": 0 }, "geometry": { "type": "MultiLineString", "coordinates": [ [ [ 775014.17701526323799, 8979862.627068467438221 ], [ 775074.177015270688571, 8979862.627068486064672 ] ] ] } },
{ "type": "Feature", "properties": { "LAYER": "Texk BM", "GM_TYPE": "Unknown Line Type", "ELEVATION": 0 }, "geometry": { "type": "MultiLineString", "coordinates": [ [ [ 775014.177015260444023, 8979870.627068474888802 ], [ 775074.177015264169313, 8979870.627068482339382 ] ] ] } },
{ "type": "Feature", "properties": { "LAYER": "Texk BM", "GM_TYPE": "Unknown Line Type", "ELEVATION": 0 }, "geometry": { "type": "MultiLineString", "coordinates": [ [ [ 775100.824149703839794, 8980577.075322626158595 ], [ 775160.824149707448669, 8980577.075322622433305 ] ] ] } },
{ "type": "Feature", "properties": { "LAYER": "Texk BM", "GM_TYPE": "Unknown Line Type", "ELEVATION": 0 }, "geometry": { "type": "MultiLineString", "coordinates": [ [ [ 775100.824149701045826, 8980569.075322637334466 ], [ 775160.824149704887532, 8980569.075322633609176 ] ] ] } },
{ "type": "Feature", "properties": { "LAYER": "Texk BM", "GM_TYPE": "Unknown Line Type", "ELEVATION": 0 }, "geometry": { "type": "MultiLineString", "coordinates": [ [ [ 775100.824149705702439, 8980561.075322637334466 ], [ 775160.82414969871752, 8980561.075322618708014 ] ] ] } },
{ "type": "Feature", "properties": { "LAYER": "Texk BM", "GM_TYPE": "Unknown Line Type", "ELEVATION": 0 }, "geometry": { "type": "MultiLineString", "coordinates": [ [ [ 775076.027655455283821, 8980637.97288984619081 ], [ 775136.027655459591188, 8980637.972889866679907 ] ] ] } },
{ "type": "Feature", "properties": { "LAYER": "Texk BM", "GM_TYPE": "Unknown Line Type", "ELEVATION": 0 }, "geometry": { "type": "MultiLineString", "coordinates": [ [ [ 775076.027655452606268, 8980645.97288984619081 ], [ 775136.027655459940434, 8980645.972889864817262 ] ] ] } },
{ "type": "Feature", "properties": { "LAYER": "Texk BM", "GM_TYPE": "Unknown Line Type", "ELEVATION": 0 }, "geometry": { "type": "MultiLineString", "coordinates": [ [ [ 775076.027655449812301, 8980653.972889853641391 ], [ 775136.027655453421175, 8980653.972889861091971 ] ] ] } },
{ "type": "Feature", "properties": { "LAYER": "Texk BM", "GM_TYPE": "Unknown Line Type", "ELEVATION": 0 }, "geometry": { "type": "MultiLineString", "coordinates": [ [ [ 775133.34453869680874, 8981387.018918376415968 ], [ 775193.344538700417615, 8981387.018918372690678 ] ] ] } },
{ "type": "Feature", "properties": { "LAYER": "Texk BM", "GM_TYPE": "Unknown Line Type", "ELEVATION": 0 }, "geometry": { "type": "MultiLineString", "coordinates": [ [ [ 775133.344538693898357, 8981379.018918389454484 ], [ 775193.344538697623648, 8981379.018918383866549 ] ] ] } },
{ "type": "Feature", "properties": { "LAYER": "Texk BM", "GM_TYPE": "Unknown Line Type", "ELEVATION": 0 }, "geometry": { "type": "MultiLineString", "coordinates": [ [ [ 775133.34453869855497, 8981371.018918387591839 ], [ 775193.344538691570051, 8981371.018918367102742 ] ] ] } },
{ "type": "Feature", "properties": { "LAYER": "Texk BM", "GM_TYPE": "Unknown Line Type", "ELEVATION": 0 }, "geometry": { "type": "MultiLineString", "coordinates": [ [ [ 775126.648303048452362, 8981466.089481236413121 ], [ 775186.648303052643314, 8981466.089481258764863 ] ] ] } },
{ "type": "Feature", "properties": { "LAYER": "Texk BM", "GM_TYPE": "Unknown Line Type", "ELEVATION": 0 }, "geometry": { "type": "MultiLineString", "coordinates": [ [ [ 775126.648303045658395, 8981474.089481236413121 ], [ 775186.648303053108975, 8981474.089481253176928 ] ] ] } },
{ "type": "Feature", "properties": { "LAYER": "Texk BM", "GM_TYPE": "Unknown Line Type", "ELEVATION": 0 }, "geometry": { "type": "MultiLineString", "coordinates": [ [ [ 775126.648303042864427, 8981482.089481245726347 ], [ 775186.648303046473302, 8981482.089481251314282 ] ] ] } },
{ "type": "Feature", "properties": { "LAYER": "Texk BM", "GM_TYPE": "Unknown Line Type", "ELEVATION": 0 }, "geometry": { "type": "MultiLineString", "coordinates": [ [ [ 775149.320826770737767, 8981553.684114826843143 ], [ 775209.320826774346642, 8981553.684114823117852 ] ] ] } },
{ "type": "Feature", "properties": { "LAYER": "Texk BM", "GM_TYPE": "Unknown Line Type", "ELEVATION": 0 }, "geometry": { "type": "MultiLineString", "coordinates": [ [ [ 775149.320826767943799, 8981545.684114838019013 ], [ 775209.320826771785505, 8981545.684114834293723 ] ] ] } },
{ "type": "Feature", "properties": { "LAYER": "Texk BM", "GM_TYPE": "Unknown Line Type", "ELEVATION": 0 }, "geometry": { "type": "MultiLineString", "coordinates": [ [ [ 775149.320826772600412, 8981537.684114838019013 ], [ 775209.320826765615493, 8981537.684114821255207 ] ] ] } },
{ "type": "Feature", "properties": { "LAYER": "Texk BM", "GM_TYPE": "Unknown Line Type", "ELEVATION": 0 }, "geometry": { "type": "MultiLineString", "coordinates": [ [ [ 775116.514590582344681, 8981612.979239976033568 ], [ 775176.514590586535633, 8981612.97923999838531 ] ] ] } },
{ "type": "Feature", "properties": { "LAYER": "Texk BM", "GM_TYPE": "Unknown Line Type", "ELEVATION": 0 }, "geometry": { "type": "MultiLineString", "coordinates": [ [ [ 775116.514590579550713, 8981620.979239974170923 ], [ 775176.514590587001294, 8981620.97923999466002 ] ] ] } },
{ "type": "Feature", "properties": { "LAYER": "Texk BM", "GM_TYPE": "Unknown Line Type", "ELEVATION": 0 }, "geometry": { "type": "MultiLineString", "coordinates": [ [ [ 775116.514590576756746, 8981628.979239983484149 ], [ 775176.514590580598451, 8981628.97923999093473 ] ] ] } },
{ "type": "Feature", "properties": { "LAYER": "Texk BM", "GM_TYPE": "Unknown Line Type", "ELEVATION": 0 }, "geometry": { "type": "MultiLineString", "coordinates": [ [ [ 775189.816920079756528, 8982175.387718126177788 ], [ 775249.816920083248988, 8982175.387718124315143 ] ] ] } },
{ "type": "Feature", "properties": { "LAYER": "Texk BM", "GM_TYPE": "Unknown Line Type", "ELEVATION": 0 }, "geometry": { "type": "MultiLineString", "coordinates": [ [ [ 775189.816920076846145, 8982167.387718137353659 ], [ 775249.81692008045502, 8982167.387718133628368 ] ] ] } },
{ "type": "Feature", "properties": { "LAYER": "Texk BM", "GM_TYPE": "Unknown Line Type", "ELEVATION": 0 }, "geometry": { "type": "MultiLineString", "coordinates": [ [ [ 775189.816920081502758, 8982159.387718137353659 ], [ 775249.816920074517839, 8982159.387718120589852 ] ] ] } },
{ "type": "Feature", "properties": { "LAYER": "Texk BM", "GM_TYPE": "Unknown Line Type", "ELEVATION": 0 }, "geometry": { "type": "MultiLineString", "coordinates": [ [ [ 775186.090257154544815, 8982235.911490606144071 ], [ 775246.090257158619352, 8982235.911490628495812 ] ] ] } },
{ "type": "Feature", "properties": { "LAYER": "Texk BM", "GM_TYPE": "Unknown Line Type", "ELEVATION": 0 }, "geometry": { "type": "MultiLineString", "coordinates": [ [ [ 775186.090257151634432, 8982243.911490606144071 ], [ 775246.090257159085013, 8982243.911490624770522 ] ] ] } },
{ "type": "Feature", "properties": { "LAYER": "Texk BM", "GM_TYPE": "Unknown Line Type", "ELEVATION": 0 }, "geometry": { "type": "MultiLineString", "coordinates": [ [ [ 775186.09025714895688, 8982251.911490613594651 ], [ 775246.090257152565755, 8982251.911490621045232 ] ] ] } },
{ "type": "Feature", "properties": { "LAYER": "Texk BM", "GM_TYPE": "Unknown Line Type", "ELEVATION": 0 }, "geometry": { "type": "MultiLineString", "coordinates": [ [ [ 776760.554003033787012, 8983061.626192886382341 ], [ 776820.554003037512302, 8983061.626192882657051 ] ] ] } },
{ "type": "Feature", "properties": { "LAYER": "Texk BM", "GM_TYPE": "Unknown Line Type", "ELEVATION": 0 }, "geometry": { "type": "MultiLineString", "coordinates": [ [ [ 776760.554003030876629, 8983053.626192897558212 ], [ 776820.554003034718335, 8983053.626192893832922 ] ] ] } },
{ "type": "Feature", "properties": { "LAYER": "Texk BM", "GM_TYPE": "Unknown Line Type", "ELEVATION": 0 }, "geometry": { "type": "MultiLineString", "coordinates": [ [ [ 776760.554003035649657, 8983045.626192897558212 ], [ 776820.554003028664738, 8983045.626192878931761 ] ] ] } },
{ "type": "Feature", "properties": { "LAYER": "Texk BM", "GM_TYPE": "Unknown Line Type", "ELEVATION": 0 }, "geometry": { "type": "MultiLineString", "coordinates": [ [ [ 776786.254328587092459, 8983148.389603955671191 ], [ 776846.254328591283411, 8983148.389603979885578 ] ] ] } },
{ "type": "Feature", "properties": { "LAYER": "Texk BM", "GM_TYPE": "Unknown Line Type", "ELEVATION": 0 }, "geometry": { "type": "MultiLineString", "coordinates": [ [ [ 776786.254328584298491, 8983156.389603957533836 ], [ 776846.254328591749072, 8983156.389603974297643 ] ] ] } },
{ "type": "Feature", "properties": { "LAYER": "Texk BM", "GM_TYPE": "Unknown Line Type", "ELEVATION": 0 }, "geometry": { "type": "MultiLineString", "coordinates": [ [ [ 776786.254328581504524, 8983164.389603963121772 ], [ 776846.254328585346229, 8983164.389603970572352 ] ] ] } },
{ "type": "Feature", "properties": { "LAYER": "Texk BM", "GM_TYPE": "Unknown Line Type", "ELEVATION": 0 }, "geometry": { "type": "MultiLineString", "coordinates": [ [ [ 775518.279209835105576, 8982976.094839487224817 ], [ 775578.279209838830866, 8982976.094839483499527 ] ] ] } },
{ "type": "Feature", "properties": { "LAYER": "Texk BM", "GM_TYPE": "Unknown Line Type", "ELEVATION": 0 }, "geometry": { "type": "MultiLineString", "coordinates": [ [ [ 775518.279209832311608, 8982968.094839498400688 ], [ 775578.279209836153314, 8982968.094839494675398 ] ] ] } },
{ "type": "Feature", "properties": { "LAYER": "Texk BM", "GM_TYPE": "Unknown Line Type", "ELEVATION": 0 }, "geometry": { "type": "MultiLineString", "coordinates": [ [ [ 775518.279209836968221, 8982960.094839498400688 ], [ 775578.279209829983301, 8982960.094839479774237 ] ] ] } },
{ "type": "Feature", "properties": { "LAYER": "Texk BM", "GM_TYPE": "Unknown Line Type", "ELEVATION": 0 }, "geometry": { "type": "MultiLineString", "coordinates": [ [ [ 775519.98613720445428, 8982920.21514942497015 ], [ 775579.986137208645232, 8982920.215149445459247 ] ] ] } },
{ "type": "Feature", "properties": { "LAYER": "Texk BM", "GM_TYPE": "Unknown Line Type", "ELEVATION": 0 }, "geometry": { "type": "MultiLineString", "coordinates": [ [ [ 775519.986137201660313, 8982928.215149423107505 ], [ 775579.986137209110893, 8982928.215149443596601 ] ] ] } },
{ "type": "Feature", "properties": { "LAYER": "Texk BM", "GM_TYPE": "Unknown Line Type", "ELEVATION": 0 }, "geometry": { "type": "MultiLineString", "coordinates": [ [ [ 775519.986137198866345, 8982936.215149432420731 ], [ 775579.98613720247522, 8982936.215149439871311 ] ] ] } },
{ "type": "Feature", "properties": { "LAYER": "Texk BM", "GM_TYPE": "Unknown Line Type", "ELEVATION": 0 }, "geometry": { "type": "MultiLineString", "coordinates": [ [ [ 775296.958186020492576, 8982758.320509165525436 ], [ 775356.958186024217866, 8982758.320509161800146 ] ] ] } },
{ "type": "Feature", "properties": { "LAYER": "Texk BM", "GM_TYPE": "Unknown Line Type", "ELEVATION": 0 }, "geometry": { "type": "MultiLineString", "coordinates": [ [ [ 775296.958186017815024, 8982750.320509176701307 ], [ 775356.958186021540314, 8982750.320509174838662 ] ] ] } },
{ "type": "Feature", "properties": { "LAYER": "Texk BM", "GM_TYPE": "Unknown Line Type", "ELEVATION": 0 }, "geometry": { "type": "MultiLineString", "coordinates": [ [ [ 775296.958186022355221, 8982742.320509176701307 ], [ 775356.958186015370302, 8982742.320509158074856 ] ] ] } },
{ "type": "Feature", "properties": { "LAYER": "Texk BM", "GM_TYPE": "Unknown Line Type", "ELEVATION": 0 }, "geometry": { "type": "MultiLineString", "coordinates": [ [ [ 775308.744057844975032, 8982800.147177699953318 ], [ 775368.744057849165983, 8982800.147177722305059 ] ] ] } },
{ "type": "Feature", "properties": { "LAYER": "Texk BM", "GM_TYPE": "Unknown Line Type", "ELEVATION": 0 }, "geometry": { "type": "MultiLineString", "coordinates": [ [ [ 775308.744057842181064, 8982808.147177698090672 ], [ 775368.74405784974806, 8982808.147177718579769 ] ] ] } },
{ "type": "Feature", "properties": { "LAYER": "Texk BM", "GM_TYPE": "Unknown Line Type", "ELEVATION": 0 }, "geometry": { "type": "MultiLineString", "coordinates": [ [ [ 775308.744057839387096, 8982816.147177707403898 ], [ 775368.744057843112387, 8982816.147177714854479 ] ] ] } },
{ "type": "Feature", "properties": { "LAYER": "Texk BM", "GM_TYPE": "Unknown Line Type", "ELEVATION": 0 }, "geometry": { "type": "MultiLineString", "coordinates": [ [ [ 776612.155620839563198, 8981909.725088642910123 ], [ 776672.155620843521319, 8981909.725088639184833 ] ] ] } },
{ "type": "Feature", "properties": { "LAYER": "Texk BM", "GM_TYPE": "Unknown Line Type", "ELEVATION": 0 }, "geometry": { "type": "MultiLineString", "coordinates": [ [ [ 776612.155620837002061, 8981901.725088654085994 ], [ 776672.155620840610936, 8981901.725088650360703 ] ] ] } },
{ "type": "Feature", "properties": { "LAYER": "Texk BM", "GM_TYPE": "Unknown Line Type", "ELEVATION": 0 }, "geometry": { "type": "MultiLineString", "coordinates": [ [ [ 776612.155620841542259, 8981893.725088652223349 ], [ 776672.15562083455734, 8981893.725088635459542 ] ] ] } },
{ "type": "Feature", "properties": { "LAYER": "Texk BM", "GM_TYPE": "Unknown Line Type", "ELEVATION": 0 }, "geometry": { "type": "MultiLineString", "coordinates": [ [ [ 776618.2558746781433, 8981940.17305856756866 ], [ 776678.255874682450667, 8981940.173058589920402 ] ] ] } },
{ "type": "Feature", "properties": { "LAYER": "Texk BM", "GM_TYPE": "Unknown Line Type", "ELEVATION": 0 }, "geometry": { "type": "MultiLineString", "coordinates": [ [ [ 776618.255874675349332, 8981948.17305856756866 ], [ 776678.255874682916328, 8981948.173058586195111 ] ] ] } },
{ "type": "Feature", "properties": { "LAYER": "Texk BM", "GM_TYPE": "Unknown Line Type", "ELEVATION": 0 }, "geometry": { "type": "MultiLineString", "coordinates": [ [ [ 776618.255874672555365, 8981956.17305857501924 ], [ 776678.255874676280655, 8981956.173058582469821 ] ] ] } },
{ "type": "Feature", "properties": { "LAYER": "Texk BM", "GM_TYPE": "Unknown Line Type", "ELEVATION": 0 }, "geometry": { "type": "MultiLineString", "coordinates": [ [ [ 776552.938265021773987, 8980675.121653603389859 ], [ 776612.938265025499277, 8980675.121653599664569 ] ] ] } },
{ "type": "Feature", "properties": { "LAYER": "Texk BM", "GM_TYPE": "Unknown Line Type", "ELEVATION": 0 }, "geometry": { "type": "MultiLineString", "coordinates": [ [ [ 776552.938265018980019, 8980667.12165361456573 ], [ 776612.938265022705309, 8980667.12165361084044 ] ] ] } },
{ "type": "Feature", "properties": { "LAYER": "Texk BM", "GM_TYPE": "Unknown Line Type", "ELEVATION": 0 }, "geometry": { "type": "MultiLineString", "coordinates": [ [ [ 776552.938265023753047, 8980659.12165361456573 ], [ 776612.938265016651712, 8980659.121653595939279 ] ] ] } },
{ "type": "Feature", "properties": { "LAYER": "Texk BM", "GM_TYPE": "Unknown Line Type", "ELEVATION": 0 }, "geometry": { "type": "MultiLineString", "coordinates": [ [ [ 776540.489011249388568, 8980711.466958228498697 ], [ 776600.489011253463104, 8980711.466958252713084 ] ] ] } },
{ "type": "Feature", "properties": { "LAYER": "Texk BM", "GM_TYPE": "Unknown Line Type", "ELEVATION": 0 }, "geometry": { "type": "MultiLineString", "coordinates": [ [ [ 776540.489011246478185, 8980719.466958228498697 ], [ 776600.489011253928766, 8980719.466958245262504 ] ] ] } },
{ "type": "Feature", "properties": { "LAYER": "Texk BM", "GM_TYPE": "Unknown Line Type", "ELEVATION": 0 }, "geometry": { "type": "MultiLineString", "coordinates": [ [ [ 776540.489011243684217, 8980727.466958237811923 ], [ 776600.489011247409508, 8980727.466958243399858 ] ] ] } },
{ "type": "Feature", "properties": { "LAYER": "Texk BM", "GM_TYPE": "Unknown Line Type", "ELEVATION": 0 }, "geometry": { "type": "MultiLineString", "coordinates": [ [ [ 772857.67192318465095, 8984112.027510136365891 ], [ 772917.671923188609071, 8984112.027510130777955 ] ] ] } },
{ "type": "Feature", "properties": { "LAYER": "Texk BM", "GM_TYPE": "Unknown Line Type", "ELEVATION": 0 }, "geometry": { "type": "MultiLineString", "coordinates": [ [ [ 772857.671923182089813, 8984104.027510147541761 ], [ 772917.671923185698688, 8984104.027510141953826 ] ] ] } },
{ "type": "Feature", "properties": { "LAYER": "Texk BM", "GM_TYPE": "Unknown Line Type", "ELEVATION": 0 }, "geometry": { "type": "MultiLineString", "coordinates": [ [ [ 772857.671923186746426, 8984096.027510145679116 ], [ 772917.671923179645091, 8984096.02751012519002 ] ] ] } },
{ "type": "Feature", "properties": { "LAYER": "Texk BM", "GM_TYPE": "Unknown Line Type", "ELEVATION": 0 }, "geometry": { "type": "MultiLineString", "coordinates": [ [ [ 772861.18628072924912, 8984154.028532417491078 ], [ 772921.186280733556487, 8984154.02853243984282 ] ] ] } },
{ "type": "Feature", "properties": { "LAYER": "Texk BM", "GM_TYPE": "Unknown Line Type", "ELEVATION": 0 }, "geometry": { "type": "MultiLineString", "coordinates": [ [ [ 772861.186280726455152, 8984162.028532417491078 ], [ 772921.186280733905733, 8984162.02853243611753 ] ] ] } },
{ "type": "Feature", "properties": { "LAYER": "Texk BM", "GM_TYPE": "Unknown Line Type", "ELEVATION": 0 }, "geometry": { "type": "MultiLineString", "coordinates": [ [ [ 772861.186280723661184, 8984170.028532426804304 ], [ 772921.186280727386475, 8984170.02853243239224 ] ] ] } },
{ "type": "Feature", "properties": { "LAYER": "Texk BM", "GM_TYPE": "Unknown Line Type", "ELEVATION": 0 }, "geometry": { "type": "MultiLineString", "coordinates": [ [ [ 773612.15964977175463, 8982348.400409763678908 ], [ 773672.15964977547992, 8982348.400409759953618 ] ] ] } },
{ "type": "Feature", "properties": { "LAYER": "Texk BM", "GM_TYPE": "Unknown Line Type", "ELEVATION": 0 }, "geometry": { "type": "MultiLineString", "coordinates": [ [ [ 773612.159649768844247, 8982340.400409774854779 ], [ 773672.159649772685952, 8982340.400409771129489 ] ] ] } },
{ "type": "Feature", "properties": { "LAYER": "Texk BM", "GM_TYPE": "Unknown Line Type", "ELEVATION": 0 }, "geometry": { "type": "MultiLineString", "coordinates": [ [ [ 773612.159649773617275, 8982332.400409774854779 ], [ 773672.159649766632356, 8982332.400409758090973 ] ] ] } },
{ "type": "Feature", "properties": { "LAYER": "Texk BM", "GM_TYPE": "Unknown Line Type", "ELEVATION": 0 }, "geometry": { "type": "MultiLineString", "coordinates": [ [ [ 773703.476635379251093, 8982217.38985987752676 ], [ 773763.476635383442044, 8982217.389859899878502 ] ] ] } },
{ "type": "Feature", "properties": { "LAYER": "Texk BM", "GM_TYPE": "Unknown Line Type", "ELEVATION": 0 }, "geometry": { "type": "MultiLineString", "coordinates": [ [ [ 773703.476635376457125, 8982225.38985987752676 ], [ 773763.476635383907706, 8982225.389859896153212 ] ] ] } },
{ "type": "Feature", "properties": { "LAYER": "Texk BM", "GM_TYPE": "Unknown Line Type", "ELEVATION": 0 }, "geometry": { "type": "MultiLineString", "coordinates": [ [ [ 773703.476635373663157, 8982233.389859884977341 ], [ 773763.476635377504863, 8982233.389859892427921 ] ] ] } },
{ "type": "Feature", "properties": { "LAYER": "Texk BM", "GM_TYPE": "Unknown Line Type", "ELEVATION": 0 }, "geometry": { "type": "MultiLineString", "coordinates": [ [ [ 772760.934782476746477, 8982100.144459204748273 ], [ 772820.934782480471767, 8982100.144459199160337 ] ] ] } },
{ "type": "Feature", "properties": { "LAYER": "Texk BM", "GM_TYPE": "Unknown Line Type", "ELEVATION": 0 }, "geometry": { "type": "MultiLineString", "coordinates": [ [ [ 772760.934782473952509, 8982092.144459214061499 ], [ 772820.9347824776778, 8982092.144459210336208 ] ] ] } },
{ "type": "Feature", "properties": { "LAYER": "Texk BM", "GM_TYPE": "Unknown Line Type", "ELEVATION": 0 }, "geometry": { "type": "MultiLineString", "coordinates": [ [ [ 772760.934782478609122, 8982084.144459214061499 ], [ 772820.934782471624203, 8982084.144459197297692 ] ] ] } },
{ "type": "Feature", "properties": { "LAYER": "Texk BM", "GM_TYPE": "Unknown Line Type", "ELEVATION": 0 }, "geometry": { "type": "MultiLineString", "coordinates": [ [ [ 772780.834729031659663, 8982135.389937661588192 ], [ 772840.834729035850614, 8982135.389937685802579 ] ] ] } },
{ "type": "Feature", "properties": { "LAYER": "Texk BM", "GM_TYPE": "Unknown Line Type", "ELEVATION": 0 }, "geometry": { "type": "MultiLineString", "coordinates": [ [ [ 772780.834729028865695, 8982143.389937661588192 ], [ 772840.834729036316276, 8982143.389937680214643 ] ] ] } },
{ "type": "Feature", "properties": { "LAYER": "Texk BM", "GM_TYPE": "Unknown Line Type", "ELEVATION": 0 }, "geometry": { "type": "MultiLineString", "coordinates": [ [ [ 772780.834729026071727, 8982151.389937669038773 ], [ 772840.834729029680602, 8982151.389937676489353 ] ] ] } },
{ "type": "Feature", "properties": { "LAYER": "Texk BM", "GM_TYPE": "Unknown Line Type", "ELEVATION": 0 }, "geometry": { "type": "MultiLineString", "coordinates": [ [ [ 773160.806848451844417, 8981252.4878482632339 ], [ 773220.806848455453292, 8981252.48784825950861 ] ] ] } },
{ "type": "Feature", "properties": { "LAYER": "Texk BM", "GM_TYPE": "Unknown Line Type", "ELEVATION": 0 }, "geometry": { "type": "MultiLineString", "coordinates": [ [ [ 773160.806848448934034, 8981244.487848274409771 ], [ 773220.806848452775739, 8981244.487848270684481 ] ] ] } },
{ "type": "Feature", "properties": { "LAYER": "Texk BM", "GM_TYPE": "Unknown Line Type", "ELEVATION": 0 }, "geometry": { "type": "MultiLineString", "coordinates": [ [ [ 773160.806848453590646, 8981236.487848276272416 ], [ 773220.806848446605727, 8981236.487848255783319 ] ] ] } },
{ "type": "Feature", "properties": { "LAYER": "Texk BM", "GM_TYPE": "Unknown Line Type", "ELEVATION": 0 }, "geometry": { "type": "MultiLineString", "coordinates": [ [ [ 773185.04934151051566, 8981281.979216760024428 ], [ 773245.049341514706612, 8981281.97921678237617 ] ] ] } },
{ "type": "Feature", "properties": { "LAYER": "Texk BM", "GM_TYPE": "Unknown Line Type", "ELEVATION": 0 }, "geometry": { "type": "MultiLineString", "coordinates": [ [ [ 773185.049341507838108, 8981289.979216761887074 ], [ 773245.049341515172273, 8981289.97921677865088 ] ] ] } },
{ "type": "Feature", "properties": { "LAYER": "Texk BM", "GM_TYPE": "Unknown Line Type", "ELEVATION": 0 }, "geometry": { "type": "MultiLineString", "coordinates": [ [ [ 773185.049341504927725, 8981297.979216767475009 ], [ 773245.049341508653015, 8981297.97921677492559 ] ] ] } },
{ "type": "Feature", "properties": { "LAYER": "Texk BM", "GM_TYPE": "Unknown Line Type", "ELEVATION": 0 }, "geometry": { "type": "MultiLineString", "coordinates": [ [ [ 772663.429619208793156, 8980283.311501232907176 ], [ 772723.429619212634861, 8980283.311501229181886 ] ] ] } },
{ "type": "Feature", "properties": { "LAYER": "Texk BM", "GM_TYPE": "Unknown Line Type", "ELEVATION": 0 }, "geometry": { "type": "MultiLineString", "coordinates": [ [ [ 772663.429619205882773, 8980275.311501244083047 ], [ 772723.429619209724478, 8980275.311501240357757 ] ] ] } },
{ "type": "Feature", "properties": { "LAYER": "Texk BM", "GM_TYPE": "Unknown Line Type", "ELEVATION": 0 }, "geometry": { "type": "MultiLineString", "coordinates": [ [ [ 772663.429619210655801, 8980267.311501242220402 ], [ 772723.429619203670882, 8980267.311501225456595 ] ] ] } },
{ "type": "Feature", "properties": { "LAYER": "Texk BM", "GM_TYPE": "Unknown Line Type", "ELEVATION": 0 }, "geometry": { "type": "MultiLineString", "coordinates": [ [ [ 772672.625652869581245, 8980322.493264220654964 ], [ 772732.625652873772196, 8980322.493264241144061 ] ] ] } },
{ "type": "Feature", "properties": { "LAYER": "Texk BM", "GM_TYPE": "Unknown Line Type", "ELEVATION": 0 }, "geometry": { "type": "MultiLineString", "coordinates": [ [ [ 772672.625652866787277, 8980330.493264220654964 ], [ 772732.625652874237858, 8980330.493264239281416 ] ] ] } },
{ "type": "Feature", "properties": { "LAYER": "Texk BM", "GM_TYPE": "Unknown Line Type", "ELEVATION": 0 }, "geometry": { "type": "MultiLineString", "coordinates": [ [ [ 772672.625652863993309, 8980338.493264228105545 ], [ 772732.6256528677186, 8980338.493264235556126 ] ] ] } },
{ "type": "Feature", "properties": { "LAYER": "Texk BM", "GM_TYPE": "Unknown Line Type", "ELEVATION": 0 }, "geometry": { "type": "MultiLineString", "coordinates": [ [ [ 772633.498859483981505, 8979872.507294243201613 ], [ 772693.498859487706795, 8979872.507294239476323 ] ] ] } },
{ "type": "Feature", "properties": { "LAYER": "Texk BM", "GM_TYPE": "Unknown Line Type", "ELEVATION": 0 }, "geometry": { "type": "MultiLineString", "coordinates": [ [ [ 772633.498859481071122, 8979864.507294252514839 ], [ 772693.498859485029243, 8979864.507294250652194 ] ] ] } },
{ "type": "Feature", "properties": { "LAYER": "Texk BM", "GM_TYPE": "Unknown Line Type", "ELEVATION": 0 }, "geometry": { "type": "MultiLineString", "coordinates": [ [ [ 772633.49885948584415, 8979856.507294256240129 ], [ 772693.498859478859231, 8979856.507294235751033 ] ] ] } },
{ "type": "Feature", "properties": { "LAYER": "Texk BM", "GM_TYPE": "Unknown Line Type", "ELEVATION": 0 }, "geometry": { "type": "MultiLineString", "coordinates": [ [ [ 772633.614282060298137, 8979818.609313318505883 ], [ 772693.614282064372674, 8979818.609313340857625 ] ] ] } },
{ "type": "Feature", "properties": { "LAYER": "Texk BM", "GM_TYPE": "Unknown Line Type", "ELEVATION": 0 }, "geometry": { "type": "MultiLineString", "coordinates": [ [ [ 772633.614282057387754, 8979826.609313318505883 ], [ 772693.61428206495475, 8979826.60931333526969 ] ] ] } },
{ "type": "Feature", "properties": { "LAYER": "Texk BM", "GM_TYPE": "Unknown Line Type", "ELEVATION": 0 }, "geometry": { "type": "MultiLineString", "coordinates": [ [ [ 772633.614282054593787, 8979834.609313327819109 ], [ 772693.614282058435492, 8979834.609313333407044 ] ] ] } },
{ "type": "Feature", "properties": { "LAYER": "Texk BM", "GM_TYPE": "Unknown Line Type", "ELEVATION": 0 }, "geometry": { "type": "MultiLineString", "coordinates": [ [ [ 772067.389053129358217, 8981299.296537226065993 ], [ 772127.389053133199923, 8981299.296537222340703 ] ] ] } },
{ "type": "Feature", "properties": { "LAYER": "Texk BM", "GM_TYPE": "Unknown Line Type", "ELEVATION": 0 }, "geometry": { "type": "MultiLineString", "coordinates": [ [ [ 772067.389053126564249, 8981291.296537237241864 ], [ 772127.38905313028954, 8981291.296537233516574 ] ] ] } },
{ "type": "Feature", "properties": { "LAYER": "Texk BM", "GM_TYPE": "Unknown Line Type", "ELEVATION": 0 }, "geometry": { "type": "MultiLineString", "coordinates": [ [ [ 772067.389053131337278, 8981283.296537237241864 ], [ 772127.389053124235943, 8981283.296537218615413 ] ] ] } },
{ "type": "Feature", "properties": { "LAYER": "Texk BM", "GM_TYPE": "Unknown Line Type", "ELEVATION": 0 }, "geometry": { "type": "MultiLineString", "coordinates": [ [ [ 772033.632178240222856, 8981320.16780941747129 ], [ 772093.632178244530223, 8981320.167809441685677 ] ] ] } },
{ "type": "Feature", "properties": { "LAYER": "Texk BM", "GM_TYPE": "Unknown Line Type", "ELEVATION": 0 }, "geometry": { "type": "MultiLineString", "coordinates": [ [ [ 772033.632178237545304, 8981328.16780941747129 ], [ 772093.632178244879469, 8981328.167809436097741 ] ] ] } },
{ "type": "Feature", "properties": { "LAYER": "Texk BM", "GM_TYPE": "Unknown Line Type", "ELEVATION": 0 }, "geometry": { "type": "MultiLineString", "coordinates": [ [ [ 772033.632178234751336, 8981336.16780942492187 ], [ 772093.632178238243796, 8981336.167809432372451 ] ] ] } },
{ "type": "Feature", "properties": { "LAYER": "Texk BM", "GM_TYPE": "Unknown Line Type", "ELEVATION": 0 }, "geometry": { "type": "MultiLineString", "coordinates": [ [ [ 772138.314193535014056, 8982636.594819385558367 ], [ 772198.314193538622931, 8982636.594819381833076 ] ] ] } },
{ "type": "Feature", "properties": { "LAYER": "Texk BM", "GM_TYPE": "Unknown Line Type", "ELEVATION": 0 }, "geometry": { "type": "MultiLineString", "coordinates": [ [ [ 772138.314193532103673, 8982628.594819396734238 ], [ 772198.314193535828963, 8982628.594819393008947 ] ] ] } },
{ "type": "Feature", "properties": { "LAYER": "Texk BM", "GM_TYPE": "Unknown Line Type", "ELEVATION": 0 }, "geometry": { "type": "MultiLineString", "coordinates": [ [ [ 772138.314193536760285, 8982620.594819396734238 ], [ 772198.314193529775366, 8982620.594819378107786 ] ] ] } },
{ "type": "Feature", "properties": { "LAYER": "Texk BM", "GM_TYPE": "Unknown Line Type", "ELEVATION": 0 }, "geometry": { "type": "MultiLineString", "coordinates": [ [ [ 772155.412792746792547, 8982691.739827098324895 ], [ 772215.412792751099914, 8982691.739827118813992 ] ] ] } },
{ "type": "Feature", "properties": { "LAYER": "Texk BM", "GM_TYPE": "Unknown Line Type", "ELEVATION": 0 }, "geometry": { "type": "MultiLineString", "coordinates": [ [ [ 772155.41279274423141, 8982699.739827094599605 ], [ 772215.412792751565576, 8982699.739827115088701 ] ] ] } },
{ "type": "Feature", "properties": { "LAYER": "Texk BM", "GM_TYPE": "Unknown Line Type", "ELEVATION": 0 }, "geometry": { "type": "MultiLineString", "coordinates": [ [ [ 772155.412792741321027, 8982707.73982710391283 ], [ 772215.412792745046318, 8982707.739827111363411 ] ] ] } },
{ "type": "Feature", "properties": { "LAYER": "Texk BM", "GM_TYPE": "Unknown Line Type", "ELEVATION": 0 }, "geometry": { "type": "MultiLineString", "coordinates": [ [ [ 771511.058695381856523, 8981945.247844453901052 ], [ 771571.058695385698229, 8981945.247844450175762 ] ] ] } },
{ "type": "Feature", "properties": { "LAYER": "Texk BM", "GM_TYPE": "Unknown Line Type", "ELEVATION": 0 }, "geometry": { "type": "MultiLineString", "coordinates": [ [ [ 771511.058695379062556, 8981937.247844465076923 ], [ 771571.058695383020677, 8981937.247844461351633 ] ] ] } },
{ "type": "Feature", "properties": { "LAYER": "Texk BM", "GM_TYPE": "Unknown Line Type", "ELEVATION": 0 }, "geometry": { "type": "MultiLineString", "coordinates": [ [ [ 771511.058695383835584, 8981929.247844465076923 ], [ 771571.058695376850665, 8981929.247844446450472 ] ] ] } },
{ "type": "Feature", "properties": { "LAYER": "Texk BM", "GM_TYPE": "Unknown Line Type", "ELEVATION": 0 }, "geometry": { "type": "MultiLineString", "coordinates": [ [ [ 771491.670850845053792, 8981992.28152115829289 ], [ 771551.670850849361159, 8981992.281521180644631 ] ] ] } },
{ "type": "Feature", "properties": { "LAYER": "Texk BM", "GM_TYPE": "Unknown Line Type", "ELEVATION": 0 }, "geometry": { "type": "MultiLineString", "coordinates": [ [ [ 771491.67085084237624, 8982000.28152115829289 ], [ 771551.670850849943236, 8982000.281521176919341 ] ] ] } },
{ "type": "Feature", "properties": { "LAYER": "Texk BM", "GM_TYPE": "Unknown Line Type", "ELEVATION": 0 }, "geometry": { "type": "MultiLineString", "coordinates": [ [ [ 771491.670850839582272, 8982008.28152116574347 ], [ 771551.670850843307562, 8982008.281521173194051 ] ] ] } },
{ "type": "Feature", "properties": { "LAYER": "Texk BM", "GM_TYPE": "Unknown Line Type", "ELEVATION": 0 }, "geometry": { "type": "MultiLineString", "coordinates": [ [ [ 770675.960627804044634, 8981672.456340119242668 ], [ 770735.960627807769924, 8981672.456340115517378 ] ] ] } },
{ "type": "Feature", "properties": { "LAYER": "Texk BM", "GM_TYPE": "Unknown Line Type", "ELEVATION": 0 }, "geometry": { "type": "MultiLineString", "coordinates": [ [ [ 770675.960627801250666, 8981664.456340128555894 ], [ 770735.960627804975957, 8981664.456340124830604 ] ] ] } },
{ "type": "Feature", "properties": { "LAYER": "Texk BM", "GM_TYPE": "Unknown Line Type", "ELEVATION": 0 }, "geometry": { "type": "MultiLineString", "coordinates": [ [ [ 770675.960627805907279, 8981656.456340128555894 ], [ 770735.96062779892236, 8981656.456340111792088 ] ] ] } },
{ "type": "Feature", "properties": { "LAYER": "Texk BM", "GM_TYPE": "Unknown Line Type", "ELEVATION": 0 }, "geometry": { "type": "MultiLineString", "coordinates": [ [ [ 770692.997780983219855, 8981736.800907645374537 ], [ 770752.997780987410806, 8981736.800907667726278 ] ] ] } },
{ "type": "Feature", "properties": { "LAYER": "Texk BM", "GM_TYPE": "Unknown Line Type", "ELEVATION": 0 }, "geometry": { "type": "MultiLineString", "coordinates": [ [ [ 770692.997780980425887, 8981744.800907645374537 ], [ 770752.997780987992883, 8981744.800907664000988 ] ] ] } },
{ "type": "Feature", "properties": { "LAYER": "Texk BM", "GM_TYPE": "Unknown Line Type", "ELEVATION": 0 }, "geometry": { "type": "MultiLineString", "coordinates": [ [ [ 770692.997780977748334, 8981752.800907652825117 ], [ 770752.997780981357209, 8981752.800907660275698 ] ] ] } },
{ "type": "Feature", "properties": { "LAYER": "Texk BM", "GM_TYPE": "Unknown Line Type", "ELEVATION": 0 }, "geometry": { "type": "MultiLineString", "coordinates": [ [ [ 772109.595299923908897, 8982202.59947002120316 ], [ 772169.595299927634187, 8982202.599470019340515 ] ] ] } },
{ "type": "Feature", "properties": { "LAYER": "Texk BM", "GM_TYPE": "Unknown Line Type", "ELEVATION": 0 }, "geometry": { "type": "MultiLineString", "coordinates": [ [ [ 772109.595299921114929, 8982194.599470034241676 ], [ 772169.595299924956635, 8982194.599470030516386 ] ] ] } },
{ "type": "Feature", "properties": { "LAYER": "Texk BM", "GM_TYPE": "Unknown Line Type", "ELEVATION": 0 }, "geometry": { "type": "MultiLineString", "coordinates": [ [ [ 772109.595299925771542, 8982186.599470034241676 ], [ 772169.595299918786623, 8982186.599470015615225 ] ] ] } },
{ "type": "Feature", "properties": { "LAYER": "Texk BM", "GM_TYPE": "Unknown Line Type", "ELEVATION": 0 }, "geometry": { "type": "MultiLineString", "coordinates": [ [ [ 772109.913811947335489, 8982144.792339980602264 ], [ 772169.913811951526441, 8982144.792340001091361 ] ] ] } },
{ "type": "Feature", "properties": { "LAYER": "Texk BM", "GM_TYPE": "Unknown Line Type", "ELEVATION": 0 }, "geometry": { "type": "MultiLineString", "coordinates": [ [ [ 772109.913811944541521, 8982152.792339978739619 ], [ 772169.913811951759271, 8982152.792339999228716 ] ] ] } },
{ "type": "Feature", "properties": { "LAYER": "Texk BM", "GM_TYPE": "Unknown Line Type", "ELEVATION": 0 }, "geometry": { "type": "MultiLineString", "coordinates": [ [ [ 772109.913811941631138, 8982160.7923399861902 ], [ 772169.913811945356429, 8982160.79233999364078 ] ] ] } },
{ "type": "Feature", "properties": { "LAYER": "Texk BM", "GM_TYPE": "Unknown Line Type", "ELEVATION": 0 }, "geometry": { "type": "MultiLineString", "coordinates": [ [ [ 770865.206720379879698, 8981819.747927762567997 ], [ 770925.206720383604988, 8981819.747927758842707 ] ] ] } },
{ "type": "Feature", "properties": { "LAYER": "Texk BM", "GM_TYPE": "Unknown Line Type", "ELEVATION": 0 }, "geometry": { "type": "MultiLineString", "coordinates": [ [ [ 770865.20672037708573, 8981811.747927773743868 ], [ 770925.206720380927436, 8981811.747927768155932 ] ] ] } },
{ "type": "Feature", "properties": { "LAYER": "Texk BM", "GM_TYPE": "Unknown Line Type", "ELEVATION": 0 }, "geometry": { "type": "MultiLineString", "coordinates": [ [ [ 770865.206720381742343, 8981803.747927773743868 ], [ 770925.206720374757424, 8981803.747927753254771 ] ] ] } },
{ "type": "Feature", "properties": { "LAYER": "Texk BM", "GM_TYPE": "Unknown Line Type", "ELEVATION": 0 }, "geometry": { "type": "MultiLineString", "coordinates": [ [ [ 770879.421893988503143, 8981741.052136184647679 ], [ 770939.42189399281051, 8981741.052136206999421 ] ] ] } },
{ "type": "Feature", "properties": { "LAYER": "Texk BM", "GM_TYPE": "Unknown Line Type", "ELEVATION": 0 }, "geometry": { "type": "MultiLineString", "coordinates": [ [ [ 770879.421893985942006, 8981749.052136184647679 ], [ 770939.421893993276171, 8981749.052136203274131 ] ] ] } },
{ "type": "Feature", "properties": { "LAYER": "Texk BM", "GM_TYPE": "Unknown Line Type", "ELEVATION": 0 }, "geometry": { "type": "MultiLineString", "coordinates": [ [ [ 770879.421893983031623, 8981757.05213619209826 ], [ 770939.421893986756913, 8981757.052136199548841 ] ] ] } },
{ "type": "Feature", "properties": { "LAYER": "Texk BM", "GM_TYPE": "Unknown Line Type", "ELEVATION": 0 }, "geometry": { "type": "MultiLineString", "coordinates": [ [ [ 772085.063831110252067, 8980620.502228105440736 ], [ 772145.063831113744527, 8980620.502228101715446 ] ] ] } },
{ "type": "Feature", "properties": { "LAYER": "Texk BM", "GM_TYPE": "Unknown Line Type", "ELEVATION": 0 }, "geometry": { "type": "MultiLineString", "coordinates": [ [ [ 772085.0638311074581, 8980612.502228116616607 ], [ 772145.063831111066975, 8980612.502228112891316 ] ] ] } },
{ "type": "Feature", "properties": { "LAYER": "Texk BM", "GM_TYPE": "Unknown Line Type", "ELEVATION": 0 }, "geometry": { "type": "MultiLineString", "coordinates": [ [ [ 772085.063831111881882, 8980604.502228116616607 ], [ 772145.063831105129793, 8980604.502228097990155 ] ] ] } },
{ "type": "Feature", "properties": { "LAYER": "Texk BM", "GM_TYPE": "Unknown Line Type", "ELEVATION": 0 }, "geometry": { "type": "MultiLineString", "coordinates": [ [ [ 772085.900774061796255, 8980640.615949653089046 ], [ 772145.900774065870792, 8980640.615949675440788 ] ] ] } },
{ "type": "Feature", "properties": { "LAYER": "Texk BM", "GM_TYPE": "Unknown Line Type", "ELEVATION": 0 }, "geometry": { "type": "MultiLineString", "coordinates": [ [ [ 772085.900774059002288, 8980648.615949653089046 ], [ 772145.900774066569284, 8980648.615949671715498 ] ] ] } },
{ "type": "Feature", "properties": { "LAYER": "Texk BM", "GM_TYPE": "Unknown Line Type", "ELEVATION": 0 }, "geometry": { "type": "MultiLineString", "coordinates": [ [ [ 772085.900774056324735, 8980656.615949660539627 ], [ 772145.900774060050026, 8980656.615949666127563 ] ] ] } },
{ "type": "Feature", "properties": { "LAYER": "Texk BM", "GM_TYPE": "Unknown Line Type", "ELEVATION": 0 }, "geometry": { "type": "MultiLineString", "coordinates": [ [ [ 772816.249102697474882, 8983416.535377815365791 ], [ 772876.249102701200172, 8983416.535377811640501 ] ] ] } },
{ "type": "Feature", "properties": { "LAYER": "Texk BM", "GM_TYPE": "Unknown Line Type", "ELEVATION": 0 }, "geometry": { "type": "MultiLineString", "coordinates": [ [ [ 772816.249102694680914, 8983408.535377826541662 ], [ 772876.249102698406205, 8983408.535377822816372 ] ] ] } },
{ "type": "Feature", "properties": { "LAYER": "Texk BM", "GM_TYPE": "Unknown Line Type", "ELEVATION": 0 }, "geometry": { "type": "MultiLineString", "coordinates": [ [ [ 772816.249102699453942, 8983400.535377826541662 ], [ 772876.249102692352608, 8983400.535377809777856 ] ] ] } },
{ "type": "Feature", "properties": { "LAYER": "Texk BM", "GM_TYPE": "Unknown Line Type", "ELEVATION": 0 }, "geometry": { "type": "MultiLineString", "coordinates": [ [ [ 772815.09447979379911, 8983456.464756963774562 ], [ 772875.094479797990061, 8983456.464756986126304 ] ] ] } },
{ "type": "Feature", "properties": { "LAYER": "Texk BM", "GM_TYPE": "Unknown Line Type", "ELEVATION": 0 }, "geometry": { "type": "MultiLineString", "coordinates": [ [ [ 772815.094479791005142, 8983464.464756965637207 ], [ 772875.094479798455723, 8983464.464756982401013 ] ] ] } },
{ "type": "Feature", "properties": { "LAYER": "Texk BM", "GM_TYPE": "Unknown Line Type", "ELEVATION": 0 }, "geometry": { "type": "MultiLineString", "coordinates": [ [ [ 772815.094479788211174, 8983472.464756971225142 ], [ 772875.09447979205288, 8983472.464756980538368 ] ] ] } },
{ "type": "Feature", "properties": { "LAYER": "Texk BM", "GM_TYPE": "Unknown Line Type", "ELEVATION": 0 }, "geometry": { "type": "MultiLineString", "coordinates": [ [ [ 775694.494035240146331, 8983330.478114880621433 ], [ 775754.494035243755206, 8983330.478114876896143 ] ] ] } },
{ "type": "Feature", "properties": { "LAYER": "Texk BM", "GM_TYPE": "Unknown Line Type", "ELEVATION": 0 }, "geometry": { "type": "MultiLineString", "coordinates": [ [ [ 775694.494035237352364, 8983322.478114891797304 ], [ 775754.494035240961239, 8983322.478114888072014 ] ] ] } },
{ "type": "Feature", "properties": { "LAYER": "Texk BM", "GM_TYPE": "Unknown Line Type", "ELEVATION": 0 }, "geometry": { "type": "MultiLineString", "coordinates": [ [ [ 775694.494035241776146, 8983314.478114891797304 ], [ 775754.494035234907642, 8983314.478114873170853 ] ] ] } },
{ "type": "Feature", "properties": { "LAYER": "Texk BM", "GM_TYPE": "Unknown Line Type", "ELEVATION": 0 }, "geometry": { "type": "MultiLineString", "coordinates": [ [ [ 775705.386482746107504, 8983419.163914864882827 ], [ 775765.38648275018204, 8983419.163914887234569 ] ] ] } },
{ "type": "Feature", "properties": { "LAYER": "Texk BM", "GM_TYPE": "Unknown Line Type", "ELEVATION": 0 }, "geometry": { "type": "MultiLineString", "coordinates": [ [ [ 775705.386482743197121, 8983427.163914866745472 ], [ 775765.386482750647701, 8983427.163914883509278 ] ] ] } },
{ "type": "Feature", "properties": { "LAYER": "Texk BM", "GM_TYPE": "Unknown Line Type", "ELEVATION": 0 }, "geometry": { "type": "MultiLineString", "coordinates": [ [ [ 775705.386482740403153, 8983435.163914872333407 ], [ 775765.386482744244859, 8983435.163914879783988 ] ] ] } },
{ "type": "Feature", "properties": { "LAYER": "Texk BM", "GM_TYPE": "Unknown Line Type", "ELEVATION": 0 }, "geometry": { "type": "MultiLineString", "coordinates": [ [ [ 775676.307754875975661, 8983359.037877161055803 ], [ 775688.0, 8983294.500000001862645 ], [ 775938.5, 8983294.500000001862645 ] ] ] } },
{ "type": "Feature", "properties": { "LAYER": "Texk BM", "GM_TYPE": "Unknown Line Type", "ELEVATION": 0 }, "geometry": { "type": "MultiLineString", "coordinates": [ [ [ 775667.336780027137138, 8983386.21274328045547 ], [ 775705.386482778587379, 8983443.163914881646633 ], [ 775826.5, 8983443.163914881646633 ] ] ] } }
]
}
