{
"type": "FeatureCollection",
"name": "09_oe_po_msalkwarter",
"crs": { "type": "name", "properties": { "name": "urn:ogc:def:crs:EPSG::32751" } },
"features": [
{ "type": "Feature", "properties": { "NAME": "T.1", "LAYER": "MSal Kwarter", "GM_TYPE": "Text", "ELEVATION": 0 }, "geometry": { "type": "Point", "coordinates": [ 774464.004309435957111, 8983441.058769717812538 ] } },
{ "type": "Feature", "properties": { "NAME": "T.2", "LAYER": "MSal Kwarter", "GM_TYPE": "Text", "ELEVATION": 23 }, "geometry": { "type": "Point", "coordinates": [ 774319.548139497870579, 8983577.557541595771909 ] } },
{ "type": "Feature", "properties": { "NAME": "T.1", "LAYER": "MSal Kwarter", "GM_TYPE": "Text", "ELEVATION": 0 }, "geometry": { "type": "Point", "coordinates": [ 777650.437204867252149, 8983006.221700150519609 ] } },
{ "type": "Feature", "properties": { "NAME": "T.2", "LAYER": "MSal Kwarter", "GM_TYPE": "Text", "ELEVATION": 0 }, "geometry": { "type": "Point", "coordinates": [ 777575.170473614241928, 8983008.223813638091087 ] } },
{ "type": "Feature", "properties": { "NAME": "T.1", "LAYER": "MSal Kwarter", "GM_TYPE": "Text", "ELEVATION": 0 }, "geometry": { "type": "Point", "coordinates": [ 777115.65705591882579, 8982508.897126454859972 ] } },
{ "type": "Feature", "properties": { "NAME": "T2", "LAYER": "MSal Kwarter", "GM_TYPE": "Text", "ELEVATION": 0 }, "geometry": { "type": "Point", "coordinates": [ 776552.959610666614026, 8982298.532939778640866 ] } },
{ "type": "Feature", "properties": { "NAME": "T.3", "LAYER": "MSal Kwarter", "GM_TYPE": "Text", "ELEVATION": 0 }, "geometry": { "type": "Point", "coordinates": [ 776213.037533187656663, 8981807.682639580219984 ] } },
{ "type": "Feature", "properties": { "NAME": "T.4", "LAYER": "MSal Kwarter", "GM_TYPE": "Text", "ELEVATION": 0 }, "geometry": { "type": "Point", "coordinates": [ 776168.395457744831219, 8981534.764870857819915 ] } },
{ "type": "Feature", "properties": { "NAME": "T.5", "LAYER": "MSal Kwarter", "GM_TYPE": "Text", "ELEVATION": 0 }, "geometry": { "type": "Point", "coordinates": [ 775931.370780630968511, 8981317.127532474696636 ] } },
{ "type": "Feature", "properties": { "NAME": "T.6", "LAYER": "MSal Kwarter", "GM_TYPE": "Text", "ELEVATION": 0 }, "geometry": { "type": "Point", "coordinates": [ 775923.139170482405461, 8981144.429016755893826 ] } },
{ "type": "Feature", "properties": { "NAME": "T.2", "LAYER": "MSal Kwarter", "GM_TYPE": "Text", "ELEVATION": 0 }, "geometry": { "type": "Point", "coordinates": [ 776216.455617772648111, 8981035.090961327776313 ] } },
{ "type": "Feature", "properties": { "NAME": "T.1", "LAYER": "MSal Kwarter", "GM_TYPE": "Text", "ELEVATION": 0 }, "geometry": { "type": "Point", "coordinates": [ 776656.931886217091233, 8981351.673227505758405 ] } },
{ "type": "Feature", "properties": { "NAME": "T.2", "LAYER": "MSal Kwarter", "GM_TYPE": "Text", "ELEVATION": 0 }, "geometry": { "type": "Point", "coordinates": [ 776686.142637305310927, 8981359.998207725584507 ] } },
{ "type": "Feature", "properties": { "NAME": "T.1", "LAYER": "MSal Kwarter", "GM_TYPE": "Text", "ELEVATION": 0 }, "geometry": { "type": "Point", "coordinates": [ 776698.824845205293968, 8981497.209150344133377 ] } },
{ "type": "Feature", "properties": { "NAME": "T.1", "LAYER": "MSal Kwarter", "GM_TYPE": "Text", "ELEVATION": 0 }, "geometry": { "type": "Point", "coordinates": [ 776648.797386004938744, 8980675.766768589615822 ] } },
{ "type": "Feature", "properties": { "NAME": "T.1", "LAYER": "MSal Kwarter", "GM_TYPE": "Text", "ELEVATION": 0 }, "geometry": { "type": "Point", "coordinates": [ 776631.8264473923482, 8980674.976377636194229 ] } },
{ "type": "Feature", "properties": { "NAME": "T.2", "LAYER": "MSal Kwarter", "GM_TYPE": "Text", "ELEVATION": 0 }, "geometry": { "type": "Point", "coordinates": [ 776617.070674892049283, 8980406.008387144654989 ] } },
{ "type": "Feature", "properties": { "NAME": "T.2", "LAYER": "MSal Kwarter", "GM_TYPE": "Text", "ELEVATION": 0 }, "geometry": { "type": "Point", "coordinates": [ 776589.445315520861186, 8980402.614317743107677 ] } },
{ "type": "Feature", "properties": { "NAME": "T.1", "LAYER": "MSal Kwarter", "GM_TYPE": "Text", "ELEVATION": 0 }, "geometry": { "type": "Point", "coordinates": [ 775222.052649183548056, 8981362.686822406947613 ] } },
{ "type": "Feature", "properties": { "NAME": "T.2", "LAYER": "MSal Kwarter", "GM_TYPE": "Text", "ELEVATION": 12 }, "geometry": { "type": "Point", "coordinates": [ 775210.969235660042614, 8981149.065451072528958 ] } },
{ "type": "Feature", "properties": { "NAME": "T.1", "LAYER": "MSal Kwarter", "GM_TYPE": "Text", "ELEVATION": 0 }, "geometry": { "type": "Point", "coordinates": [ 775179.092087074299343, 8980602.026999119669199 ] } },
{ "type": "Feature", "properties": { "NAME": "T.1", "LAYER": "MSal Kwarter", "GM_TYPE": "Text", "ELEVATION": 0 }, "geometry": { "type": "Point", "coordinates": [ 775207.625445683370344, 8980600.327822452411056 ] } },
{ "type": "Feature", "properties": { "NAME": "T.2", "LAYER": "MSal Kwarter", "GM_TYPE": "Text", "ELEVATION": 0 }, "geometry": { "type": "Point", "coordinates": [ 775156.551534337573685, 8980347.877535652369261 ] } },
{ "type": "Feature", "properties": { "NAME": "T.1", "LAYER": "MSal Kwarter", "GM_TYPE": "Text", "ELEVATION": 0 }, "geometry": { "type": "Point", "coordinates": [ 773388.335909206070937, 8983119.782451381906867 ] } },
{ "type": "Feature", "properties": { "NAME": "T.2", "LAYER": "MSal Kwarter", "GM_TYPE": "Text", "ELEVATION": 0 }, "geometry": { "type": "Point", "coordinates": [ 773492.010178706725128, 8982854.742166453972459 ] } },
{ "type": "Feature", "properties": { "NAME": "T.2", "LAYER": "MSal Kwarter", "GM_TYPE": "Text", "ELEVATION": 0 }, "geometry": { "type": "Point", "coordinates": [ 774677.689631817978807, 8982991.594466652721167 ] } },
{ "type": "Feature", "properties": { "NAME": "T.1", "LAYER": "MSal Kwarter", "GM_TYPE": "Text", "ELEVATION": 0 }, "geometry": { "type": "Point", "coordinates": [ 775369.57174624025356, 8982846.60600739531219 ] } },
{ "type": "Feature", "properties": { "NAME": "T.2", "LAYER": "MSal Kwarter", "GM_TYPE": "Text", "ELEVATION": 0 }, "geometry": { "type": "Point", "coordinates": [ 775376.840435247635469, 8982713.00627595372498 ] } },
{ "type": "Feature", "properties": { "NAME": "T.3", "LAYER": "MSal Kwarter", "GM_TYPE": "Text", "ELEVATION": 0 }, "geometry": { "type": "Point", "coordinates": [ 775354.624685682705604, 8982567.495626570656896 ] } },
{ "type": "Feature", "properties": { "NAME": "T.1", "LAYER": "MSal Kwarter", "GM_TYPE": "Text", "ELEVATION": 0 }, "geometry": { "type": "Point", "coordinates": [ 775268.981745919212699, 8982210.226214729249477 ] } },
{ "type": "Feature", "properties": { "NAME": "T.2", "LAYER": "MSal Kwarter", "GM_TYPE": "Text", "ELEVATION": 0 }, "geometry": { "type": "Point", "coordinates": [ 772855.727823294815607, 8981690.093580652028322 ] } },
{ "type": "Feature", "properties": { "NAME": "T.1", "LAYER": "MSal Kwarter", "GM_TYPE": "Text", "ELEVATION": 0 }, "geometry": { "type": "Point", "coordinates": [ 773100.041146330651827, 8982045.502051595598459 ] } },
{ "type": "Feature", "properties": { "NAME": "T.3", "LAYER": "MSal Kwarter", "GM_TYPE": "Text", "ELEVATION": 0 }, "geometry": { "type": "Point", "coordinates": [ 772801.712427294114605, 8981278.673336641862988 ] } },
{ "type": "Feature", "properties": { "NAME": "T.4", "LAYER": "MSal Kwarter", "GM_TYPE": "Text", "ELEVATION": 0 }, "geometry": { "type": "Point", "coordinates": [ 772791.055074720643461, 8981024.742260698229074 ] } },
{ "type": "Feature", "properties": { "NAME": "T.2", "LAYER": "MSal Kwarter", "GM_TYPE": "Text", "ELEVATION": 0 }, "geometry": { "type": "Point", "coordinates": [ 772935.688340168795548, 8982851.037543341517448 ] } },
{ "type": "Feature", "properties": { "NAME": "T.3", "LAYER": "MSal Kwarter", "GM_TYPE": "Text", "ELEVATION": 0 }, "geometry": { "type": "Point", "coordinates": [ 772891.134630652843043, 8982611.84127832390368 ] } },
{ "type": "Feature", "properties": { "NAME": "K.1", "LAYER": "MSal Kwarter", "GM_TYPE": "Text", "ELEVATION": -6 }, "geometry": { "type": "Point", "coordinates": [ 777675.366342958528548, 8983002.710638888180256 ] } },
{ "type": "Feature", "properties": { "NAME": "K.1", "LAYER": "MSal Kwarter", "GM_TYPE": "Text", "ELEVATION": 26 }, "geometry": { "type": "Point", "coordinates": [ 776676.545427879667841, 8981174.361493455246091 ] } },
{ "type": "Feature", "properties": { "NAME": "K.2", "LAYER": "MSal Kwarter", "GM_TYPE": "Text", "ELEVATION": 26 }, "geometry": { "type": "Point", "coordinates": [ 776667.599792236695066, 8981003.279301246628165 ] } },
{ "type": "Feature", "properties": { "NAME": "K.1", "LAYER": "MSal Kwarter", "GM_TYPE": "Text", "ELEVATION": 37 }, "geometry": { "type": "Point", "coordinates": [ 776911.185336539405398, 8980664.219818307086825 ] } },
{ "type": "Feature", "properties": { "NAME": "K.2", "LAYER": "MSal Kwarter", "GM_TYPE": "Text", "ELEVATION": 26 }, "geometry": { "type": "Point", "coordinates": [ 776583.845918482169509, 8980108.935126520693302 ] } },
{ "type": "Feature", "properties": { "NAME": "K.1", "LAYER": "MSal Kwarter", "GM_TYPE": "Text", "ELEVATION": 26 }, "geometry": { "type": "Point", "coordinates": [ 775196.732425547321327, 8980899.192773647606373 ] } },
{ "type": "Feature", "properties": { "NAME": "K.2", "LAYER": "MSal Kwarter", "GM_TYPE": "Text", "ELEVATION": 26 }, "geometry": { "type": "Point", "coordinates": [ 775129.382261392660439, 8980144.08559212833643 ] } },
{ "type": "Feature", "properties": { "NAME": "K.3", "LAYER": "MSal Kwarter", "GM_TYPE": "Text", "ELEVATION": 26 }, "geometry": { "type": "Point", "coordinates": [ 774851.319223590078764, 8980088.445495115593076 ] } },
{ "type": "Feature", "properties": { "NAME": "K.1", "LAYER": "MSal Kwarter", "GM_TYPE": "Text", "ELEVATION": 26 }, "geometry": { "type": "Point", "coordinates": [ 773159.537759341183119, 8980434.636963311582804 ] } },
{ "type": "Feature", "properties": { "NAME": "T.4", "LAYER": "MSal Kwarter", "GM_TYPE": "Text", "ELEVATION": 0 }, "geometry": { "type": "Point", "coordinates": [ 773256.399870779248886, 8980567.10390118509531 ] } },
{ "type": "Feature", "properties": { "NAME": "T.3", "LAYER": "MSal Kwarter", "GM_TYPE": "Text", "ELEVATION": 0 }, "geometry": { "type": "Point", "coordinates": [ 773351.257915971218608, 8980703.84366150945425 ] } },
{ "type": "Feature", "properties": { "NAME": "T.2", "LAYER": "MSal Kwarter", "GM_TYPE": "Text", "ELEVATION": 0 }, "geometry": { "type": "Point", "coordinates": [ 773531.401168084586971, 8980940.830124830827117 ] } },
{ "type": "Feature", "properties": { "NAME": "T.2", "LAYER": "MSal Kwarter", "GM_TYPE": "Text", "ELEVATION": 0 }, "geometry": { "type": "Point", "coordinates": [ 773776.09737584751565, 8980821.739561229944229 ] } },
{ "type": "Feature", "properties": { "NAME": "T.1", "LAYER": "MSal Kwarter", "GM_TYPE": "Text", "ELEVATION": 0 }, "geometry": { "type": "Point", "coordinates": [ 773781.006776898866519, 8981044.102780455723405 ] } },
{ "type": "Feature", "properties": { "NAME": "T.1", "LAYER": "MSal Kwarter", "GM_TYPE": "Text", "ELEVATION": 0 }, "geometry": { "type": "Point", "coordinates": [ 773798.094370879465714, 8981022.779457775875926 ] } },
{ "type": "Feature", "properties": { "NAME": "T.3", "LAYER": "MSal Kwarter", "GM_TYPE": "Text", "ELEVATION": 0 }, "geometry": { "type": "Point", "coordinates": [ 773760.520438024075702, 8980560.737934144213796 ] } },
{ "type": "Feature", "properties": { "NAME": "K.2", "LAYER": "MSal Kwarter", "GM_TYPE": "Text", "ELEVATION": 26 }, "geometry": { "type": "Point", "coordinates": [ 772767.12314254976809, 8980557.265862442553043 ] } },
{ "type": "Feature", "properties": { "NAME": "K.1", "LAYER": "MSal Kwarter", "GM_TYPE": "Text", "ELEVATION": 26 }, "geometry": { "type": "Point", "coordinates": [ 772776.685488009592518, 8980771.743839155882597 ] } },
{ "type": "Feature", "properties": { "NAME": "K.1", "LAYER": "MSal Kwarter", "GM_TYPE": "Text", "ELEVATION": 26 }, "geometry": { "type": "Point", "coordinates": [ 773693.335493405465968, 8980348.857382541522384 ] } },
{ "type": "Feature", "properties": { "NAME": "K.2", "LAYER": "MSal Kwarter", "GM_TYPE": "Text", "ELEVATION": 26 }, "geometry": { "type": "Point", "coordinates": [ 773631.752774769789539, 8980148.897100582718849 ] } },
{ "type": "Feature", "properties": { "NAME": "K.5", "LAYER": "MSal Kwarter", "GM_TYPE": "Text", "ELEVATION": 26 }, "geometry": { "type": "Point", "coordinates": [ 774063.397285430808552, 8981235.552072342485189 ] } },
{ "type": "Feature", "properties": { "NAME": "K.3", "LAYER": "MSal Kwarter", "GM_TYPE": "Text", "ELEVATION": 26 }, "geometry": { "type": "Point", "coordinates": [ 774168.997401865082793, 8981488.398664597421885 ] } },
{ "type": "Feature", "properties": { "NAME": "K.2", "LAYER": "MSal Kwarter", "GM_TYPE": "Text", "ELEVATION": 26 }, "geometry": { "type": "Point", "coordinates": [ 774104.829692316940054, 8981797.455025950446725 ] } },
{ "type": "Feature", "properties": { "NAME": "K.1", "LAYER": "MSal Kwarter", "GM_TYPE": "Text", "ELEVATION": 26 }, "geometry": { "type": "Point", "coordinates": [ 774024.526718899141997, 8982156.066594196483493 ] } },
{ "type": "Feature", "properties": { "NAME": "K.1", "LAYER": "MSal Kwarter", "GM_TYPE": "Text", "ELEVATION": 26 }, "geometry": { "type": "Point", "coordinates": [ 773622.391893175779842, 8982587.761468678712845 ] } },
{ "type": "Feature", "properties": { "NAME": "K.2", "LAYER": "MSal Kwarter", "GM_TYPE": "Text", "ELEVATION": 26 }, "geometry": { "type": "Point", "coordinates": [ 772855.127324812230654, 8982421.875402262434363 ] } },
{ "type": "Feature", "properties": { "NAME": "K.2", "LAYER": "MSal Kwarter", "GM_TYPE": "Text", "ELEVATION": 26 }, "geometry": { "type": "Point", "coordinates": [ 772846.224174766452052, 8982280.497309176251292 ] } },
{ "type": "Feature", "properties": { "NAME": "K.3", "LAYER": "MSal Kwarter", "GM_TYPE": "Text", "ELEVATION": 26 }, "geometry": { "type": "Point", "coordinates": [ 772838.585819916450419, 8982111.46746526658535 ] } },
{ "type": "Feature", "properties": { "NAME": "T.3", "LAYER": "MSal Kwarter", "GM_TYPE": "Text", "ELEVATION": 0 }, "geometry": { "type": "Point", "coordinates": [ 774711.084751298534684, 8982823.458949834108353 ] } },
{ "type": "Feature", "properties": { "NAME": "T.1", "LAYER": "MSal Kwarter", "GM_TYPE": "Text", "ELEVATION": 3 }, "geometry": { "type": "Point", "coordinates": [ 776841.300790777080692, 8983095.347555449232459 ] } },
{ "type": "Feature", "properties": { "NAME": "T.2", "LAYER": "MSal Kwarter", "GM_TYPE": "Text", "ELEVATION": 0 }, "geometry": { "type": "Point", "coordinates": [ 776577.476088975439779, 8983165.11327706463635 ] } },
{ "type": "Feature", "properties": { "NAME": "T.3", "LAYER": "MSal Kwarter", "GM_TYPE": "Text", "ELEVATION": 24 }, "geometry": { "type": "Point", "coordinates": [ 776343.926636634161696, 8983329.387131843715906 ] } },
{ "type": "Feature", "properties": { "NAME": "T.4", "LAYER": "MSal Kwarter", "GM_TYPE": "Text", "ELEVATION": 0 }, "geometry": { "type": "Point", "coordinates": [ 776054.081215710029937, 8983189.306146213784814 ] } },
{ "type": "Feature", "properties": { "NAME": "T.1", "LAYER": "MSal Kwarter", "GM_TYPE": "Text", "ELEVATION": 0 }, "geometry": { "type": "Point", "coordinates": [ 775421.908133083372377, 8982806.87591727077961 ] } },
{ "type": "Feature", "properties": { "NAME": "K.3", "LAYER": "MSal Kwarter", "GM_TYPE": "Text", "ELEVATION": 0 }, "geometry": { "type": "Point", "coordinates": [ 774746.490523907355964, 8982611.844835184514523 ] } },
{ "type": "Feature", "properties": { "NAME": "K.4", "LAYER": "MSal Kwarter", "GM_TYPE": "Text", "ELEVATION": 18 }, "geometry": { "type": "Point", "coordinates": [ 774781.082930054632016, 8982419.220829531550407 ] } },
{ "type": "Feature", "properties": { "NAME": "K.2", "LAYER": "MSal Kwarter", "GM_TYPE": "Text", "ELEVATION": 0 }, "geometry": { "type": "Point", "coordinates": [ 774841.873775432934053, 8982045.553338676691055 ] } },
{ "type": "Feature", "properties": { "NAME": "K.1", "LAYER": "MSal Kwarter", "GM_TYPE": "Text", "ELEVATION": 53 }, "geometry": { "type": "Point", "coordinates": [ 775859.86322477273643, 8983009.025489518418908 ] } },
{ "type": "Feature", "properties": { "NAME": "K.1", "LAYER": "MSal Kwarter", "GM_TYPE": "Text", "ELEVATION": 26 }, "geometry": { "type": "Point", "coordinates": [ 775794.35722161270678, 8982798.065344473347068 ] } },
{ "type": "Feature", "properties": { "NAME": "K.2", "LAYER": "MSal Kwarter", "GM_TYPE": "Text", "ELEVATION": 26 }, "geometry": { "type": "Point", "coordinates": [ 775754.366509917657822, 8982625.499401263892651 ] } },
{ "type": "Feature", "properties": { "NAME": "K.3", "LAYER": "MSal Kwarter", "GM_TYPE": "Text", "ELEVATION": 26 }, "geometry": { "type": "Point", "coordinates": [ 775700.454049523104914, 8982455.629317957907915 ] } },
{ "type": "Feature", "properties": { "NAME": "K.5", "LAYER": "MSal Kwarter", "GM_TYPE": "Text", "ELEVATION": 26 }, "geometry": { "type": "Point", "coordinates": [ 775644.703683715546504, 8982275.372215937823057 ] } },
{ "type": "Feature", "properties": { "NAME": "K.2", "LAYER": "MSal Kwarter", "GM_TYPE": "Text", "ELEVATION": 26 }, "geometry": { "type": "Point", "coordinates": [ 775432.530479974346235, 8982141.666373504325747 ] } },
{ "type": "Feature", "properties": { "NAME": "K.4", "LAYER": "MSal Kwarter", "GM_TYPE": "Text", "ELEVATION": 26 }, "geometry": { "type": "Point", "coordinates": [ 775326.205761899589561, 8982369.250613521784544 ] } },
{ "type": "Feature", "properties": { "NAME": "K.1", "LAYER": "MSal Kwarter", "GM_TYPE": "Text", "ELEVATION": 26 }, "geometry": { "type": "Point", "coordinates": [ 775347.905875846394338, 8982716.791807930916548 ] } },
{ "type": "Feature", "properties": { "NAME": "K.2", "LAYER": "MSal Kwarter", "GM_TYPE": "Text", "ELEVATION": 26 }, "geometry": { "type": "Point", "coordinates": [ 775324.756557991844602, 8982576.666147833690047 ] } },
{ "type": "Feature", "properties": { "NAME": "K.1", "LAYER": "MSal Kwarter", "GM_TYPE": "Text", "ELEVATION": 49 }, "geometry": { "type": "Point", "coordinates": [ 774150.672007418004796, 8983795.164265371859074 ] } },
{ "type": "Feature", "properties": { "NAME": "K.2", "LAYER": "MSal Kwarter", "GM_TYPE": "Text", "ELEVATION": 48 }, "geometry": { "type": "Point", "coordinates": [ 773887.683463843073696, 8983735.590251309797168 ] } },
{ "type": "Feature", "properties": { "NAME": "T.1", "LAYER": "MSal Kwarter", "GM_TYPE": "Text", "ELEVATION": 0 }, "geometry": { "type": "Point", "coordinates": [ 773363.037529896362685, 8983140.420477440580726 ] } },
{ "type": "Feature", "properties": { "NAME": "K.1", "LAYER": "MSal Kwarter", "GM_TYPE": "Text", "ELEVATION": 26 }, "geometry": { "type": "Point", "coordinates": [ 773285.554962473572232, 8982583.201314380392432 ] } },
{ "type": "Feature", "properties": { "NAME": "T.1", "LAYER": "MSal Kwarter", "GM_TYPE": "Text", "ELEVATION": 0 }, "geometry": { "type": "Point", "coordinates": [ 773706.743328841985203, 8982360.476732473820448 ] } },
{ "type": "Feature", "properties": { "NAME": "T.2", "LAYER": "MSal Kwarter", "GM_TYPE": "Text", "ELEVATION": 16 }, "geometry": { "type": "Point", "coordinates": [ 773850.189729280536994, 8982372.274137632921338 ] } },
{ "type": "Feature", "properties": { "NAME": "T.3", "LAYER": "MSal Kwarter", "GM_TYPE": "Text", "ELEVATION": 16 }, "geometry": { "type": "Point", "coordinates": [ 773843.107431613490917, 8982208.686036244034767 ] } },
{ "type": "Feature", "properties": { "NAME": "T.4", "LAYER": "MSal Kwarter", "GM_TYPE": "Text", "ELEVATION": 0 }, "geometry": { "type": "Point", "coordinates": [ 773831.132876309449784, 8981861.411040164530277 ] } },
{ "type": "Feature", "properties": { "NAME": "T.5", "LAYER": "MSal Kwarter", "GM_TYPE": "Text", "ELEVATION": 0 }, "geometry": { "type": "Point", "coordinates": [ 773818.869928332045674, 8981580.845884645357728 ] } },
{ "type": "Feature", "properties": { "NAME": "K.4", "LAYER": "MSal Kwarter", "GM_TYPE": "Text", "ELEVATION": 26 }, "geometry": { "type": "Point", "coordinates": [ 773811.48700007062871, 8981296.909570399671793 ] } },
{ "type": "Feature", "properties": { "NAME": "T.2", "LAYER": "MSal Kwarter", "GM_TYPE": "Text", "ELEVATION": 0 }, "geometry": { "type": "Point", "coordinates": [ 773802.137594976695254, 8982165.297986678779125 ] } },
{ "type": "Feature", "properties": { "NAME": "K.3", "LAYER": "MSal Kwarter", "GM_TYPE": "Text", "ELEVATION": 26 }, "geometry": { "type": "Point", "coordinates": [ 773794.290585434064269, 8981843.992975423112512 ] } },
{ "type": "Feature", "properties": { "NAME": "K.4", "LAYER": "MSal Kwarter", "GM_TYPE": "Text", "ELEVATION": 26 }, "geometry": { "type": "Point", "coordinates": [ 773785.465307724080049, 8981578.217965738847852 ] } },
{ "type": "Feature", "properties": { "NAME": "K.1", "LAYER": "MSal Kwarter", "GM_TYPE": "Text", "ELEVATION": 26 }, "geometry": { "type": "Point", "coordinates": [ 773550.812882194411941, 8981947.787549983710051 ] } },
{ "type": "Feature", "properties": { "NAME": "K.2", "LAYER": "MSal Kwarter", "GM_TYPE": "Text", "ELEVATION": 26 }, "geometry": { "type": "Point", "coordinates": [ 773231.589043269050308, 8981642.467793194577098 ] } },
{ "type": "Feature", "properties": { "NAME": "T.1", "LAYER": "MSal Kwarter", "GM_TYPE": "Text", "ELEVATION": 0 }, "geometry": { "type": "Point", "coordinates": [ 773724.180439400370233, 8982372.496369363740087 ] } },
{ "type": "Feature", "properties": { "NAME": "K.1", "LAYER": "MSal Kwarter", "GM_TYPE": "Text", "ELEVATION": 26 }, "geometry": { "type": "Point", "coordinates": [ 775908.340423017158173, 8980913.638453930616379 ] } },
{ "type": "Feature", "properties": { "NAME": "K.2", "LAYER": "MSal Kwarter", "GM_TYPE": "Text", "ELEVATION": 26 }, "geometry": { "type": "Point", "coordinates": [ 775897.696626259712502, 8980754.977492349222302 ] } },
{ "type": "Feature", "properties": { "NAME": "K.3", "LAYER": "MSal Kwarter", "GM_TYPE": "Text", "ELEVATION": 26 }, "geometry": { "type": "Point", "coordinates": [ 775892.944823421887122, 8980627.753793440759182 ] } },
{ "type": "Feature", "properties": { "NAME": "K.2", "LAYER": "MSal Kwarter", "GM_TYPE": "Text", "ELEVATION": 26 }, "geometry": { "type": "Point", "coordinates": [ 776727.907963827718049, 8982020.554782189428806 ] } },
{ "type": "Feature", "properties": { "NAME": "K.1", "LAYER": "MSal Kwarter", "GM_TYPE": "Text", "ELEVATION": 0 }, "geometry": { "type": "Point", "coordinates": [ 777136.178936693817377, 8982487.396325826644897 ] } },
{ "type": "Feature", "properties": { "NAME": "T.1", "LAYER": "MSal Kwarter", "GM_TYPE": "Text", "ELEVATION": 0 }, "geometry": { "type": "Point", "coordinates": [ 776697.269793106126599, 8982046.232400227338076 ] } },
{ "type": "Feature", "properties": { "NAME": "T.2", "LAYER": "MSal Kwarter", "GM_TYPE": "Text", "ELEVATION": 0 }, "geometry": { "type": "Point", "coordinates": [ 776591.317527174251154, 8981753.524757897481322 ] } },
{ "type": "Feature", "properties": { "NAME": "K.1", "LAYER": "MSal Kwarter", "GM_TYPE": "Text", "ELEVATION": 26 }, "geometry": { "type": "Point", "coordinates": [ 776578.821501484839246, 8981515.202215470373631 ] } },
{ "type": "Feature", "properties": { "NAME": "T.3", "LAYER": "MSal Kwarter", "GM_TYPE": "Text", "ELEVATION": 0 }, "geometry": { "type": "Point", "coordinates": [ 777100.819753103540279, 8981323.14775594137609 ] } },
{ "type": "Feature", "properties": { "NAME": "K.3", "LAYER": "MSal Kwarter", "GM_TYPE": "Text", "ELEVATION": 26 }, "geometry": { "type": "Point", "coordinates": [ 777093.156821535900235, 8981171.305751126259565 ] } },
{ "type": "Feature", "properties": { "NAME": "K.4", "LAYER": "MSal Kwarter", "GM_TYPE": "Text", "ELEVATION": 26 }, "geometry": { "type": "Point", "coordinates": [ 777083.653313279501162, 8980998.418517826125026 ] } },
{ "type": "Feature", "properties": { "NAME": "K.1", "LAYER": "MSal Kwarter", "GM_TYPE": "Text", "ELEVATION": 26 }, "geometry": { "type": "Point", "coordinates": [ 776359.7178022187436, 8980836.698365455493331 ] } },
{ "type": "Feature", "properties": { "NAME": "K.1", "LAYER": "MSal Kwarter", "GM_TYPE": "Text", "ELEVATION": 26 }, "geometry": { "type": "Point", "coordinates": [ 776558.137697760947049, 8980111.061356419697404 ] } },
{ "type": "Feature", "properties": { "NAME": "K.1", "LAYER": "MSal Kwarter", "GM_TYPE": "Text", "ELEVATION": 26 }, "geometry": { "type": "Point", "coordinates": [ 775303.89892289659474, 8982208.972526483237743 ] } },
{ "type": "Feature", "properties": { "NAME": "K.1", "LAYER": "MSal Kwarter", "GM_TYPE": "Text", "ELEVATION": 0 }, "geometry": { "type": "Point", "coordinates": [ 775247.191588111338206, 8982018.810268463566899 ] } },
{ "type": "Feature", "properties": { "NAME": "K.1", "LAYER": "MSal Kwarter", "GM_TYPE": "Text", "ELEVATION": 0 }, "geometry": { "type": "Point", "coordinates": [ 775234.499996869824827, 8981592.245557023212314 ] } },
{ "type": "Feature", "properties": { "NAME": "K.1", "LAYER": "MSal Kwarter", "GM_TYPE": "Text", "ELEVATION": 0 }, "geometry": { "type": "Point", "coordinates": [ 775249.718196604866534, 8981352.600526789203286 ] } },
{ "type": "Feature", "properties": { "NAME": "K.1", "LAYER": "MSal Kwarter", "GM_TYPE": "Text", "ELEVATION": 26 }, "geometry": { "type": "Point", "coordinates": [ 774909.908386096125469, 8980315.797863695770502 ] } },
{ "type": "Feature", "properties": { "NAME": "K.1", "LAYER": "MSal Kwarter", "GM_TYPE": "Text", "ELEVATION": 26 }, "geometry": { "type": "Point", "coordinates": [ 775383.483352125273086, 8980535.484569715335965 ] } },
{ "type": "Feature", "properties": { "NAME": "T.1", "LAYER": "MSal Kwarter", "GM_TYPE": "Text", "ELEVATION": 20 }, "geometry": { "type": "Point", "coordinates": [ 776760.954753089114092, 8982177.913822779431939 ] } },
{ "type": "Feature", "properties": { "NAME": "T.1", "LAYER": "MSal Kwarter", "GM_TYPE": "Text", "ELEVATION": 20 }, "geometry": { "type": "Point", "coordinates": [ 776769.475341496057808, 8982129.563792288303375 ] } },
{ "type": "Feature", "properties": { "NAME": "T.2", "LAYER": "MSal Kwarter", "GM_TYPE": "Text", "ELEVATION": 20 }, "geometry": { "type": "Point", "coordinates": [ 777054.718908114242367, 8981975.539692470803857 ] } },
{ "type": "Feature", "properties": { "NAME": "K.1", "LAYER": "MSal Kwarter", "GM_TYPE": "Text", "ELEVATION": 20 }, "geometry": { "type": "Point", "coordinates": [ 777274.544059815932997, 8981828.685354240238667 ] } },
{ "type": "Feature", "properties": { "NAME": "K.1", "LAYER": "MSal Kwarter", "GM_TYPE": "Text", "ELEVATION": 8 }, "geometry": { "type": "Point", "coordinates": [ 776861.3772799721919, 8982624.358098743483424 ] } },
{ "type": "Feature", "properties": { "NAME": "T.1", "LAYER": "MSal Kwarter", "GM_TYPE": "Text", "ELEVATION": 0 }, "geometry": { "type": "Point", "coordinates": [ 771067.704020116245374, 8981017.870700038969517 ] } },
{ "type": "Feature", "properties": { "NAME": "T.2", "LAYER": "MSal Kwarter", "GM_TYPE": "Text", "ELEVATION": 0 }, "geometry": { "type": "Point", "coordinates": [ 770896.698668303899467, 8980644.574442533776164 ] } },
{ "type": "Feature", "properties": { "NAME": "T.3", "LAYER": "MSal Kwarter", "GM_TYPE": "Text", "ELEVATION": 0 }, "geometry": { "type": "Point", "coordinates": [ 770870.420110385632142, 8980442.196246618404984 ] } },
{ "type": "Feature", "properties": { "NAME": "T.1", "LAYER": "MSal Kwarter", "GM_TYPE": "Text", "ELEVATION": 0 }, "geometry": { "type": "Point", "coordinates": [ 771265.958239982719533, 8980860.785391064360738 ] } },
{ "type": "Feature", "properties": { "NAME": "T.1", "LAYER": "MSal Kwarter", "GM_TYPE": "Text", "ELEVATION": 0 }, "geometry": { "type": "Point", "coordinates": [ 773859.181501973071136, 8983910.5608119238168 ] } },
{ "type": "Feature", "properties": { "NAME": "T.2", "LAYER": "MSal Kwarter", "GM_TYPE": "Text", "ELEVATION": 0 }, "geometry": { "type": "Point", "coordinates": [ 773343.01502098236233, 8983535.718230247497559 ] } }
]
}
