{
"type": "FeatureCollection",
"name": "09_oe_li_asesories",
"crs": { "type": "name", "properties": { "name": "urn:ogc:def:crs:EPSG::32751" } },
"features": [
{ "type": "Feature", "properties": { "LAYER": "06.Asesories", "GM_TYPE": "Unknown Line Type", "ELEVATION": 0 }, "geometry": { "type": "MultiLineString", "coordinates": [ [ [ 777838.47123904991895, 8983110.329673126339912 ], [ 777986.584578372654505, 8982954.094275042414665 ] ] ] } },
{ "type": "Feature", "properties": { "LAYER": "06.Asesories", "GM_TYPE": "Unknown Line Type", "ELEVATION": 0 }, "geometry": { "type": "MultiLineString", "coordinates": [ [ [ 777793.010452407412231, 8983087.634691521525383 ], [ 777793.08234138507396, 8983086.229733953252435 ], [ 777797.033891845378093, 8983083.453250816091895 ], [ 777799.275082510896027, 8983083.62147693708539 ] ] ] } },
{ "type": "Feature", "properties": { "LAYER": "06.Asesories", "GM_TYPE": "Unknown Line Type", "ELEVATION": 0 }, "geometry": { "type": "MultiLineString", "coordinates": [ [ [ 777790.028663326986134, 8983083.413339896127582 ], [ 777791.36900387564674, 8983083.840611480176449 ], [ 777795.35876750445459, 8983081.11932578496635 ], [ 777795.990230472409166, 8983078.962362609803677 ] ] ] } },
{ "type": "Feature", "properties": { "LAYER": "06.Asesories", "GM_TYPE": "Unknown Line Type", "ELEVATION": 0 }, "geometry": { "type": "MultiLineString", "coordinates": [ [ [ 777784.010452407412231, 8983098.634691521525383 ], [ 777784.08234138507396, 8983097.22973395511508 ], [ 777788.033891845610924, 8983094.453250816091895 ], [ 777790.275082510896027, 8983094.62147693708539 ] ] ] } },
{ "type": "Feature", "properties": { "LAYER": "06.Asesories", "GM_TYPE": "Unknown Line Type", "ELEVATION": 0 }, "geometry": { "type": "MultiLineString", "coordinates": [ [ [ 777781.028663326986134, 8983094.413339896127582 ], [ 777782.36900387564674, 8983094.840611480176449 ], [ 777786.35876750445459, 8983092.11932578496635 ], [ 777786.990230472409166, 8983089.962362609803677 ] ] ] } },
{ "type": "Feature", "properties": { "LAYER": "06.Asesories", "GM_TYPE": "Unknown Line Type", "ELEVATION": 0 }, "geometry": { "type": "MultiLineString", "coordinates": [ [ [ 772902.199780060676858, 8984185.329181874170899 ], [ 772872.191272089956328, 8984207.436717305332422 ], [ 772883.508044627029449, 8984197.145283965393901 ] ] ] } },
{ "type": "Feature", "properties": { "LAYER": "06.Asesories", "GM_TYPE": "Unknown Line Type", "ELEVATION": 0 }, "geometry": { "type": "MultiLineString", "coordinates": [ [ [ 772930.215082614216954, 8983282.010285260155797 ], [ 772930.215082614216954, 8983291.022750660777092 ], [ 772946.993130160379224, 8983291.022750660777092 ], [ 772946.993130160379224, 8983268.833481259644032 ], [ 772930.215082614216954, 8983268.833481259644032 ], [ 772930.215082614216954, 8983276.938351634889841 ] ] ] } },
{ "type": "Feature", "properties": { "LAYER": "06.Asesories", "GM_TYPE": "Unknown Line Type", "ELEVATION": 0 }, "geometry": { "type": "MultiLineString", "coordinates": [ [ [ 772930.215082614216954, 8983276.938351634889841 ], [ 772921.64673631999176, 8983276.938351634889841 ], [ 772921.64673631999176, 8983282.010285260155797 ], [ 772930.215082614216954, 8983282.010285260155797 ] ] ] } },
{ "type": "Feature", "properties": { "LAYER": "06.Asesories", "GM_TYPE": "Unknown Line Type", "ELEVATION": 0 }, "geometry": { "type": "MultiLineString", "coordinates": [ [ [ 772857.456077301991172, 8982620.331580515950918 ], [ 772858.497703354340047, 8982621.48177876137197 ], [ 772858.716998238349333, 8982633.148077432066202 ], [ 772857.510892807273194, 8982634.079192480072379 ] ] ] } },
{ "type": "Feature", "properties": { "LAYER": "06.Asesories", "GM_TYPE": "Unknown Line Type", "ELEVATION": 0 }, "geometry": { "type": "MultiLineString", "coordinates": [ [ [ 772861.085859560058452, 8982620.279603557661176 ], [ 772860.113691653474234, 8982621.489078814163804 ], [ 772860.580988321918994, 8982633.148077432066202 ], [ 772861.839773708372377, 8982634.006637211889029 ] ] ] } },
{ "type": "Feature", "properties": { "LAYER": "06.Asesories", "GM_TYPE": "Unknown Line Type", "ELEVATION": 0 }, "geometry": { "type": "MultiLineString", "coordinates": [ [ [ 772849.187874744413421, 8982626.534468099474907 ], [ 772850.747027521720156, 8982628.118138862773776 ], [ 772850.956759269000031, 8982634.758856469765306 ], [ 772849.847041054163128, 8982636.060619493946433 ] ] ] } },
{ "type": "Feature", "properties": { "LAYER": "06.Asesories", "GM_TYPE": "Unknown Line Type", "ELEVATION": 0 }, "geometry": { "type": "MultiLineString", "coordinates": [ [ [ 772858.578462792560458, 8982626.442358216270804 ], [ 772857.115194567362778, 8982628.115025717765093 ], [ 772857.296566088451073, 8982634.756578406319022 ], [ 772858.480957383755594, 8982635.990790199488401 ] ] ] } },
{ "type": "Feature", "properties": { "LAYER": "06.Asesories", "GM_TYPE": "Unknown Line Type", "ELEVATION": 0 }, "geometry": { "type": "MultiLineString", "coordinates": [ [ [ 772868.504786505945958, 8983029.366695620119572 ], [ 772870.063939283136278, 8983030.950366383418441 ], [ 772870.273671030532569, 8983037.591083992272615 ], [ 772869.163952815695666, 8983038.892847016453743 ] ] ] } },
{ "type": "Feature", "properties": { "LAYER": "06.Asesories", "GM_TYPE": "Unknown Line Type", "ELEVATION": 0 }, "geometry": { "type": "MultiLineString", "coordinates": [ [ [ 772877.895374553860165, 8983029.274585738778114 ], [ 772876.432106328662485, 8983030.947253238409758 ], [ 772876.613477849867195, 8983037.588805928826332 ], [ 772877.797869145055301, 8983038.823017721995711 ] ] ] } },
{ "type": "Feature", "properties": { "LAYER": "06.Asesories", "GM_TYPE": "Unknown Line Type", "ELEVATION": 0 }, "geometry": { "type": "MultiLineString", "coordinates": [ [ [ 772881.046988187474199, 8983034.773092174902558 ], [ 772881.877075026743114, 8983033.7715078368783 ], [ 772886.804752337629907, 8983033.402281787246466 ], [ 772888.467817961121909, 8983034.448435008525848 ] ] ] } },
{ "type": "Feature", "properties": { "LAYER": "06.Asesories", "GM_TYPE": "Unknown Line Type", "ELEVATION": 0 }, "geometry": { "type": "MultiLineString", "coordinates": [ [ [ 772881.172368940198794, 8983030.887541839852929 ], [ 772882.128929480793886, 8983031.769135441631079 ], [ 772887.061726071406156, 8983031.476134834811091 ], [ 772888.569969023345038, 8983030.216997422277927 ] ] ] } },
{ "type": "Feature", "properties": { "LAYER": "06.Asesories", "GM_TYPE": "Unknown Line Type", "ELEVATION": 0 }, "geometry": { "type": "MultiLineString", "coordinates": [ [ [ 772889.622952859383076, 8983474.841206654906273 ], [ 772891.182105636573397, 8983476.424877418205142 ], [ 772891.391837383969687, 8983483.065595025196671 ], [ 772890.282119169249199, 8983484.367358049377799 ] ] ] } },
{ "type": "Feature", "properties": { "LAYER": "06.Asesories", "GM_TYPE": "Unknown Line Type", "ELEVATION": 0 }, "geometry": { "type": "MultiLineString", "coordinates": [ [ [ 772899.013540907646529, 8983474.74909677170217 ], [ 772897.550272682448849, 8983476.421764271333814 ], [ 772897.731644203304313, 8983483.063316961750388 ], [ 772898.916035498608835, 8983484.297528756782413 ] ] ] } },
{ "type": "Feature", "properties": { "LAYER": "06.Asesories", "GM_TYPE": "Unknown Line Type", "ELEVATION": 0 }, "geometry": { "type": "MultiLineString", "coordinates": [ [ [ 772093.511454998748377, 8982156.857726529240608 ], [ 772093.505892881657928, 8982160.021916093304753 ] ] ] } },
{ "type": "Feature", "properties": { "LAYER": "06.Asesories", "GM_TYPE": "Unknown Line Type", "ELEVATION": 0 }, "geometry": { "type": "MultiLineString", "coordinates": [ [ [ 772093.4872591199819, 8982170.622331596910954 ], [ 772093.484109874465503, 8982172.413881372660398 ] ] ] } },
{ "type": "Feature", "properties": { "LAYER": "06.Asesories", "GM_TYPE": "Unknown Line Type", "ELEVATION": 0 }, "geometry": { "type": "MultiLineString", "coordinates": [ [ [ 771960.723569828551263, 8982110.344337824732065 ], [ 771959.682093890849501, 8982113.332222430035472 ] ] ] } },
{ "type": "Feature", "properties": { "LAYER": "06.Asesories", "GM_TYPE": "Unknown Line Type", "ELEVATION": 0 }, "geometry": { "type": "MultiLineString", "coordinates": [ [ [ 771956.19302427303046, 8982123.341995118185878 ], [ 771955.603345322888345, 8982125.033721821382642 ] ] ] } },
{ "type": "Feature", "properties": { "LAYER": "06.Asesories", "GM_TYPE": "Unknown Line Type", "ELEVATION": 0 }, "geometry": { "type": "MultiLineString", "coordinates": [ [ [ 771780.198884479585104, 8982047.920220354571939 ], [ 771779.909868490300141, 8982051.071187872439623 ] ] ] } },
{ "type": "Feature", "properties": { "LAYER": "06.Asesories", "GM_TYPE": "Unknown Line Type", "ELEVATION": 0 }, "geometry": { "type": "MultiLineString", "coordinates": [ [ [ 771778.941630174405873, 8982061.627307927235961 ], [ 771778.777990632690489, 8982063.411371437832713 ] ] ] } },
{ "type": "Feature", "properties": { "LAYER": "06.Asesories", "GM_TYPE": "Unknown Line Type", "ELEVATION": 0 }, "geometry": { "type": "MultiLineString", "coordinates": [ [ [ 771730.260470340028405, 8982031.202951768413186 ], [ 771729.175617811270058, 8982034.175361821427941 ] ] ] } },
{ "type": "Feature", "properties": { "LAYER": "06.Asesories", "GM_TYPE": "Unknown Line Type", "ELEVATION": 0 }, "geometry": { "type": "MultiLineString", "coordinates": [ [ [ 771725.541231396608055, 8982044.133292902261019 ], [ 771724.926992816850543, 8982045.816257990896702 ] ] ] } },
{ "type": "Feature", "properties": { "LAYER": "06.Asesories", "GM_TYPE": "Unknown Line Type", "ELEVATION": 0 }, "geometry": { "type": "MultiLineString", "coordinates": [ [ [ 771612.337950540822931, 8981989.957628330215812 ], [ 771612.332388423732482, 8981993.121817892417312 ] ] ] } },
{ "type": "Feature", "properties": { "LAYER": "06.Asesories", "GM_TYPE": "Unknown Line Type", "ELEVATION": 0 }, "geometry": { "type": "MultiLineString", "coordinates": [ [ [ 771612.313754662056454, 8982003.722233399748802 ], [ 771612.310605416656472, 8982005.513783171772957 ] ] ] } },
{ "type": "Feature", "properties": { "LAYER": "06.Asesories", "GM_TYPE": "Unknown Line Type", "ELEVATION": 0 }, "geometry": { "type": "MultiLineString", "coordinates": [ [ [ 771444.495371601544321, 8981931.14997186884284 ], [ 771443.450551674235612, 8981934.136688770726323 ] ] ] } },
{ "type": "Feature", "properties": { "LAYER": "06.Asesories", "GM_TYPE": "Unknown Line Type", "ELEVATION": 0 }, "geometry": { "type": "MultiLineString", "coordinates": [ [ [ 771439.950279288110323, 8981944.142549518495798 ], [ 771439.358706985716708, 8981945.833615077659488 ] ] ] } },
{ "type": "Feature", "properties": { "LAYER": "06.Asesories", "GM_TYPE": "Unknown Line Type", "ELEVATION": 0 }, "geometry": { "type": "MultiLineString", "coordinates": [ [ [ 771395.892437211354263, 8981915.240767499431968 ], [ 771394.879008955904283, 8981918.238281421363354 ] ] ] } },
{ "type": "Feature", "properties": { "LAYER": "06.Asesories", "GM_TYPE": "Unknown Line Type", "ELEVATION": 0 }, "geometry": { "type": "MultiLineString", "coordinates": [ [ [ 771391.483902444597334, 8981928.280313476920128 ], [ 771390.910103965085, 8981929.97749225795269 ] ] ] } },
{ "type": "Feature", "properties": { "LAYER": "06.Asesories", "GM_TYPE": "Unknown Line Type", "ELEVATION": 0 }, "geometry": { "type": "MultiLineString", "coordinates": [ [ [ 771123.984868429251947, 8981819.991824319586158 ], [ 771122.918905917089432, 8981822.971060877665877 ] ] ] } },
{ "type": "Feature", "properties": { "LAYER": "06.Asesories", "GM_TYPE": "Unknown Line Type", "ELEVATION": 0 }, "geometry": { "type": "MultiLineString", "coordinates": [ [ [ 771119.347803330630995, 8981832.951861564069986 ], [ 771118.744260192848742, 8981834.638691782951355 ] ] ] } },
{ "type": "Feature", "properties": { "LAYER": "06.Asesories", "GM_TYPE": "Unknown Line Type", "ELEVATION": 0 }, "geometry": { "type": "MultiLineString", "coordinates": [ [ [ 772913.224898053333163, 8983683.872469071298838 ], [ 772910.063681012019515, 8983684.009703716263175 ] ] ] } },
{ "type": "Feature", "properties": { "LAYER": "06.Asesories", "GM_TYPE": "Unknown Line Type", "ELEVATION": 0 }, "geometry": { "type": "MultiLineString", "coordinates": [ [ [ 772899.473223812878132, 8983684.469456274062395 ], [ 772897.683357067406178, 8983684.547157907858491 ] ] ] } }
]
}
