{
"type": "FeatureCollection",
"name": "09_oe_li_1",
"crs": { "type": "name", "properties": { "name": "urn:ogc:def:crs:EPSG::32751" } },
"features": [
{ "type": "Feature", "properties": { "LAYER": "1", "GM_TYPE": "Unknown Line Type", "ELEVATION": 0 }, "geometry": { "type": "MultiLineString", "coordinates": [ [ [ 776833.66980687819887, 8982818.231205666437745 ], [ 777208.66980687819887, 8982818.231205666437745 ] ] ] } },
{ "type": "Feature", "properties": { "LAYER": "1", "GM_TYPE": "Unknown Line Type", "ELEVATION": 0 }, "geometry": { "type": "MultiLineString", "coordinates": [ [ [ 776833.66980687819887, 8982743.231205666437745 ], [ 777208.66980687819887, 8982743.231205666437745 ] ] ] } },
{ "type": "Feature", "properties": { "LAYER": "1", "GM_TYPE": "Unknown Line Type", "ELEVATION": 0 }, "geometry": { "type": "MultiLineString", "coordinates": [ [ [ 776833.66980687819887, 8982893.231205666437745 ], [ 777208.66980687819887, 8982893.231205666437745 ] ] ] } },
{ "type": "Feature", "properties": { "LAYER": "1", "GM_TYPE": "Unknown Line Type", "ELEVATION": 0 }, "geometry": { "type": "MultiLineString", "coordinates": [ [ [ 776833.66980687819887, 8982893.231205666437745 ], [ 776833.66980687819887, 8982743.231205666437745 ] ] ] } },
{ "type": "Feature", "properties": { "LAYER": "1", "GM_TYPE": "Unknown Line Type", "ELEVATION": 0 }, "geometry": { "type": "MultiLineString", "coordinates": [ [ [ 777208.66980687819887, 8982893.231205666437745 ], [ 777208.66980687819887, 8982743.231205666437745 ] ] ] } },
{ "type": "Feature", "properties": { "LAYER": "1", "GM_TYPE": "Unknown Line Type", "ELEVATION": 0 }, "geometry": { "type": "MultiLineString", "coordinates": [ [ [ 777021.16980687819887, 8982818.231205666437745 ], [ 777021.16980687819887, 8982743.231205666437745 ] ] ] } },
{ "type": "Feature", "properties": { "LAYER": "1", "GM_TYPE": "Unknown Line Type", "ELEVATION": 0 }, "geometry": { "type": "MultiLineString", "coordinates": [ [ [ 777290.598318074364215, 8982639.968060001730919 ], [ 777665.598318074364215, 8982639.968060001730919 ] ] ] } },
{ "type": "Feature", "properties": { "LAYER": "1", "GM_TYPE": "Unknown Line Type", "ELEVATION": 0 }, "geometry": { "type": "MultiLineString", "coordinates": [ [ [ 777290.598318074364215, 8982564.968060001730919 ], [ 777665.598318074364215, 8982564.968060001730919 ] ] ] } },
{ "type": "Feature", "properties": { "LAYER": "1", "GM_TYPE": "Unknown Line Type", "ELEVATION": 0 }, "geometry": { "type": "MultiLineString", "coordinates": [ [ [ 777290.598318074364215, 8982714.968060001730919 ], [ 777665.598318074364215, 8982714.968060001730919 ] ] ] } },
{ "type": "Feature", "properties": { "LAYER": "1", "GM_TYPE": "Unknown Line Type", "ELEVATION": 0 }, "geometry": { "type": "MultiLineString", "coordinates": [ [ [ 777290.598318074364215, 8982714.968060001730919 ], [ 777290.598318074364215, 8982564.968060001730919 ] ] ] } },
{ "type": "Feature", "properties": { "LAYER": "1", "GM_TYPE": "Unknown Line Type", "ELEVATION": 0 }, "geometry": { "type": "MultiLineString", "coordinates": [ [ [ 777665.598318074364215, 8982714.968060001730919 ], [ 777665.598318074364215, 8982564.968060001730919 ] ] ] } },
{ "type": "Feature", "properties": { "LAYER": "1", "GM_TYPE": "Unknown Line Type", "ELEVATION": 0 }, "geometry": { "type": "MultiLineString", "coordinates": [ [ [ 777478.098318074364215, 8982639.968060001730919 ], [ 777478.098318074364215, 8982564.968060001730919 ] ] ] } },
{ "type": "Feature", "properties": { "LAYER": "1", "GM_TYPE": "Unknown Line Type", "ELEVATION": 0 }, "geometry": { "type": "MultiLineString", "coordinates": [ [ [ 776106.768020393326879, 8982997.293430596590042 ], [ 776481.768020393326879, 8982997.293430596590042 ] ] ] } },
{ "type": "Feature", "properties": { "LAYER": "1", "GM_TYPE": "Unknown Line Type", "ELEVATION": 0 }, "geometry": { "type": "MultiLineString", "coordinates": [ [ [ 776106.768020393326879, 8982922.293430596590042 ], [ 776481.768020393326879, 8982922.293430596590042 ] ] ] } },
{ "type": "Feature", "properties": { "LAYER": "1", "GM_TYPE": "Unknown Line Type", "ELEVATION": 0 }, "geometry": { "type": "MultiLineString", "coordinates": [ [ [ 776106.768020393326879, 8983072.293430596590042 ], [ 776481.768020393326879, 8983072.293430596590042 ] ] ] } },
{ "type": "Feature", "properties": { "LAYER": "1", "GM_TYPE": "Unknown Line Type", "ELEVATION": 0 }, "geometry": { "type": "MultiLineString", "coordinates": [ [ [ 776106.768020393326879, 8983072.293430596590042 ], [ 776106.768020393326879, 8982922.293430596590042 ] ] ] } },
{ "type": "Feature", "properties": { "LAYER": "1", "GM_TYPE": "Unknown Line Type", "ELEVATION": 0 }, "geometry": { "type": "MultiLineString", "coordinates": [ [ [ 776481.768020393326879, 8983072.293430596590042 ], [ 776481.768020393326879, 8982922.293430596590042 ] ] ] } },
{ "type": "Feature", "properties": { "LAYER": "1", "GM_TYPE": "Unknown Line Type", "ELEVATION": 0 }, "geometry": { "type": "MultiLineString", "coordinates": [ [ [ 776294.268020393326879, 8982997.293430596590042 ], [ 776294.268020393326879, 8982922.293430596590042 ] ] ] } },
{ "type": "Feature", "properties": { "LAYER": "1", "GM_TYPE": "Unknown Line Type", "ELEVATION": 0 }, "geometry": { "type": "MultiLineString", "coordinates": [ [ [ 775593.162464767810889, 8982446.695741757750511 ], [ 775968.162464767810889, 8982446.695741757750511 ] ] ] } },
{ "type": "Feature", "properties": { "LAYER": "1", "GM_TYPE": "Unknown Line Type", "ELEVATION": 0 }, "geometry": { "type": "MultiLineString", "coordinates": [ [ [ 775593.162464767810889, 8982371.695741757750511 ], [ 775968.162464767810889, 8982371.695741757750511 ] ] ] } },
{ "type": "Feature", "properties": { "LAYER": "1", "GM_TYPE": "Unknown Line Type", "ELEVATION": 0 }, "geometry": { "type": "MultiLineString", "coordinates": [ [ [ 775593.162464767810889, 8982521.695741757750511 ], [ 775968.162464767810889, 8982521.695741757750511 ] ] ] } },
{ "type": "Feature", "properties": { "LAYER": "1", "GM_TYPE": "Unknown Line Type", "ELEVATION": 0 }, "geometry": { "type": "MultiLineString", "coordinates": [ [ [ 775593.162464767810889, 8982521.695741757750511 ], [ 775593.162464767810889, 8982371.695741757750511 ] ] ] } },
{ "type": "Feature", "properties": { "LAYER": "1", "GM_TYPE": "Unknown Line Type", "ELEVATION": 0 }, "geometry": { "type": "MultiLineString", "coordinates": [ [ [ 775968.162464767810889, 8982521.695741757750511 ], [ 775968.162464767810889, 8982371.695741757750511 ] ] ] } },
{ "type": "Feature", "properties": { "LAYER": "1", "GM_TYPE": "Unknown Line Type", "ELEVATION": 0 }, "geometry": { "type": "MultiLineString", "coordinates": [ [ [ 775780.662464767810889, 8982446.695741757750511 ], [ 775780.662464767810889, 8982371.695741757750511 ] ] ] } },
{ "type": "Feature", "properties": { "LAYER": "1", "GM_TYPE": "Unknown Line Type", "ELEVATION": 0 }, "geometry": { "type": "MultiLineString", "coordinates": [ [ [ 774657.914600564050488, 8982431.835268050432205 ], [ 775032.914600564050488, 8982431.835268050432205 ] ] ] } },
{ "type": "Feature", "properties": { "LAYER": "1", "GM_TYPE": "Unknown Line Type", "ELEVATION": 0 }, "geometry": { "type": "MultiLineString", "coordinates": [ [ [ 774657.914600564050488, 8982356.835268050432205 ], [ 775032.914600564050488, 8982356.835268050432205 ] ] ] } },
{ "type": "Feature", "properties": { "LAYER": "1", "GM_TYPE": "Unknown Line Type", "ELEVATION": 0 }, "geometry": { "type": "MultiLineString", "coordinates": [ [ [ 774657.914600564050488, 8982506.835268050432205 ], [ 775032.914600564050488, 8982506.835268050432205 ] ] ] } },
{ "type": "Feature", "properties": { "LAYER": "1", "GM_TYPE": "Unknown Line Type", "ELEVATION": 0 }, "geometry": { "type": "MultiLineString", "coordinates": [ [ [ 774657.914600564050488, 8982506.835268050432205 ], [ 774657.914600564050488, 8982356.835268050432205 ] ] ] } },
{ "type": "Feature", "properties": { "LAYER": "1", "GM_TYPE": "Unknown Line Type", "ELEVATION": 0 }, "geometry": { "type": "MultiLineString", "coordinates": [ [ [ 775032.914600564050488, 8982506.835268050432205 ], [ 775032.914600564050488, 8982356.835268050432205 ] ] ] } },
{ "type": "Feature", "properties": { "LAYER": "1", "GM_TYPE": "Unknown Line Type", "ELEVATION": 0 }, "geometry": { "type": "MultiLineString", "coordinates": [ [ [ 774845.414600564050488, 8982431.835268050432205 ], [ 774845.414600564050488, 8982356.835268050432205 ] ] ] } },
{ "type": "Feature", "properties": { "LAYER": "1", "GM_TYPE": "Unknown Line Type", "ELEVATION": 0 }, "geometry": { "type": "MultiLineString", "coordinates": [ [ [ 773927.139489624649286, 8981930.780694529414177 ], [ 774302.139489624649286, 8981930.780694529414177 ] ] ] } },
{ "type": "Feature", "properties": { "LAYER": "1", "GM_TYPE": "Unknown Line Type", "ELEVATION": 0 }, "geometry": { "type": "MultiLineString", "coordinates": [ [ [ 773927.139489624649286, 8981855.780694529414177 ], [ 774302.139489624649286, 8981855.780694529414177 ] ] ] } },
{ "type": "Feature", "properties": { "LAYER": "1", "GM_TYPE": "Unknown Line Type", "ELEVATION": 0 }, "geometry": { "type": "MultiLineString", "coordinates": [ [ [ 773927.139489624649286, 8982005.780694529414177 ], [ 774302.139489624649286, 8982005.780694529414177 ] ] ] } },
{ "type": "Feature", "properties": { "LAYER": "1", "GM_TYPE": "Unknown Line Type", "ELEVATION": 0 }, "geometry": { "type": "MultiLineString", "coordinates": [ [ [ 773927.139489624649286, 8982005.780694529414177 ], [ 773927.139489624649286, 8981855.780694529414177 ] ] ] } },
{ "type": "Feature", "properties": { "LAYER": "1", "GM_TYPE": "Unknown Line Type", "ELEVATION": 0 }, "geometry": { "type": "MultiLineString", "coordinates": [ [ [ 774302.139489624649286, 8982005.780694529414177 ], [ 774302.139489624649286, 8981855.780694529414177 ] ] ] } },
{ "type": "Feature", "properties": { "LAYER": "1", "GM_TYPE": "Unknown Line Type", "ELEVATION": 0 }, "geometry": { "type": "MultiLineString", "coordinates": [ [ [ 774114.639489624649286, 8981930.780694529414177 ], [ 774114.639489624649286, 8981855.780694529414177 ] ] ] } },
{ "type": "Feature", "properties": { "LAYER": "1", "GM_TYPE": "Unknown Line Type", "ELEVATION": 0 }, "geometry": { "type": "MultiLineString", "coordinates": [ [ [ 773299.474225698155351, 8981648.293759167194366 ], [ 773674.474225698155351, 8981648.293759167194366 ] ] ] } },
{ "type": "Feature", "properties": { "LAYER": "1", "GM_TYPE": "Unknown Line Type", "ELEVATION": 0 }, "geometry": { "type": "MultiLineString", "coordinates": [ [ [ 773299.474225698155351, 8981573.293759167194366 ], [ 773674.474225698155351, 8981573.293759167194366 ] ] ] } },
{ "type": "Feature", "properties": { "LAYER": "1", "GM_TYPE": "Unknown Line Type", "ELEVATION": 0 }, "geometry": { "type": "MultiLineString", "coordinates": [ [ [ 773299.474225698155351, 8981723.293759167194366 ], [ 773674.474225698155351, 8981723.293759167194366 ] ] ] } },
{ "type": "Feature", "properties": { "LAYER": "1", "GM_TYPE": "Unknown Line Type", "ELEVATION": 0 }, "geometry": { "type": "MultiLineString", "coordinates": [ [ [ 773299.474225698155351, 8981723.293759167194366 ], [ 773299.474225698155351, 8981573.293759167194366 ] ] ] } },
{ "type": "Feature", "properties": { "LAYER": "1", "GM_TYPE": "Unknown Line Type", "ELEVATION": 0 }, "geometry": { "type": "MultiLineString", "coordinates": [ [ [ 773674.474225698155351, 8981723.293759167194366 ], [ 773674.474225698155351, 8981573.293759167194366 ] ] ] } },
{ "type": "Feature", "properties": { "LAYER": "1", "GM_TYPE": "Unknown Line Type", "ELEVATION": 0 }, "geometry": { "type": "MultiLineString", "coordinates": [ [ [ 773486.974225698155351, 8981648.293759167194366 ], [ 773486.974225698155351, 8981573.293759167194366 ] ] ] } },
{ "type": "Feature", "properties": { "LAYER": "1", "GM_TYPE": "Unknown Line Type", "ELEVATION": 0 }, "geometry": { "type": "MultiLineString", "coordinates": [ [ [ 772893.776854568859562, 8981042.67080806940794 ], [ 773268.776854568859562, 8981042.67080806940794 ] ] ] } },
{ "type": "Feature", "properties": { "LAYER": "1", "GM_TYPE": "Unknown Line Type", "ELEVATION": 0 }, "geometry": { "type": "MultiLineString", "coordinates": [ [ [ 772893.776854568859562, 8980967.67080806940794 ], [ 773268.776854568859562, 8980967.67080806940794 ] ] ] } },
{ "type": "Feature", "properties": { "LAYER": "1", "GM_TYPE": "Unknown Line Type", "ELEVATION": 0 }, "geometry": { "type": "MultiLineString", "coordinates": [ [ [ 772893.776854568859562, 8981117.67080806940794 ], [ 773268.776854568859562, 8981117.67080806940794 ] ] ] } },
{ "type": "Feature", "properties": { "LAYER": "1", "GM_TYPE": "Unknown Line Type", "ELEVATION": 0 }, "geometry": { "type": "MultiLineString", "coordinates": [ [ [ 772893.776854568859562, 8981117.67080806940794 ], [ 772893.776854568859562, 8980967.67080806940794 ] ] ] } },
{ "type": "Feature", "properties": { "LAYER": "1", "GM_TYPE": "Unknown Line Type", "ELEVATION": 0 }, "geometry": { "type": "MultiLineString", "coordinates": [ [ [ 773268.776854568859562, 8981117.67080806940794 ], [ 773268.776854568859562, 8980967.67080806940794 ] ] ] } },
{ "type": "Feature", "properties": { "LAYER": "1", "GM_TYPE": "Unknown Line Type", "ELEVATION": 0 }, "geometry": { "type": "MultiLineString", "coordinates": [ [ [ 773081.276854568859562, 8981042.67080806940794 ], [ 773081.276854568859562, 8980967.67080806940794 ] ] ] } },
{ "type": "Feature", "properties": { "LAYER": "1", "GM_TYPE": "Unknown Line Type", "ELEVATION": 0 }, "geometry": { "type": "MultiLineString", "coordinates": [ [ [ 773685.753055328503251, 8982967.71173725835979 ], [ 774060.753055328503251, 8982967.71173725835979 ] ] ] } },
{ "type": "Feature", "properties": { "LAYER": "1", "GM_TYPE": "Unknown Line Type", "ELEVATION": 0 }, "geometry": { "type": "MultiLineString", "coordinates": [ [ [ 773685.753055328503251, 8982892.71173725835979 ], [ 774060.753055328503251, 8982892.71173725835979 ] ] ] } },
{ "type": "Feature", "properties": { "LAYER": "1", "GM_TYPE": "Unknown Line Type", "ELEVATION": 0 }, "geometry": { "type": "MultiLineString", "coordinates": [ [ [ 773685.753055328503251, 8983042.71173725835979 ], [ 774060.753055328503251, 8983042.71173725835979 ] ] ] } },
{ "type": "Feature", "properties": { "LAYER": "1", "GM_TYPE": "Unknown Line Type", "ELEVATION": 0 }, "geometry": { "type": "MultiLineString", "coordinates": [ [ [ 773685.753055328503251, 8983042.71173725835979 ], [ 773685.753055328503251, 8982892.71173725835979 ] ] ] } },
{ "type": "Feature", "properties": { "LAYER": "1", "GM_TYPE": "Unknown Line Type", "ELEVATION": 0 }, "geometry": { "type": "MultiLineString", "coordinates": [ [ [ 774060.753055328503251, 8983042.71173725835979 ], [ 774060.753055328503251, 8982892.71173725835979 ] ] ] } },
{ "type": "Feature", "properties": { "LAYER": "1", "GM_TYPE": "Unknown Line Type", "ELEVATION": 0 }, "geometry": { "type": "MultiLineString", "coordinates": [ [ [ 773873.253055328503251, 8982967.71173725835979 ], [ 773873.253055328503251, 8982892.71173725835979 ] ] ] } },
{ "type": "Feature", "properties": { "LAYER": "1", "GM_TYPE": "Unknown Line Type", "ELEVATION": 0 }, "geometry": { "type": "MultiLineString", "coordinates": [ [ [ 772896.266743493499234, 8982357.423167809844017 ], [ 773271.266743493499234, 8982357.423167809844017 ] ] ] } },
{ "type": "Feature", "properties": { "LAYER": "1", "GM_TYPE": "Unknown Line Type", "ELEVATION": 0 }, "geometry": { "type": "MultiLineString", "coordinates": [ [ [ 772896.266743493499234, 8982282.423167809844017 ], [ 773271.266743493499234, 8982282.423167809844017 ] ] ] } },
{ "type": "Feature", "properties": { "LAYER": "1", "GM_TYPE": "Unknown Line Type", "ELEVATION": 0 }, "geometry": { "type": "MultiLineString", "coordinates": [ [ [ 772896.266743493499234, 8982432.423167809844017 ], [ 773271.266743493499234, 8982432.423167809844017 ] ] ] } },
{ "type": "Feature", "properties": { "LAYER": "1", "GM_TYPE": "Unknown Line Type", "ELEVATION": 0 }, "geometry": { "type": "MultiLineString", "coordinates": [ [ [ 772896.266743493499234, 8982432.423167809844017 ], [ 772896.266743493499234, 8982282.423167809844017 ] ] ] } },
{ "type": "Feature", "properties": { "LAYER": "1", "GM_TYPE": "Unknown Line Type", "ELEVATION": 0 }, "geometry": { "type": "MultiLineString", "coordinates": [ [ [ 773271.266743493499234, 8982432.423167809844017 ], [ 773271.266743493499234, 8982282.423167809844017 ] ] ] } },
{ "type": "Feature", "properties": { "LAYER": "1", "GM_TYPE": "Unknown Line Type", "ELEVATION": 0 }, "geometry": { "type": "MultiLineString", "coordinates": [ [ [ 773083.766743493499234, 8982357.423167809844017 ], [ 773083.766743493499234, 8982282.423167809844017 ] ] ] } },
{ "type": "Feature", "properties": { "LAYER": "1", "GM_TYPE": "Unknown Line Type", "ELEVATION": 0 }, "geometry": { "type": "MultiLineString", "coordinates": [ [ [ 776881.151063349912874, 8982239.599531790241599 ], [ 777256.151063349912874, 8982239.599531790241599 ] ] ] } },
{ "type": "Feature", "properties": { "LAYER": "1", "GM_TYPE": "Unknown Line Type", "ELEVATION": 0 }, "geometry": { "type": "MultiLineString", "coordinates": [ [ [ 776881.151063349912874, 8982164.599531790241599 ], [ 777256.151063349912874, 8982164.599531790241599 ] ] ] } },
{ "type": "Feature", "properties": { "LAYER": "1", "GM_TYPE": "Unknown Line Type", "ELEVATION": 0 }, "geometry": { "type": "MultiLineString", "coordinates": [ [ [ 776881.151063349912874, 8982314.599531790241599 ], [ 777256.151063349912874, 8982314.599531790241599 ] ] ] } },
{ "type": "Feature", "properties": { "LAYER": "1", "GM_TYPE": "Unknown Line Type", "ELEVATION": 0 }, "geometry": { "type": "MultiLineString", "coordinates": [ [ [ 776881.151063349912874, 8982314.599531790241599 ], [ 776881.151063349912874, 8982164.599531790241599 ] ] ] } },
{ "type": "Feature", "properties": { "LAYER": "1", "GM_TYPE": "Unknown Line Type", "ELEVATION": 0 }, "geometry": { "type": "MultiLineString", "coordinates": [ [ [ 777256.151063349912874, 8982314.599531790241599 ], [ 777256.151063349912874, 8982164.599531790241599 ] ] ] } },
{ "type": "Feature", "properties": { "LAYER": "1", "GM_TYPE": "Unknown Line Type", "ELEVATION": 0 }, "geometry": { "type": "MultiLineString", "coordinates": [ [ [ 777068.651063349912874, 8982239.599531790241599 ], [ 777068.651063349912874, 8982164.599531790241599 ] ] ] } },
{ "type": "Feature", "properties": { "LAYER": "1", "GM_TYPE": "Unknown Line Type", "ELEVATION": 0 }, "geometry": { "type": "MultiLineString", "coordinates": [ [ [ 776555.552184233441949, 8982439.661320716142654 ], [ 776930.552184233441949, 8982439.661320716142654 ] ] ] } },
{ "type": "Feature", "properties": { "LAYER": "1", "GM_TYPE": "Unknown Line Type", "ELEVATION": 0 }, "geometry": { "type": "MultiLineString", "coordinates": [ [ [ 776555.552184233441949, 8982364.661320716142654 ], [ 776930.552184233441949, 8982364.661320716142654 ] ] ] } },
{ "type": "Feature", "properties": { "LAYER": "1", "GM_TYPE": "Unknown Line Type", "ELEVATION": 0 }, "geometry": { "type": "MultiLineString", "coordinates": [ [ [ 776555.552184233441949, 8982514.661320716142654 ], [ 776930.552184233441949, 8982514.661320716142654 ] ] ] } },
{ "type": "Feature", "properties": { "LAYER": "1", "GM_TYPE": "Unknown Line Type", "ELEVATION": 0 }, "geometry": { "type": "MultiLineString", "coordinates": [ [ [ 776555.552184233441949, 8982514.661320716142654 ], [ 776555.552184233441949, 8982364.661320716142654 ] ] ] } },
{ "type": "Feature", "properties": { "LAYER": "1", "GM_TYPE": "Unknown Line Type", "ELEVATION": 0 }, "geometry": { "type": "MultiLineString", "coordinates": [ [ [ 776930.552184233441949, 8982514.661320716142654 ], [ 776930.552184233441949, 8982364.661320716142654 ] ] ] } },
{ "type": "Feature", "properties": { "LAYER": "1", "GM_TYPE": "Unknown Line Type", "ELEVATION": 0 }, "geometry": { "type": "MultiLineString", "coordinates": [ [ [ 776743.052184233441949, 8982439.661320716142654 ], [ 776743.052184233441949, 8982364.661320716142654 ] ] ] } },
{ "type": "Feature", "properties": { "LAYER": "1", "GM_TYPE": "Unknown Line Type", "ELEVATION": 0 }, "geometry": { "type": "MultiLineString", "coordinates": [ [ [ 775607.292329623713158, 8981449.228632230311632 ], [ 775982.292329623713158, 8981449.228632230311632 ] ] ] } },
{ "type": "Feature", "properties": { "LAYER": "1", "GM_TYPE": "Unknown Line Type", "ELEVATION": 0 }, "geometry": { "type": "MultiLineString", "coordinates": [ [ [ 775607.292329623713158, 8981374.228632230311632 ], [ 775982.292329623713158, 8981374.228632230311632 ] ] ] } },
{ "type": "Feature", "properties": { "LAYER": "1", "GM_TYPE": "Unknown Line Type", "ELEVATION": 0 }, "geometry": { "type": "MultiLineString", "coordinates": [ [ [ 775607.292329623713158, 8981524.228632230311632 ], [ 775982.292329623713158, 8981524.228632230311632 ] ] ] } },
{ "type": "Feature", "properties": { "LAYER": "1", "GM_TYPE": "Unknown Line Type", "ELEVATION": 0 }, "geometry": { "type": "MultiLineString", "coordinates": [ [ [ 775607.292329623713158, 8981524.228632230311632 ], [ 775607.292329623713158, 8981374.228632230311632 ] ] ] } },
{ "type": "Feature", "properties": { "LAYER": "1", "GM_TYPE": "Unknown Line Type", "ELEVATION": 0 }, "geometry": { "type": "MultiLineString", "coordinates": [ [ [ 775982.292329623713158, 8981524.228632230311632 ], [ 775982.292329623713158, 8981374.228632230311632 ] ] ] } },
{ "type": "Feature", "properties": { "LAYER": "1", "GM_TYPE": "Unknown Line Type", "ELEVATION": 0 }, "geometry": { "type": "MultiLineString", "coordinates": [ [ [ 775794.792329623713158, 8981449.228632230311632 ], [ 775794.792329623713158, 8981374.228632230311632 ] ] ] } },
{ "type": "Feature", "properties": { "LAYER": "1", "GM_TYPE": "Unknown Line Type", "ELEVATION": 0 }, "geometry": { "type": "MultiLineString", "coordinates": [ [ [ 776382.438465304556303, 8981683.986396579071879 ], [ 776757.438465304556303, 8981683.986396579071879 ] ] ] } },
{ "type": "Feature", "properties": { "LAYER": "1", "GM_TYPE": "Unknown Line Type", "ELEVATION": 0 }, "geometry": { "type": "MultiLineString", "coordinates": [ [ [ 776382.438465304556303, 8981608.986396579071879 ], [ 776757.438465304556303, 8981608.986396579071879 ] ] ] } },
{ "type": "Feature", "properties": { "LAYER": "1", "GM_TYPE": "Unknown Line Type", "ELEVATION": 0 }, "geometry": { "type": "MultiLineString", "coordinates": [ [ [ 776382.438465304556303, 8981758.986396579071879 ], [ 776757.438465304556303, 8981758.986396579071879 ] ] ] } },
{ "type": "Feature", "properties": { "LAYER": "1", "GM_TYPE": "Unknown Line Type", "ELEVATION": 0 }, "geometry": { "type": "MultiLineString", "coordinates": [ [ [ 776382.438465304556303, 8981758.986396579071879 ], [ 776382.438465304556303, 8981608.986396579071879 ] ] ] } },
{ "type": "Feature", "properties": { "LAYER": "1", "GM_TYPE": "Unknown Line Type", "ELEVATION": 0 }, "geometry": { "type": "MultiLineString", "coordinates": [ [ [ 776757.438465304556303, 8981758.986396579071879 ], [ 776757.438465304556303, 8981608.986396579071879 ] ] ] } },
{ "type": "Feature", "properties": { "LAYER": "1", "GM_TYPE": "Unknown Line Type", "ELEVATION": 0 }, "geometry": { "type": "MultiLineString", "coordinates": [ [ [ 776569.938465304556303, 8981683.986396579071879 ], [ 776569.938465304556303, 8981608.986396579071879 ] ] ] } },
{ "type": "Feature", "properties": { "LAYER": "1", "GM_TYPE": "Unknown Line Type", "ELEVATION": 0 }, "geometry": { "type": "MultiLineString", "coordinates": [ [ [ 776846.772042164695449, 8981214.631796345114708 ], [ 777221.772042164695449, 8981214.631796345114708 ] ] ] } },
{ "type": "Feature", "properties": { "LAYER": "1", "GM_TYPE": "Unknown Line Type", "ELEVATION": 0 }, "geometry": { "type": "MultiLineString", "coordinates": [ [ [ 776846.772042164695449, 8981139.631796345114708 ], [ 777221.772042164695449, 8981139.631796345114708 ] ] ] } },
{ "type": "Feature", "properties": { "LAYER": "1", "GM_TYPE": "Unknown Line Type", "ELEVATION": 0 }, "geometry": { "type": "MultiLineString", "coordinates": [ [ [ 776846.772042164695449, 8981289.631796345114708 ], [ 777221.772042164695449, 8981289.631796345114708 ] ] ] } },
{ "type": "Feature", "properties": { "LAYER": "1", "GM_TYPE": "Unknown Line Type", "ELEVATION": 0 }, "geometry": { "type": "MultiLineString", "coordinates": [ [ [ 776846.772042164695449, 8981289.631796345114708 ], [ 776846.772042164695449, 8981139.631796345114708 ] ] ] } },
{ "type": "Feature", "properties": { "LAYER": "1", "GM_TYPE": "Unknown Line Type", "ELEVATION": 0 }, "geometry": { "type": "MultiLineString", "coordinates": [ [ [ 777221.772042164695449, 8981289.631796345114708 ], [ 777221.772042164695449, 8981139.631796345114708 ] ] ] } },
{ "type": "Feature", "properties": { "LAYER": "1", "GM_TYPE": "Unknown Line Type", "ELEVATION": 0 }, "geometry": { "type": "MultiLineString", "coordinates": [ [ [ 777034.272042164695449, 8981214.631796345114708 ], [ 777034.272042164695449, 8981139.631796345114708 ] ] ] } },
{ "type": "Feature", "properties": { "LAYER": "1", "GM_TYPE": "Unknown Line Type", "ELEVATION": 12 }, "geometry": { "type": "MultiLineString", "coordinates": [ [ [ 776033.549806460738182, 8980700.597744954749942 ], [ 776408.549806460738182, 8980700.597744954749942 ] ] ] } },
{ "type": "Feature", "properties": { "LAYER": "1", "GM_TYPE": "Unknown Line Type", "ELEVATION": 12 }, "geometry": { "type": "MultiLineString", "coordinates": [ [ [ 776033.549806460738182, 8980625.597744954749942 ], [ 776408.549806460738182, 8980625.597744954749942 ] ] ] } },
{ "type": "Feature", "properties": { "LAYER": "1", "GM_TYPE": "Unknown Line Type", "ELEVATION": 12 }, "geometry": { "type": "MultiLineString", "coordinates": [ [ [ 776033.549806460738182, 8980775.597744954749942 ], [ 776408.549806460738182, 8980775.597744954749942 ] ] ] } },
{ "type": "Feature", "properties": { "LAYER": "1", "GM_TYPE": "Unknown Line Type", "ELEVATION": 12 }, "geometry": { "type": "MultiLineString", "coordinates": [ [ [ 776033.549806460738182, 8980775.597744954749942 ], [ 776033.549806460738182, 8980625.597744954749942 ] ] ] } },
{ "type": "Feature", "properties": { "LAYER": "1", "GM_TYPE": "Unknown Line Type", "ELEVATION": 12 }, "geometry": { "type": "MultiLineString", "coordinates": [ [ [ 776408.549806460738182, 8980775.597744954749942 ], [ 776408.549806460738182, 8980625.597744954749942 ] ] ] } },
{ "type": "Feature", "properties": { "LAYER": "1", "GM_TYPE": "Unknown Line Type", "ELEVATION": 12 }, "geometry": { "type": "MultiLineString", "coordinates": [ [ [ 776221.049806460738182, 8980700.597744954749942 ], [ 776221.049806460738182, 8980625.597744954749942 ] ] ] } },
{ "type": "Feature", "properties": { "LAYER": "1", "GM_TYPE": "Unknown Line Type", "ELEVATION": 0 }, "geometry": { "type": "MultiLineString", "coordinates": [ [ [ 776855.56672066624742, 8980391.446545667946339 ], [ 777230.56672066624742, 8980391.446545667946339 ] ] ] } },
{ "type": "Feature", "properties": { "LAYER": "1", "GM_TYPE": "Unknown Line Type", "ELEVATION": 0 }, "geometry": { "type": "MultiLineString", "coordinates": [ [ [ 776855.56672066624742, 8980316.446545667946339 ], [ 777230.56672066624742, 8980316.446545667946339 ] ] ] } },
{ "type": "Feature", "properties": { "LAYER": "1", "GM_TYPE": "Unknown Line Type", "ELEVATION": 0 }, "geometry": { "type": "MultiLineString", "coordinates": [ [ [ 776855.56672066624742, 8980466.446545667946339 ], [ 777230.56672066624742, 8980466.446545667946339 ] ] ] } },
{ "type": "Feature", "properties": { "LAYER": "1", "GM_TYPE": "Unknown Line Type", "ELEVATION": 0 }, "geometry": { "type": "MultiLineString", "coordinates": [ [ [ 776855.56672066624742, 8980466.446545667946339 ], [ 776855.56672066624742, 8980316.446545667946339 ] ] ] } },
{ "type": "Feature", "properties": { "LAYER": "1", "GM_TYPE": "Unknown Line Type", "ELEVATION": 0 }, "geometry": { "type": "MultiLineString", "coordinates": [ [ [ 777230.56672066624742, 8980466.446545667946339 ], [ 777230.56672066624742, 8980316.446545667946339 ] ] ] } },
{ "type": "Feature", "properties": { "LAYER": "1", "GM_TYPE": "Unknown Line Type", "ELEVATION": 0 }, "geometry": { "type": "MultiLineString", "coordinates": [ [ [ 777043.06672066624742, 8980391.446545667946339 ], [ 777043.06672066624742, 8980316.446545667946339 ] ] ] } },
{ "type": "Feature", "properties": { "LAYER": "1", "GM_TYPE": "Unknown Line Type", "ELEVATION": 0 }, "geometry": { "type": "MultiLineString", "coordinates": [ [ [ 776157.816381230950356, 8980208.467359587550163 ], [ 776532.816381230950356, 8980208.467359587550163 ] ] ] } },
{ "type": "Feature", "properties": { "LAYER": "1", "GM_TYPE": "Unknown Line Type", "ELEVATION": 0 }, "geometry": { "type": "MultiLineString", "coordinates": [ [ [ 776157.816381230950356, 8980133.467359587550163 ], [ 776532.816381230950356, 8980133.467359587550163 ] ] ] } },
{ "type": "Feature", "properties": { "LAYER": "1", "GM_TYPE": "Unknown Line Type", "ELEVATION": 0 }, "geometry": { "type": "MultiLineString", "coordinates": [ [ [ 776157.816381230950356, 8980283.467359587550163 ], [ 776532.816381230950356, 8980283.467359587550163 ] ] ] } },
{ "type": "Feature", "properties": { "LAYER": "1", "GM_TYPE": "Unknown Line Type", "ELEVATION": 0 }, "geometry": { "type": "MultiLineString", "coordinates": [ [ [ 776157.816381230950356, 8980283.467359587550163 ], [ 776157.816381230950356, 8980133.467359587550163 ] ] ] } },
{ "type": "Feature", "properties": { "LAYER": "1", "GM_TYPE": "Unknown Line Type", "ELEVATION": 0 }, "geometry": { "type": "MultiLineString", "coordinates": [ [ [ 776532.816381230950356, 8980283.467359587550163 ], [ 776532.816381230950356, 8980133.467359587550163 ] ] ] } },
{ "type": "Feature", "properties": { "LAYER": "1", "GM_TYPE": "Unknown Line Type", "ELEVATION": 0 }, "geometry": { "type": "MultiLineString", "coordinates": [ [ [ 776345.316381230950356, 8980208.467359587550163 ], [ 776345.316381230950356, 8980133.467359587550163 ] ] ] } },
{ "type": "Feature", "properties": { "LAYER": "1", "GM_TYPE": "Unknown Line Type", "ELEVATION": 0 }, "geometry": { "type": "MultiLineString", "coordinates": [ [ [ 774797.413863986846991, 8981816.219096228480339 ], [ 775172.413863986846991, 8981816.219096228480339 ] ] ] } },
{ "type": "Feature", "properties": { "LAYER": "1", "GM_TYPE": "Unknown Line Type", "ELEVATION": 0 }, "geometry": { "type": "MultiLineString", "coordinates": [ [ [ 774797.413863986846991, 8981741.219096228480339 ], [ 775172.413863986846991, 8981741.219096228480339 ] ] ] } },
{ "type": "Feature", "properties": { "LAYER": "1", "GM_TYPE": "Unknown Line Type", "ELEVATION": 0 }, "geometry": { "type": "MultiLineString", "coordinates": [ [ [ 774797.413863986846991, 8981891.219096228480339 ], [ 775172.413863986846991, 8981891.219096228480339 ] ] ] } },
{ "type": "Feature", "properties": { "LAYER": "1", "GM_TYPE": "Unknown Line Type", "ELEVATION": 0 }, "geometry": { "type": "MultiLineString", "coordinates": [ [ [ 774797.413863986846991, 8981891.219096228480339 ], [ 774797.413863986846991, 8981741.219096228480339 ] ] ] } },
{ "type": "Feature", "properties": { "LAYER": "1", "GM_TYPE": "Unknown Line Type", "ELEVATION": 0 }, "geometry": { "type": "MultiLineString", "coordinates": [ [ [ 775172.413863986846991, 8981891.219096228480339 ], [ 775172.413863986846991, 8981741.219096228480339 ] ] ] } },
{ "type": "Feature", "properties": { "LAYER": "1", "GM_TYPE": "Unknown Line Type", "ELEVATION": 0 }, "geometry": { "type": "MultiLineString", "coordinates": [ [ [ 774984.913863986846991, 8981816.219096228480339 ], [ 774984.913863986846991, 8981741.219096228480339 ] ] ] } },
{ "type": "Feature", "properties": { "LAYER": "1", "GM_TYPE": "Unknown Line Type", "ELEVATION": 0 }, "geometry": { "type": "MultiLineString", "coordinates": [ [ [ 775192.505991610232741, 8981035.579013809561729 ], [ 775567.505991610232741, 8981035.579013809561729 ] ] ] } },
{ "type": "Feature", "properties": { "LAYER": "1", "GM_TYPE": "Unknown Line Type", "ELEVATION": 0 }, "geometry": { "type": "MultiLineString", "coordinates": [ [ [ 775192.505991610232741, 8980960.579013809561729 ], [ 775567.505991610232741, 8980960.579013809561729 ] ] ] } },
{ "type": "Feature", "properties": { "LAYER": "1", "GM_TYPE": "Unknown Line Type", "ELEVATION": 0 }, "geometry": { "type": "MultiLineString", "coordinates": [ [ [ 775192.505991610232741, 8981110.579013809561729 ], [ 775567.505991610232741, 8981110.579013809561729 ] ] ] } },
{ "type": "Feature", "properties": { "LAYER": "1", "GM_TYPE": "Unknown Line Type", "ELEVATION": 0 }, "geometry": { "type": "MultiLineString", "coordinates": [ [ [ 775192.505991610232741, 8981110.579013809561729 ], [ 775192.505991610232741, 8980960.579013809561729 ] ] ] } },
{ "type": "Feature", "properties": { "LAYER": "1", "GM_TYPE": "Unknown Line Type", "ELEVATION": 0 }, "geometry": { "type": "MultiLineString", "coordinates": [ [ [ 775567.505991610232741, 8981110.579013809561729 ], [ 775567.505991610232741, 8980960.579013809561729 ] ] ] } },
{ "type": "Feature", "properties": { "LAYER": "1", "GM_TYPE": "Unknown Line Type", "ELEVATION": 0 }, "geometry": { "type": "MultiLineString", "coordinates": [ [ [ 775380.005991610232741, 8981035.579013809561729 ], [ 775380.005991610232741, 8980960.579013809561729 ] ] ] } },
{ "type": "Feature", "properties": { "LAYER": "1", "GM_TYPE": "Unknown Line Type", "ELEVATION": 0 }, "geometry": { "type": "MultiLineString", "coordinates": [ [ [ 774739.468500187154859, 8980861.584216980263591 ], [ 775114.468500187154859, 8980861.584216980263591 ] ] ] } },
{ "type": "Feature", "properties": { "LAYER": "1", "GM_TYPE": "Unknown Line Type", "ELEVATION": 0 }, "geometry": { "type": "MultiLineString", "coordinates": [ [ [ 774739.468500187154859, 8980786.584216980263591 ], [ 775114.468500187154859, 8980786.584216980263591 ] ] ] } },
{ "type": "Feature", "properties": { "LAYER": "1", "GM_TYPE": "Unknown Line Type", "ELEVATION": 0 }, "geometry": { "type": "MultiLineString", "coordinates": [ [ [ 774739.468500187154859, 8980936.584216980263591 ], [ 775114.468500187154859, 8980936.584216980263591 ] ] ] } },
{ "type": "Feature", "properties": { "LAYER": "1", "GM_TYPE": "Unknown Line Type", "ELEVATION": 0 }, "geometry": { "type": "MultiLineString", "coordinates": [ [ [ 774739.468500187154859, 8980936.584216980263591 ], [ 774739.468500187154859, 8980786.584216980263591 ] ] ] } },
{ "type": "Feature", "properties": { "LAYER": "1", "GM_TYPE": "Unknown Line Type", "ELEVATION": 0 }, "geometry": { "type": "MultiLineString", "coordinates": [ [ [ 775114.468500187154859, 8980936.584216980263591 ], [ 775114.468500187154859, 8980786.584216980263591 ] ] ] } },
{ "type": "Feature", "properties": { "LAYER": "1", "GM_TYPE": "Unknown Line Type", "ELEVATION": 0 }, "geometry": { "type": "MultiLineString", "coordinates": [ [ [ 774926.968500187154859, 8980861.584216980263591 ], [ 774926.968500187154859, 8980786.584216980263591 ] ] ] } },
{ "type": "Feature", "properties": { "LAYER": "1", "GM_TYPE": "Unknown Line Type", "ELEVATION": 0 }, "geometry": { "type": "MultiLineString", "coordinates": [ [ [ 775257.41191253438592, 8980161.064903603866696 ], [ 775632.41191253438592, 8980161.064903603866696 ] ] ] } },
{ "type": "Feature", "properties": { "LAYER": "1", "GM_TYPE": "Unknown Line Type", "ELEVATION": 0 }, "geometry": { "type": "MultiLineString", "coordinates": [ [ [ 775257.41191253438592, 8980086.064903603866696 ], [ 775632.41191253438592, 8980086.064903603866696 ] ] ] } },
{ "type": "Feature", "properties": { "LAYER": "1", "GM_TYPE": "Unknown Line Type", "ELEVATION": 0 }, "geometry": { "type": "MultiLineString", "coordinates": [ [ [ 775257.41191253438592, 8980236.064903603866696 ], [ 775632.41191253438592, 8980236.064903603866696 ] ] ] } },
{ "type": "Feature", "properties": { "LAYER": "1", "GM_TYPE": "Unknown Line Type", "ELEVATION": 0 }, "geometry": { "type": "MultiLineString", "coordinates": [ [ [ 775257.41191253438592, 8980236.064903603866696 ], [ 775257.41191253438592, 8980086.064903603866696 ] ] ] } },
{ "type": "Feature", "properties": { "LAYER": "1", "GM_TYPE": "Unknown Line Type", "ELEVATION": 0 }, "geometry": { "type": "MultiLineString", "coordinates": [ [ [ 775632.41191253438592, 8980236.064903603866696 ], [ 775632.41191253438592, 8980086.064903603866696 ] ] ] } },
{ "type": "Feature", "properties": { "LAYER": "1", "GM_TYPE": "Unknown Line Type", "ELEVATION": 0 }, "geometry": { "type": "MultiLineString", "coordinates": [ [ [ 775444.91191253438592, 8980161.064903603866696 ], [ 775444.91191253438592, 8980086.064903603866696 ] ] ] } },
{ "type": "Feature", "properties": { "LAYER": "1", "GM_TYPE": "Unknown Line Type", "ELEVATION": 0 }, "geometry": { "type": "MultiLineString", "coordinates": [ [ [ 774485.688253754749894, 8980179.588209224864841 ], [ 774860.688253754749894, 8980179.588209224864841 ] ] ] } },
{ "type": "Feature", "properties": { "LAYER": "1", "GM_TYPE": "Unknown Line Type", "ELEVATION": 0 }, "geometry": { "type": "MultiLineString", "coordinates": [ [ [ 774485.688253754749894, 8980104.588209224864841 ], [ 774860.688253754749894, 8980104.588209224864841 ] ] ] } },
{ "type": "Feature", "properties": { "LAYER": "1", "GM_TYPE": "Unknown Line Type", "ELEVATION": 0 }, "geometry": { "type": "MultiLineString", "coordinates": [ [ [ 774485.688253754749894, 8980254.588209224864841 ], [ 774860.688253754749894, 8980254.588209224864841 ] ] ] } },
{ "type": "Feature", "properties": { "LAYER": "1", "GM_TYPE": "Unknown Line Type", "ELEVATION": 0 }, "geometry": { "type": "MultiLineString", "coordinates": [ [ [ 774485.688253754749894, 8980254.588209224864841 ], [ 774485.688253754749894, 8980104.588209224864841 ] ] ] } },
{ "type": "Feature", "properties": { "LAYER": "1", "GM_TYPE": "Unknown Line Type", "ELEVATION": 0 }, "geometry": { "type": "MultiLineString", "coordinates": [ [ [ 774860.688253754749894, 8980254.588209224864841 ], [ 774860.688253754749894, 8980104.588209224864841 ] ] ] } },
{ "type": "Feature", "properties": { "LAYER": "1", "GM_TYPE": "Unknown Line Type", "ELEVATION": 0 }, "geometry": { "type": "MultiLineString", "coordinates": [ [ [ 774673.188253754749894, 8980179.588209224864841 ], [ 774673.188253754749894, 8980104.588209224864841 ] ] ] } },
{ "type": "Feature", "properties": { "LAYER": "1", "GM_TYPE": "Unknown Line Type", "ELEVATION": 0 }, "geometry": { "type": "MultiLineString", "coordinates": [ [ [ 773883.377283008419909, 8980397.343815168365836 ], [ 774258.377283008419909, 8980397.343815168365836 ] ] ] } },
{ "type": "Feature", "properties": { "LAYER": "1", "GM_TYPE": "Unknown Line Type", "ELEVATION": 0 }, "geometry": { "type": "MultiLineString", "coordinates": [ [ [ 773883.377283008419909, 8980322.343815168365836 ], [ 774258.377283008419909, 8980322.343815168365836 ] ] ] } },
{ "type": "Feature", "properties": { "LAYER": "1", "GM_TYPE": "Unknown Line Type", "ELEVATION": 0 }, "geometry": { "type": "MultiLineString", "coordinates": [ [ [ 773883.377283008419909, 8980472.343815168365836 ], [ 774258.377283008419909, 8980472.343815168365836 ] ] ] } },
{ "type": "Feature", "properties": { "LAYER": "1", "GM_TYPE": "Unknown Line Type", "ELEVATION": 0 }, "geometry": { "type": "MultiLineString", "coordinates": [ [ [ 773883.377283008419909, 8980472.343815168365836 ], [ 773883.377283008419909, 8980322.343815168365836 ] ] ] } },
{ "type": "Feature", "properties": { "LAYER": "1", "GM_TYPE": "Unknown Line Type", "ELEVATION": 0 }, "geometry": { "type": "MultiLineString", "coordinates": [ [ [ 774258.377283008419909, 8980472.343815168365836 ], [ 774258.377283008419909, 8980322.343815168365836 ] ] ] } },
{ "type": "Feature", "properties": { "LAYER": "1", "GM_TYPE": "Unknown Line Type", "ELEVATION": 0 }, "geometry": { "type": "MultiLineString", "coordinates": [ [ [ 774070.877283008419909, 8980397.343815168365836 ], [ 774070.877283008419909, 8980322.343815168365836 ] ] ] } },
{ "type": "Feature", "properties": { "LAYER": "1", "GM_TYPE": "Unknown Line Type", "ELEVATION": -20 }, "geometry": { "type": "MultiLineString", "coordinates": [ [ [ 773827.017009141971357, 8983506.808696564286947 ], [ 774202.017009141971357, 8983506.808696564286947 ] ] ] } },
{ "type": "Feature", "properties": { "LAYER": "1", "GM_TYPE": "Unknown Line Type", "ELEVATION": -20 }, "geometry": { "type": "MultiLineString", "coordinates": [ [ [ 773827.017009141971357, 8983431.808696564286947 ], [ 774202.017009141971357, 8983431.808696564286947 ] ] ] } },
{ "type": "Feature", "properties": { "LAYER": "1", "GM_TYPE": "Unknown Line Type", "ELEVATION": -20 }, "geometry": { "type": "MultiLineString", "coordinates": [ [ [ 773827.017009141971357, 8983581.808696564286947 ], [ 774202.017009141971357, 8983581.808696564286947 ] ] ] } },
{ "type": "Feature", "properties": { "LAYER": "1", "GM_TYPE": "Unknown Line Type", "ELEVATION": -20 }, "geometry": { "type": "MultiLineString", "coordinates": [ [ [ 773827.017009141971357, 8983581.808696564286947 ], [ 773827.017009141971357, 8983431.808696564286947 ] ] ] } },
{ "type": "Feature", "properties": { "LAYER": "1", "GM_TYPE": "Unknown Line Type", "ELEVATION": -20 }, "geometry": { "type": "MultiLineString", "coordinates": [ [ [ 774202.017009141971357, 8983581.808696564286947 ], [ 774202.017009141971357, 8983431.808696564286947 ] ] ] } },
{ "type": "Feature", "properties": { "LAYER": "1", "GM_TYPE": "Unknown Line Type", "ELEVATION": -20 }, "geometry": { "type": "MultiLineString", "coordinates": [ [ [ 774014.517009141971357, 8983506.808696564286947 ], [ 774014.517009141971357, 8983431.808696564286947 ] ] ] } },
{ "type": "Feature", "properties": { "LAYER": "1", "GM_TYPE": "Unknown Line Type", "ELEVATION": 0 }, "geometry": { "type": "MultiLineString", "coordinates": [ [ [ 774834.923550273058936, 8981400.464703515172005 ], [ 775209.923550273058936, 8981400.464703515172005 ] ] ] } },
{ "type": "Feature", "properties": { "LAYER": "1", "GM_TYPE": "Unknown Line Type", "ELEVATION": 0 }, "geometry": { "type": "MultiLineString", "coordinates": [ [ [ 774834.923550273058936, 8981325.464703515172005 ], [ 775209.923550273058936, 8981325.464703515172005 ] ] ] } },
{ "type": "Feature", "properties": { "LAYER": "1", "GM_TYPE": "Unknown Line Type", "ELEVATION": 0 }, "geometry": { "type": "MultiLineString", "coordinates": [ [ [ 774834.923550273058936, 8981475.464703515172005 ], [ 775209.923550273058936, 8981475.464703515172005 ] ] ] } },
{ "type": "Feature", "properties": { "LAYER": "1", "GM_TYPE": "Unknown Line Type", "ELEVATION": 0 }, "geometry": { "type": "MultiLineString", "coordinates": [ [ [ 774834.923550273058936, 8981475.464703515172005 ], [ 774834.923550273058936, 8981325.464703515172005 ] ] ] } },
{ "type": "Feature", "properties": { "LAYER": "1", "GM_TYPE": "Unknown Line Type", "ELEVATION": 0 }, "geometry": { "type": "MultiLineString", "coordinates": [ [ [ 775209.923550273058936, 8981475.464703515172005 ], [ 775209.923550273058936, 8981325.464703515172005 ] ] ] } },
{ "type": "Feature", "properties": { "LAYER": "1", "GM_TYPE": "Unknown Line Type", "ELEVATION": 0 }, "geometry": { "type": "MultiLineString", "coordinates": [ [ [ 775022.423550273058936, 8981400.464703515172005 ], [ 775022.423550273058936, 8981325.464703515172005 ] ] ] } },
{ "type": "Feature", "properties": { "LAYER": "1", "GM_TYPE": "Unknown Line Type", "ELEVATION": 0 }, "geometry": { "type": "MultiLineString", "coordinates": [ [ [ 772304.133546376484446, 8981832.576420484110713 ], [ 772679.133546376484446, 8981832.576420484110713 ] ] ] } },
{ "type": "Feature", "properties": { "LAYER": "1", "GM_TYPE": "Unknown Line Type", "ELEVATION": 0 }, "geometry": { "type": "MultiLineString", "coordinates": [ [ [ 772304.133546376484446, 8981757.576420484110713 ], [ 772679.133546376484446, 8981757.576420484110713 ] ] ] } },
{ "type": "Feature", "properties": { "LAYER": "1", "GM_TYPE": "Unknown Line Type", "ELEVATION": 0 }, "geometry": { "type": "MultiLineString", "coordinates": [ [ [ 772304.133546376484446, 8981907.576420484110713 ], [ 772679.133546376484446, 8981907.576420484110713 ] ] ] } },
{ "type": "Feature", "properties": { "LAYER": "1", "GM_TYPE": "Unknown Line Type", "ELEVATION": 0 }, "geometry": { "type": "MultiLineString", "coordinates": [ [ [ 772304.133546376484446, 8981907.576420484110713 ], [ 772304.133546376484446, 8981757.576420484110713 ] ] ] } },
{ "type": "Feature", "properties": { "LAYER": "1", "GM_TYPE": "Unknown Line Type", "ELEVATION": 0 }, "geometry": { "type": "MultiLineString", "coordinates": [ [ [ 772679.133546376484446, 8981907.576420484110713 ], [ 772679.133546376484446, 8981757.576420484110713 ] ] ] } },
{ "type": "Feature", "properties": { "LAYER": "1", "GM_TYPE": "Unknown Line Type", "ELEVATION": 0 }, "geometry": { "type": "MultiLineString", "coordinates": [ [ [ 772491.633546376484446, 8981832.576420484110713 ], [ 772491.633546376484446, 8981757.576420484110713 ] ] ] } },
{ "type": "Feature", "properties": { "LAYER": "1", "GM_TYPE": "Unknown Line Type", "ELEVATION": 0 }, "geometry": { "type": "MultiLineString", "coordinates": [ [ [ 772198.153501363820396, 8980852.804990777745843 ], [ 772573.153501363820396, 8980852.804990777745843 ] ] ] } },
{ "type": "Feature", "properties": { "LAYER": "1", "GM_TYPE": "Unknown Line Type", "ELEVATION": 0 }, "geometry": { "type": "MultiLineString", "coordinates": [ [ [ 772198.153501363820396, 8980777.804990777745843 ], [ 772573.153501363820396, 8980777.804990777745843 ] ] ] } },
{ "type": "Feature", "properties": { "LAYER": "1", "GM_TYPE": "Unknown Line Type", "ELEVATION": 0 }, "geometry": { "type": "MultiLineString", "coordinates": [ [ [ 772198.153501363820396, 8980927.804990777745843 ], [ 772573.153501363820396, 8980927.804990777745843 ] ] ] } },
{ "type": "Feature", "properties": { "LAYER": "1", "GM_TYPE": "Unknown Line Type", "ELEVATION": 0 }, "geometry": { "type": "MultiLineString", "coordinates": [ [ [ 772198.153501363820396, 8980927.804990777745843 ], [ 772198.153501363820396, 8980777.804990777745843 ] ] ] } },
{ "type": "Feature", "properties": { "LAYER": "1", "GM_TYPE": "Unknown Line Type", "ELEVATION": 0 }, "geometry": { "type": "MultiLineString", "coordinates": [ [ [ 772573.153501363820396, 8980927.804990777745843 ], [ 772573.153501363820396, 8980777.804990777745843 ] ] ] } },
{ "type": "Feature", "properties": { "LAYER": "1", "GM_TYPE": "Unknown Line Type", "ELEVATION": 0 }, "geometry": { "type": "MultiLineString", "coordinates": [ [ [ 772385.653501363820396, 8980852.804990777745843 ], [ 772385.653501363820396, 8980777.804990777745843 ] ] ] } },
{ "type": "Feature", "properties": { "LAYER": "1", "GM_TYPE": "Unknown Line Type", "ELEVATION": 0 }, "geometry": { "type": "MultiLineString", "coordinates": [ [ [ 771687.277678878977895, 8981591.030216470360756 ], [ 772062.277678878977895, 8981591.030216470360756 ] ] ] } },
{ "type": "Feature", "properties": { "LAYER": "1", "GM_TYPE": "Unknown Line Type", "ELEVATION": 0 }, "geometry": { "type": "MultiLineString", "coordinates": [ [ [ 771687.277678878977895, 8981516.030216470360756 ], [ 772062.277678878977895, 8981516.030216470360756 ] ] ] } },
{ "type": "Feature", "properties": { "LAYER": "1", "GM_TYPE": "Unknown Line Type", "ELEVATION": 0 }, "geometry": { "type": "MultiLineString", "coordinates": [ [ [ 771687.277678878977895, 8981666.030216470360756 ], [ 772062.277678878977895, 8981666.030216470360756 ] ] ] } },
{ "type": "Feature", "properties": { "LAYER": "1", "GM_TYPE": "Unknown Line Type", "ELEVATION": 0 }, "geometry": { "type": "MultiLineString", "coordinates": [ [ [ 771687.277678878977895, 8981666.030216470360756 ], [ 771687.277678878977895, 8981516.030216470360756 ] ] ] } },
{ "type": "Feature", "properties": { "LAYER": "1", "GM_TYPE": "Unknown Line Type", "ELEVATION": 0 }, "geometry": { "type": "MultiLineString", "coordinates": [ [ [ 772062.277678878977895, 8981666.030216470360756 ], [ 772062.277678878977895, 8981516.030216470360756 ] ] ] } },
{ "type": "Feature", "properties": { "LAYER": "1", "GM_TYPE": "Unknown Line Type", "ELEVATION": 0 }, "geometry": { "type": "MultiLineString", "coordinates": [ [ [ 771874.777678878977895, 8981591.030216470360756 ], [ 771874.777678878977895, 8981516.030216470360756 ] ] ] } },
{ "type": "Feature", "properties": { "LAYER": "1", "GM_TYPE": "Unknown Line Type", "ELEVATION": 0 }, "geometry": { "type": "MultiLineString", "coordinates": [ [ [ 771279.7783102147514, 8980492.412143483757973 ], [ 771654.7783102147514, 8980492.412143483757973 ] ] ] } },
{ "type": "Feature", "properties": { "LAYER": "1", "GM_TYPE": "Unknown Line Type", "ELEVATION": 0 }, "geometry": { "type": "MultiLineString", "coordinates": [ [ [ 771279.7783102147514, 8980417.412143483757973 ], [ 771654.7783102147514, 8980417.412143483757973 ] ] ] } },
{ "type": "Feature", "properties": { "LAYER": "1", "GM_TYPE": "Unknown Line Type", "ELEVATION": 0 }, "geometry": { "type": "MultiLineString", "coordinates": [ [ [ 771279.7783102147514, 8980567.412143483757973 ], [ 771654.7783102147514, 8980567.412143483757973 ] ] ] } },
{ "type": "Feature", "properties": { "LAYER": "1", "GM_TYPE": "Unknown Line Type", "ELEVATION": 0 }, "geometry": { "type": "MultiLineString", "coordinates": [ [ [ 771279.7783102147514, 8980567.412143483757973 ], [ 771279.7783102147514, 8980417.412143483757973 ] ] ] } },
{ "type": "Feature", "properties": { "LAYER": "1", "GM_TYPE": "Unknown Line Type", "ELEVATION": 0 }, "geometry": { "type": "MultiLineString", "coordinates": [ [ [ 771654.7783102147514, 8980567.412143483757973 ], [ 771654.7783102147514, 8980417.412143483757973 ] ] ] } },
{ "type": "Feature", "properties": { "LAYER": "1", "GM_TYPE": "Unknown Line Type", "ELEVATION": 0 }, "geometry": { "type": "MultiLineString", "coordinates": [ [ [ 771467.2783102147514, 8980492.412143483757973 ], [ 771467.2783102147514, 8980417.412143483757973 ] ] ] } },
{ "type": "Feature", "properties": { "LAYER": "1", "GM_TYPE": "Unknown Line Type", "ELEVATION": 0 }, "geometry": { "type": "MultiLineString", "coordinates": [ [ [ 771725.943104005418718, 8980576.805755816400051 ], [ 772100.943104005418718, 8980576.805755816400051 ] ] ] } },
{ "type": "Feature", "properties": { "LAYER": "1", "GM_TYPE": "Unknown Line Type", "ELEVATION": 0 }, "geometry": { "type": "MultiLineString", "coordinates": [ [ [ 771725.943104005418718, 8980501.805755816400051 ], [ 772100.943104005418718, 8980501.805755816400051 ] ] ] } },
{ "type": "Feature", "properties": { "LAYER": "1", "GM_TYPE": "Unknown Line Type", "ELEVATION": 0 }, "geometry": { "type": "MultiLineString", "coordinates": [ [ [ 771725.943104005418718, 8980651.805755816400051 ], [ 772100.943104005418718, 8980651.805755816400051 ] ] ] } },
{ "type": "Feature", "properties": { "LAYER": "1", "GM_TYPE": "Unknown Line Type", "ELEVATION": 0 }, "geometry": { "type": "MultiLineString", "coordinates": [ [ [ 771725.943104005418718, 8980651.805755816400051 ], [ 771725.943104005418718, 8980501.805755816400051 ] ] ] } },
{ "type": "Feature", "properties": { "LAYER": "1", "GM_TYPE": "Unknown Line Type", "ELEVATION": 0 }, "geometry": { "type": "MultiLineString", "coordinates": [ [ [ 772100.943104005418718, 8980651.805755816400051 ], [ 772100.943104005418718, 8980501.805755816400051 ] ] ] } },
{ "type": "Feature", "properties": { "LAYER": "1", "GM_TYPE": "Unknown Line Type", "ELEVATION": 0 }, "geometry": { "type": "MultiLineString", "coordinates": [ [ [ 771913.443104005418718, 8980576.805755816400051 ], [ 771913.443104005418718, 8980501.805755816400051 ] ] ] } },
{ "type": "Feature", "properties": { "LAYER": "1", "GM_TYPE": "Unknown Line Type", "ELEVATION": 0 }, "geometry": { "type": "MultiLineString", "coordinates": [ [ [ 771120.298429550486617, 8981122.660797780379653 ], [ 771495.298429550486617, 8981122.660797780379653 ] ] ] } },
{ "type": "Feature", "properties": { "LAYER": "1", "GM_TYPE": "Unknown Line Type", "ELEVATION": 0 }, "geometry": { "type": "MultiLineString", "coordinates": [ [ [ 771120.298429550486617, 8981047.660797780379653 ], [ 771495.298429550486617, 8981047.660797780379653 ] ] ] } },
{ "type": "Feature", "properties": { "LAYER": "1", "GM_TYPE": "Unknown Line Type", "ELEVATION": 0 }, "geometry": { "type": "MultiLineString", "coordinates": [ [ [ 771120.298429550486617, 8981197.660797780379653 ], [ 771495.298429550486617, 8981197.660797780379653 ] ] ] } },
{ "type": "Feature", "properties": { "LAYER": "1", "GM_TYPE": "Unknown Line Type", "ELEVATION": 0 }, "geometry": { "type": "MultiLineString", "coordinates": [ [ [ 771120.298429550486617, 8981197.660797780379653 ], [ 771120.298429550486617, 8981047.660797780379653 ] ] ] } },
{ "type": "Feature", "properties": { "LAYER": "1", "GM_TYPE": "Unknown Line Type", "ELEVATION": 0 }, "geometry": { "type": "MultiLineString", "coordinates": [ [ [ 771495.298429550486617, 8981197.660797780379653 ], [ 771495.298429550486617, 8981047.660797780379653 ] ] ] } },
{ "type": "Feature", "properties": { "LAYER": "1", "GM_TYPE": "Unknown Line Type", "ELEVATION": 0 }, "geometry": { "type": "MultiLineString", "coordinates": [ [ [ 771307.798429550486617, 8981047.660797780379653 ], [ 771307.798429550486617, 8981122.660797780379653 ] ] ] } },
{ "type": "Feature", "properties": { "LAYER": "1", "GM_TYPE": "Unknown Line Type", "ELEVATION": 24 }, "geometry": { "type": "MultiLineString", "coordinates": [ [ [ 770749.937076990376227, 8981329.929694522172213 ], [ 771124.937076990376227, 8981329.929694522172213 ] ] ] } },
{ "type": "Feature", "properties": { "LAYER": "1", "GM_TYPE": "Unknown Line Type", "ELEVATION": 24 }, "geometry": { "type": "MultiLineString", "coordinates": [ [ [ 770749.937076990376227, 8981254.929694522172213 ], [ 771124.937076990376227, 8981254.929694522172213 ] ] ] } },
{ "type": "Feature", "properties": { "LAYER": "1", "GM_TYPE": "Unknown Line Type", "ELEVATION": 24 }, "geometry": { "type": "MultiLineString", "coordinates": [ [ [ 770749.937076990376227, 8981404.929694522172213 ], [ 771124.937076990376227, 8981404.929694522172213 ] ] ] } },
{ "type": "Feature", "properties": { "LAYER": "1", "GM_TYPE": "Unknown Line Type", "ELEVATION": 24 }, "geometry": { "type": "MultiLineString", "coordinates": [ [ [ 770749.937076990376227, 8981404.929694522172213 ], [ 770749.937076990376227, 8981254.929694522172213 ] ] ] } },
{ "type": "Feature", "properties": { "LAYER": "1", "GM_TYPE": "Unknown Line Type", "ELEVATION": 24 }, "geometry": { "type": "MultiLineString", "coordinates": [ [ [ 771124.937076990376227, 8981404.929694522172213 ], [ 771124.937076990376227, 8981254.929694522172213 ] ] ] } },
{ "type": "Feature", "properties": { "LAYER": "1", "GM_TYPE": "Unknown Line Type", "ELEVATION": 24 }, "geometry": { "type": "MultiLineString", "coordinates": [ [ [ 770937.437076990376227, 8981329.929694522172213 ], [ 770937.437076990376227, 8981254.929694522172213 ] ] ] } },
{ "type": "Feature", "properties": { "LAYER": "1", "GM_TYPE": "Unknown Line Type", "ELEVATION": 0 }, "geometry": { "type": "MultiLineString", "coordinates": [ [ [ 771605.94610949291382, 8979801.062022941187024 ], [ 771980.94610949291382, 8979801.062022941187024 ] ] ] } },
{ "type": "Feature", "properties": { "LAYER": "1", "GM_TYPE": "Unknown Line Type", "ELEVATION": 0 }, "geometry": { "type": "MultiLineString", "coordinates": [ [ [ 771605.94610949291382, 8979726.062022941187024 ], [ 771980.94610949291382, 8979726.062022941187024 ] ] ] } },
{ "type": "Feature", "properties": { "LAYER": "1", "GM_TYPE": "Unknown Line Type", "ELEVATION": 0 }, "geometry": { "type": "MultiLineString", "coordinates": [ [ [ 771605.94610949291382, 8979876.062022941187024 ], [ 771980.94610949291382, 8979876.062022941187024 ] ] ] } },
{ "type": "Feature", "properties": { "LAYER": "1", "GM_TYPE": "Unknown Line Type", "ELEVATION": 0 }, "geometry": { "type": "MultiLineString", "coordinates": [ [ [ 771605.94610949291382, 8979876.062022941187024 ], [ 771605.94610949291382, 8979726.062022941187024 ] ] ] } },
{ "type": "Feature", "properties": { "LAYER": "1", "GM_TYPE": "Unknown Line Type", "ELEVATION": 0 }, "geometry": { "type": "MultiLineString", "coordinates": [ [ [ 771980.94610949291382, 8979876.062022941187024 ], [ 771980.94610949291382, 8979726.062022941187024 ] ] ] } },
{ "type": "Feature", "properties": { "LAYER": "1", "GM_TYPE": "Unknown Line Type", "ELEVATION": 0 }, "geometry": { "type": "MultiLineString", "coordinates": [ [ [ 771793.44610949291382, 8979801.062022941187024 ], [ 771793.44610949291382, 8979726.062022941187024 ] ] ] } },
{ "type": "Feature", "properties": { "LAYER": "1", "GM_TYPE": "Unknown Line Type", "ELEVATION": 0 }, "geometry": { "type": "MultiLineString", "coordinates": [ [ [ 773277.433706788346171, 8980469.527393333613873 ], [ 773652.433706788346171, 8980469.527393333613873 ] ] ] } },
{ "type": "Feature", "properties": { "LAYER": "1", "GM_TYPE": "Unknown Line Type", "ELEVATION": 0 }, "geometry": { "type": "MultiLineString", "coordinates": [ [ [ 773277.433706788346171, 8980394.527393333613873 ], [ 773652.433706788346171, 8980394.527393333613873 ] ] ] } },
{ "type": "Feature", "properties": { "LAYER": "1", "GM_TYPE": "Unknown Line Type", "ELEVATION": 0 }, "geometry": { "type": "MultiLineString", "coordinates": [ [ [ 773277.433706788346171, 8980544.527393333613873 ], [ 773652.433706788346171, 8980544.527393333613873 ] ] ] } },
{ "type": "Feature", "properties": { "LAYER": "1", "GM_TYPE": "Unknown Line Type", "ELEVATION": 0 }, "geometry": { "type": "MultiLineString", "coordinates": [ [ [ 773277.433706788346171, 8980544.527393333613873 ], [ 773277.433706788346171, 8980394.527393333613873 ] ] ] } },
{ "type": "Feature", "properties": { "LAYER": "1", "GM_TYPE": "Unknown Line Type", "ELEVATION": 0 }, "geometry": { "type": "MultiLineString", "coordinates": [ [ [ 773652.433706788346171, 8980544.527393333613873 ], [ 773652.433706788346171, 8980394.527393333613873 ] ] ] } },
{ "type": "Feature", "properties": { "LAYER": "1", "GM_TYPE": "Unknown Line Type", "ELEVATION": 0 }, "geometry": { "type": "MultiLineString", "coordinates": [ [ [ 773464.933706788346171, 8980469.527393333613873 ], [ 773464.933706788346171, 8980394.527393333613873 ] ] ] } },
{ "type": "Feature", "properties": { "LAYER": "1", "GM_TYPE": "Unknown Line Type", "ELEVATION": 0 }, "geometry": { "type": "MultiLineString", "coordinates": [ [ [ 772357.419513103435747, 8982395.721564669162035 ], [ 772732.419513103435747, 8982395.721564669162035 ] ] ] } },
{ "type": "Feature", "properties": { "LAYER": "1", "GM_TYPE": "Unknown Line Type", "ELEVATION": 0 }, "geometry": { "type": "MultiLineString", "coordinates": [ [ [ 772357.419513103435747, 8982320.721564669162035 ], [ 772732.419513103435747, 8982320.721564669162035 ] ] ] } },
{ "type": "Feature", "properties": { "LAYER": "1", "GM_TYPE": "Unknown Line Type", "ELEVATION": 0 }, "geometry": { "type": "MultiLineString", "coordinates": [ [ [ 772357.419513103435747, 8982470.721564669162035 ], [ 772732.419513103435747, 8982470.721564669162035 ] ] ] } },
{ "type": "Feature", "properties": { "LAYER": "1", "GM_TYPE": "Unknown Line Type", "ELEVATION": 0 }, "geometry": { "type": "MultiLineString", "coordinates": [ [ [ 772357.419513103435747, 8982470.721564669162035 ], [ 772357.419513103435747, 8982320.721564669162035 ] ] ] } },
{ "type": "Feature", "properties": { "LAYER": "1", "GM_TYPE": "Unknown Line Type", "ELEVATION": 0 }, "geometry": { "type": "MultiLineString", "coordinates": [ [ [ 772732.419513103435747, 8982470.721564669162035 ], [ 772732.419513103435747, 8982320.721564669162035 ] ] ] } },
{ "type": "Feature", "properties": { "LAYER": "1", "GM_TYPE": "Unknown Line Type", "ELEVATION": 0 }, "geometry": { "type": "MultiLineString", "coordinates": [ [ [ 772544.919513103435747, 8982395.721564669162035 ], [ 772544.919513103435747, 8982320.721564669162035 ] ] ] } },
{ "type": "Feature", "properties": { "LAYER": "1", "GM_TYPE": "Unknown Line Type", "ELEVATION": 15 }, "geometry": { "type": "MultiLineString", "coordinates": [ [ [ 775356.894123671227135, 8981876.247346760705113 ], [ 775731.894123671227135, 8981876.247346760705113 ] ] ] } },
{ "type": "Feature", "properties": { "LAYER": "1", "GM_TYPE": "Unknown Line Type", "ELEVATION": 15 }, "geometry": { "type": "MultiLineString", "coordinates": [ [ [ 775356.894123671227135, 8981801.247346760705113 ], [ 775731.894123671227135, 8981801.247346760705113 ] ] ] } },
{ "type": "Feature", "properties": { "LAYER": "1", "GM_TYPE": "Unknown Line Type", "ELEVATION": 15 }, "geometry": { "type": "MultiLineString", "coordinates": [ [ [ 775356.894123671227135, 8981951.247346760705113 ], [ 775731.894123671227135, 8981951.247346760705113 ] ] ] } },
{ "type": "Feature", "properties": { "LAYER": "1", "GM_TYPE": "Unknown Line Type", "ELEVATION": 15 }, "geometry": { "type": "MultiLineString", "coordinates": [ [ [ 775356.894123671227135, 8981951.247346760705113 ], [ 775356.894123671227135, 8981801.247346760705113 ] ] ] } },
{ "type": "Feature", "properties": { "LAYER": "1", "GM_TYPE": "Unknown Line Type", "ELEVATION": 15 }, "geometry": { "type": "MultiLineString", "coordinates": [ [ [ 775731.894123671227135, 8981951.247346760705113 ], [ 775731.894123671227135, 8981801.247346760705113 ] ] ] } },
{ "type": "Feature", "properties": { "LAYER": "1", "GM_TYPE": "Unknown Line Type", "ELEVATION": 15 }, "geometry": { "type": "MultiLineString", "coordinates": [ [ [ 775544.394123671227135, 8981876.247346760705113 ], [ 775544.394123671227135, 8981801.247346760705113 ] ] ] } },
{ "type": "Feature", "properties": { "LAYER": "1", "GM_TYPE": "Unknown Line Type", "ELEVATION": 0 }, "geometry": { "type": "MultiLineString", "coordinates": [ [ [ 773128.747162164421752, 8983446.851783942431211 ], [ 773503.747162164421752, 8983446.851783942431211 ] ] ] } },
{ "type": "Feature", "properties": { "LAYER": "1", "GM_TYPE": "Unknown Line Type", "ELEVATION": 0 }, "geometry": { "type": "MultiLineString", "coordinates": [ [ [ 773128.747162164421752, 8983371.851783942431211 ], [ 773503.747162164421752, 8983371.851783942431211 ] ] ] } },
{ "type": "Feature", "properties": { "LAYER": "1", "GM_TYPE": "Unknown Line Type", "ELEVATION": 0 }, "geometry": { "type": "MultiLineString", "coordinates": [ [ [ 773128.747162164421752, 8983521.851783942431211 ], [ 773503.747162164421752, 8983521.851783942431211 ] ] ] } },
{ "type": "Feature", "properties": { "LAYER": "1", "GM_TYPE": "Unknown Line Type", "ELEVATION": 0 }, "geometry": { "type": "MultiLineString", "coordinates": [ [ [ 773128.747162164421752, 8983521.851783942431211 ], [ 773128.747162164421752, 8983371.851783942431211 ] ] ] } },
{ "type": "Feature", "properties": { "LAYER": "1", "GM_TYPE": "Unknown Line Type", "ELEVATION": 0 }, "geometry": { "type": "MultiLineString", "coordinates": [ [ [ 773316.247162164421752, 8983446.851783942431211 ], [ 773316.247162164421752, 8983371.851783942431211 ] ] ] } },
{ "type": "Feature", "properties": { "LAYER": "1", "GM_TYPE": "Unknown Line Type", "ELEVATION": 0 }, "geometry": { "type": "MultiLineString", "coordinates": [ [ [ 773503.747162164421752, 8983521.851783942431211 ], [ 773503.747162164421752, 8983371.851783942431211 ] ] ] } }
]
}
