{
"type": "FeatureCollection",
"name": "09_oe_li_aliranair",
"crs": { "type": "name", "properties": { "name": "urn:ogc:def:crs:EPSG::32751" } },
"features": [
{ "type": "Feature", "properties": { "LAYER": "aliran air tgl 28 peb 09", "GM_TYPE": "Unknown Line Type", "ELEVATION": 0 }, "geometry": { "type": "MultiLineString", "coordinates": [ [ [ 778290.944287706166506, 8983285.219181472435594 ], [ 778281.23205317358952, 8983262.736989222466946 ], [ 778272.344054069370031, 8983247.440313093364239 ], [ 778265.210825472255237, 8983235.748800609260798 ], [ 778231.415297003462911, 8983213.608719972893596 ], [ 778226.112569400225766, 8983201.63732161745429 ], [ 778225.550674520549364, 8983201.062945792451501 ], [ 778086.138667080085725, 8983190.692392120137811 ], [ 778058.375046797213145, 8983156.043532816693187 ], [ 777987.996264943038113, 8983147.999723415821791 ], [ 777940.042204219847918, 8983100.886901197955012 ], [ 777935.39058134239167, 8983093.694854920729995 ], [ 777915.50675637612585, 8983077.394792487844825 ], [ 777892.786910319235176, 8983053.066436978057027 ], [ 777882.509604260441847, 8983034.511115001514554 ], [ 777866.186374607961625, 8983007.841561689972878 ], [ 777852.200603605713695, 8982952.567621553316712 ], [ 777831.622595981229097, 8982913.559078484773636 ], [ 777831.115697057452053, 8982817.888297021389008 ], [ 777835.590387950651348, 8982754.502110259607434 ], [ 777830.284084547427483, 8982661.609210103750229 ], [ 777793.782048493972979, 8982626.865498032420874 ] ] ] } },
{ "type": "Feature", "properties": { "LAYER": "aliran air tgl 28 peb 09", "GM_TYPE": "Unknown Line Type", "ELEVATION": 0 }, "geometry": { "type": "MultiLineString", "coordinates": [ [ [ 778263.230149807408452, 8983320.452404104173183 ], [ 778230.083846004679799, 8983280.524598063901067 ], [ 778211.971390850376338, 8983270.682472966611385 ], [ 778178.261369773186743, 8983259.585726402699947 ], [ 778088.695385599625297, 8983272.543129308149219 ], [ 778013.592579226009548, 8983238.431855857372284 ], [ 777963.231337810750119, 8983209.746230557560921 ], [ 777922.009477479034103, 8983179.882670998573303 ], [ 777882.250431443098933, 8983147.181310968473554 ], [ 777874.898640622384846, 8983137.016277743503451 ], [ 777872.005051828920841, 8983127.445979285985231 ], [ 777855.369783855974674, 8983112.986606981605291 ], [ 777841.32900587155018, 8983078.855840237811208 ], [ 777825.068695067428052, 8983066.656744362786412 ], [ 777817.621498107444495, 8983059.525214608758688 ], [ 777785.134117470122874, 8983034.388853894546628 ], [ 777782.155928644817322, 8983024.223137395456433 ], [ 777776.564312445116229, 8982931.913920950144529 ], [ 777763.605409450945444, 8982866.04360132291913 ], [ 777710.273084528744221, 8982777.93329413421452 ], [ 777701.646363544743508, 8982752.165308184921741 ], [ 777670.097713012713939, 8982657.567957820370793 ] ] ] } },
{ "type": "Feature", "properties": { "LAYER": "aliran air tgl 28 peb 09", "GM_TYPE": "Unknown Line Type", "ELEVATION": 0 }, "geometry": { "type": "MultiLineString", "coordinates": [ [ [ 777954.558709709555842, 8983164.426771415397525 ], [ 777954.556199465529062, 8983164.425589753314853 ], [ 777897.60605233872775, 8983135.825474660843611 ], [ 777885.765109002124518, 8983131.011949375271797 ], [ 777884.428109536413103, 8983120.818585133180022 ], [ 777880.043767454219051, 8983108.044947331771255 ], [ 777875.537617968511768, 8983101.034993063658476 ], [ 777862.411295839119703, 8983084.965442858636379 ], [ 777857.056316743604839, 8983076.184550868347287 ], [ 777848.711399935302325, 8983041.349532512947917 ], [ 777853.898033428122289, 8983035.808027857914567 ], [ 777874.984272258356214, 8983071.760628933086991 ], [ 777894.703432833426632, 8983089.630930718034506 ], [ 777918.393229269539006, 8983102.704558707773685 ], [ 777927.227280758321285, 8983098.046809300780296 ], [ 777930.713778651901521, 8983105.419728817418218 ], [ 777936.653280260157771, 8983114.244258105754852 ], [ 777954.579563757055439, 8983164.485217852517962 ] ] ] } },
{ "type": "Feature", "properties": { "LAYER": "aliran air tgl 28 peb 09", "GM_TYPE": "Unknown Line Type", "ELEVATION": 0 }, "geometry": { "type": "MultiLineString", "coordinates": [ [ [ 778290.944287706166506, 8983285.219181472435594 ], [ 778263.230149807408452, 8983320.452404104173183 ] ] ] } },
{ "type": "Feature", "properties": { "LAYER": "aliran air tgl 28 peb 09", "GM_TYPE": "Unknown Line Type", "ELEVATION": 0 }, "geometry": { "type": "MultiLineString", "coordinates": [ [ [ 777793.782048493972979, 8982626.865498032420874 ], [ 777670.097713012713939, 8982657.567957820370793 ] ] ] } }
]
}
