{
"type": "FeatureCollection",
"name": "09_oe_po_bm",
"crs": { "type": "name", "properties": { "name": "urn:ogc:def:crs:EPSG::32751" } },
"features": [
{ "type": "Feature", "properties": { "NAME": "BM OB.0", "LAYER": "Legend", "GM_TYPE": "Text", "ELEVATION": 1 }, "geometry": { "type": "Point", "coordinates": [ 777775.649625054793432, 8983300.466779723763466 ] } },
{ "type": "Feature", "properties": { "NAME": "BM OB.1", "LAYER": "Legend", "GM_TYPE": "Text", "ELEVATION": 0 }, "geometry": { "type": "Point", "coordinates": [ 776679.942391410470009, 8983047.536185581237078 ] } },
{ "type": "Feature", "properties": { "NAME": "BM OB.2", "LAYER": "Legend", "GM_TYPE": "Text", "ELEVATION": 0 }, "geometry": { "type": "Point", "coordinates": [ 775471.141181067796424, 8983027.567426817491651 ] } },
{ "type": "Feature", "properties": { "NAME": "BM OB.3", "LAYER": "Legend", "GM_TYPE": "Text", "ELEVATION": 0 }, "geometry": { "type": "Point", "coordinates": [ 775546.295938955387101, 8982728.146927824243903 ] } },
{ "type": "Feature", "properties": { "NAME": "BM OB.4", "LAYER": "Legend", "GM_TYPE": "Text", "ELEVATION": 0 }, "geometry": { "type": "Point", "coordinates": [ 774708.224823740427382, 8983672.096150141209364 ] } },
{ "type": "Feature", "properties": { "NAME": "BM OB.5", "LAYER": "Legend", "GM_TYPE": "Text", "ELEVATION": 0 }, "geometry": { "type": "Point", "coordinates": [ 774106.83220662898384, 8983656.417758734896779 ] } },
{ "type": "Feature", "properties": { "NAME": "BM OB.13", "LAYER": "Legend", "GM_TYPE": "Text", "ELEVATION": 0 }, "geometry": { "type": "Point", "coordinates": [ 773247.580962705542333, 8983297.149127515032887 ] } },
{ "type": "Feature", "properties": { "NAME": "BM OB.14", "LAYER": "Legend", "GM_TYPE": "Text", "ELEVATION": 0 }, "geometry": { "type": "Point", "coordinates": [ 772665.533306461642496, 8982691.555510995909572 ] } },
{ "type": "Feature", "properties": { "NAME": "BM OB.19", "LAYER": "Legend", "GM_TYPE": "Text", "ELEVATION": 0 }, "geometry": { "type": "Point", "coordinates": [ 773072.520321975811385, 8981929.428608799353242 ] } },
{ "type": "Feature", "properties": { "NAME": "BM OB.18", "LAYER": "Legend", "GM_TYPE": "Text", "ELEVATION": 0 }, "geometry": { "type": "Point", "coordinates": [ 773548.533028069883585, 8982288.821748496964574 ] } },
{ "type": "Feature", "properties": { "NAME": "BM OB.20", "LAYER": "Legend", "GM_TYPE": "Text", "ELEVATION": 13 }, "geometry": { "type": "Point", "coordinates": [ 773103.385394585668109, 8981170.636227533221245 ] } },
{ "type": "Feature", "properties": { "NAME": "BM OB.21", "LAYER": "Legend", "GM_TYPE": "Text", "ELEVATION": 20 }, "geometry": { "type": "Point", "coordinates": [ 772924.813572821440175, 8980176.961255069822073 ] } },
{ "type": "Feature", "properties": { "NAME": "BM OB.10", "LAYER": "Legend", "GM_TYPE": "Text", "ELEVATION": 0 }, "geometry": { "type": "Point", "coordinates": [ 774934.954819279606454, 8979922.308485893532634 ] } },
{ "type": "Feature", "properties": { "NAME": "BM OB.12", "LAYER": "Legend", "GM_TYPE": "Text", "ELEVATION": 0 }, "geometry": { "type": "Point", "coordinates": [ 775775.982628435245715, 8980146.740855775773525 ] } },
{ "type": "Feature", "properties": { "NAME": "BM OB.16", "LAYER": "Legend", "GM_TYPE": "Text", "ELEVATION": 0 }, "geometry": { "type": "Point", "coordinates": [ 776510.37651152338367, 8980871.688232095912099 ] } },
{ "type": "Feature", "properties": { "NAME": "BM OB.11", "LAYER": "Legend", "GM_TYPE": "Text", "ELEVATION": 0 }, "geometry": { "type": "Point", "coordinates": [ 777523.734885031823069, 8981399.689822370186448 ] } },
{ "type": "Feature", "properties": { "NAME": "BM OB.15", "LAYER": "Legend", "GM_TYPE": "Text", "ELEVATION": 0 }, "geometry": { "type": "Point", "coordinates": [ 776895.725069216452539, 8981830.05935974419117 ] } },
{ "type": "Feature", "properties": { "NAME": "BM OB.9", "LAYER": "Legend", "GM_TYPE": "Text", "ELEVATION": 10 }, "geometry": { "type": "Point", "coordinates": [ 775348.993572748848237, 8980504.214737810194492 ] } },
{ "type": "Feature", "properties": { "NAME": "BM OB.25", "LAYER": "Legend", "GM_TYPE": "Text", "ELEVATION": 0 }, "geometry": { "type": "Point", "coordinates": [ 772040.791935476008803, 8982743.063430903479457 ] } },
{ "type": "Feature", "properties": { "NAME": "BM OB.29", "LAYER": "Legend", "GM_TYPE": "Text", "ELEVATION": 0 }, "geometry": { "type": "Point", "coordinates": [ 772365.519057946745306, 8982196.089303784072399 ] } },
{ "type": "Feature", "properties": { "NAME": "BM OB.24", "LAYER": "Legend", "GM_TYPE": "Text", "ELEVATION": 0 }, "geometry": { "type": "Point", "coordinates": [ 772000.059360600542277, 8981384.429174199700356 ] } },
{ "type": "Feature", "properties": { "NAME": "BM OB.31", "LAYER": "Legend", "GM_TYPE": "Text", "ELEVATION": 0 }, "geometry": { "type": "Point", "coordinates": [ 772331.98648671573028, 8980556.584979964420199 ] } },
{ "type": "Feature", "properties": { "NAME": "BM OB.23", "LAYER": "Legend", "GM_TYPE": "Text", "ELEVATION": 0 }, "geometry": { "type": "Point", "coordinates": [ 772897.788307235459797, 8979794.007929546758533 ] } },
{ "type": "Feature", "properties": { "NAME": "BM OB.27", "LAYER": "Legend", "GM_TYPE": "Text", "ELEVATION": 0 }, "geometry": { "type": "Point", "coordinates": [ 770668.763813727535307, 8981763.15164452418685 ] } },
{ "type": "Feature", "properties": { "NAME": "BM OB.30", "LAYER": "Legend", "GM_TYPE": "Text", "ELEVATION": 0 }, "geometry": { "type": "Point", "coordinates": [ 770846.600311968009919, 8981891.467340907081962 ] } },
{ "type": "Feature", "properties": { "NAME": "BM OB.26", "LAYER": "Legend", "GM_TYPE": "Text", "ELEVATION": 0 }, "geometry": { "type": "Point", "coordinates": [ 771505.689421479590237, 8982101.881911639124155 ] } },
{ "type": "Feature", "properties": { "NAME": "BM OB.28", "LAYER": "Legend", "GM_TYPE": "Text", "ELEVATION": 0 }, "geometry": { "type": "Point", "coordinates": [ 775821.309523809468374, 8983303.0 ] } }
]
}
