{
"type": "FeatureCollection",
"name": "09_oe_li_msaltersier",
"crs": { "type": "name", "properties": { "name": "urn:ogc:def:crs:EPSG::32751" } },
"features": [
{ "type": "Feature", "properties": { "LAYER": "MSal Tersier", "GM_TYPE": "Unknown Line Type", "ELEVATION": 0 }, "geometry": { "type": "MultiLineString", "coordinates": [ [ [ 775414.743632049299777, 8982814.263675598427653 ], [ 775391.191339667886496, 8982803.916455488651991 ], [ 775388.015188965247944, 8982796.467265635728836 ], [ 775382.54104956111405, 8982761.259497238323092 ], [ 775375.064612765796483, 8982711.802202258259058 ], [ 775367.218487960286438, 8982668.918148033320904 ], [ 775361.113573045819066, 8982620.35433342307806 ], [ 775358.875603434978984, 8982607.612405747175217 ], [ 775353.489449646440335, 8982571.204716950654984 ], [ 775345.911556280450895, 8982522.058513792231679 ], [ 775338.200764153967611, 8982472.669627714902163 ], [ 775328.903293308801949, 8982413.61716884560883 ], [ 775321.643039253773168, 8982365.790104672312737 ], [ 775314.228092327946797, 8982316.819734707474709 ], [ 775306.216548854019493, 8982267.677848488092422 ], [ 775303.183050078107044, 8982248.581469617784023 ] ] ] } },
{ "type": "Feature", "properties": { "LAYER": "MSal Tersier", "GM_TYPE": "Unknown Line Type", "ELEVATION": 0 }, "geometry": { "type": "MultiLineString", "coordinates": [ [ [ 775234.380734091741033, 8981359.013578880578279 ], [ 775233.457541978219524, 8981344.88465391099453 ], [ 775230.619030218455009, 8981295.013150131329894 ], [ 775227.186617956846021, 8981244.761106800287962 ], [ 775226.20266419055406, 8981220.126729123294353 ], [ 775224.822774755302817, 8981195.803571488708258 ], [ 775222.137928151758388, 8981146.147010192275047 ], [ 775219.322618893347681, 8981096.556011773645878 ], [ 775216.061631425051019, 8981045.434819005429745 ], [ 775212.961237602168694, 8980995.767801094800234 ], [ 775210.158967565279454, 8980946.230601722374558 ], [ 775208.451173898414709, 8980922.572647396475077 ], [ 775206.888927078456618, 8980897.247364990413189 ] ] ] } },
{ "type": "Feature", "properties": { "LAYER": "MSal Tersier", "GM_TYPE": "Unknown Line Type", "ELEVATION": 0 }, "geometry": { "type": "MultiLineString", "coordinates": [ [ [ 775190.100124960765243, 8980616.052471436560154 ], [ 775189.086080470122397, 8980594.460740819573402 ], [ 775184.923542051110417, 8980545.456820130348206 ], [ 775179.90153485070914, 8980496.081133749336004 ], [ 775173.800672552315518, 8980446.517080653458834 ], [ 775168.406249136431143, 8980397.553617294877768 ], [ 775165.706923085148446, 8980372.289829883724451 ], [ 775166.975735742948018, 8980344.646677510812879 ], [ 775156.98442104505375, 8980296.791880175471306 ], [ 775151.674257873557508, 8980245.9538299664855 ], [ 775146.130750900832936, 8980196.893619518727064 ], [ 775140.618769345222972, 8980147.046829216182232 ], [ 775140.302477397955954, 8980144.050822071731091 ] ] ] } },
{ "type": "Feature", "properties": { "LAYER": "MSal Tersier", "GM_TYPE": "Unknown Line Type", "ELEVATION": 0 }, "geometry": { "type": "MultiLineString", "coordinates": [ [ [ 775201.56176896893885, 8980604.307794820517302 ], [ 775201.062224571942352, 8980593.671152988448739 ], [ 775196.872041746973991, 8980544.341785622760653 ], [ 775191.827123938594013, 8980494.740845285356045 ], [ 775185.720127117470838, 8980445.126954674720764 ], [ 775180.336238150950521, 8980396.259109158068895 ], [ 775177.736285130842589, 8980371.925383208319545 ], [ 775179.032726257224567, 8980343.68029960244894 ], [ 775168.856010565999895, 8980294.937498312443495 ], [ 775163.604064844781533, 8980244.6568060554564 ], [ 775158.056478114333004, 8980195.560489624738693 ], [ 775154.849969050032087, 8980166.562898952513933 ] ] ] } },
{ "type": "Feature", "properties": { "LAYER": "MSal Tersier", "GM_TYPE": "Unknown Line Type", "ELEVATION": 0 }, "geometry": { "type": "MultiLineString", "coordinates": [ [ [ 775246.111746191862039, 8981354.505247689783573 ], [ 775245.435290671885014, 8981344.15248453989625 ], [ 775242.595773031353019, 8981294.263307835906744 ], [ 775239.170285345055163, 8981244.11264337413013 ], [ 775238.189092283020727, 8981219.547383010387421 ], [ 775236.80441275681369, 8981195.139790967106819 ], [ 775234.119553540367633, 8981145.482996398583055 ], [ 775231.300949849653989, 8981095.833967346698046 ], [ 775228.037810790352523, 8981044.679044939577579 ], [ 775225.116344272857532, 8980997.878367949277163 ] ] ] } },
{ "type": "Feature", "properties": { "LAYER": "MSal Tersier", "GM_TYPE": "Unknown Line Type", "ELEVATION": 0 }, "geometry": { "type": "MultiLineString", "coordinates": [ [ [ 775655.536018739338033, 8981566.057491797953844 ], [ 775744.533039950300008, 8981561.551263716071844 ], [ 775798.421941723674536, 8981557.833300160244107 ], [ 775895.272559716133401, 8981553.28621762059629 ], [ 775911.6189321835991, 8981552.309176649898291 ], [ 775958.382765425718389, 8981549.660527143627405 ], [ 775958.391862350865267, 8981549.659970305860043 ], [ 775958.400953823234886, 8981549.659330582246184 ], [ 775958.41003908822313, 8981549.658608028665185 ], [ 775958.419117389479652, 8981549.657802700996399 ], [ 775958.428187974961475, 8981549.656914670020342 ], [ 775958.437250090413727, 8981549.655944006517529 ], [ 775958.446302983094938, 8981549.654890794306993 ], [ 775958.455345900147222, 8981549.653755117207766 ], [ 775958.464378092554398, 8981549.652537073940039 ], [ 775958.473398807225749, 8981549.651236761361361 ], [ 775958.482407297822647, 8981549.649854289367795 ], [ 775958.491402813931927, 8981549.648389773443341 ], [ 775958.500384608982131, 8981549.646843332797289 ], [ 775958.509351936751045, 8981549.645215099677444 ], [ 775958.518304052180611, 8981549.643505206331611 ], [ 775958.527240213355981, 8981549.641713796183467 ], [ 775958.536159675684758, 8981549.639841016381979 ], [ 775958.545061699929647, 8981549.637887023389339 ], [ 775958.553945545922033, 8981549.635851981118321 ], [ 775958.562810476520099, 8981549.633736057206988 ], [ 775958.571655753301457, 8981549.631539426743984 ], [ 775958.580480643664487, 8981549.629262272268534 ], [ 775958.589284414076246, 8981549.626904785633087 ], [ 775958.598066332633607, 8981549.624467158690095 ], [ 775958.606825670576654, 8981549.621949596330523 ], [ 775958.61556169949472, 8981549.61935230717063 ], [ 775958.624273695866577, 8981549.616675509139895 ], [ 775958.632960932096466, 8981549.613919420167804 ], [ 775958.64162269118242, 8981549.611084271222353 ], [ 775958.650258249486797, 8981549.608170298859477 ], [ 775958.658866892452352, 8981549.6051777433604 ], [ 775958.667447904590517, 8981549.602106856182218 ], [ 775958.676000572624616, 8981549.598957888782024 ], [ 775958.684524185257033, 8981549.595731103792787 ], [ 775958.693018035963178, 8981549.592426771298051 ], [ 775958.701481419149786, 8981549.589045163244009 ], [ 775958.709913630154915, 8981549.585586560890079 ], [ 775958.718313970253803, 8981549.582051254808903 ], [ 775958.726681742235087, 8981549.57843953371048 ], [ 775958.735016249120235, 8981549.574751701205969 ], [ 775958.743316799402237, 8981549.570988062769175 ], [ 775958.751582703902386, 8981549.567148929461837 ], [ 775958.759813276003115, 8981549.563234621658921 ], [ 775958.768007831065916, 8981549.559245463460684 ], [ 775958.776165690156631, 8981549.555181788280606 ], [ 775958.784286173875444, 8981549.551043931394815 ], [ 775958.792368609691039, 8981549.546832239255309 ], [ 775958.800412323209457, 8981549.54254705645144 ], [ 775958.808416649932042, 8981549.538188744336367 ], [ 775958.816380922333337, 8981549.533757664263248 ], [ 775958.824304479639977, 8981549.529254181310534 ], [ 775958.832186663988978, 8981549.524678671732545 ], [ 775958.840026820194907, 8981549.520031513646245 ], [ 775958.847824297496118, 8981549.515313096344471 ], [ 775958.855578447575681, 8981549.510523809120059 ], [ 775958.863288626889698, 8981549.505664050579071 ], [ 775958.870954194338992, 8981549.500734224915504 ], [ 775958.878574515110813, 8981549.495734740048647 ], [ 775958.886148954043165, 8981549.490666013211012 ], [ 775958.893676882260479, 8981549.485528465360403 ], [ 775958.901157675194554, 8981549.480322521179914 ], [ 775958.908590711420402, 8981549.475048612803221 ], [ 775958.915975373936817, 8981549.469707183539867 ], [ 775958.923311047721654, 8981549.464298671111465 ], [ 775958.930597123806365, 8981549.458823526278138 ], [ 775958.937832999159582, 8981549.45328220538795 ], [ 775958.945018069935031, 8981549.447675168514252 ], [ 775958.952151741366833, 8981549.442002879455686 ], [ 775958.959233420551755, 8981549.436265813186765 ], [ 775958.966262517846189, 8981549.430464440956712 ], [ 775958.973238450242206, 8981549.424599248915911 ], [ 775958.980160639504902, 8981549.418670723214746 ], [ 775958.987028508097865, 8981549.412679355591536 ], [ 775958.993841487681493, 8981549.406625643372536 ], [ 775959.000599012244493, 8981549.400510091334581 ], [ 775959.007300519151613, 8981549.394333204254508 ], [ 775959.013945452985354, 8981549.388095498085022 ], [ 775959.020533261238597, 8981549.381797490641475 ], [ 775959.027063395828009, 8981549.375439703464508 ], [ 775959.033535316237248, 8981549.36902266740799 ], [ 775959.039948483463377, 8981549.362546911463141 ], [ 775959.046302364789881, 8981549.356012975797057 ], [ 775959.052596433321014, 8981549.34942140430212 ], [ 775959.05883016565349, 8981549.342772742733359 ], [ 775959.065003045718186, 8981549.336067546159029 ], [ 775959.071114556863904, 8981549.329306365922093 ], [ 775959.077164195361547, 8981549.322489770129323 ], [ 775959.083151455735788, 8981549.315618319436908 ], [ 775959.089075842523016, 8981549.308692587539554 ], [ 775959.094936864217743, 8981549.301713149994612 ], [ 775959.100734031177126, 8981549.294680584222078 ], [ 775959.106466864817776, 8981549.287595478817821 ], [ 775959.112134887953289, 8981549.28045841678977 ], [ 775959.117737628286704, 8981549.273269994184375 ], [ 775959.123274623183534, 8981549.266030808910728 ], [ 775959.128745408961549, 8981549.258741460740566 ], [ 775959.134149534977041, 8981549.251402553170919 ], [ 775959.139486550819129, 8981549.244014700874686 ], [ 775959.144756013411097, 8981549.236578512936831 ], [ 775959.14995748444926, 8981549.229094609618187 ], [ 775959.155090531683527, 8981549.22156361117959 ], [ 775959.160154730430804, 8981549.21398614346981 ], [ 775959.165149657870643, 8981549.206362836062908 ], [ 775959.170074900262989, 8981549.198694322258234 ], [ 775959.174930048524402, 8981549.190981239080429 ], [ 775959.179714698693715, 8981549.18322422541678 ], [ 775959.184428454493172, 8981549.175423929467797 ], [ 775959.189070924418047, 8981549.167580997571349 ], [ 775959.193641720688902, 8981549.159696077927947 ], [ 775959.198140466236509, 8981549.151769829913974 ], [ 775959.202566786087118, 8981549.143802911043167 ], [ 775959.20692031190265, 8981549.13579598069191 ], [ 775959.211200683261268, 8981549.127749705687165 ], [ 775959.215407544979826, 8981549.119664754718542 ], [ 775959.219540545716882, 8981549.111541798338294 ], [ 775959.223599344841205, 8981549.10338151268661 ], [ 775959.227583603118546, 8981549.09518457390368 ], [ 775959.231492989230901, 8981549.086951663717628 ], [ 775959.235327180125751, 8981549.078683463856578 ], [ 775959.239085856708698, 8981549.070380665361881 ], [ 775959.242768706870265, 8981549.062043955549598 ], [ 775959.24637542408891, 8981549.053674027323723 ], [ 775959.249905708362348, 8981549.045271573588252 ], [ 775959.253359268652275, 8981549.036837296560407 ], [ 775959.256735816365108, 8981549.028371894732118 ], [ 775959.260035071289167, 8981549.019876070320606 ], [ 775959.263256759266369, 8981549.011350529268384 ], [ 775959.26640061289072, 8981549.002795981243253 ], [ 775959.269466370926239, 8981548.994213134050369 ], [ 775959.272453779121861, 8981548.985602704808116 ], [ 775959.275362588930875, 8981548.97696540504694 ], [ 775959.278192557860166, 8981548.968301951885223 ], [ 775959.280943453544751, 8981548.95961306989193 ], [ 775959.283615044085309, 8981548.950899474322796 ], [ 775959.286207110155374, 8981548.942161895334721 ], [ 775959.288719434873201, 8981548.933401053771377 ], [ 775959.291151811135933, 8981548.924617679789662 ], [ 775959.293504035333171, 8981548.915812501683831 ], [ 775959.295775912702084, 8981548.906986251473427 ], [ 775959.297967254766263, 8981548.898139661177993 ], [ 775959.300077879335731, 8981548.889273468405008 ], [ 775959.302107610157691, 8981548.880388407036662 ], [ 775959.304056280292571, 8981548.871485216543078 ], [ 775959.305923727923073, 8981548.862564636394382 ], [ 775959.307709795655683, 8981548.853627406060696 ], [ 775959.30941433715634, 8981548.84467427060008 ], [ 775959.311037210864015, 8981548.835705971345305 ], [ 775959.312578280339949, 8981548.826723251491785 ], [ 775959.314037418575026, 8981548.817726861685514 ], [ 775959.315414504730143, 8981548.808717546984553 ], [ 775959.316709424951114, 8981548.799696056172252 ], [ 775959.317922068876214, 8981548.79066313803196 ], [ 775959.319052339880727, 8981548.781619543209672 ], [ 775959.320100139710121, 8981548.772566022351384 ], [ 775959.32106538512744, 8981548.763503329828382 ], [ 775959.321947993827052, 8981548.754432214424014 ], [ 775959.322747893398628, 8981548.745353432372212 ], [ 775959.323465016437694, 8981548.736267738044262 ], [ 775959.324099304270931, 8981548.727175883948803 ], [ 775959.324650704627857, 8981548.718078628182411 ], [ 775959.32511916954536, 8981548.708976723253727 ], [ 775959.325504662236199, 8981548.699870927259326 ], [ 775959.325807149871252, 8981548.690761996433139 ], [ 775959.326026608119719, 8981548.681650688871741 ], [ 775959.326163016958162, 8981548.672537757083774 ], [ 775959.326216367306188, 8981548.663423961028457 ], [ 775959.326186653343029, 8981548.654310058802366 ], [ 775959.326073877629824, 8981548.645196804776788 ], [ 775959.325878049712628, 8981548.636084957048297 ], [ 775959.325599184958264, 8981548.626975271850824 ], [ 775959.325237308978103, 8981548.617868507280946 ], [ 775959.324792448547669, 8981548.608765417709947 ], [ 775959.324264643946663, 8981548.599666763097048 ], [ 775959.323653936386108, 8981548.590573294088244 ], [ 775959.32296037778724, 8981548.581485770642757 ], [ 775959.322184025775641, 8981548.572404945269227 ], [ 775959.321324945311062, 8981548.563331572338939 ], [ 775959.32038320612628, 8981548.554266404360533 ], [ 775959.319358887965791, 8981548.54521019756794 ], [ 775959.318252075347118, 8981548.536163702607155 ], [ 775958.058328676153906, 8981538.61354935914278 ], [ 775955.905002492945641, 8981499.912292201071978 ], [ 775954.510479268734343, 8981479.538603287190199 ], [ 775951.021895144600421, 8981430.053865317255259 ], [ 775947.991043189773336, 8981382.509751822799444 ], [ 775945.345934786368161, 8981338.391599994152784 ], [ 775943.047229441814125, 8981297.836613958701491 ], [ 775941.02817164955195, 8981270.502837527543306 ], [ 775938.421061340370215, 8981223.811767362058163 ], [ 775935.936699402984232, 8981182.212230522185564 ], [ 775933.673153246287256, 8981154.306995052844286 ], [ 775931.393139692954719, 8981123.819526053965092 ], [ 775929.265050824615173, 8981085.513486471027136 ], [ 775926.208320641191676, 8981038.289336899295449 ], [ 775923.712845788570121, 8980998.781150434166193 ], [ 775921.070186321623623, 8980930.395269505679607 ] ] ] } },
{ "type": "Feature", "properties": { "LAYER": "MSal Tersier", "GM_TYPE": "Unknown Line Type", "ELEVATION": 0 }, "geometry": { "type": "MultiLineString", "coordinates": [ [ [ 775958.526808260707185, 8981542.303092904388905 ], [ 775958.058328676153906, 8981538.61354935914278 ], [ 775955.905002492945641, 8981499.912292201071978 ], [ 775954.510479268734343, 8981479.538603287190199 ], [ 775951.021895144600421, 8981430.053865317255259 ], [ 775947.991043189773336, 8981382.509751822799444 ], [ 775945.345934786368161, 8981338.391599994152784 ], [ 775943.047229441814125, 8981297.836613958701491 ], [ 775941.02817164955195, 8981270.502837527543306 ], [ 775938.421061340370215, 8981223.811767362058163 ], [ 775935.936699402984232, 8981182.212230522185564 ], [ 775933.673153246287256, 8981154.306995052844286 ], [ 775931.393139692954719, 8981123.819526053965092 ], [ 775929.265050824615173, 8981085.513486471027136 ], [ 775926.208320641191676, 8981038.289336899295449 ], [ 775923.712845788570121, 8980998.781150434166193 ], [ 775921.070186321623623, 8980930.395269505679607 ] ] ] } },
{ "type": "Feature", "properties": { "LAYER": "MSal Tersier", "GM_TYPE": "Unknown Line Type", "ELEVATION": 0 }, "geometry": { "type": "MultiLineString", "coordinates": [ [ [ 775920.886788178002462, 8980925.378736795857549 ], [ 775919.661805395269766, 8980889.700513776391745 ], [ 775918.619011473376304, 8980857.978669289499521 ], [ 775916.579961345880292, 8980824.801840782165527 ], [ 775912.025142935104668, 8980771.417873837053776 ], [ 775908.735605566296726, 8980726.394535731524229 ], [ 775906.674785550218076, 8980684.565550062805414 ], [ 775904.201297019375488, 8980622.82747071236372 ] ] ] } },
{ "type": "Feature", "properties": { "LAYER": "MSal Tersier", "GM_TYPE": "Unknown Line Type", "ELEVATION": 0 }, "geometry": { "type": "MultiLineString", "coordinates": [ [ [ 775904.199710986460559, 8980622.786039685830474 ], [ 775901.076035558478907, 8980576.486069152131677 ], [ 775898.815340321743861, 8980540.215829217806458 ], [ 775896.609388129552826, 8980507.637495402246714 ], [ 775895.169774241861887, 8980472.101671811193228 ] ] ] } },
{ "type": "Feature", "properties": { "LAYER": "MSal Tersier", "GM_TYPE": "Unknown Line Type", "ELEVATION": 0 }, "geometry": { "type": "MultiLineString", "coordinates": [ [ [ 776658.388224743073806, 8980874.762212865054607 ], [ 776658.843262790469453, 8980890.396143782883883 ], [ 776661.796043124049902, 8980928.234306499361992 ], [ 776663.22893273702357, 8980953.043411299586296 ], [ 776663.781709783361293, 8980964.337848845869303 ], [ 776665.377242702292278, 8980989.690387297421694 ], [ 776667.698096636217088, 8981032.254610288888216 ], [ 776670.298161401413381, 8981082.681587364524603 ], [ 776671.874532696558163, 8981113.016004450619221 ], [ 776674.948203973472118, 8981170.977454191073775 ], [ 776677.241315984516405, 8981215.556942578405142 ], [ 776679.220158362993971, 8981259.60893889516592 ], [ 776681.577708219527267, 8981303.908180579543114 ], [ 776685.796326507232152, 8981363.955295698717237 ], [ 776687.201653411844745, 8981397.208050955086946 ], [ 776689.307894566096365, 8981425.812896523624659 ], [ 776690.303195093641989, 8981448.556239701807499 ], [ 776693.770576749229804, 8981499.280775409191847 ], [ 776693.955680164857768, 8981503.676930598914623 ] ] ] } },
{ "type": "Feature", "properties": { "LAYER": "MSal Tersier", "GM_TYPE": "Unknown Line Type", "ELEVATION": 0 }, "geometry": { "type": "MultiLineString", "coordinates": [ [ [ 772857.393494050484151, 8982564.108594175428152 ], [ 772853.995117116370238, 8982484.441433204337955 ], [ 772850.112544867675751, 8982407.25115067511797 ], [ 772845.507705427473411, 8982314.19641961529851 ], [ 772840.517110956599936, 8982205.409469522535801 ], [ 772838.234456037753262, 8982126.292700719088316 ] ] ] } },
{ "type": "Feature", "properties": { "LAYER": "MSal Tersier", "GM_TYPE": "Unknown Line Type", "ELEVATION": 0 }, "geometry": { "type": "MultiLineString", "coordinates": [ [ [ 773790.200323469704017, 8981241.105174615979195 ], [ 773788.731725463876501, 8981361.25128274038434 ], [ 773793.307957417098805, 8981460.586927581578493 ], [ 773799.160084268311039, 8981674.885980540886521 ], [ 773811.843160340329632, 8981979.120723996311426 ], [ 773818.048670729040168, 8982157.406951606273651 ] ] ] } },
{ "type": "Feature", "properties": { "LAYER": "MSal Tersier", "GM_TYPE": "Unknown Line Type", "ELEVATION": 0 }, "geometry": { "type": "MultiLineString", "coordinates": [ [ [ 775251.99441226455383, 8981788.744068540632725 ], [ 775255.19519232888706, 8981867.56678818911314 ], [ 775259.377977101830766, 8981917.094381418079138 ], [ 775263.158769356436096, 8981967.032453343272209 ], [ 775263.728019405738451, 8982016.293216457590461 ], [ 775265.644346863031387, 8982065.706172177568078 ], [ 775266.93682114337571, 8982116.860009226948023 ], [ 775272.023042879649438, 8982167.045462109148502 ], [ 775276.453587690251879, 8982207.614515785127878 ] ] ] } },
{ "type": "Feature", "properties": { "LAYER": "MSal Tersier", "GM_TYPE": "Unknown Line Type", "ELEVATION": 0 }, "geometry": { "type": "MultiLineString", "coordinates": [ [ [ 775336.207781422534026, 8982574.956962127238512 ], [ 775341.247006621910259, 8982610.092032104730606 ], [ 775342.079510961542837, 8982622.920961998403072 ], [ 775350.708378484821878, 8982671.78022126108408 ], [ 775358.98166321835015, 8982714.227567426860332 ], [ 775363.607306764810346, 8982763.634112689644098 ], [ 775368.620318526634946, 8982801.629151474684477 ], [ 775378.815246592857875, 8982835.339385319501162 ], [ 775379.557730381609872, 8982842.541325896978378 ], [ 775380.838323827600107, 8982851.773527693003416 ] ] ] } },
{ "type": "Feature", "properties": { "LAYER": "MSal Tersier", "GM_TYPE": "Unknown Line Type", "ELEVATION": 0 }, "geometry": { "type": "MultiLineString", "coordinates": [ [ [ 776855.191500847227871, 8983104.927231047302485 ], [ 776808.464766146847978, 8983119.744140790775418 ], [ 776759.014938788255677, 8983129.808748316019773 ], [ 776710.088903052615933, 8983138.291304383426905 ], [ 776661.046196635114029, 8983148.265631660819054 ], [ 776611.698761089937761, 8983156.463502056896687 ], [ 776587.182632591226138, 8983160.579653847962618 ], [ 776562.483058088342659, 8983164.642741367220879 ], [ 776513.616764395497739, 8983173.944248573854566 ], [ 776467.656507563777268, 8983189.398242678493261 ], [ 776442.962583913118578, 8983229.45411417260766 ], [ 776421.163473929278553, 8983274.128730285912752 ], [ 776392.946132290177047, 8983315.008270211517811 ], [ 776361.058493588585407, 8983334.85101474635303 ], [ 776313.733761578798294, 8983350.705962577834725 ], [ 776264.879479913972318, 8983359.008426584303379 ], [ 776245.682182028307579, 8983363.179396979510784 ], [ 776218.667841323651373, 8983363.737486504018307 ], [ 776184.391192941460758, 8983324.736650770530105 ], [ 776152.469967242795974, 8983286.65196530893445 ], [ 776119.973531749099493, 8983249.218810349702835 ], [ 776088.220038286177441, 8983211.801756206899881 ], [ 776076.513578020967543, 8983197.458753954619169 ], [ 776055.978227562387474, 8983173.091689836233854 ], [ 776022.255415900028311, 8983135.20485208556056 ], [ 775990.986214974196628, 8983095.770687008276582 ], [ 775956.898954470292665, 8983063.305463073775172 ], [ 775913.249484575004317, 8983041.587533846497536 ], [ 775877.373027917114086, 8983023.283560255542397 ], [ 775868.380123618408106, 8983018.726807076483965 ], [ 775822.155422458890826, 8983001.152730761095881 ], [ 775777.146915748715401, 8982979.803395323455334 ], [ 775732.202252772985958, 8982959.804240267723799 ], [ 775722.606612585950643, 8982955.198560331016779 ] ] ] } },
{ "type": "Feature", "properties": { "LAYER": "MSal Tersier", "GM_TYPE": "Unknown Line Type", "ELEVATION": 0 }, "geometry": { "type": "MultiLineString", "coordinates": [ [ [ 774484.266858828486875, 8983440.896765764802694 ], [ 774463.015607899636962, 8983455.878699477761984 ], [ 774432.569032761035487, 8983471.854197330772877 ], [ 774385.709691495052539, 8983493.655984830111265 ], [ 774353.742641406599432, 8983530.796954125165939 ], [ 774322.895625381730497, 8983569.862954864278436 ], [ 774292.063750863075256, 8983609.293118352070451 ], [ 774261.282067072112113, 8983648.049369748681784 ], [ 774228.956046578707173, 8983686.502870915457606 ], [ 774198.646306166308932, 8983726.593645371496677 ], [ 774167.88496400299482, 8983765.787809671834111 ], [ 774153.121169981779531, 8983784.345026228576899 ], [ 774136.716344610089436, 8983805.205289375036955 ], [ 774114.085073801339604, 8983830.493096731603146 ], [ 774073.670427137985826, 8983855.98123386874795 ], [ 774022.118588937097229, 8983852.364875752478838 ], [ 774002.240419229958206, 8983839.045907493680716 ], [ 773984.389245715923607, 8983820.613833125680685 ], [ 773950.103258400806226, 8983785.589036680757999 ], [ 773915.773085468448699, 8983750.45822224766016 ], [ 773904.35737012536265, 8983739.421530351042747 ], [ 773881.005784090724774, 8983719.765448093414307 ], [ 773840.841972615220584, 8983712.382754625752568 ], [ 773791.542448012740351, 8983714.840914418920875 ], [ 773740.940757751348428, 8983716.664838973432779 ], [ 773712.280958728864789, 8983712.239627994596958 ], [ 773693.902657711645588, 8983701.146446462720633 ], [ 773669.481858792249113, 8983673.935970177873969 ], [ 773639.574645006447099, 8983634.006675768643618 ], [ 773611.745208802400157, 8983592.655310221016407 ], [ 773601.183812630944885, 8983562.139848951250315 ], [ 773597.866586444550194, 8983545.333287872374058 ], [ 773588.984018961666152, 8983496.479383215308189 ], [ 773579.551394084002823, 8983447.313384996727109 ], [ 773578.247878189431503, 8983441.444842722266912 ] ] ] } },
{ "type": "Feature", "properties": { "LAYER": "MSal Tersier", "GM_TYPE": "Unknown Line Type", "ELEVATION": 0 }, "geometry": { "type": "MultiLineString", "coordinates": [ [ [ 773381.679567285114899, 8983124.920532047748566 ], [ 773373.57013686245773, 8983111.900416480377316 ], [ 773386.758097494137473, 8983062.840793777257204 ] ] ] } },
{ "type": "Feature", "properties": { "LAYER": "MSal Tersier", "GM_TYPE": "Unknown Line Type", "ELEVATION": 0 }, "geometry": { "type": "MultiLineString", "coordinates": [ [ [ 775377.314178194850683, 8982874.354963909834623 ], [ 775362.085991827072576, 8982885.528322856873274 ], [ 775341.025369085953571, 8982883.920771855860949 ], [ 775291.988370329258032, 8982879.147432904690504 ], [ 775241.425384277128614, 8982873.593241348862648 ], [ 775192.114917606231757, 8982868.946517039090395 ], [ 775143.076428037136793, 8982863.88308996334672 ], [ 775093.260359814041294, 8982858.175329610705376 ], [ 775043.426492819096893, 8982853.323783062398434 ], [ 774994.345514570362866, 8982852.89190074428916 ], [ 774948.715204235864803, 8982872.45552035421133 ], [ 774905.001863335841335, 8982896.651203544810414 ], [ 774860.837554524186999, 8982920.712635383009911 ], [ 774816.544359283288941, 8982944.630174579098821 ], [ 774772.21601512900088, 8982968.774935018271208 ], [ 774724.871251793112606, 8982986.054868265986443 ], [ 774678.74860632722266, 8983001.261081483215094 ], [ 774675.71812611061614, 8983002.23599630407989 ] ] ] } },
{ "type": "Feature", "properties": { "LAYER": "MSal Tersier", "GM_TYPE": "Unknown Line Type", "ELEVATION": 0 }, "geometry": { "type": "MultiLineString", "coordinates": [ [ [ 777663.329262796323746, 8983014.056705132126808 ], [ 777653.624616400338709, 8983016.175240408629179 ], [ 777622.913939872873016, 8983017.863224230706692 ], [ 777588.772441044449806, 8983020.243320241570473 ], [ 777554.522894375724718, 8983022.510298650711775 ], [ 777538.209342191927135, 8983013.983101312071085 ], [ 777499.897665512282401, 8982981.867211988195777 ], [ 777481.523978342302144, 8982966.885364688932896 ], [ 777461.566375860129483, 8982950.398389801383018 ], [ 777422.686283105053008, 8982919.593329168856144 ], [ 777376.398394064046443, 8982932.215716041624546 ], [ 777328.715589222963899, 8982947.647032940760255 ], [ 777281.876596246147528, 8982962.915518648922443 ], [ 777234.483799615874887, 8982978.951260641217232 ], [ 777187.02038832870312, 8982993.566193472594023 ], [ 777140.062434562831186, 8983010.174398552626371 ], [ 777092.354301791172475, 8983025.773152064532042 ], [ 777044.510389510309324, 8983041.221048511564732 ], [ 776996.756252073217183, 8983057.129564397037029 ], [ 776948.837598613463342, 8983072.598466288298368 ], [ 776924.171232132124715, 8983081.051102010533214 ] ] ] } },
{ "type": "Feature", "properties": { "LAYER": "MSal Tersier", "GM_TYPE": "Unknown Line Type", "ELEVATION": 0 }, "geometry": { "type": "MultiLineString", "coordinates": [ [ [ 772764.53664483805187, 8980554.928561873733997 ], [ 772767.187936836038716, 8980608.630068264901638 ], [ 772770.416668832069263, 8980673.79456827044487 ], [ 772773.094048506114632, 8980744.481982842087746 ], [ 772776.513325596693903, 8980814.149255316704512 ], [ 772779.391339557711035, 8980879.953612040728331 ], [ 772782.859501515747979, 8980946.928760342299938 ], [ 772785.528296541888267, 8981008.148079335689545 ], [ 772787.547136410954408, 8981067.424891665577888 ], [ 772788.22202960588038, 8981082.47818909958005 ], [ 772791.412247412721626, 8981161.059206517413259 ], [ 772795.107855322537944, 8981237.36472893692553 ], [ 772797.651102303294465, 8981283.972024090588093 ], [ 772797.651615292881615, 8981283.980727557092905 ], [ 772797.652204144280404, 8981283.989426219835877 ], [ 772797.652868813718669, 8981283.998119415715337 ], [ 772797.653609248693101, 8981284.006806489080191 ], [ 772797.654425393091515, 8981284.015486776828766 ], [ 772797.655317185679451, 8981284.024159617722034 ], [ 772797.656284558936022, 8981284.032824354246259 ], [ 772797.657327439286746, 8981284.041480327025056 ], [ 772797.658445745939389, 8981284.050126880407333 ], [ 772797.659639394842088, 8981284.058763353154063 ], [ 772797.66090829577297, 8981284.067389091476798 ], [ 772797.66225235175807, 8981284.076003439724445 ], [ 772797.663671460933983, 8981284.084605742245913 ], [ 772797.665165515732951, 8981284.093195343390107 ], [ 772797.666734401136637, 8981284.101771594956517 ], [ 772797.668378000031225, 8981284.110333839431405 ], [ 772797.670096185524017, 8981284.118881430476904 ], [ 772797.671888827579096, 8981284.127413718029857 ], [ 772797.673755790921859, 8981284.135930050164461 ], [ 772797.675696931313723, 8981284.144429782405496 ], [ 772797.677712103701197, 8981284.152912268415093 ], [ 772797.679801154066809, 8981284.161376861855388 ], [ 772797.681963923387229, 8981284.169822920113802 ], [ 772797.684200247982517, 8981284.17824980057776 ], [ 772797.686509956489317, 8981284.18665686249733 ], [ 772797.688892873353325, 8981284.195043470710516 ], [ 772797.691348819877021, 8981284.203408982604742 ], [ 772797.693877607118338, 8981284.211752764880657 ], [ 772797.696479042177089, 8981284.220074184238911 ], [ 772797.699152929941192, 8981284.228372605517507 ], [ 772797.701899064937606, 8981284.23664740100503 ], [ 772797.704717240063474, 8981284.244897937402129 ], [ 772797.707607240299694, 8981284.253123588860035 ], [ 772797.710568844922818, 8981284.261323735117912 ], [ 772797.713601830764674, 8981284.269497746601701 ], [ 772797.716705965343863, 8981284.277645004913211 ], [ 772797.719881014316343, 8981284.285764889791608 ], [ 772797.723126736469567, 8981284.293856784701347 ], [ 772797.726442883373238, 8981284.30192007496953 ], [ 772797.72982920485083, 8981284.309954145923257 ], [ 772797.733285441645421, 8981284.317958388477564 ], [ 772797.736811332404613, 8981284.325932193547487 ], [ 772797.740406609023921, 8981284.333874955773354 ], [ 772797.744070996763185, 8981284.341786069795489 ], [ 772797.74780421925243, 8981284.349664935842156 ], [ 772797.751605990924872, 8981284.357510954141617 ], [ 772797.755476024351083, 8981284.365323526784778 ], [ 772797.759414023370482, 8981284.373102065175772 ], [ 772797.763419690076262, 8981284.380845973268151 ], [ 772797.767492721090093, 8981284.388554660603404 ], [ 772797.771632803254761, 8981284.396227549761534 ], [ 772797.775839625392109, 8981284.403864048421383 ], [ 772797.78011286619585, 8981284.411463579162955 ], [ 772797.784452201682143, 8981284.4190255664289 ], [ 772797.788857300532982, 8981284.42654943279922 ], [ 772797.793327828519978, 8981284.434034608304501 ], [ 772797.797863446758129, 8981284.441480522975326 ], [ 772797.802463808446191, 8981284.448886612430215 ], [ 772797.807128565851599, 8981284.456252310425043 ], [ 772797.811857363791205, 8981284.463577058166265 ], [ 772797.816649843472987, 8981284.470860300585628 ], [ 772797.821505638770759, 8981284.478101482614875 ], [ 772797.82642438239418, 8981284.485300054773688 ], [ 772797.831405699718744, 8981284.492455467581749 ], [ 772797.836449211696163, 8981284.499567180871964 ], [ 772797.841554535552859, 8981284.506634652614594 ], [ 772797.846721282694489, 8981284.513657342642546 ], [ 772797.851949061034247, 8981284.520634721964598 ], [ 772797.857237472897395, 8981284.527566256001592 ], [ 772797.862586115836166, 8981284.534451421350241 ], [ 772797.867994584375992, 8981284.541289690881968 ], [ 772797.873462465591729, 8981284.548080548644066 ], [ 772797.878989346441813, 8981284.554823474958539 ], [ 772797.884574804105796, 8981284.561517961323261 ], [ 772797.890218416578136, 8981284.568163493648171 ], [ 772797.895919752307236, 8981284.57475957274437 ], [ 772797.90167838067282, 8981284.58130569010973 ], [ 772797.907493860577233, 8981284.587801355868578 ], [ 772797.913365752552636, 8981284.594246070832014 ], [ 772797.919293609797023, 8981284.600639348849654 ], [ 772797.925276982132345, 8981284.606980698183179 ], [ 772797.93131541297771, 8981284.613269643858075 ], [ 772797.937408444122411, 8981284.619505703449249 ], [ 772797.943555613514036, 8981284.625688403844833 ], [ 772797.949756453512236, 8981284.631817273795605 ], [ 772797.956010491470806, 8981284.637891851365566 ], [ 772797.962317253346555, 8981284.643911670893431 ], [ 772797.968676258693449, 8981284.649876276031137 ], [ 772797.975087024504319, 8981284.655785214155912 ], [ 772797.981549064978026, 8981284.661638034507632 ], [ 772797.988061885815114, 8981284.667434295639396 ], [ 772797.994624995160848, 8981284.673173552379012 ], [ 772798.001237892429344, 8981284.678855370730162 ], [ 772798.007900074706413, 8981284.684479320421815 ], [ 772798.014611036516726, 8981284.690044969320297 ], [ 772798.021370266680606, 8981284.695551900193095 ], [ 772798.028177252388559, 8981284.70099969021976 ], [ 772798.035031476523727, 8981284.706387925893068 ], [ 772798.041932417312637, 8981284.711716199293733 ], [ 772798.048879549140111, 8981284.71698410436511 ], [ 772798.055872345925309, 8981284.722191240638494 ], [ 772798.062910275300965, 8981284.727337211370468 ], [ 772798.069992803269997, 8981284.732421627268195 ], [ 772798.07711938850116, 8981284.737444100901484 ], [ 772798.084289492690004, 8981284.742404250428081 ], [ 772798.091502568218857, 8981284.747301699593663 ], [ 772798.098758069216274, 8981284.752136075869203 ], [ 772798.106055441661738, 8981284.756907010450959 ], [ 772798.113394133513793, 8981284.761614141985774 ], [ 772798.120773584465496, 8981284.766257110983133 ], [ 772798.128193235141225, 8981284.770835567265749 ], [ 772798.135652520693839, 8981284.775349160656333 ], [ 772798.14315087441355, 8981284.779797550290823 ], [ 772798.150687726796605, 8981284.784180395305157 ], [ 772798.158262504148297, 8981284.788497364148498 ], [ 772798.165874631260522, 8981284.792748128995299 ], [ 772798.173523528734222, 8981284.796932365745306 ], [ 772798.181208615889773, 8981284.801049755886197 ], [ 772798.18892930902075, 8981284.805099986493587 ], [ 772798.196685019531287, 8981284.809082752093673 ], [ 772798.204475159640424, 8981284.812997749075294 ], [ 772798.212299136444926, 8981284.816844675689936 ], [ 772798.220156356226653, 8981284.820623245090246 ], [ 772798.228046219563112, 8981284.824333166703582 ], [ 772798.235968128428794, 8981284.82797416113317 ], [ 772798.24392148014158, 8981284.831545948982239 ], [ 772798.25190566922538, 8981284.835048262029886 ], [ 772798.259920090553351, 8981284.838480830192566 ], [ 772798.267964133759961, 8981284.841843392699957 ], [ 772798.276037189294584, 8981284.845135696232319 ], [ 772798.284138639457524, 8981284.848357493057847 ], [ 772798.292267872486264, 8981284.851508531719446 ], [ 772798.300424269167706, 8981284.854588575661182 ], [ 772798.308607207727619, 8981284.857597392052412 ], [ 772798.316816068720073, 8981284.860534751787782 ], [ 772798.325050226179883, 8981284.863400431349874 ], [ 772798.33330905623734, 8981284.86619421094656 ], [ 772798.341591928736307, 8981284.868915881961584 ], [ 772798.349898215848953, 8981284.871565233916044 ], [ 772798.358227285905741, 8981284.874142067506909 ], [ 772798.366578504559584, 8981284.876646187156439 ], [ 772798.374951238860376, 8981284.879077399149537 ], [ 772798.383344850502908, 8981284.881435522809625 ], [ 772798.391758703044616, 8981284.883720377460122 ], [ 772798.400192156783305, 8981284.885931788012385 ], [ 772798.408644569339231, 8981284.888069588690996 ], [ 772798.417115299962461, 8981284.890133615583181 ], [ 772798.425603702780791, 8981284.892123712226748 ], [ 772798.434109133435413, 8981284.89403972774744 ], [ 772798.442630946752615, 8981284.895881513133645 ], [ 772798.451168492552824, 8981284.897648934274912 ], [ 772798.459721124731004, 8981284.899341851472855 ], [ 772798.468288190313615, 8981284.900960139930248 ], [ 772798.476869038539007, 8981284.902503674849868 ], [ 772798.485463019926101, 8981284.903972338885069 ], [ 772798.494069478125311, 8981284.905366020277143 ], [ 772798.502687759581022, 8981284.90668461471796 ], [ 772798.511317210039124, 8981284.907928019762039 ], [ 772798.519957173266448, 8981284.909096140414476 ], [ 772798.528606992331333, 8981284.910188890993595 ], [ 772798.537266010651365, 8981284.911206185817719 ], [ 772798.545933567802422, 8981284.912147948518395 ], [ 772798.554609006852843, 8981284.91301410831511 ], [ 772798.563291667727754, 8981284.913804598152637 ], [ 772798.571980889770202, 8981284.914519358426332 ], [ 772798.580676014069468, 8981284.915158333256841 ], [ 772798.589376378105953, 8981284.915721476078033 ], [ 772798.5980813219212, 8981284.916208744049072 ], [ 772798.606790182879195, 8981284.916620099917054 ], [ 772798.615502299275249, 8981284.916955512017012 ], [ 772798.624217009288259, 8981284.917214952409267 ], [ 772798.632933649932966, 8981284.91739840619266 ], [ 772798.64165155752562, 8981284.917505856603384 ], [ 772798.650370071292855, 8981284.917537296190858 ], [ 772798.659088528132997, 8981284.917492723092437 ], [ 772798.667806265293621, 8981284.917372137308121 ], [ 772798.676522619323805, 8981284.917175553739071 ], [ 772798.685236927238293, 8981284.916902983561158 ], [ 772798.693948528845794, 8981284.916554447263479 ], [ 772798.702656760811806, 8981284.916129970923066 ], [ 772938.580519142560661, 8981277.486557066440582 ], [ 772997.335048526059836, 8981275.13259663619101 ], [ 773047.656501252553426, 8981272.588455457240343 ], [ 773100.646699738455936, 8981269.916895441710949 ], [ 773151.194665114628151, 8981267.710978589951992 ], [ 773197.313448664848693, 8981265.748349111527205 ] ] ] } },
{ "type": "Feature", "properties": { "LAYER": "MSal Tersier", "GM_TYPE": "Unknown Line Type", "ELEVATION": 0 }, "geometry": { "type": "MultiLineString", "coordinates": [ [ [ 772829.590409924392588, 8981967.077722780406475 ], [ 772830.601933457772247, 8982000.713060477748513 ], [ 772834.212154158041812, 8982077.287670738995075 ], [ 772838.234456037753262, 8982126.292700719088316 ] ] ] } },
{ "type": "Feature", "properties": { "LAYER": "MSal Tersier", "GM_TYPE": "Unknown Line Type", "ELEVATION": 0 }, "geometry": { "type": "MultiLineString", "coordinates": [ [ [ 773846.952979034511372, 8982370.236318422481418 ], [ 773846.67874258919619, 8982363.013770701363683 ], [ 773828.409491064492613, 8981990.128898192197084 ], [ 773829.69517589721363, 8981920.727882709354162 ], [ 773826.776517551043071, 8981847.07224664837122 ], [ 773823.73646262800321, 8981779.626479059457779 ], [ 773820.867890733061358, 8981684.436218939721584 ], [ 773818.019088682951406, 8981654.136207010596991 ], [ 773818.047124251141213, 8981632.181558890268207 ], [ 773817.762296339031309, 8981585.934483459219337 ], [ 773815.685682988027111, 8981534.721596669405699 ], [ 773813.759691083105281, 8981487.786485061049461 ], [ 773810.547392721986398, 8981384.044468820095062 ] ] ] } },
{ "type": "Feature", "properties": { "LAYER": "MSal Tersier", "GM_TYPE": "Unknown Line Type", "ELEVATION": 0 }, "geometry": { "type": "MultiLineString", "coordinates": [ [ [ 773810.804553679889068, 8981384.055557381361723 ], [ 773809.73824946465902, 8981360.909436751157045 ], [ 773810.563783883582801, 8981293.209922922775149 ] ] ] } },
{ "type": "Feature", "properties": { "LAYER": "MSal Tersier", "GM_TYPE": "Unknown Line Type", "ELEVATION": 0 }, "geometry": { "type": "MultiLineString", "coordinates": [ [ [ 773378.801522846100852, 8980893.760950451716781 ], [ 773379.815243449760601, 8980826.00329302251339 ], [ 773353.329722397145815, 8980789.459325356408954 ], [ 773349.883342342684045, 8980716.683185245841742 ], [ 773331.120763384504244, 8980635.904964301735163 ], [ 773281.585339450510219, 8980630.295191254466772 ], [ 773261.075638801907189, 8980613.300370559096336 ], [ 773250.455746591440402, 8980566.133293341845274 ], [ 773191.396324260043912, 8980499.618746500462294 ], [ 773156.250036027980968, 8980435.879224920645356 ] ] ] } },
{ "type": "Feature", "properties": { "LAYER": "MSal Tersier", "GM_TYPE": "Unknown Line Type", "ELEVATION": 0 }, "geometry": { "type": "MultiLineString", "coordinates": [ [ [ 772797.756967290304601, 8981284.368289006873965 ], [ 772804.382038757670671, 8981439.761539759114385 ], [ 772809.595994369126856, 8981558.534679170697927 ], [ 772813.868351889774203, 8981654.952192418277264 ], [ 772816.411513852188364, 8981700.344349825754762 ], [ 772816.41204265889246, 8981700.353101273998618 ], [ 772816.412648171768524, 8981700.361847748979926 ], [ 772816.413330345181748, 8981700.370588578283787 ], [ 772816.41408912523184, 8981700.379323091357946 ], [ 772816.414924454991706, 8981700.388050615787506 ], [ 772816.415836269618012, 8981700.396770481020212 ], [ 772816.416824498795904, 8981700.405482018366456 ], [ 772816.417889068135992, 8981700.414184555411339 ], [ 772816.419029892538674, 8981700.422877425327897 ], [ 772816.420246887952089, 8981700.431559959426522 ], [ 772816.421539958799258, 8981700.440231489017606 ], [ 772816.422909005428664, 8981700.448891349136829 ], [ 772816.424353923997842, 8981700.45753887295723 ], [ 772816.425874601816759, 8981700.466173397377133 ], [ 772816.427470923168585, 8981700.474794257432222 ], [ 772816.429142765002325, 8981700.483400791883469 ], [ 772816.430890000308864, 8981700.491992333903909 ], [ 772816.432712491834536, 8981700.50056823156774 ], [ 772816.434610100928694, 8981700.509127819910645 ], [ 772816.436582682537846, 8981700.517670441418886 ], [ 772816.438630083110183, 8981700.52619544044137 ], [ 772816.440752147696912, 8981700.534702161327004 ], [ 772816.442948711221106, 8981700.543189952149987 ], [ 772816.445219606393948, 8981700.551658157259226 ], [ 772816.447564657079056, 8981700.560106126591563 ], [ 772816.449983683647588, 8981700.568533213809133 ], [ 772816.452476500300691, 8981700.576938766986132 ], [ 772816.455042915185913, 8981700.585322141647339 ], [ 772816.457682731677778, 8981700.593682695180178 ], [ 772816.460395745816641, 8981700.602019781246781 ], [ 772816.463181750383228, 8981700.610332762822509 ], [ 772816.466040529543534, 8981700.618620997294784 ], [ 772816.468971865368076, 8981700.626883851364255 ], [ 772816.471975531661883, 8981700.635120686143637 ], [ 772816.475051297340542, 8981700.643330870196223 ], [ 772816.478198925964534, 8981700.651513773947954 ], [ 772816.481418176088482, 8981700.659668765962124 ], [ 772816.484708799864165, 8981700.667795218527317 ], [ 772816.488070543389767, 8981700.675892513245344 ], [ 772816.491503150667995, 8981700.6839600186795 ], [ 772816.495006355689839, 8981700.691997122019529 ], [ 772816.49857988988515, 8981700.700003203004599 ], [ 772816.502223479910754, 8981700.707977643236518 ], [ 772816.50593684357591, 8981700.715919835492969 ], [ 772816.509719696361572, 8981700.723829165101051 ], [ 772816.513571746763773, 8981700.731705024838448 ], [ 772816.517492700368166, 8981700.739546809345484 ], [ 772816.521482253912836, 8981700.747353916987777 ], [ 772816.525540102040395, 8981700.755125746130943 ], [ 772816.529665932175703, 8981700.762861700728536 ], [ 772816.533859427087009, 8981700.770561186596751 ], [ 772816.538120265118778, 8981700.778223609551787 ], [ 772816.542448118445463, 8981700.785848380997777 ], [ 772816.546842655050568, 8981700.793434916064143 ], [ 772816.551303534652106, 8981700.800982633605599 ], [ 772816.555830417200923, 8981700.808490948751569 ], [ 772816.560422953567468, 8981700.8159592859447 ], [ 772816.565080790081993, 8981700.823387073352933 ], [ 772816.569803570164368, 8981700.830773739144206 ], [ 772816.574590929900296, 8981700.838118713349104 ], [ 772816.579442500718869, 8981700.845421433448792 ], [ 772816.584357911371626, 8981700.852681336924434 ], [ 772816.589336782228202, 8981700.859897868707776 ], [ 772816.594378732610494, 8981700.867070468142629 ], [ 772816.599483372061513, 8981700.874198591336608 ], [ 772816.60465031163767, 8981700.881281683221459 ], [ 772816.609879150404595, 8981700.888319205492735 ], [ 772816.615169490105473, 8981700.895310612395406 ], [ 772816.620520921424031, 8981700.902255369350314 ], [ 772816.625933034927584, 8981700.909152941778302 ], [ 772816.631405413500033, 8981700.916002796962857 ], [ 772816.636937635834329, 8981700.922804413363338 ], [ 772816.642529278644361, 8981700.929557265713811 ], [ 772816.648179909330793, 8981700.936260834336281 ], [ 772816.653889097040519, 8981700.942914603278041 ], [ 772816.659656400443055, 8981700.94951806217432 ], [ 772816.665481376228854, 8981700.956070706248283 ], [ 772816.671363578527234, 8981700.962572025135159 ], [ 772816.67730255285278, 8981700.969021525233984 ], [ 772816.683297843672335, 8981700.975418709218502 ], [ 772816.689348991028965, 8981700.981763083487749 ], [ 772816.695455528330058, 8981700.988054161891341 ], [ 772816.701616987586021, 8981700.99429146014154 ], [ 772816.707832894171588, 8981701.000474497675896 ], [ 772816.714102770900354, 8981701.006602803245187 ], [ 772816.720426134997979, 8981701.0126759018749 ], [ 772816.726802500430495, 8981701.018693329766393 ], [ 772816.733231377904303, 8981701.024654621258378 ], [ 772816.739712273352779, 8981701.030559320002794 ], [ 772816.746244687703438, 8981701.036406971514225 ], [ 772816.752828119439073, 8981701.042197125032544 ], [ 772816.759462061920203, 8981701.047929339110851 ], [ 772816.766146006179042, 8981701.053603170439601 ], [ 772816.772879438241944, 8981701.059218181297183 ], [ 772816.779661839595065, 8981701.064773945137858 ], [ 772816.786492689047009, 8981701.070270031690598 ], [ 772816.793371462263167, 8981701.075706016272306 ], [ 772816.800297629786655, 8981701.081081485375762 ], [ 772816.80727066041436, 8981701.086396023631096 ], [ 772816.814290016540326, 8981701.09164922311902 ], [ 772816.821355160325766, 8981701.096840679645538 ], [ 772816.828465547412634, 8981701.101969992741942 ], [ 772816.835620630765334, 8981701.107036771252751 ], [ 772816.842819862184115, 8981701.112040624022484 ], [ 772816.850062686949968, 8981701.116981165483594 ], [ 772816.857348547899164, 8981701.121858019381762 ], [ 772816.864676887635142, 8981701.126670803874731 ], [ 772816.872047139215283, 8981701.131419157609344 ], [ 772816.879458739073016, 8981701.136102709919214 ], [ 772816.886911115492694, 8981701.140721101313829 ], [ 772816.894403696293011, 8981701.145273979753256 ], [ 772816.901935906382278, 8981701.149760991334915 ], [ 772816.909507165313698, 8981701.154181795194745 ], [ 772816.917116893571801, 8981701.158536046743393 ], [ 772816.924764502327889, 8981701.162823418155313 ], [ 772816.932449407759123, 8981701.167043572291732 ], [ 772816.940171015565284, 8981701.171196188777685 ], [ 772816.947928735171445, 8981701.175280947238207 ], [ 772816.955721968202852, 8981701.179297536611557 ], [ 772816.963550117565319, 8981701.183245643973351 ], [ 772816.971412579528987, 8981701.187124967575073 ], [ 772816.979308750596829, 8981701.190935209393501 ], [ 772816.987238024594262, 8981701.194676076993346 ], [ 772816.995199790340848, 8981701.19834728166461 ], [ 772817.003193436888978, 8981701.20194854401052 ], [ 772817.011218350729905, 8981701.205479580909014 ], [ 772817.019273912184872, 8981701.208940129727125 ], [ 772817.027359504369088, 8981701.212329916656017 ], [ 772817.035474505624734, 8981701.215648686513305 ], [ 772817.043618291732855, 8981701.218896180391312 ], [ 772817.051790236611851, 8981701.222072148695588 ], [ 772817.059989711851813, 8981701.22517635114491 ], [ 772817.068216088227928, 8981701.228208545595407 ], [ 772817.076468731509522, 8981701.231168502941728 ], [ 772817.084747009677812, 8981701.234055990353227 ], [ 772817.093050284544006, 8981701.236870788037777 ], [ 772817.1013779186178, 8981701.239612681791186 ], [ 772817.109729271032847, 8981701.242281459271908 ], [ 772817.118103701388463, 8981701.24487691372633 ], [ 772817.126500565325841, 8981701.247398845851421 ], [ 772817.134919216157869, 8981701.249847065657377 ], [ 772817.143359009292908, 8981701.252221381291747 ], [ 772817.151819293387234, 8981701.254521610215306 ], [ 772817.160299418843351, 8981701.256747579202056 ], [ 772817.16879873466678, 8981701.258899113163352 ], [ 772817.177316586836241, 8981701.260976048186421 ], [ 772817.185852320748381, 8981701.262978224083781 ], [ 772817.194405280170031, 8981701.264905488118529 ], [ 772817.202974808751605, 8981701.266757691279054 ], [ 772817.211560245836154, 8981701.268534692004323 ], [ 772817.220160933211446, 8981701.270236352458596 ], [ 772817.228776208474301, 8981701.271862542256713 ], [ 772817.237405410502106, 8981701.273413136601448 ], [ 772817.246047875261866, 8981701.274888016283512 ], [ 772817.254702938720584, 8981701.276287069544196 ], [ 772817.263369935215451, 8981701.277610186487436 ], [ 772817.272048198268749, 8981701.278857266530395 ], [ 772817.280737062101252, 8981701.280028212815523 ], [ 772817.289435857441276, 8981701.281122935935855 ], [ 772817.298143917345442, 8981701.282141350209713 ], [ 772817.306860570213757, 8981701.283083381131291 ], [ 772817.315585148171522, 8981701.283948954194784 ], [ 772817.324316979269497, 8981701.284738002344966 ], [ 772817.3330553912092, 8981701.285450465977192 ], [ 772817.341799714951776, 8981701.286086289212108 ], [ 772817.350549277151003, 8981701.286645421758294 ], [ 772817.359303405624814, 8981701.287127824500203 ], [ 772817.368061426095665, 8981701.287533458322287 ], [ 772817.376822667079978, 8981701.287862291559577 ], [ 772817.385586453485303, 8981701.288114299997687 ], [ 772817.394352112198249, 8981701.288289465010166 ], [ 772817.403118971385993, 8981701.288387769833207 ], [ 772817.411886353627779, 8981701.28840921074152 ], [ 772817.420653588022105, 8981701.288353782147169 ], [ 772817.429419999127276, 8981701.28822149336338 ], [ 772817.438184913480654, 8981701.288012349978089 ], [ 772817.446947657968849, 8981701.287726368755102 ], [ 772817.455707557499409, 8981701.287363573908806 ], [ 772817.464463940123096, 8981701.286923991516232 ], [ 772817.473216132144444, 8981701.28640765696764 ], [ 772849.688583244103938, 8981699.244111752137542 ] ] ] } },
{ "type": "Feature", "properties": { "LAYER": "MSal Tersier", "GM_TYPE": "Unknown Line Type", "ELEVATION": 0 }, "geometry": { "type": "MultiLineString", "coordinates": [ [ [ 776911.62915892933961, 8980671.918854577466846 ], [ 776760.483356092125177, 8980680.815084390342236 ], [ 776720.899844490690157, 8980685.303243197500706 ], [ 776677.15837204514537, 8980690.342896286398172 ], [ 776654.136597987962887, 8980692.238305862993002 ] ] ] } },
{ "type": "Feature", "properties": { "LAYER": "MSal Tersier", "GM_TYPE": "Unknown Line Type", "ELEVATION": 0 }, "geometry": { "type": "MultiLineString", "coordinates": [ [ [ 776644.041608500527218, 8980689.251768320798874 ], [ 776637.10774983977899, 8980625.871359460055828 ], [ 776637.154727997491136, 8980603.660686317831278 ], [ 776634.474360632477328, 8980578.42083808965981 ], [ 776580.774480210151523, 8980106.692460533231497 ] ] ] } },
{ "type": "Feature", "properties": { "LAYER": "MSal Tersier", "GM_TYPE": "Unknown Line Type", "ELEVATION": 0 }, "geometry": { "type": "MultiLineString", "coordinates": [ [ [ 776667.757004213286564, 8981349.758187625557184 ], [ 776668.821503063547425, 8981364.910088235512376 ], [ 776670.228036082931794, 8981398.191382501274347 ], [ 776672.335212196339853, 8981426.808925740420818 ], [ 776673.328561798203737, 8981449.507688850164413 ], [ 776676.794984806561843, 8981500.218200450763106 ], [ 776677.150663965381682, 8981508.665482603013515 ] ] ] } },
{ "type": "Feature", "properties": { "LAYER": "MSal Tersier", "GM_TYPE": "Unknown Line Type", "ELEVATION": 0 }, "geometry": { "type": "MultiLineString", "coordinates": [ [ [ 777097.359879598254338, 8981333.566906370222569 ], [ 777095.234960944624618, 8981306.585316102951765 ], [ 777093.181149801122956, 8981244.888790993019938 ], [ 777089.005762318149209, 8981174.688355814665556 ], [ 777080.980200408375822, 8981055.170382868498564 ], [ 777081.85351081227418, 8981039.718371342867613 ], [ 777076.665894370526075, 8980962.920276794582605 ], [ 777073.176758622284979, 8980913.512702833861113 ], [ 777071.8971034840215, 8980869.035382304340601 ], [ 777068.140848214039579, 8980819.632372125983238 ], [ 777067.917007297510281, 8980815.241409715265036 ] ] ] } },
{ "type": "Feature", "properties": { "LAYER": "MSal Tersier", "GM_TYPE": "Unknown Line Type", "ELEVATION": 0 }, "geometry": { "type": "MultiLineString", "coordinates": [ [ [ 777035.431057682377286, 8982411.953211069107056 ], [ 776914.801962660858408, 8982304.54852276481688 ] ] ] } },
{ "type": "Feature", "properties": { "LAYER": "MSal Tersier", "GM_TYPE": "Unknown Line Type", "ELEVATION": 0 }, "geometry": { "type": "MultiLineString", "coordinates": [ [ [ 776924.171232132124715, 8983081.051102010533214 ], [ 776924.742147414013743, 8983079.699844095855951 ] ] ] } },
{ "type": "Feature", "properties": { "LAYER": "MSal Tersier", "GM_TYPE": "Unknown Line Type", "ELEVATION": 0 }, "geometry": { "type": "MultiLineString", "coordinates": [ [ [ 777707.780112940818071, 8983017.098805543035269 ], [ 777705.168303227983415, 8983016.301697883754969 ] ] ] } },
{ "type": "Feature", "properties": { "LAYER": "MSal Tersier", "GM_TYPE": "Unknown Line Type", "ELEVATION": 0 }, "geometry": { "type": "MultiLineString", "coordinates": [ [ [ 773719.67279731715098, 8982359.796628538519144 ], [ 773818.048670728690922, 8982157.406951606273651 ] ] ] } },
{ "type": "Feature", "properties": { "LAYER": "MSal Tersier", "GM_TYPE": "Unknown Line Type", "ELEVATION": 0 }, "geometry": { "type": "MultiLineString", "coordinates": [ [ [ 773386.492758846259676, 8983063.551053453236818 ], [ 773619.729827090050094, 8982583.710079712793231 ] ] ] } },
{ "type": "Feature", "properties": { "LAYER": "MSal Tersier", "GM_TYPE": "Unknown Line Type", "ELEVATION": 0 }, "geometry": { "type": "MultiLineString", "coordinates": [ [ [ 776614.457510723965243, 8980402.58215731754899 ], [ 776892.027081965352409, 8980394.566158641129732 ] ] ] } },
{ "type": "Feature", "properties": { "LAYER": "MSal Tersier", "GM_TYPE": "Unknown Line Type", "ELEVATION": 0 }, "geometry": { "type": "MultiLineString", "coordinates": [ [ [ 776580.764063497656025, 8980106.600954573601484 ], [ 776871.547605266794562, 8980102.817429881542921 ] ] ] } },
{ "type": "Feature", "properties": { "LAYER": "MSal Tersier", "GM_TYPE": "Unknown Line Type", "ELEVATION": 0 }, "geometry": { "type": "MultiLineString", "coordinates": [ [ [ 776645.573971181176603, 8980686.659066062420607 ], [ 776648.57512926904019, 8980686.566863646730781 ], [ 776650.467492950614542, 8980687.535067848861217 ], [ 776651.205967513960786, 8980689.148734018206596 ], [ 776652.267547311843373, 8980690.624107820913196 ], [ 776654.136597989359871, 8980692.238305862993002 ] ] ] } },
{ "type": "Feature", "properties": { "LAYER": "MSal Tersier", "GM_TYPE": "Unknown Line Type", "ELEVATION": 0 }, "geometry": { "type": "MultiLineString", "coordinates": [ [ [ 777288.751095306943171, 8981834.287295438349247 ], [ 777617.373018794809468, 8981614.372232168912888 ], [ 777657.222995767369866, 8981549.401934826746583 ], [ 777645.682995519251563, 8981518.86227161064744 ], [ 777610.038375286618248, 8981460.775643164291978 ], [ 777609.499965365743265, 8981458.557628469541669 ] ] ] } },
{ "type": "Feature", "properties": { "LAYER": "MSal Tersier", "GM_TYPE": "Unknown Line Type", "ELEVATION": 0 }, "geometry": { "type": "MultiLineString", "coordinates": [ [ [ 776641.5093674530508, 8980691.013944344595075 ], [ 776348.682392234914005, 8980504.583275131881237 ] ] ] } },
{ "type": "Feature", "properties": { "LAYER": "MSal Tersier", "GM_TYPE": "Unknown Line Type", "ELEVATION": 0 }, "geometry": { "type": "MultiLineString", "coordinates": [ [ [ 776667.757004212820902, 8981349.758187625557184 ], [ 776209.882457431522198, 8981036.06430184841156 ] ] ] } },
{ "type": "Feature", "properties": { "LAYER": "MSal Tersier", "GM_TYPE": "Unknown Line Type", "ELEVATION": 0 }, "geometry": { "type": "MultiLineString", "coordinates": [ [ [ 776210.045499954954721, 8981036.422168798744678 ], [ 776355.27805410081055, 8980836.270358573645353 ] ] ] } },
{ "type": "Feature", "properties": { "LAYER": "MSal Tersier", "GM_TYPE": "Unknown Line Type", "ELEVATION": 0 }, "geometry": { "type": "MultiLineString", "coordinates": [ [ [ 776680.364097377285361, 8981511.695017101243138 ], [ 776678.655030065681785, 8981510.562478419393301 ], [ 776677.150663965381682, 8981508.665482603013515 ] ] ] } },
{ "type": "Feature", "properties": { "LAYER": "MSal Tersier", "GM_TYPE": "Unknown Line Type", "ELEVATION": 0 }, "geometry": { "type": "MultiLineString", "coordinates": [ [ [ 776602.387463514693081, 8980402.647645400837064 ], [ 776308.429468377027661, 8980241.839288420975208 ] ] ] } },
{ "type": "Feature", "properties": { "LAYER": "MSal Tersier", "GM_TYPE": "Unknown Line Type", "ELEVATION": 0 }, "geometry": { "type": "MultiLineString", "coordinates": [ [ [ 775946.859779855934903, 8981324.8918801471591 ], [ 776150.893521213438362, 8981315.064968880265951 ] ] ] } },
{ "type": "Feature", "properties": { "LAYER": "MSal Tersier", "GM_TYPE": "Unknown Line Type", "ELEVATION": 0 }, "geometry": { "type": "MultiLineString", "coordinates": [ [ [ 775215.68401267786976, 8980609.850224513560534 ], [ 775680.90106049075257, 8980392.676038641482592 ] ] ] } },
{ "type": "Feature", "properties": { "LAYER": "MSal Tersier", "GM_TYPE": "Unknown Line Type", "ELEVATION": 0 }, "geometry": { "type": "MultiLineString", "coordinates": [ [ [ 776161.426766236778349, 8981542.154153771698475 ], [ 776150.893521213438362, 8981315.064968880265951 ] ] ] } },
{ "type": "Feature", "properties": { "LAYER": "MSal Tersier", "GM_TYPE": "Unknown Line Type", "ELEVATION": 9 }, "geometry": { "type": "MultiLineString", "coordinates": [ [ [ 775154.84996904945001, 8980166.562898952513933 ], [ 775666.890320199658163, 8980107.922155870124698 ] ] ] } },
{ "type": "Feature", "properties": { "LAYER": "MSal Tersier", "GM_TYPE": "Unknown Line Type", "ELEVATION": 0 }, "geometry": { "type": "MultiLineString", "coordinates": [ [ [ 775166.128698010114022, 8980345.372046917676926 ], [ 774914.601275239256211, 8980306.837580472230911 ] ] ] } },
{ "type": "Feature", "properties": { "LAYER": "MSal Tersier", "GM_TYPE": "Unknown Line Type", "ELEVATION": 0 }, "geometry": { "type": "MultiLineString", "coordinates": [ [ [ 775141.473762025823817, 8980143.139274032786489 ], [ 774858.522186456480995, 8980081.228049574419856 ] ] ] } },
{ "type": "Feature", "properties": { "LAYER": "MSal Tersier", "GM_TYPE": "Unknown Line Type", "ELEVATION": 0 }, "geometry": { "type": "MultiLineString", "coordinates": [ [ [ 773795.963846657657996, 8981037.12143437936902 ], [ 773773.863430006895214, 8980829.083857867866755 ], [ 773790.092341291019693, 8980667.391512231901288 ], [ 773628.804965005256236, 8980148.219223009422421 ] ] ] } },
{ "type": "Feature", "properties": { "LAYER": "MSal Tersier", "GM_TYPE": "Unknown Line Type", "ELEVATION": 0 }, "geometry": { "type": "MultiLineString", "coordinates": [ [ [ 773796.089233461767435, 8981041.119468666613102 ], [ 773378.80152284540236, 8980893.760950451716781 ] ] ] } },
{ "type": "Feature", "properties": { "LAYER": "MSal Tersier", "GM_TYPE": "Unknown Line Type", "ELEVATION": 0 }, "geometry": { "type": "MultiLineString", "coordinates": [ [ [ 773714.176134978421032, 8982381.795700078830123 ], [ 773846.952979034511372, 8982370.236318422481418 ] ] ] } },
{ "type": "Feature", "properties": { "LAYER": "MSal Tersier", "GM_TYPE": "Unknown Line Type", "ELEVATION": 24 }, "geometry": { "type": "MultiLineString", "coordinates": [ [ [ 774678.890575163532048, 8982970.934555862098932 ], [ 774773.568720947369002, 8982420.051713557913899 ] ] ] } },
{ "type": "Feature", "properties": { "LAYER": "MSal Tersier", "GM_TYPE": "Unknown Line Type", "ELEVATION": 0 }, "geometry": { "type": "MultiLineString", "coordinates": [ [ [ 773578.247878189431503, 8983441.444842722266912 ], [ 773582.891430968651548, 8983444.187279649078846 ] ] ] } },
{ "type": "Feature", "properties": { "LAYER": "MSal Tersier", "GM_TYPE": "Unknown Line Type", "ELEVATION": 0 }, "geometry": { "type": "MultiLineString", "coordinates": [ [ [ 773388.444452727329917, 8983130.213792396709323 ], [ 773387.568927944055758, 8983128.31306454911828 ], [ 773385.744929565116763, 8983126.361749466508627 ], [ 773381.679567285114899, 8983124.920532047748566 ] ] ] } },
{ "type": "Feature", "properties": { "LAYER": "MSal Tersier", "GM_TYPE": "Unknown Line Type", "ELEVATION": 0 }, "geometry": { "type": "MultiLineString", "coordinates": [ [ [ 775382.957964793080464, 8982853.264230007305741 ], [ 775392.012220544624142, 8982851.137802159413695 ], [ 775426.552308042766526, 8982826.875816751271486 ] ] ] } },
{ "type": "Feature", "properties": { "LAYER": "MSal Tersier", "GM_TYPE": "Unknown Line Type", "ELEVATION": 24 }, "geometry": { "type": "MultiLineString", "coordinates": [ [ [ 774674.863714280538261, 8983000.221778243780136 ], [ 774678.890575164346956, 8982970.934555854648352 ] ] ] } },
{ "type": "Feature", "properties": { "LAYER": "MSal Tersier", "GM_TYPE": "Unknown Line Type", "ELEVATION": 0 }, "geometry": { "type": "MultiLineString", "coordinates": [ [ [ 775381.343224338022992, 8982855.413514617830515 ], [ 775381.539092641090974, 8982863.027200259268284 ], [ 775379.715283532394096, 8982868.012665376067162 ], [ 775377.314178195199929, 8982874.354963909834623 ] ] ] } },
{ "type": "Feature", "properties": { "LAYER": "MSal Tersier", "GM_TYPE": "Unknown Line Type", "ELEVATION": 0 }, "geometry": { "type": "MultiLineString", "coordinates": [ [ [ 773109.552314279368147, 8982037.232065111398697 ], [ 772849.160784895066172, 8981699.277571575716138 ] ] ] } },
{ "type": "Feature", "properties": { "LAYER": "MSal Tersier", "GM_TYPE": "Unknown Line Type", "ELEVATION": 0 }, "geometry": { "type": "MultiLineString", "coordinates": [ [ [ 773713.991309139644727, 8982380.635096564888954 ], [ 773441.129415951436386, 8982178.481908416375518 ], [ 773109.552314279368147, 8982037.232065111398697 ] ] ] } },
{ "type": "Feature", "properties": { "LAYER": "MSal Tersier", "GM_TYPE": "Unknown Line Type", "ELEVATION": 0 }, "geometry": { "type": "MultiLineString", "coordinates": [ [ [ 773384.225530507741496, 8983136.299117263406515 ], [ 773344.024421815760434, 8983129.83034535124898 ], [ 773329.633180270204321, 8983116.52773055434227 ], [ 773307.089569320902228, 8983065.190954435616732 ], [ 773306.590985445887782, 8983030.119763178750873 ], [ 773306.037980259628966, 8983006.966755721718073 ], [ 773301.530861809151247, 8982991.316322669386864 ], [ 773296.042653707321733, 8982988.087834466248751 ], [ 773276.640418310184032, 8982979.881980471313 ], [ 773228.456106862751767, 8982970.056390851736069 ], [ 773204.248962205369025, 8982970.056390851736069 ], [ 773163.701991851441562, 8982961.593124287202954 ], [ 773117.189029288943857, 8982957.850580971688032 ], [ 773079.24960090755485, 8982951.445277556777 ] ] ] } },
{ "type": "Feature", "properties": { "LAYER": "MSal Tersier", "GM_TYPE": "Unknown Line Type", "ELEVATION": 0 }, "geometry": { "type": "MultiLineString", "coordinates": [ [ [ 773079.24960090755485, 8982951.445277556777 ], [ 773004.737463939702138, 8982907.735253132879734 ], [ 772947.550372327445075, 8982850.98806132376194 ], [ 772931.352299928665161, 8982808.268162213265896 ], [ 772922.806973652448505, 8982757.715376880019903 ], [ 772905.827175848884508, 8982625.641990885138512 ], [ 772899.335839577950537, 8982585.570421025156975 ], [ 772857.393494049552828, 8982564.108594175428152 ] ] ] } },
{ "type": "Feature", "properties": { "LAYER": "MSal Tersier", "GM_TYPE": "Unknown Line Type", "ELEVATION": 17 }, "geometry": { "type": "MultiLineString", "coordinates": [ [ [ 775322.006847534328699, 8982368.186698773875833 ], [ 775639.464316767989658, 8982273.186964575201273 ], [ 775643.873733191634528, 8982269.824899431318045 ] ] ] } },
{ "type": "Feature", "properties": { "LAYER": "MSal Tersier", "GM_TYPE": "Unknown Line Type", "ELEVATION": 0 }, "geometry": { "type": "MultiLineString", "coordinates": [ [ [ 775433.208169494289905, 8982816.562678961083293 ], [ 775447.826168867759407, 8982824.481899183243513 ], [ 775459.887413905002177, 8982831.029257416725159 ], [ 775483.736689603189006, 8982842.45351717248559 ], [ 775582.27672330243513, 8982882.714760463684797 ], [ 775597.35200884914957, 8982890.412471981719136 ], [ 775636.915511658182368, 8982897.963155221194029 ], [ 775660.668779956875369, 8982902.712370716035366 ], [ 775670.713152485899627, 8982894.852843774482608 ], [ 775684.105671620345674, 8982876.290988333523273 ], [ 775697.35194043291267, 8982864.019598452374339 ], [ 775772.165945739136077, 8982832.267393782734871 ], [ 775820.592413635691628, 8982791.942415691912174 ], [ 775909.606947093852796, 8982730.981583939865232 ], [ 776014.449183619697578, 8982675.04962070658803 ], [ 776105.67563964985311, 8982615.29569998010993 ], [ 776168.350143582909368, 8982580.709034726023674 ], [ 776211.308543030172586, 8982541.731761213392019 ], [ 776288.944182387902401, 8982499.133268900215626 ], [ 776371.485515776090324, 8982447.627087160944939 ], [ 776389.572041104547679, 8982436.239918973296881 ], [ 776383.468184497905895, 8982434.427224300801754 ] ] ] } },
{ "type": "Feature", "properties": { "LAYER": "MSal Tersier", "GM_TYPE": "Unknown Line Type", "ELEVATION": 0 }, "geometry": { "type": "MultiLineString", "coordinates": [ [ [ 775303.183050078107044, 8982248.581469617784023 ], [ 775305.326354221557267, 8982249.203079119324684 ] ] ] } },
{ "type": "Feature", "properties": { "LAYER": "MSal Tersier", "GM_TYPE": "Unknown Line Type", "ELEVATION": 0 }, "geometry": { "type": "MultiLineString", "coordinates": [ [ [ 777127.684791706153192, 8982499.449052520096302 ], [ 776849.021077086916193, 8982622.463983036577702 ] ] ] } },
{ "type": "Feature", "properties": { "LAYER": "MSal Tersier", "GM_TYPE": "Unknown Line Type", "ELEVATION": 24 }, "geometry": { "type": "MultiLineString", "coordinates": [ [ [ 776553.511435906053521, 8982318.344996219500899 ], [ 776493.095602366607636, 8982246.638899847865105 ], [ 776450.110691473935731, 8982215.89918183721602 ], [ 776348.293283036444336, 8982041.813580302521586 ], [ 776280.648825096897781, 8981901.666786476969719 ], [ 776207.154147158609703, 8981814.148136254400015 ] ] ] } },
{ "type": "Feature", "properties": { "LAYER": "MSal Tersier", "GM_TYPE": "Unknown Line Type", "ELEVATION": 18 }, "geometry": { "type": "MultiLineString", "coordinates": [ [ [ 776207.154147158609703, 8981814.148136254400015 ], [ 776161.426766236778349, 8981542.154153771698475 ] ] ] } },
{ "type": "Feature", "properties": { "LAYER": "MSal Tersier", "GM_TYPE": "Unknown Line Type", "ELEVATION": 0 }, "geometry": { "type": "MultiLineString", "coordinates": [ [ [ 777127.684791706153192, 8982499.449052520096302 ], [ 777291.464070987538435, 8982144.393989164382219 ] ] ] } },
{ "type": "Feature", "properties": { "LAYER": "MSal Tersier", "GM_TYPE": "Unknown Line Type", "ELEVATION": 18 }, "geometry": { "type": "MultiLineString", "coordinates": [ [ [ 776590.460137847345322, 8981902.216073725372553 ], [ 776573.960446624434553, 8981521.575447127223015 ], [ 776572.8419553716667, 8981518.921648144721985 ] ] ] } },
{ "type": "Feature", "properties": { "LAYER": "MSal Tersier", "GM_TYPE": "Unknown Line Type", "ELEVATION": 18 }, "geometry": { "type": "MultiLineString", "coordinates": [ [ [ 776710.909612501855008, 8982038.923648979514837 ], [ 776695.027025221963413, 8982036.062571708112955 ], [ 776645.891593540785834, 8982021.277250040322542 ], [ 776611.469610403757542, 8981990.643805455416441 ], [ 776595.82324831536971, 8981948.757252965122461 ], [ 776590.460137847345322, 8981902.216073725372553 ] ] ] } },
{ "type": "Feature", "properties": { "LAYER": "MSal Tersier", "GM_TYPE": "Unknown Line Type", "ELEVATION": 0 }, "geometry": { "type": "MultiLineString", "coordinates": [ [ [ 777128.521293937112205, 8982493.030720576643944 ], [ 777035.431057617533952, 8982411.953211013227701 ] ] ] } },
{ "type": "Feature", "properties": { "LAYER": "MSal Tersier", "GM_TYPE": "Unknown Line Type", "ELEVATION": 0 }, "geometry": { "type": "MultiLineString", "coordinates": [ [ [ 773197.313448664848693, 8981265.748349111527205 ], [ 773195.073837932548486, 8981263.984277473762631 ] ] ] } },
{ "type": "Feature", "properties": { "LAYER": "MSal Tersier", "GM_TYPE": "Unknown Line Type", "ELEVATION": 0 }, "geometry": { "type": "MultiLineString", "coordinates": [ [ [ 773715.876310566323809, 8982368.30402042530477 ], [ 773719.67279731715098, 8982359.796628538519144 ] ] ] } },
{ "type": "Feature", "properties": { "LAYER": "MSal Tersier", "GM_TYPE": "Unknown Line Type", "ELEVATION": 0 }, "geometry": { "type": "MultiLineString", "coordinates": [ [ [ 773713.652010797057301, 8982377.09450276196003 ], [ 773712.841832064790651, 8982374.830503683537245 ], [ 773714.11473479878623, 8982371.900523208081722 ] ] ] } },
{ "type": "Feature", "properties": { "LAYER": "MSal Tersier", "GM_TYPE": "Unknown Line Type", "ELEVATION": 0 }, "geometry": { "type": "MultiLineString", "coordinates": [ [ [ 777670.60882180405315, 8983020.063663454726338 ], [ 777665.320151953492314, 8983017.220298521220684 ] ] ] } },
{ "type": "Feature", "properties": { "LAYER": "MSal Tersier", "GM_TYPE": "Unknown Line Type", "ELEVATION": 0 }, "geometry": { "type": "MultiLineString", "coordinates": [ [ [ 777665.329262795858085, 8983016.056705132126808 ], [ 777665.320151953492314, 8983017.220298521220684 ] ] ] } },
{ "type": "Feature", "properties": { "LAYER": "MSal Tersier", "GM_TYPE": "Unknown Line Type", "ELEVATION": 0 }, "geometry": { "type": "MultiLineString", "coordinates": [ [ [ 776763.422866061446257, 8982151.457229951396585 ], [ 776759.170277797151357, 8982154.279235480353236 ], [ 776761.773771600681357, 8982177.049753582105041 ], [ 776553.51143590582069, 8982318.344996219500899 ] ] ] } },
{ "type": "Feature", "properties": { "LAYER": "MSal Tersier", "GM_TYPE": "Unknown Line Type", "ELEVATION": 0 }, "geometry": { "type": "MultiLineString", "coordinates": [ [ [ 776766.946232898510061, 8982149.428091663867235 ], [ 776747.194880188326351, 8982135.626228386536241 ], [ 776716.280888264882378, 8982068.047163901850581 ], [ 776710.909612501738593, 8982038.923648979514837 ] ] ] } },
{ "type": "Feature", "properties": { "LAYER": "MSal Tersier", "GM_TYPE": "Unknown Line Type", "ELEVATION": 0 }, "geometry": { "type": "MultiLineString", "coordinates": [ [ [ 776769.628897598013282, 8982146.604663217440248 ], [ 776784.259955077199265, 8982138.229350667446852 ], [ 776829.689571000053547, 8982138.624007068574429 ], [ 777288.751095306943171, 8981834.287295438349247 ] ] ] } },
{ "type": "Feature", "properties": { "LAYER": "MSal Tersier", "GM_TYPE": "Unknown Line Type", "ELEVATION": 0 }, "geometry": { "type": "MultiLineString", "coordinates": [ [ [ 776726.54376368643716, 8982031.182629587128758 ], [ 776727.977117014117539, 8982045.050739543512464 ], [ 776729.228877275832929, 8982051.578828359022737 ], [ 776735.445064272615127, 8982071.842826265841722 ], [ 776768.73809102375526, 8982144.396939311176538 ] ] ] } },
{ "type": "Feature", "properties": { "LAYER": "MSal Tersier", "GM_TYPE": "Unknown Line Type", "ELEVATION": 0 }, "geometry": { "type": "MultiLineString", "coordinates": [ [ [ 776628.480854000314139, 8980684.944137113168836 ], [ 776622.106019440456294, 8980626.673606865108013 ], [ 776622.153048003674485, 8980604.43910251185298 ], [ 776619.564212680445053, 8980580.06117151863873 ], [ 776565.78042711969465, 8980107.595726497471333 ] ] ] } },
{ "type": "Feature", "properties": { "LAYER": "MSal Tersier", "GM_TYPE": "Unknown Line Type", "ELEVATION": 0 }, "geometry": { "type": "MultiLineString", "coordinates": [ [ [ 772182.904156279633753, 8982146.439936393871903 ], [ 772094.80363964708522, 8982154.740567449480295 ], [ 772093.158169873408042, 8982154.166171630844474 ] ] ] } },
{ "type": "Feature", "properties": { "LAYER": "MSal Tersier", "GM_TYPE": "Unknown Line Type", "ELEVATION": 0 }, "geometry": { "type": "MultiLineString", "coordinates": [ [ [ 771307.890234268154018, 8979816.551563417539001 ], [ 771624.989683105493896, 8979891.968365581706166 ] ] ] } },
{ "type": "Feature", "properties": { "LAYER": "MSal Tersier", "GM_TYPE": "Unknown Line Type", "ELEVATION": 0 }, "geometry": { "type": "MultiLineString", "coordinates": [ [ [ 771264.652960316161625, 8980859.061624886468053 ], [ 771275.427378356806003, 8980845.109340885654092 ], [ 771357.118605991941877, 8980717.453710906207561 ], [ 771445.204081848845817, 8980555.59744661860168 ] ] ] } },
{ "type": "Feature", "properties": { "LAYER": "MSal Tersier", "GM_TYPE": "Unknown Line Type", "ELEVATION": 0 }, "geometry": { "type": "MultiLineString", "coordinates": [ [ [ 771543.485291870194487, 8981052.867024967446923 ], [ 771894.680363688850775, 8980564.292705938220024 ], [ 771897.201397662865929, 8980560.845526965335011 ] ] ] } },
{ "type": "Feature", "properties": { "LAYER": "MSal Tersier", "GM_TYPE": "Unknown Line Type", "ELEVATION": 0 }, "geometry": { "type": "MultiLineString", "coordinates": [ [ [ 772288.600598455872387, 8980875.042650366201997 ], [ 772381.881573320017196, 8980728.333844432607293 ], [ 772429.810273229959421, 8980654.552365759387612 ], [ 772453.204654989647679, 8980506.570597996935248 ] ] ] } },
{ "type": "Feature", "properties": { "LAYER": "MSal Tersier", "GM_TYPE": "Unknown Line Type", "ELEVATION": 0 }, "geometry": { "type": "MultiLineString", "coordinates": [ [ [ 772149.127715807873756, 8981310.788641184568405 ], [ 772147.194773222552612, 8981193.346079010516405 ] ] ] } },
{ "type": "Feature", "properties": { "LAYER": "MSal Tersier", "GM_TYPE": "Unknown Line Type", "ELEVATION": 24 }, "geometry": { "type": "MultiLineString", "coordinates": [ [ [ 771125.478593399049714, 8981807.828738449141383 ], [ 771120.022028901381418, 8981594.334361964836717 ] ] ] } },
{ "type": "Feature", "properties": { "LAYER": "MSal Tersier", "GM_TYPE": "Unknown Line Type", "ELEVATION": 24 }, "geometry": { "type": "MultiLineString", "coordinates": [ [ [ 771120.022028901381418, 8981594.334361964836717 ], [ 771109.407598062884063, 8981179.032518737018108 ], [ 771106.396139264339581, 8981139.986224800348282 ], [ 771097.937061901087873, 8981078.879737807437778 ], [ 771096.286253071855754, 8981057.242150269448757 ], [ 771095.963042920455337, 8981056.044919850304723 ] ] ] } },
{ "type": "Feature", "properties": { "LAYER": "MSal Tersier", "GM_TYPE": "Unknown Line Type", "ELEVATION": 24 }, "geometry": { "type": "MultiLineString", "coordinates": [ [ [ 771117.52890209609177, 8981809.899340936914086 ], [ 771107.874014749424532, 8981432.14074301533401 ] ] ] } },
{ "type": "Feature", "properties": { "LAYER": "MSal Tersier", "GM_TYPE": "Unknown Line Type", "ELEVATION": 0 }, "geometry": { "type": "MultiLineString", "coordinates": [ [ [ 770892.535669863340445, 8980639.118274228647351 ], [ 770885.50131458893884, 8980583.505247123539448 ], [ 770873.186319231172092, 8980531.771444955840707 ], [ 770868.974416232435033, 8980454.079093087464571 ], [ 770867.313678135746159, 8980420.871434787288308 ], [ 770873.437735109357163, 8980399.090522648766637 ], [ 770896.745769966393709, 8980370.461678579449654 ], [ 770932.779433250543661, 8980335.698056617751718 ], [ 770958.44510199315846, 8980333.236600311473012 ], [ 770991.666775772697292, 8980331.358285507187247 ], [ 771044.98146951245144, 8980293.676777934655547 ], [ 771057.71750008338131, 8980285.612668881192803 ], [ 771061.663899496663362, 8980279.878192603588104 ], [ 771060.76699387060944, 8980268.588432298973203 ], [ 771047.861296551418491, 8980215.894899500533938 ], [ 771019.91737399273552, 8980174.958619132637978 ], [ 771012.643173260730691, 8980153.399694276973605 ], [ 771014.766297005815431, 8980139.966494780033827 ], [ 771018.30488544376567, 8980126.533276207745075 ], [ 771042.26496742060408, 8980116.313579071313143 ], [ 771129.913757358910516, 8980096.60654959641397 ], [ 771191.513227924122475, 8980052.91079929843545 ], [ 771209.258746475214139, 8980003.028285624459386 ], [ 771208.908867476740852, 8979991.320739252492785 ], [ 771206.155088002444245, 8979973.120712015777826 ], [ 771199.164474101155065, 8979963.0469672344625 ], [ 771197.811307700583711, 8979949.205042576417327 ], [ 771205.352205994888209, 8979929.312274068593979 ], [ 771243.282414665911347, 8979883.369089214131236 ], [ 771292.879822557326406, 8979846.560633374378085 ], [ 771405.770808471599594, 8979637.226910611614585 ], [ 771413.037327565834858, 8979590.283105228096247 ], [ 771447.320655929390341, 8979507.895926527678967 ], [ 771468.76300115394406, 8979445.08692074008286 ], [ 771481.060290442081168, 8979428.893000716343522 ], [ 771498.94724335311912, 8979415.491106925532222 ], [ 771511.524041475495324, 8979413.536665668711066 ], [ 771542.102791527519003, 8979422.251150200143456 ], [ 771651.379796105902642, 8979415.73028483428061 ], [ 771779.705181390512735, 8979436.52187392488122 ], [ 771845.790672503062524, 8979485.213434297591448 ], [ 771871.801942744525149, 8979495.277300117537379 ], [ 771902.204151549027301, 8979496.000729247927666 ], [ 772114.05676542466972, 8979575.611365979537368 ], [ 772142.777977478923276, 8979582.271416697651148 ], [ 772152.697114573442377, 8979584.345433915033937 ], [ 772169.254980439553037, 8979580.791463851928711 ], [ 772202.716332706157118, 8979570.639773681759834 ], [ 772214.89404190692585, 8979568.040808832272887 ], [ 772224.111600132542662, 8979567.35112333483994 ], [ 772250.0166888468666, 8979574.614529803395271 ], [ 772263.522935383254662, 8979579.614418970420957 ], [ 772318.022054097382352, 8979570.087064109742641 ] ] ] } },
{ "type": "Feature", "properties": { "LAYER": "MSal Tersier", "GM_TYPE": "Unknown Line Type", "ELEVATION": 0 }, "geometry": { "type": "MultiLineString", "coordinates": [ [ [ 772093.158169873408042, 8982154.166171630844474 ], [ 772085.089472304447554, 8982149.270128468051553 ], [ 772080.004221896757372, 8982147.324519962072372 ], [ 772070.91613525908906, 8982144.130765810608864 ], [ 772059.562366942176595, 8982140.706635247915983 ], [ 772052.814355970011093, 8982138.780542727559805 ], [ 772042.360241825226694, 8982134.070112094283104 ], [ 772036.755003106663935, 8982132.096612704917789 ], [ 772029.202950726030394, 8982128.536690551787615 ], [ 772026.114061108557507, 8982126.069701850414276 ], [ 772022.789419513894245, 8982117.006290296092629 ], [ 772020.533779190387577, 8982106.885104587301612 ], [ 772018.995875921915285, 8982091.39349303394556 ], [ 772016.754931159317493, 8982071.735704615712166 ], [ 772014.470339481369592, 8982065.525118367746472 ], [ 772011.116343412315473, 8982060.836798224598169 ], [ 771998.487835972337052, 8982049.969788925722241 ], [ 771989.828449261607602, 8982041.778606565669179 ], [ 771984.747926353826188, 8982032.837975947186351 ], [ 771982.06791048287414, 8982026.108432309702039 ], [ 771980.166869278298691, 8982023.296794705092907 ], [ 771975.791879880009219, 8982018.524267749860883 ], [ 771966.423514815047383, 8982011.523026462644339 ], [ 771959.9266476794146, 8982007.555767685174942 ], [ 771952.684997793287039, 8982004.281545853242278 ], [ 771948.718955436022952, 8982001.314295429736376 ], [ 771945.831772469100542, 8981996.005317283794284 ], [ 771943.925710586481728, 8981989.757301546633244 ], [ 771941.429590786341578, 8981983.528572868555784 ], [ 771938.24541823065374, 8981978.580325715243816 ], [ 771934.412075688363984, 8981973.434247875586152 ], [ 771932.589093198534101, 8981970.670188836753368 ], [ 771930.92721216857899, 8981965.436889985576272 ], [ 771929.268885925179347, 8981960.566496931016445 ], [ 771928.669739480828866, 8981955.419732313603163 ], [ 771930.032102259458043, 8981948.821077426895499 ], [ 771936.001028623431921, 8981935.619894977658987 ], [ 771941.056118316017091, 8981920.227923700585961 ], [ 771949.200060978881083, 8981899.133831094950438 ], [ 771949.608091837842949, 8981888.771700203418732 ], [ 771949.681606289348565, 8981879.064146600663662 ], [ 771949.312934613320976, 8981872.371078591793776 ], [ 771947.507103052223101, 8981867.2772913929075 ], [ 771943.845306445728056, 8981865.48275532387197 ], [ 771940.231847606832162, 8981864.143039058893919 ], [ 771933.125242961803451, 8981863.189350172877312 ], [ 771920.846497199265286, 8981866.590282844379544 ], [ 771909.694948594784364, 8981873.642059663310647 ], [ 771902.611285149352625, 8981887.384290911257267 ], [ 771884.972324408707209, 8981902.357383852824569 ], [ 771858.687829630332999, 8981912.337550811469555 ], [ 771837.840985541115515, 8981915.039055675268173 ], [ 771814.106628659646958, 8981915.862409051507711 ], [ 771787.985434178262949, 8981923.614434000104666 ], [ 771780.805315081728622, 8981926.188484011217952 ], [ 771775.092333348584361, 8981928.428415738046169 ], [ 771770.092764290980995, 8981929.64241317845881 ], [ 771766.231173733831383, 8981929.825524313375354 ], [ 771760.348837860743515, 8981929.591686874628067 ], [ 771757.374397710897028, 8981929.30940137244761 ], [ 771756.375392752001062, 8981926.706067839637399 ], [ 771754.282063248800114, 8981910.919465363025665 ], [ 771751.519554341910407, 8981899.64052183367312 ], [ 771749.477714272448793, 8981885.601830717176199 ], [ 771744.628692257218063, 8981864.931690987199545 ], [ 771738.812218594248407, 8981850.016363842412829 ], [ 771732.534941983642057, 8981841.990065822377801 ], [ 771726.875098812161013, 8981836.157456368207932 ], [ 771718.706932294648141, 8981828.861605703830719 ], [ 771709.112929902854376, 8981823.723654758185148 ], [ 771696.679386013187468, 8981817.240417 ], [ 771688.395377431297675, 8981811.046542389318347 ], [ 771682.645895003457554, 8981804.275238737463951 ], [ 771678.396202668780461, 8981801.303390707820654 ], [ 771676.953509043785743, 8981800.821214184165001 ], [ 771675.263409605249763, 8981800.640591144561768 ], [ 771671.312759107211605, 8981800.605660770088434 ], [ 771666.852198300999589, 8981800.685250896960497 ], [ 771662.551969361957163, 8981801.020799972116947 ], [ 771656.560394976637326, 8981801.835377832874656 ], [ 771650.892929170047864, 8981802.33132810331881 ], [ 771648.519614417804405, 8981802.207841312512755 ], [ 771645.579146300209686, 8981801.657788069918752 ], [ 771641.842369350953959, 8981800.359602894634008 ], [ 771636.386138488771394, 8981796.78006936609745 ], [ 771630.019699036376551, 8981790.67992109619081 ], [ 771620.69190251477994, 8981780.842031981796026 ], [ 771617.812818597652949, 8981778.342173248529434 ], [ 771613.630923738353886, 8981775.878370441496372 ], [ 771610.257907729013823, 8981775.046794785186648 ], [ 771607.172023188672028, 8981774.715309156104922 ], [ 771605.790629600873217, 8981774.994276605546474 ] ] ] } },
{ "type": "Feature", "properties": { "LAYER": "MSal Tersier", "GM_TYPE": "Unknown Line Type", "ELEVATION": 0 }, "geometry": { "type": "MultiLineString", "coordinates": [ [ [ 772145.087792759062722, 8981314.665098927915096 ], [ 772061.906876929104328, 8981312.099336918443441 ], [ 772000.618838883354329, 8981303.521631173789501 ], [ 771930.243703676620498, 8981287.753609901294112 ], [ 771797.206477161846124, 8981262.805634386837482 ], [ 771719.80964906711597, 8981255.24174889922142 ], [ 771667.693180171772838, 8981246.16586085036397 ], [ 771604.157857383252122, 8981200.545284647494555 ], [ 771521.596694042324089, 8981116.544945146888494 ], [ 771513.56610142858699, 8981103.006801906973124 ], [ 771513.817062028450891, 8981092.727828582748771 ], [ 771520.031589419115335, 8981083.321326918900013 ] ] ] } },
{ "type": "Feature", "properties": { "LAYER": "MSal Tersier", "GM_TYPE": "Unknown Line Type", "ELEVATION": 24 }, "geometry": { "type": "MultiLineString", "coordinates": [ [ [ 771083.814758314983919, 8981026.392595585435629 ], [ 771259.84441634605173, 8980865.288427192717791 ], [ 771264.652960316161625, 8980859.061624886468053 ] ] ] } },
{ "type": "Feature", "properties": { "LAYER": "MSal Tersier", "GM_TYPE": "Unknown Line Type", "ELEVATION": 0 }, "geometry": { "type": "MultiLineString", "coordinates": [ [ [ 772147.194773223018274, 8981193.346079010516405 ], [ 772159.365720660425723, 8981065.864842027425766 ], [ 772288.600598455872387, 8980875.042650366201997 ] ] ] } },
{ "type": "Feature", "properties": { "LAYER": "MSal Tersier", "GM_TYPE": "Unknown Line Type", "ELEVATION": 0 }, "geometry": { "type": "MultiLineString", "coordinates": [ [ [ 771520.031589419115335, 8981083.321326918900013 ], [ 771543.485291862743907, 8981052.867024976760149 ] ] ] } },
{ "type": "Feature", "properties": { "LAYER": "MSal Tersier", "GM_TYPE": "Unknown Line Type", "ELEVATION": 0 }, "geometry": { "type": "MultiLineString", "coordinates": [ [ [ 772189.403207196854055, 8982147.064914720132947 ], [ 772187.049325664062053, 8982144.724982796236873 ], [ 772185.285731467884034, 8982144.469835191965103 ], [ 772182.90415628021583, 8982146.439936393871903 ] ] ] } },
{ "type": "Feature", "properties": { "LAYER": "MSal Tersier", "GM_TYPE": "Unknown Line Type", "ELEVATION": 24 }, "geometry": { "type": "MultiLineString", "coordinates": [ [ [ 771083.814758314751089, 8981026.392595585435629 ], [ 771079.888080713921227, 8981011.847452580928802 ], [ 771051.685320507502183, 8980913.600346818566322 ], [ 770990.7743830132531, 8980796.361151933670044 ], [ 770930.386988616315648, 8980734.334650652483106 ], [ 770897.743896904634312, 8980693.179381990805268 ], [ 770892.535669863340445, 8980639.118274228647351 ] ] ] } },
{ "type": "Feature", "properties": { "LAYER": "MSal Tersier", "GM_TYPE": "Unknown Line Type", "ELEVATION": 0 }, "geometry": { "type": "MultiLineString", "coordinates": [ [ [ 771755.415131890913472, 8981748.040212519466877 ], [ 771757.447215208085254, 8981772.240175997838378 ], [ 771764.724415455712005, 8981850.438499476760626 ], [ 771770.2258496460272, 8981929.610097337514162 ] ] ] } },
{ "type": "Feature", "properties": { "LAYER": "MSal Tersier", "GM_TYPE": "Unknown Line Type", "ELEVATION": 17 }, "geometry": { "type": "MultiLineString", "coordinates": [ [ [ 775644.904084753594361, 8982269.039283206686378 ], [ 775925.751182655105367, 8982054.900687891989946 ], [ 776039.028401036164723, 8981829.655961215496063 ] ] ] } },
{ "type": "Feature", "properties": { "LAYER": "MSal Tersier", "GM_TYPE": "Unknown Line Type", "ELEVATION": 0 }, "geometry": { "type": "MultiLineString", "coordinates": [ [ [ 774117.309262548224069, 8983834.202420005574822 ], [ 774091.617883054423146, 8983866.949104828760028 ], [ 773907.860762669355609, 8983951.028025968000293 ], [ 773860.595155849354342, 8983922.387310951948166 ], [ 773703.591365965898149, 8983955.593248527497053 ], [ 773667.083700866438448, 8983954.107210164889693 ], [ 773690.467460945947096, 8983899.70565727725625 ], [ 773653.74281714623794, 8983879.642386484891176 ], [ 773616.413870445685461, 8983880.43384812399745 ], [ 773445.799178904038854, 8983792.207860335707664 ], [ 773419.143793318304233, 8983762.939867084845901 ], [ 773400.998863411252387, 8983746.07199651747942 ], [ 773367.596611245302483, 8983596.659300681203604 ], [ 773344.409716284833848, 8983547.548738969489932 ], [ 773279.224975170684047, 8983547.440222619101405 ], [ 773180.937205850263126, 8983561.472087839618325 ], [ 773146.669931933050975, 8983624.302333677187562 ], [ 772947.706858427962288, 8983467.840168261900544 ] ] ] } },
{ "type": "Feature", "properties": { "LAYER": "MSal Tersier", "GM_TYPE": "Unknown Line Type", "ELEVATION": 0 }, "geometry": { "type": "MultiLineString", "coordinates": [ [ [ 772961.426192012964748, 8983476.132399056106806 ], [ 773261.106771528953686, 8983427.792690053582191 ] ] ] } },
{ "type": "Feature", "properties": { "LAYER": "MSal Tersier", "GM_TYPE": "Unknown Line Type", "ELEVATION": 0 }, "geometry": { "type": "MultiLineString", "coordinates": [ [ [ 772947.706858427962288, 8983467.840168261900544 ], [ 772906.720863845781423, 8983436.781754845753312 ], [ 772894.791244187043048, 8983196.607850512489676 ] ] ] } }
]
}
