{
"type": "FeatureCollection",
"name": "09_oe_ar_contourmayor",
"crs": { "type": "name", "properties": { "name": "urn:ogc:def:crs:EPSG::32751" } },
"features": [
{ "type": "Feature", "properties": { "LAYER": "09.Co_major", "GM_TYPE": "Unknown Area Type", "ELEVATION": 35 }, "geometry": { "type": "MultiPolygon", "coordinates": [ [ [ [ 777835.920943619217724, 8983144.840678121894598 ], [ 777836.752018002327532, 8983146.396553026512265 ], [ 777837.322031899821013, 8983147.406961569562554 ], [ 777838.013294620555826, 8983148.598870066925883 ], [ 777840.219720592722297, 8983150.879167282953858 ], [ 777841.135057614184916, 8983151.895375108346343 ], [ 777842.395932212355547, 8983153.31081554479897 ], [ 777843.850866554770619, 8983155.095334984362125 ], [ 777845.990980140399188, 8983158.023342249915004 ], [ 777847.657291897223331, 8983160.635190358385444 ], [ 777848.579786137677729, 8983162.458903601393104 ], [ 777849.30578600813169, 8983163.822397341951728 ], [ 777850.680689333938062, 8983165.935633650049567 ], [ 777851.244466598145664, 8983167.111689694225788 ], [ 777851.72256525605917, 8983167.60579764470458 ], [ 777852.311478869640268, 8983167.878170549869537 ], [ 777852.994070746120997, 8983167.792411061003804 ], [ 777853.889737223857082, 8983167.194974632933736 ], [ 777854.299001079984009, 8983166.589380219578743 ], [ 777854.84450669970829, 8983165.412499900907278 ], [ 777856.105751618742943, 8983162.206075375899673 ], [ 777857.544926376082003, 8983156.552782382816076 ], [ 777859.071526553947479, 8983152.041924849152565 ], [ 777859.917442406993359, 8983146.576732965186238 ], [ 777862.001556413248181, 8983138.76867089420557 ], [ 777862.888510985649191, 8983134.50134620629251 ], [ 777863.776175201870501, 8983129.500214824452996 ], [ 777863.655486033298075, 8983127.679127456620336 ], [ 777862.710031360271387, 8983126.177687235176563 ], [ 777860.926015174132772, 8983124.025497522205114 ], [ 777856.426747898454778, 8983120.054148383438587 ], [ 777855.505005353945307, 8983119.25071981549263 ], [ 777854.592668416444212, 8983119.140922779217362 ], [ 777853.791063318029046, 8983119.316439753398299 ], [ 777853.090924729127437, 8983119.703636456280947 ], [ 777852.78711159247905, 8983120.265460854396224 ], [ 777852.631042702239938, 8983121.407194865867496 ], [ 777852.502430973574519, 8983122.171428542584181 ], [ 777852.622716439538635, 8983123.128825599327683 ], [ 777852.706290023052134, 8983124.390061197802424 ], [ 777852.780624352279119, 8983125.577646160498261 ], [ 777852.762732234317809, 8983126.627208469435573 ], [ 777852.523702228441834, 8983127.704554107040167 ], [ 777852.229141383431852, 8983128.340020963922143 ], [ 777851.685685771983117, 8983128.782343771308661 ], [ 777850.764409294351935, 8983129.197323799133301 ], [ 777849.290110541624017, 8983129.382551768794656 ], [ 777848.092179991770536, 8983129.383441045880318 ], [ 777846.774263692088425, 8983129.025360971689224 ], [ 777845.640475302119739, 8983128.344921296462417 ], [ 777844.681575568392873, 8983127.268471375107765 ], [ 777844.441918437951244, 8983127.148965083062649 ], [ 777843.704155783983879, 8983126.044725397601724 ], [ 777842.901938218157738, 8983125.023395141586661 ], [ 777842.099720652680844, 8983124.002064887434244 ], [ 777841.00262948917225, 8983123.017781961709261 ], [ 777839.499973619938828, 8983121.785220704972744 ], [ 777838.190996858291328, 8983120.902363564819098 ], [ 777836.863828266039491, 8983120.47064103372395 ], [ 777835.472190914326347, 8983120.12182966992259 ], [ 777834.762499508913606, 8983119.83694976568222 ], [ 777833.914631330408156, 8983119.644241562113166 ], [ 777833.527545133605599, 8983119.543264504522085 ], [ 777833.020486223627813, 8983119.083309918642044 ], [ 777832.550139197148383, 8983118.319516787305474 ], [ 777832.337940847151913, 8983117.822523048147559 ], [ 777831.618683587643318, 8983116.865574721246958 ], [ 777830.733491058927029, 8983115.779857832938433 ], [ 777829.73726697510574, 8983113.810399228706956 ], [ 777829.01652125781402, 8983112.50910085439682 ], [ 777828.454821525956504, 8983111.337377702817321 ], [ 777827.607317111454904, 8983109.870283650234342 ], [ 777826.463778858538717, 8983108.026289062574506 ], [ 777825.636762066744268, 8983106.722263675183058 ], [ 777824.707656801794656, 8983105.265421787276864 ], [ 777823.758050875854678, 8983103.645519422367215 ], [ 777822.910547270555981, 8983102.178431807085872 ], [ 777821.328231788706034, 8983100.141100291162729 ], [ 777820.613765210378915, 8983099.359650131314993 ], [ 777820.172210734337568, 8983098.698743781074882 ], [ 777819.692883449606597, 8983098.144925339147449 ], [ 777819.081277638324536, 8983097.76123615168035 ], [ 777818.702999818604439, 8983097.604084346443415 ], [ 777818.23021627869457, 8983097.509973891079426 ], [ 777817.89625501120463, 8983097.705442164093256 ], [ 777817.719874139875174, 8983097.93228018656373 ], [ 777817.335481802001595, 8983098.134084518998861 ], [ 777817.18421628465876, 8983098.153089214116335 ], [ 777817.051937757059932, 8983098.323218470439315 ], [ 777816.98906344268471, 8983098.638137962669134 ], [ 777817.203619462437928, 8983099.122886072844267 ], [ 777817.556795774493366, 8983099.487869454547763 ], [ 777817.922617312637158, 8983099.953612867742777 ], [ 777818.81165265024174, 8983100.507124237716198 ], [ 777819.391814379952848, 8983101.048274038359523 ], [ 777820.18654516863171, 8983102.074163768440485 ], [ 777820.792238442227244, 8983103.226152557879686 ], [ 777821.208691410836764, 8983104.094890488311648 ], [ 777822.173674704856239, 8983105.252900077030063 ], [ 777824.444562494754791, 8983108.651831271126866 ], [ 777826.710048490203917, 8983113.962817197665572 ], [ 777830.07582511426881, 8983118.724258920177817 ], [ 777833.569383509457111, 8983123.584854185581207 ], [ 777835.344893086818047, 8983126.70278237760067 ], [ 777837.006407883949578, 8983128.913383428007364 ], [ 777838.270355513435788, 8983130.71310287155211 ], [ 777839.335287470021285, 8983131.846579518169165 ], [ 777840.372184507665224, 8983133.674825150519609 ], [ 777840.515156416222453, 8983135.730589548125863 ], [ 777840.402578631881624, 8983137.588045123964548 ], [ 777838.417102814186364, 8983140.141632506623864 ], [ 777837.835710922256112, 8983141.021125407889485 ], [ 777836.998770147096366, 8983141.702315926551819 ], [ 777836.176078112330288, 8983142.496917506679893 ], [ 777835.793237714213319, 8983143.121049212291837 ], [ 777835.779465381638147, 8983143.929227516055107 ], [ 777835.920943619217724, 8983144.840678121894598 ] ] ] ] } },
{ "type": "Feature", "properties": { "LAYER": "09.Co_major", "GM_TYPE": "Unknown Area Type", "ELEVATION": 30 }, "geometry": { "type": "MultiPolygon", "coordinates": [ [ [ [ 777672.038816218147986, 8982821.188224798068404 ], [ 777671.056349259451963, 8982819.825896156951785 ], [ 777669.069148192065768, 8982816.656330494210124 ], [ 777666.299530143500306, 8982813.096599517390132 ], [ 777664.448751189396717, 8982811.985859213396907 ], [ 777661.875998449511826, 8982810.965819718316197 ], [ 777659.137589504942298, 8982809.600251149386168 ], [ 777655.239693848416209, 8982805.815932946279645 ], [ 777652.683582608122379, 8982803.406113216653466 ], [ 777649.744995394255966, 8982799.801837066188455 ], [ 777646.224834919907153, 8982795.525609532371163 ], [ 777642.704674445092678, 8982791.249381998553872 ], [ 777640.684530558646657, 8982789.01977226883173 ], [ 777638.664386671152897, 8982786.790162535384297 ], [ 777635.604971090448089, 8982786.181176101788878 ], [ 777633.585837805061601, 8982785.938170064240694 ], [ 777631.414148685638793, 8982786.459363017231226 ], [ 777629.151320379809476, 8982788.233705000951886 ], [ 777628.387485021841712, 8982790.068069269880652 ], [ 777628.174506866838783, 8982792.329904329031706 ], [ 777629.369395511224866, 8982795.904902521520853 ], [ 777632.246549802250229, 8982799.020211042836308 ], [ 777635.184110949747264, 8982800.637872356921434 ], [ 777638.489257409353741, 8982803.202722854912281 ], [ 777641.672549435868859, 8982806.776248237118125 ], [ 777644.092005294747651, 8982812.184131445363164 ], [ 777646.465495102573186, 8982813.707332985475659 ], [ 777648.373452777857892, 8982816.383762082085013 ], [ 777650.835405330173671, 8982821.682412939146161 ], [ 777653.074564002105035, 8982827.075601505115628 ], [ 777655.781035585794598, 8982830.127576254308224 ], [ 777658.266694588586688, 8982831.422021003440022 ], [ 777660.664029853534885, 8982832.013464054092765 ], [ 777663.522874104441144, 8982832.011333793401718 ], [ 777666.601809011423029, 8982832.338614121079445 ], [ 777668.537632863037288, 8982833.523611165583134 ], [ 777671.001211335882545, 8982834.64230871386826 ], [ 777674.3878102080198, 8982834.573878951370716 ], [ 777677.466007724986412, 8982833.473028726875782 ], [ 777677.559621012303978, 8982832.541175596415997 ], [ 777677.183704042457975, 8982829.549111694097519 ], [ 777676.208803873625584, 8982826.632302854210138 ], [ 777672.038816218147986, 8982821.188224798068404 ] ] ] ] } },
{ "type": "Feature", "properties": { "LAYER": "09.Co_major", "GM_TYPE": "Unknown Area Type", "ELEVATION": 35 }, "geometry": { "type": "MultiPolygon", "coordinates": [ [ [ [ 777781.897444498725235, 8983124.860575959086418 ], [ 777783.748995650676079, 8983125.899502348154783 ], [ 777785.164583212812431, 8983128.445845594629645 ], [ 777785.660493582021445, 8983129.480316700413823 ], [ 777786.03241126483772, 8983130.256179507821798 ], [ 777786.674525451846421, 8983130.998095354065299 ], [ 777787.597760591190308, 8983131.064892921596766 ], [ 777788.092935105785728, 8983130.63708807900548 ], [ 777788.092556490679272, 8983129.905951449647546 ], [ 777787.641484751948155, 8983128.500244703143835 ], [ 777787.246957195922732, 8983127.544421454891562 ], [ 777787.021221956238151, 8983126.476006086915731 ], [ 777786.749909730744548, 8983124.31653050892055 ], [ 777786.084807054256089, 8983122.663517586886883 ], [ 777785.329646002617665, 8983121.021819418296218 ], [ 777785.171380641870201, 8983119.762126162648201 ], [ 777785.552749810856767, 8983116.972255790606141 ], [ 777785.728348979726434, 8983114.425295950844884 ], [ 777785.349109897506423, 8983112.125926168635488 ], [ 777784.736877735704184, 8983110.848794255405664 ], [ 777783.401863986160606, 8983109.572207141667604 ], [ 777782.344899031450041, 8983108.350960671901703 ], [ 777781.487761926953681, 8983106.562983563169837 ], [ 777780.475082565564662, 8983104.97508667036891 ], [ 777779.918675983906724, 8983104.142291452735662 ], [ 777779.262158227618784, 8983103.23180996440351 ], [ 777778.372273018583655, 8983102.621450526639819 ], [ 777777.349176784977317, 8983102.388913938775659 ], [ 777776.637186442501843, 8983101.756214244291186 ], [ 777776.125461202696897, 8983101.278881728649139 ], [ 777774.880141755566001, 8983101.435341192409396 ], [ 777774.135424684849568, 8983101.980256482958794 ], [ 777773.657548039336689, 8983102.491646472364664 ], [ 777773.002129521686584, 8983103.747495215386152 ], [ 777773.225431847386062, 8983105.524842023849487 ], [ 777773.392907341942191, 8983106.857842180877924 ], [ 777773.993973888456821, 8983108.046102780848742 ], [ 777774.606206051073968, 8983109.3232346996665 ], [ 777775.363209353759885, 8983111.033518271520734 ], [ 777775.641962889232673, 8983112.533085968345404 ], [ 777775.475961005780846, 8983114.088531849905849 ], [ 777775.55448969185818, 8983115.432707108557224 ], [ 777775.82207761099562, 8983116.843403488397598 ], [ 777776.256416156888008, 8983118.14288560859859 ], [ 777776.979923860752024, 8983119.586565166711807 ], [ 777778.51551420474425, 8983121.740653270855546 ], [ 777779.361112570506521, 8983122.717653190717101 ], [ 777780.106577134574763, 8983123.616959577426314 ], [ 777781.207851559389383, 8983124.471572820097208 ], [ 777781.897444498725235, 8983124.860575959086418 ] ] ] ] } },
{ "type": "Feature", "properties": { "LAYER": "09.Co_major", "GM_TYPE": "Unknown Area Type", "ELEVATION": 35 }, "geometry": { "type": "MultiPolygon", "coordinates": [ [ [ [ 777790.838701108470559, 8983153.118837915360928 ], [ 777790.280299047124572, 8983153.689096758142114 ], [ 777789.586726136156358, 8983154.581116354092956 ], [ 777789.289660549722612, 8983155.270007064566016 ], [ 777789.143639939953573, 8983155.939920786768198 ], [ 777789.02116934733931, 8983156.491891363635659 ], [ 777788.98372389562428, 8983157.109835794195533 ], [ 777788.870734579395503, 8983157.737271405756474 ], [ 777788.639863382093608, 8983158.647814324125648 ], [ 777788.668459141626954, 8983159.180805223062634 ], [ 777788.753789388225414, 8983159.859980601817369 ], [ 777788.924449883052148, 8983161.218331368640065 ], [ 777788.773841811926104, 8983162.157118307426572 ], [ 777788.580741296056658, 8983163.062905687838793 ], [ 777787.967300961259753, 8983163.676570830866694 ], [ 777787.632288889028132, 8983164.063604084774852 ], [ 777787.165173018351197, 8983164.620547084137797 ], [ 777787.033222396858037, 8983165.097062569111586 ], [ 777786.906011165585369, 8983165.611300628632307 ], [ 777786.826053143595345, 8983166.196258133277297 ], [ 777786.87345828069374, 8983166.573573369532824 ], [ 777787.020090349018574, 8983167.130072643980384 ], [ 777787.275296327192336, 8983167.634592685848475 ], [ 777787.691223239526153, 8983168.502191189676523 ], [ 777788.078686192748137, 8983169.14340722002089 ], [ 777788.352854724857025, 8983169.79885733127594 ], [ 777788.662539920769632, 8983171.031323434785008 ], [ 777788.943036688957363, 8983172.477190546691418 ], [ 777788.786080529913306, 8983174.767947442829609 ], [ 777788.720344339031726, 8983176.997873704880476 ], [ 777788.61752933554817, 8983178.146309792995453 ], [ 777788.125558684463613, 8983179.343638626858592 ], [ 777787.633565408177674, 8983180.540960200130939 ], [ 777787.190225853584707, 8983181.732179122045636 ], [ 777786.880631009466015, 8983182.807854749262333 ], [ 777786.668121385853738, 8983183.476373299956322 ], [ 777786.53477337025106, 8983184.381785718724132 ], [ 777786.243497584015131, 8983185.603269582614303 ], [ 777786.335292468662374, 8983186.727255275472999 ], [ 777786.26874026004225, 8983187.377436026930809 ], [ 777786.34201649017632, 8983187.960668969899416 ], [ 777786.409385964856483, 8983188.890243677422404 ], [ 777786.482662193942815, 8983189.473476624116302 ], [ 777786.732209128327668, 8983189.88646356575191 ], [ 777786.975450111553073, 8983189.855903251096606 ], [ 777787.297675732639618, 8983189.667299553751945 ], [ 777787.540718368720263, 8983189.241804676130414 ], [ 777787.467442139051855, 8983188.658571729436517 ], [ 777787.351420192047954, 8983187.735109621658921 ], [ 777787.563533120672219, 8983186.276721946895123 ], [ 777787.87923431629315, 8983185.249649060890079 ], [ 777788.110064247623086, 8983184.726948691532016 ], [ 777788.450410578399897, 8983184.289218667894602 ], [ 777789.021765060257167, 8983183.723735470324755 ], [ 777789.676202023867518, 8983182.093679459765553 ], [ 777790.697352893650532, 8983179.027524398639798 ], [ 777791.388834526645951, 8983177.407846389338374 ], [ 777792.111915003042668, 8983176.039675407111645 ], [ 777792.473180584609509, 8983174.844685493037105 ], [ 777793.100941592012532, 8983171.700221689417958 ], [ 777792.990350012667477, 8983170.819981910288334 ], [ 777792.848160840454511, 8983169.688245052471757 ], [ 777792.894526483025402, 8983168.021894769743085 ], [ 777793.442647247575223, 8983165.344111235812306 ], [ 777793.82599957252387, 8983164.342027919366956 ], [ 777794.146655191667378, 8983163.3478216920048 ], [ 777794.365076086949557, 8983161.539718192070723 ], [ 777794.015702004544437, 8983158.970633001998067 ], [ 777794.148423570324667, 8983157.509086908772588 ], [ 777794.398078859783709, 8983156.258605571463704 ], [ 777794.614399295300245, 8983155.102626912295818 ], [ 777794.819742482155561, 8983154.218930663540959 ], [ 777795.230967451352626, 8983153.535134017467499 ], [ 777795.675700514577329, 8983153.118040833622217 ], [ 777796.259513914119452, 8983152.7286311481148 ], [ 777796.665153575595468, 8983152.000378951430321 ], [ 777796.78709250933025, 8983151.17231872677803 ], [ 777796.619917395641096, 8983150.561191115528345 ], [ 777796.202549647539854, 8983150.116958940401673 ], [ 777795.568474731524475, 8983150.106318403035402 ], [ 777794.834455632488243, 8983150.379148008301854 ], [ 777794.050345757976174, 8983150.613113641738892 ], [ 777793.572104600840248, 8983150.763503363355994 ], [ 777792.604624912142754, 8983151.336577845737338 ], [ 777792.070902288542129, 8983151.764851506799459 ], [ 777790.838701108470559, 8983153.118837915360928 ] ] ] ] } },
{ "type": "Feature", "properties": { "LAYER": "09.Co_major", "GM_TYPE": "Unknown Area Type", "ELEVATION": 25 }, "geometry": { "type": "MultiPolygon", "coordinates": [ [ [ [ 775246.751923413714394, 8982880.45063485018909 ], [ 775276.235797430854291, 8982883.264385806396604 ], [ 775285.300978273851797, 8982883.704027570784092 ], [ 775289.525530088227242, 8982883.967805350199342 ], [ 775292.341871893848293, 8982884.14366933517158 ], [ 775295.510324860806577, 8982884.759175082668662 ], [ 775305.673213422647677, 8982885.225889639928937 ], [ 775310.394021416315809, 8982885.596830554306507 ], [ 775315.167935469071381, 8982885.755810430273414 ], [ 775324.6626575156115, 8982886.86866956576705 ], [ 775331.93693623249419, 8982888.111216109246016 ], [ 775336.195353913819417, 8982888.260516734793782 ], [ 775339.631918178056367, 8982888.559045208618045 ], [ 775341.424932032939978, 8982888.782977951690555 ], [ 775347.775212246691808, 8982889.529371915385127 ], [ 775356.291969397338107, 8982889.977201014757156 ], [ 775358.607987991184928, 8982890.201097372919321 ], [ 775360.69977231149096, 8982890.425030117854476 ], [ 775363.464024816057645, 8982890.425030117854476 ], [ 775365.182346054236405, 8982890.201097372919321 ], [ 775366.228277320624329, 8982889.82790038920939 ], [ 775367.572979052551091, 8982888.857610069215298 ], [ 775368.693602934945375, 8982888.036583987995982 ], [ 775374.296800560550764, 8982884.453914798796177 ], [ 775380.073081704438664, 8982879.025310577824712 ], [ 775381.479179984889925, 8982877.372669456526637 ], [ 775382.554362600320019, 8982875.885266976431012 ], [ 775383.298785975202918, 8982874.64581342972815 ], [ 775383.877712411456741, 8982873.323685979470611 ], [ 775384.787554512848146, 8982871.836319889873266 ], [ 775386.276323050376959, 8982870.431554924696684 ], [ 775387.847761844866909, 8982869.357340017333627 ], [ 775390.32904274109751, 8982869.109463861212134 ], [ 775391.983230004901998, 8982869.026826348155737 ], [ 775393.554747011745349, 8982868.28312510997057 ], [ 775394.795348353567533, 8982866.63048399053514 ], [ 775396.945870009018108, 8982864.482054172083735 ], [ 775401.743013074621558, 8982858.61519093811512 ], [ 775410.383189019514248, 8982848.376872340217233 ], [ 775413.895775507087819, 8982843.561808904632926 ], [ 775416.83647465321701, 8982839.562822761014104 ], [ 775418.633633752469905, 8982837.522538561373949 ], [ 775420.594178062165156, 8982834.910996617749333 ], [ 775421.819449819857255, 8982833.850027000531554 ], [ 775422.718029369483702, 8982832.870712416246533 ], [ 775423.530262690386735, 8982832.288283508270979 ], [ 775424.330764186801389, 8982831.533010831102729 ], [ 775425.042260240530595, 8982830.911027994006872 ], [ 775425.709331785445102, 8982830.20018526352942 ], [ 775426.331900609191507, 8982829.578166035935283 ], [ 775426.732112251222134, 8982828.911753250285983 ], [ 775427.265753844752908, 8982828.067620687186718 ], [ 775427.399183796253055, 8982827.134664621204138 ], [ 775427.310178353567608, 8982826.468215446919203 ], [ 775426.954469432821497, 8982825.712942775338888 ], [ 775426.020616197260097, 8982825.046529987826943 ], [ 775425.264617422129959, 8982824.513407038524747 ], [ 775423.841547102085315, 8982824.113537533208728 ], [ 775422.374052273109555, 8982823.624844528734684 ], [ 775420.773205704754218, 8982823.091721579432487 ], [ 775419.439062615158036, 8982822.691852074116468 ], [ 775418.505209379713051, 8982822.425272405147552 ], [ 775416.815357369021513, 8982822.336448904126883 ], [ 775415.48129249131307, 8982822.38087884709239 ], [ 775414.414009304251522, 8982822.38087884709239 ], [ 775413.168871656991541, 8982822.38087884709239 ], [ 775411.656874106847681, 8982822.069869235157967 ], [ 775410.634093640954234, 8982821.581176228821278 ], [ 775409.878094865940511, 8982821.003586947917938 ], [ 775408.293829276342876, 8982820.133837116882205 ], [ 775406.915887374896556, 8982819.946110591292381 ], [ 775405.537945473333821, 8982820.008698228746653 ], [ 775403.344172491459176, 8982819.333079239353538 ], [ 775401.945113305700943, 8982819.17777456715703 ], [ 775400.779204580350779, 8982819.022469894960523 ], [ 775398.291901347693056, 8982818.944817561656237 ], [ 775396.348798350780271, 8982818.944817561656237 ], [ 775394.250131360138766, 8982818.634171826764941 ], [ 775392.38469304156024, 8982818.012953137978911 ], [ 775390.51925472333096, 8982817.314082115888596 ], [ 775388.886966865044087, 8982816.537522364407778 ], [ 775387.332421897910535, 8982815.295048601925373 ], [ 775384.767453986685723, 8982811.722968364134431 ], [ 775383.834695721394382, 8982810.09223291836679 ], [ 775383.660673656966537, 8982809.973134465515614 ], [ 775383.221043084515259, 8982810.060975486412644 ], [ 775382.986641229595989, 8982810.295169692486525 ], [ 775382.722909813164733, 8982810.558656368404627 ], [ 775382.400519274175167, 8982810.968569004908204 ], [ 775381.902386003057472, 8982811.407701332122087 ], [ 775381.726565058808774, 8982811.729772949591279 ], [ 775381.638576374738477, 8982812.256746301427484 ], [ 775381.579995463951491, 8982812.842304591089487 ], [ 775381.492084991885349, 8982813.427862882614136 ], [ 775381.28693448624108, 8982813.984128704294562 ], [ 775380.788801215123385, 8982814.686784094199538 ], [ 775379.821707809926011, 8982815.301598468795419 ], [ 775379.440736360149458, 8982815.535829061642289 ], [ 775376.992148148827255, 8982817.403596991673112 ], [ 775373.212467121775262, 8982819.102851344272494 ], [ 775371.511587196146138, 8982823.06777816824615 ], [ 775368.487904944340698, 8982832.130468053743243 ], [ 775367.92094496905338, 8982834.773740474134684 ], [ 775367.353984993766062, 8982838.361067349091172 ], [ 775366.220065043307841, 8982843.270012240856886 ], [ 775363.5743039669469, 8982846.102102829143405 ], [ 775359.983661739854142, 8982847.612539013847709 ], [ 775355.070060762460344, 8982848.934157030656934 ], [ 775350.723497972590849, 8982848.934157030656934 ], [ 775344.865015844581649, 8982849.689393317326903 ], [ 775339.006533716572449, 8982850.444629602134228 ], [ 775332.581091613392346, 8982853.276720192283392 ], [ 775326.155649509979412, 8982857.430428797379136 ], [ 775323.509888433618471, 8982861.01775567419827 ], [ 775320.108206794247963, 8982864.416264379397035 ], [ 775317.273485130048357, 8982866.304300513118505 ], [ 775314.990941342548467, 8982867.226267354562879 ], [ 775309.764726346242242, 8982868.345130536705256 ], [ 775305.658431323594414, 8982869.836899593472481 ], [ 775301.178829642944038, 8982869.836899593472481 ], [ 775298.565761251142249, 8982869.650446655228734 ], [ 775293.899545347783715, 8982869.650446655228734 ], [ 775289.606636102078483, 8982868.345130536705256 ], [ 775281.767352714319713, 8982867.599209621548653 ], [ 775274.487990206922404, 8982867.039814416319132 ], [ 775267.95531922695227, 8982865.548008970916271 ], [ 775259.929421616252512, 8982864.98857737891376 ], [ 775253.769979082047939, 8982864.615635115653276 ], [ 775249.290377401397564, 8982863.310318995267153 ], [ 775246.677309009595774, 8982862.191455813124776 ], [ 775243.690933959907852, 8982862.005002874881029 ], [ 775239.771253159851767, 8982862.005002874881029 ], [ 775236.09207476337906, 8982862.284136459231377 ], [ 775233.419020506087691, 8982862.968383334577084 ], [ 775232.003293040557764, 8982863.997045371681452 ], [ 775231.874584194738418, 8982865.154276786372066 ], [ 775232.003293040557764, 8982866.182923533022404 ], [ 775231.874584194738418, 8982867.211585570126772 ], [ 775231.874584194738418, 8982868.497401652857661 ], [ 775232.389384659240022, 8982869.911802396178246 ], [ 775233.805112124886364, 8982871.069033809006214 ], [ 775235.864348900737241, 8982871.583372471854091 ], [ 775238.567129904869944, 8982871.583372471854091 ], [ 775244.74484023230616, 8982871.711941847577691 ], [ 775267.167555324151181, 8982874.134730758145452 ], [ 775286.260671047843061, 8982875.558259332552552 ], [ 775296.947101823170669, 8982876.839427405968308 ], [ 775311.338154484401457, 8982878.262940689921379 ], [ 775315.897715973784216, 8982879.68646926432848 ], [ 775325.197925244807266, 8982880.526978757232428 ], [ 775329.211434393189847, 8982881.494849756360054 ], [ 775333.224943541572429, 8982881.563973570242524 ], [ 775337.307625838089734, 8982881.563973570242524 ], [ 775340.905956425704062, 8982881.90963850915432 ], [ 775342.705121719627641, 8982881.771375590935349 ], [ 775344.29666281468235, 8982881.771375590935349 ], [ 775345.265436068642884, 8982881.84051469527185 ], [ 775346.0266200422775, 8982881.97877760976553 ], [ 775346.64942280179821, 8982882.255318734794855 ], [ 775346.787804015912116, 8982882.670107487589121 ], [ 775346.372625455143861, 8982883.776241403073072 ], [ 775346.372625455143861, 8982884.398447465151548 ], [ 775346.441833521355875, 8982885.22805554792285 ], [ 775346.441833521355875, 8982886.126787442713976 ], [ 775346.0266200422775, 8982886.818117318674922 ], [ 775345.749822695623152, 8982886.887256421148777 ], [ 775344.019865468144417, 8982886.887256421148777 ], [ 775337.999636663589627, 8982886.265050359070301 ], [ 775322.50181363557931, 8982884.401841731742024 ], [ 775307.82561815448571, 8982882.636959858238697 ], [ 775294.000940283411182, 8982880.986504577100277 ], [ 775290.60998946626205, 8982879.857252940535545 ], [ 775284.958393131848425, 8982879.249189663678408 ], [ 775275.598787836148404, 8982877.820263899862766 ], [ 775252.401619817712344, 8982875.065815230831504 ], [ 775243.274884650134481, 8982874.685886530205607 ], [ 775236.144603158929385, 8982873.926044419407845 ], [ 775233.197428988525644, 8982873.926044419407845 ], [ 775232.627003675675951, 8982874.210979478433728 ], [ 775232.531956069055013, 8982875.065815230831504 ], [ 775232.24674341280479, 8982876.110607685521245 ], [ 775232.24674341280479, 8982877.345356846228242 ], [ 775232.341791019425727, 8982878.295170949772 ], [ 775233.672806694637984, 8982878.865056352689862 ], [ 775237.095323652843945, 8982879.150006700307131 ], [ 775244.225605144049041, 8982880.2897775080055 ], [ 775246.751923413714394, 8982880.45063485018909 ] ] ] ] } },
{ "type": "Feature", "properties": { "LAYER": "09.Co_major", "GM_TYPE": "Unknown Area Type", "ELEVATION": 20 }, "geometry": { "type": "MultiPolygon", "coordinates": [ [ [ [ 776635.351952890865505, 8982271.556580055505037 ], [ 776636.256789413746446, 8982267.725052230060101 ], [ 776637.070274129044265, 8982265.828755984082818 ], [ 776636.79911255731713, 8982262.848820295184851 ], [ 776635.714466269942932, 8982261.494343772530556 ], [ 776632.731767192017287, 8982259.598011136054993 ], [ 776632.460605620057322, 8982255.534508781507611 ], [ 776631.376037545036525, 8982250.929186705499887 ], [ 776629.206744970404543, 8982247.136557826772332 ], [ 776624.597154673654586, 8982244.15665852651 ], [ 776619.987486164667644, 8982241.71854255720973 ], [ 776606.038346754387021, 8982237.913359763100743 ], [ 776592.669698023586534, 8982237.127702973783016 ], [ 776580.087550811818801, 8982237.127702973783016 ], [ 776565.146211891667917, 8982236.342046184465289 ], [ 776551.777641373220831, 8982237.913359763100743 ], [ 776539.195415949332528, 8982233.985112205147743 ], [ 776527.399613832007162, 8982230.84252143651247 ], [ 776513.244620006647892, 8982231.628178225830197 ], [ 776501.448817889555357, 8982232.413835015147924 ], [ 776490.439439079142176, 8982233.985112205147743 ], [ 776479.429982056841254, 8982240.270293742418289 ], [ 776475.498021946987137, 8982247.341168457642198 ], [ 776466.847756632836536, 8982258.340254340320826 ], [ 776458.983914625248872, 8982270.910653805360198 ], [ 776452.692841019481421, 8982290.551855208352208 ], [ 776450.333649311214685, 8982302.336597882211208 ], [ 776444.042575705447234, 8982315.692654136568308 ], [ 776426.742045077029616, 8982328.263053599745035 ], [ 776414.159819653024897, 8982347.118634598329663 ], [ 776408.655169353936799, 8982366.759872388094664 ], [ 776410.362540889298543, 8982375.683413945138454 ], [ 776412.594403194962069, 8982382.125028189271688 ], [ 776413.338357296772301, 8982388.566678818315268 ], [ 776412.842413966311142, 8982395.751594031229615 ], [ 776412.842413966311142, 8982401.697710683569312 ], [ 776413.834378839470446, 8982407.396096732467413 ], [ 776415.32228704332374, 8982410.121388068422675 ], [ 776419.290068324073218, 8982410.864652650430799 ], [ 776422.017952172551304, 8982409.873657466843724 ], [ 776422.761906274361536, 8982407.396096732467413 ], [ 776423.257927817059681, 8982403.679773826152086 ], [ 776424.74583602079656, 8982400.954446101561189 ], [ 776428.217673970852047, 8982399.715683927759528 ], [ 776434.169384998152964, 8982398.476885367184877 ], [ 776439.377141923643649, 8982395.751594031229615 ], [ 776449.544645003043115, 8982389.805440992116928 ], [ 776453.016482953331433, 8982388.318911829963326 ], [ 776458.96819398063235, 8982387.575647249817848 ], [ 776464.423883465002291, 8982387.575647249817848 ], [ 776468.887686288449913, 8982387.575647249817848 ], [ 776474.095443213940598, 8982386.832382664084435 ], [ 776480.047154241241515, 8982382.37279517762363 ], [ 776485.254911166499369, 8982378.408705281093717 ], [ 776489.470703218714334, 8982373.949117792770267 ], [ 776494.678460143972188, 8982370.480525489896536 ], [ 776500.382160399924032, 8982368.498498734086752 ], [ 776505.093973994720727, 8982367.755234152078629 ], [ 776509.309766046819277, 8982368.746229335665703 ], [ 776514.765455531305633, 8982368.993996324017644 ], [ 776520.965177329955623, 8982367.755234152078629 ], [ 776524.685026051360182, 8982365.525440409779549 ], [ 776528.156864001648501, 8982362.304615091532469 ], [ 776533.364620927255601, 8982358.836022786796093 ], [ 776543.111029716790654, 8982349.432885266840458 ], [ 776545.873014068463817, 8982343.412391213700175 ], [ 776552.15024412132334, 8982339.147917045280337 ], [ 776557.423073566984385, 8982335.886810036376119 ], [ 776561.440519571769983, 8982332.625703025609255 ], [ 776564.202503923559561, 8982328.361228857189417 ], [ 776568.973211277741939, 8982323.093278367072344 ], [ 776574.497101768967696, 8982318.828804198652506 ], [ 776581.197459628107026, 8982310.686953123658895 ], [ 776584.394772883388214, 8982308.291192974895239 ], [ 776586.792757824761793, 8982305.695807376876473 ], [ 776588.791078609530814, 8982302.900796322152019 ], [ 776591.189063551137224, 8982300.505072560161352 ], [ 776605.177309043356217, 8982292.319628469645977 ], [ 776613.570256338571198, 8982286.330282682552934 ], [ 776623.362028183182701, 8982278.94341317564249 ], [ 776629.356990537140518, 8982275.948740279302001 ], [ 776631.754975478514098, 8982274.351591108366847 ], [ 776633.353632106212899, 8982272.754441935569048 ], [ 776635.351952890865505, 8982271.556580055505037 ] ] ] ] } },
{ "type": "Feature", "properties": { "LAYER": "09.Co_major", "GM_TYPE": "Unknown Area Type", "ELEVATION": 25 }, "geometry": { "type": "MultiPolygon", "coordinates": [ [ [ [ 774491.100215972051956, 8983327.516617739573121 ], [ 774493.128864319063723, 8983324.086709693074226 ], [ 774494.845447838655673, 8983320.812693353742361 ], [ 774495.781747075729072, 8983317.69458401016891 ], [ 774497.030180976609699, 8983309.431604951620102 ], [ 774497.342280722339638, 8983305.689882913604379 ], [ 774497.342280722339638, 8983301.01271889731288 ], [ 774497.342280722339638, 8983295.711942186579108 ], [ 774497.439178998814896, 8983269.391838382929564 ], [ 774496.549251261167228, 8983241.84351403079927 ], [ 774496.313238486414775, 8983234.455904517322779 ], [ 774495.877597803017125, 8983212.338470492511988 ], [ 774493.821084654540755, 8983170.398448847234249 ], [ 774493.821084654540755, 8983166.855230342596769 ], [ 774493.821084654540755, 8983164.32434469088912 ], [ 774493.821084654540755, 8983161.591010816395283 ], [ 774493.821084654540755, 8983159.4650674816221 ], [ 774493.719786672736518, 8983153.188515100628138 ], [ 774493.61845377238933, 8983151.163818815723062 ], [ 774493.010456371353939, 8983149.240354280918837 ], [ 774492.199828087934293, 8983146.911947432905436 ], [ 774491.186534004285932, 8983143.874903000891209 ], [ 774489.565242519369349, 8983140.432916251942515 ], [ 774488.355065517826006, 8983138.300987668335438 ], [ 774483.941964924451895, 8983135.191554524004459 ], [ 774475.946353646693751, 8983134.997878873720765 ], [ 774470.000902866479009, 8983138.165816474705935 ], [ 774467.226355854305439, 8983144.105700921267271 ], [ 774467.226355854305439, 8983153.2135114017874 ], [ 774467.622712610056624, 8983159.945377357304096 ], [ 774468.811807738267817, 8983169.449190158396959 ], [ 774469.604521249886602, 8983183.308912824839354 ], [ 774470.000902866479009, 8983197.168635489419103 ], [ 774468.019069365807809, 8983213.800305001437664 ], [ 774460.88452345749829, 8983237.559831222519279 ], [ 774461.139048983808607, 8983252.452801056206226 ], [ 774459.46427201514598, 8983265.838482214137912 ], [ 774462.255575249786489, 8983278.108689941465855 ], [ 774464.488627781742252, 8983290.378909233957529 ], [ 774464.488627781742252, 8983305.437800535932183 ], [ 774463.9303522183327, 8983316.034798119217157 ], [ 774464.488627781742252, 8983323.843112129718065 ], [ 774467.838181718951091, 8983331.651426136493683 ], [ 774472.862537485547364, 8983338.902003429830074 ], [ 774477.886868391185999, 8983338.902003429830074 ], [ 774482.352948594489135, 8983337.786529999226332 ], [ 774485.70252739242278, 8983335.555583139881492 ], [ 774491.100215972051956, 8983327.516617739573121 ] ] ] ] } },
{ "type": "Feature", "properties": { "LAYER": "09.Co_major", "GM_TYPE": "Unknown Area Type", "ELEVATION": 30 }, "geometry": { "type": "MultiPolygon", "coordinates": [ [ [ [ 773249.486455232952721, 8983600.735857240855694 ], [ 773237.52914982708171, 8983606.08931110240519 ], [ 773235.029598483117297, 8983608.898668430745602 ], [ 773234.092250121175312, 8983610.771568160504103 ], [ 773232.530047139152884, 8983612.956615274772048 ], [ 773232.217586613376625, 8983614.829530460759997 ], [ 773231.592698777210899, 8983617.014577573165298 ], [ 773231.592698777210899, 8983620.136082278564572 ], [ 773231.592698777210899, 8983622.321144845336676 ], [ 773232.217586613376625, 8983624.81833933852613 ], [ 773234.092250121175312, 8983630.749201370403171 ], [ 773235.966913629323244, 8983633.558558696880937 ], [ 773237.21668930130545, 8983635.431473882868886 ], [ 773239.091352809453383, 8983638.865125969052315 ], [ 773240.341128481319174, 8983644.795988000929356 ], [ 773241.278476843144745, 8983648.85395030118525 ], [ 773241.590904153417796, 8983649.790392441675067 ], [ 773243.778028187341988, 8983653.848354741930962 ], [ 773246.590006841463037, 8983657.282006826251745 ], [ 773249.402018711552955, 8983659.467069391161203 ], [ 773254.401121399481781, 8983661.964279338717461 ], [ 773260.025111923576333, 8983664.46147383004427 ], [ 773263.774438939755782, 8983668.207288751378655 ], [ 773266.898878119769506, 8983673.826003402471542 ], [ 773269.085968937957659, 8983678.196113081648946 ], [ 773271.897947592078708, 8983681.005470408126712 ], [ 773276.584622970083728, 8983684.439122494310141 ], [ 773283.145928640500642, 8983686.624169606715441 ], [ 773290.33215536235366, 8983688.49708479270339 ], [ 773299.705472902511247, 8983688.809232173487544 ], [ 773305.329463426605798, 8983688.809232173487544 ], [ 773310.953420734964311, 8983686.936332438141108 ], [ 773317.202299095224589, 8983685.063417254015803 ], [ 773322.513862309162505, 8983685.063417254015803 ], [ 773325.638301489292644, 8983685.063417254015803 ], [ 773327.512964997207746, 8983684.439122494310141 ], [ 773328.450280143530108, 8983681.317617785185575 ], [ 773329.075167979463004, 8983676.635360727086663 ], [ 773328.137852833257057, 8983672.577398428693414 ], [ 773327.825392307247967, 8983669.14374634437263 ], [ 773327.200504471431486, 8983665.085784044116735 ], [ 773326.888077161158435, 8983660.403526986017823 ], [ 773325.638301489292644, 8983656.03341730684042 ], [ 773323.763637981144711, 8983651.03899741359055 ], [ 773321.888974473113194, 8983645.10813538171351 ], [ 773320.93933628522791, 8983636.314771072939038 ], [ 773319.944690760807134, 8983631.097772898152471 ], [ 773318.950045236502774, 8983625.632327107712626 ], [ 773315.966108663356863, 8983618.924751402810216 ], [ 773314.225470691802911, 8983615.198315305635333 ], [ 773308.506217407179065, 8983608.739156311377883 ], [ 773304.278982232674025, 8983606.751714453101158 ], [ 773299.057068318245001, 8983605.509569087997079 ], [ 773294.3324605578091, 8983605.509569087997079 ], [ 773288.861893565976061, 8983604.764288049191236 ], [ 773284.137319021625444, 8983604.764288049191236 ], [ 773278.169412659830414, 8983604.764288049191236 ], [ 773268.968916647951119, 8983603.025278355926275 ], [ 773265.238987627555616, 8983601.783132988959551 ], [ 773261.260372314369306, 8983601.037851952016354 ], [ 773258.52508881862741, 8983601.037851952016354 ], [ 773253.303208119934425, 8983600.78941978700459 ], [ 773249.486455232952721, 8983600.735857240855694 ] ] ] ] } },
{ "type": "Feature", "properties": { "LAYER": "09.Co_major", "GM_TYPE": "Unknown Area Type", "ELEVATION": 20 }, "geometry": { "type": "MultiPolygon", "coordinates": [ [ [ [ 773429.473358003189787, 8982584.279513407498598 ], [ 773426.042590923374519, 8982586.149082461372018 ], [ 773414.190841139759868, 8982588.486051427200437 ], [ 773402.962864201166667, 8982590.044020544737577 ], [ 773390.823300151969306, 8982592.605102950707078 ], [ 773383.403620583936572, 8982594.252378018572927 ], [ 773381.06781622604467, 8982595.487830495461822 ], [ 773378.7319790055044, 8982597.409643761813641 ], [ 773377.495376698556356, 8982598.645111529156566 ], [ 773376.396141784731299, 8982599.468741418793797 ], [ 773375.846540759433992, 8982599.743279619142413 ], [ 773375.709140502964146, 8982600.704193897545338 ], [ 773376.121341272140853, 8982601.665108174085617 ], [ 773377.083175929379649, 8982601.939646372571588 ], [ 773379.831181056099012, 8982601.939646372571588 ], [ 773382.71661930216942, 8982601.116016486659646 ], [ 773385.876858060946688, 8982600.978732097893953 ], [ 773389.311897332314402, 8982600.841462995857 ], [ 773392.884336860151961, 8982600.704193897545338 ], [ 773398.105579463997856, 8982600.704193897545338 ], [ 773401.815419247956015, 8982600.704193897545338 ], [ 773405.80009240785148, 8982600.56692479737103 ], [ 773409.509932191809639, 8982600.56692479737103 ], [ 773412.257937318529002, 8982600.017833108082414 ], [ 773415.14337556459941, 8982599.056918829679489 ], [ 773417.479212785256095, 8982598.507827140390873 ], [ 773425.585893635172397, 8982598.370558040216565 ], [ 773431.494170383550227, 8982597.546928152441978 ], [ 773435.204010167624801, 8982596.174191284924746 ], [ 773436.165811961982399, 8982594.664200607687235 ], [ 773435.341410423978232, 8982591.369650473818183 ], [ 773435.616210936685093, 8982589.99692889675498 ], [ 773435.616210936685093, 8982588.349653828889132 ], [ 773434.929209655034356, 8982586.56510966271162 ], [ 773434.104808117146604, 8982585.329657185822725 ], [ 773429.473358003189787, 8982584.279513407498598 ] ] ] ] } },
{ "type": "Feature", "properties": { "LAYER": "09.Co_major", "GM_TYPE": "Unknown Area Type", "ELEVATION": 25 }, "geometry": { "type": "MultiPolygon", "coordinates": [ [ [ [ 774517.261144352611154, 8983417.306204339489341 ], [ 774516.792969247791916, 8983416.888054296374321 ], [ 774516.357531213667244, 8983416.757549457252026 ], [ 774515.747917965985835, 8983416.757549457252026 ], [ 774515.181860952056013, 8983416.540041390806437 ], [ 774514.615779077401385, 8983416.279020145535469 ], [ 774514.093278297223151, 8983416.06151207908988 ], [ 774513.440108815673739, 8983415.930995674803853 ], [ 774511.916088126949035, 8983415.756989222019911 ], [ 774510.87106170586776, 8983415.669985996559262 ], [ 774510.261448458069935, 8983415.626484382897615 ], [ 774509.564747603610158, 8983415.582982769235969 ], [ 774508.955134355812334, 8983415.321961523965001 ], [ 774508.084283148637041, 8983415.104453459382057 ], [ 774507.431113666971214, 8983414.973948620259762 ], [ 774506.516706225927919, 8983414.756428986787796 ], [ 774505.645855018519796, 8983414.756428986787796 ], [ 774505.079773143748753, 8983414.84343221411109 ], [ 774504.818510323297232, 8983415.147955071181059 ], [ 774504.731422716402449, 8983415.49597954377532 ], [ 774504.731422716402449, 8983415.843992447480559 ], [ 774504.774978950270452, 8983416.322521759197116 ], [ 774504.774978950270452, 8983416.801051070913672 ], [ 774504.905597930075601, 8983417.279580380767584 ], [ 774505.12332937750034, 8983417.932116143405437 ], [ 774505.253948357305489, 8983419.019679604098201 ], [ 774505.51521117775701, 8983419.759230161085725 ], [ 774505.820005371235311, 8983420.411765923723578 ], [ 774506.255443405359983, 8983420.890295235440135 ], [ 774506.865056653041393, 8983421.194806527346373 ], [ 774507.692376487422734, 8983421.586332611739635 ], [ 774507.866551700979471, 8983422.282381555065513 ], [ 774508.171370755298994, 8983422.630394458770752 ], [ 774508.563252555555664, 8983422.717397686094046 ], [ 774509.259953410248272, 8983422.543391235172749 ], [ 774509.60830383724533, 8983422.195366762578487 ], [ 774509.956654264824465, 8983421.803852245211601 ], [ 774510.13080461753998, 8983421.45582777261734 ], [ 774510.348536064964719, 8983421.020800076425076 ], [ 774510.783974098972976, 8983420.672775603830814 ], [ 774511.437118719797581, 8983420.32476269826293 ], [ 774512.17735094728414, 8983420.063741452991962 ], [ 774512.786964195081964, 8983419.846233386546373 ], [ 774513.527196422452107, 8983419.585212143138051 ], [ 774514.136809670249932, 8983419.367704078555107 ], [ 774514.833510524826124, 8983419.237199237570167 ], [ 774515.486655145534314, 8983419.019679604098201 ], [ 774516.183356, 8983418.802171539515257 ], [ 774516.967144461348653, 8983418.410645455121994 ], [ 774517.271938654826954, 8983417.801611304283142 ], [ 774517.261144352611154, 8983417.306204339489341 ] ] ] ] } }
]
}
