{
"type": "FeatureCollection",
"name": "09_oe_li_0",
"crs": { "type": "name", "properties": { "name": "urn:ogc:def:crs:EPSG::32751" } },
"features": [
{ "type": "Feature", "properties": { "LAYER": "0", "GM_TYPE": "Unknown Line Type", "ELEVATION": 0 }, "geometry": { "type": "MultiLineString", "coordinates": [ [ [ 774153.611128055723384, 8979931.105898113921285 ], [ 774153.568972013192251, 8979931.03720786049962 ] ] ] } },
{ "type": "Feature", "properties": { "LAYER": "0", "GM_TYPE": "Unknown Line Type", "ELEVATION": 0 }, "geometry": { "type": "MultiLineString", "coordinates": [ [ [ 774153.611128055723384, 8979931.105898113921285 ], [ 774153.620578620699234, 8979931.066963916644454 ] ] ] } },
{ "type": "Feature", "properties": { "LAYER": "0", "GM_TYPE": "Unknown Line Type", "ELEVATION": 0 }, "geometry": { "type": "MultiLineString", "coordinates": [ [ [ 775951.144494551583193, 8981188.724957045167685 ], [ 775949.416559478384443, 8981189.85943391174078 ] ] ] } },
{ "type": "Feature", "properties": { "LAYER": "0", "GM_TYPE": "Unknown Line Type", "ELEVATION": 0 }, "geometry": { "type": "MultiLineString", "coordinates": [ [ [ 773794.200024678604677, 8981241.154064701870084 ], [ 773794.031016457360238, 8981236.869742961600423 ] ] ] } },
{ "type": "Feature", "properties": { "LAYER": "0", "GM_TYPE": "Unknown Line Type", "ELEVATION": 0 }, "geometry": { "type": "MultiLineString", "coordinates": [ [ [ 772045.686494075343944, 8979992.024068236351013 ], [ 772044.477142473915592, 8979987.944144234061241 ] ] ] } },
{ "type": "Feature", "properties": { "LAYER": "0", "GM_TYPE": "Unknown Line Type", "ELEVATION": 0 }, "geometry": { "type": "MultiLineString", "coordinates": [ [ [ 772561.459636446670629, 8979444.688455021008849 ], [ 772562.257887584390119, 8979454.058589983731508 ] ] ] } },
{ "type": "Feature", "properties": { "LAYER": "0", "GM_TYPE": "Unknown Line Type", "ELEVATION": 0 }, "geometry": { "type": "MultiLineString", "coordinates": [ [ [ 771947.047917010495439, 8980888.0599744617939 ], [ 771945.373791362391785, 8980886.444756371900439 ] ] ] } },
{ "type": "Feature", "properties": { "LAYER": "0", "GM_TYPE": "Unknown Line Type", "ELEVATION": 0 }, "geometry": { "type": "MultiLineString", "coordinates": [ [ [ 771947.047917010495439, 8980888.0599744617939 ], [ 771945.539656969252974, 8980889.325815949589014 ] ] ] } },
{ "type": "Feature", "properties": { "LAYER": "0", "GM_TYPE": "Unknown Line Type", "ELEVATION": 0 }, "geometry": { "type": "MultiLineString", "coordinates": [ [ [ 772022.693913356401026, 8981304.134202832356095 ], [ 772021.918533459538594, 8981300.554762296378613 ], [ 772020.136449338402599, 8981299.185285583138466 ], [ 772016.709378585335799, 8981299.116817470639944 ], [ 772011.851094910874963, 8981301.054680850356817 ] ] ] } },
{ "type": "Feature", "properties": { "LAYER": "0", "GM_TYPE": "Unknown Line Type", "ELEVATION": 0 }, "geometry": { "type": "MultiLineString", "coordinates": [ [ [ 772318.022054109023884, 8979570.087064104154706 ], [ 772328.34674002614338, 8979568.378494556993246 ] ] ] } },
{ "type": "Feature", "properties": { "LAYER": "0", "GM_TYPE": "Unknown Line Type", "ELEVATION": 0 }, "geometry": { "type": "MultiLineString", "coordinates": [ [ [ 772692.546630814904347, 8981928.663242943584919 ], [ 772691.175025972770527, 8981930.467235499992967 ] ] ] } },
{ "type": "Feature", "properties": { "LAYER": "0", "GM_TYPE": "Unknown Line Type", "ELEVATION": 0 }, "geometry": { "type": "MultiLineString", "coordinates": [ [ [ 772692.546630814904347, 8981928.663242943584919 ], [ 772691.256566179450601, 8981927.543252194300294 ] ] ] } },
{ "type": "Feature", "properties": { "LAYER": "0", "GM_TYPE": "Unknown Line Type", "ELEVATION": 22 }, "geometry": { "type": "MultiLineString", "coordinates": [ [ [ 772635.660012706764974, 8982623.162496851757169 ], [ 772634.668477500556037, 8982620.853301683440804 ] ] ] } }
]
}
