{
"type": "FeatureCollection",
"name": "09_oe_li_grid",
"crs": { "type": "name", "properties": { "name": "urn:ogc:def:crs:EPSG::32751" } },
"features": [
{ "type": "Feature", "properties": { "LAYER": "07.Grid", "GM_TYPE": "Unknown Line Type", "ELEVATION": 0 }, "geometry": { "type": "MultiLineString", "coordinates": [ [ [ 773600.0, 8983195.694499649107456 ], [ 773600.0, 8983140.0 ] ] ] } },
{ "type": "Feature", "properties": { "LAYER": "07.Grid", "GM_TYPE": "Unknown Line Type", "ELEVATION": 0 }, "geometry": { "type": "MultiLineString", "coordinates": [ [ [ 773600.0, 8983260.0 ], [ 773600.0, 8983204.305500350892544 ] ] ] } },
{ "type": "Feature", "properties": { "LAYER": "07.Grid", "GM_TYPE": "Unknown Line Type", "ELEVATION": 0 }, "geometry": { "type": "MultiLineString", "coordinates": [ [ [ 773604.30550033506006, 8983200.0 ], [ 773660.0, 8983200.0 ] ] ] } },
{ "type": "Feature", "properties": { "LAYER": "07.Grid", "GM_TYPE": "Unknown Line Type", "ELEVATION": 0 }, "geometry": { "type": "MultiLineString", "coordinates": [ [ [ 773540.0, 8983200.0 ], [ 773595.694499664008617, 8983200.0 ] ] ] } },
{ "type": "Feature", "properties": { "LAYER": "07.Grid", "GM_TYPE": "Unknown Line Type", "ELEVATION": 0 }, "geometry": { "type": "MultiLineString", "coordinates": [ [ [ 774800.0, 8983195.694499649107456 ], [ 774800.0, 8983140.0 ] ] ] } },
{ "type": "Feature", "properties": { "LAYER": "07.Grid", "GM_TYPE": "Unknown Line Type", "ELEVATION": 0 }, "geometry": { "type": "MultiLineString", "coordinates": [ [ [ 774800.0, 8983260.0 ], [ 774800.0, 8983204.305500350892544 ] ] ] } },
{ "type": "Feature", "properties": { "LAYER": "07.Grid", "GM_TYPE": "Unknown Line Type", "ELEVATION": 0 }, "geometry": { "type": "MultiLineString", "coordinates": [ [ [ 774804.305500334943645, 8983200.0 ], [ 774860.0, 8983200.0 ] ] ] } },
{ "type": "Feature", "properties": { "LAYER": "07.Grid", "GM_TYPE": "Unknown Line Type", "ELEVATION": 0 }, "geometry": { "type": "MultiLineString", "coordinates": [ [ [ 774740.0, 8983200.0 ], [ 774795.694499664125033, 8983200.0 ] ] ] } },
{ "type": "Feature", "properties": { "LAYER": "07.Grid", "GM_TYPE": "Unknown Line Type", "ELEVATION": 0 }, "geometry": { "type": "MultiLineString", "coordinates": [ [ [ 776000.0, 8983195.694499649107456 ], [ 776000.0, 8983140.0 ] ] ] } },
{ "type": "Feature", "properties": { "LAYER": "07.Grid", "GM_TYPE": "Unknown Line Type", "ELEVATION": 0 }, "geometry": { "type": "MultiLineString", "coordinates": [ [ [ 776000.0, 8983260.0 ], [ 776000.0, 8983204.305500350892544 ] ] ] } },
{ "type": "Feature", "properties": { "LAYER": "07.Grid", "GM_TYPE": "Unknown Line Type", "ELEVATION": 0 }, "geometry": { "type": "MultiLineString", "coordinates": [ [ [ 776004.305500334943645, 8983200.0 ], [ 776060.0, 8983200.0 ] ] ] } },
{ "type": "Feature", "properties": { "LAYER": "07.Grid", "GM_TYPE": "Unknown Line Type", "ELEVATION": 0 }, "geometry": { "type": "MultiLineString", "coordinates": [ [ [ 775940.0, 8983200.0 ], [ 775995.694499664125033, 8983200.0 ] ] ] } },
{ "type": "Feature", "properties": { "LAYER": "07.Grid", "GM_TYPE": "Unknown Line Type", "ELEVATION": 0 }, "geometry": { "type": "MultiLineString", "coordinates": [ [ [ 777200.0, 8983195.694499649107456 ], [ 777200.0, 8983140.0 ] ] ] } },
{ "type": "Feature", "properties": { "LAYER": "07.Grid", "GM_TYPE": "Unknown Line Type", "ELEVATION": 0 }, "geometry": { "type": "MultiLineString", "coordinates": [ [ [ 777200.0, 8983260.0 ], [ 777200.0, 8983204.305500350892544 ] ] ] } },
{ "type": "Feature", "properties": { "LAYER": "07.Grid", "GM_TYPE": "Unknown Line Type", "ELEVATION": 0 }, "geometry": { "type": "MultiLineString", "coordinates": [ [ [ 777204.30550033506006, 8983200.0 ], [ 777260.0, 8983200.0 ] ] ] } },
{ "type": "Feature", "properties": { "LAYER": "07.Grid", "GM_TYPE": "Unknown Line Type", "ELEVATION": 0 }, "geometry": { "type": "MultiLineString", "coordinates": [ [ [ 777140.0, 8983200.0 ], [ 777195.694499664008617, 8983200.0 ] ] ] } },
{ "type": "Feature", "properties": { "LAYER": "07.Grid", "GM_TYPE": "Unknown Line Type", "ELEVATION": 0 }, "geometry": { "type": "MultiLineString", "coordinates": [ [ [ 778400.0, 8983195.694499649107456 ], [ 778400.0, 8983140.0 ] ] ] } },
{ "type": "Feature", "properties": { "LAYER": "07.Grid", "GM_TYPE": "Unknown Line Type", "ELEVATION": 0 }, "geometry": { "type": "MultiLineString", "coordinates": [ [ [ 778400.0, 8983260.0 ], [ 778400.0, 8983204.305500350892544 ] ] ] } },
{ "type": "Feature", "properties": { "LAYER": "07.Grid", "GM_TYPE": "Unknown Line Type", "ELEVATION": 0 }, "geometry": { "type": "MultiLineString", "coordinates": [ [ [ 778340.0, 8983200.0 ], [ 778395.694499664008617, 8983200.0 ] ] ] } },
{ "type": "Feature", "properties": { "LAYER": "07.Grid", "GM_TYPE": "Unknown Line Type", "ELEVATION": 0 }, "geometry": { "type": "MultiLineString", "coordinates": [ [ [ 772400.0, 8981995.694499649107456 ], [ 772400.0, 8981940.0 ] ] ] } },
{ "type": "Feature", "properties": { "LAYER": "07.Grid", "GM_TYPE": "Unknown Line Type", "ELEVATION": 0 }, "geometry": { "type": "MultiLineString", "coordinates": [ [ [ 772400.0, 8982060.0 ], [ 772400.0, 8982004.305500352755189 ] ] ] } },
{ "type": "Feature", "properties": { "LAYER": "07.Grid", "GM_TYPE": "Unknown Line Type", "ELEVATION": 0 }, "geometry": { "type": "MultiLineString", "coordinates": [ [ [ 772404.30550033506006, 8982000.0 ], [ 772460.0, 8982000.0 ] ] ] } },
{ "type": "Feature", "properties": { "LAYER": "07.Grid", "GM_TYPE": "Unknown Line Type", "ELEVATION": 0 }, "geometry": { "type": "MultiLineString", "coordinates": [ [ [ 773600.0, 8981995.694499649107456 ], [ 773600.0, 8981940.0 ] ] ] } },
{ "type": "Feature", "properties": { "LAYER": "07.Grid", "GM_TYPE": "Unknown Line Type", "ELEVATION": 0 }, "geometry": { "type": "MultiLineString", "coordinates": [ [ [ 773600.0, 8982060.0 ], [ 773600.0, 8982004.305500352755189 ] ] ] } },
{ "type": "Feature", "properties": { "LAYER": "07.Grid", "GM_TYPE": "Unknown Line Type", "ELEVATION": 0 }, "geometry": { "type": "MultiLineString", "coordinates": [ [ [ 773604.30550033506006, 8982000.0 ], [ 773660.0, 8982000.0 ] ] ] } },
{ "type": "Feature", "properties": { "LAYER": "07.Grid", "GM_TYPE": "Unknown Line Type", "ELEVATION": 0 }, "geometry": { "type": "MultiLineString", "coordinates": [ [ [ 773540.0, 8982000.0 ], [ 773595.694499664008617, 8982000.0 ] ] ] } },
{ "type": "Feature", "properties": { "LAYER": "07.Grid", "GM_TYPE": "Unknown Line Type", "ELEVATION": 0 }, "geometry": { "type": "MultiLineString", "coordinates": [ [ [ 774800.0, 8981995.694499649107456 ], [ 774800.0, 8981940.0 ] ] ] } },
{ "type": "Feature", "properties": { "LAYER": "07.Grid", "GM_TYPE": "Unknown Line Type", "ELEVATION": 0 }, "geometry": { "type": "MultiLineString", "coordinates": [ [ [ 774800.0, 8982060.0 ], [ 774800.0, 8982004.305500352755189 ] ] ] } },
{ "type": "Feature", "properties": { "LAYER": "07.Grid", "GM_TYPE": "Unknown Line Type", "ELEVATION": 0 }, "geometry": { "type": "MultiLineString", "coordinates": [ [ [ 774804.305500334943645, 8982000.0 ], [ 774860.0, 8982000.0 ] ] ] } },
{ "type": "Feature", "properties": { "LAYER": "07.Grid", "GM_TYPE": "Unknown Line Type", "ELEVATION": 0 }, "geometry": { "type": "MultiLineString", "coordinates": [ [ [ 774740.0, 8982000.0 ], [ 774795.694499664125033, 8982000.0 ] ] ] } },
{ "type": "Feature", "properties": { "LAYER": "07.Grid", "GM_TYPE": "Unknown Line Type", "ELEVATION": 0 }, "geometry": { "type": "MultiLineString", "coordinates": [ [ [ 776000.0, 8981995.694499649107456 ], [ 776000.0, 8981940.0 ] ] ] } },
{ "type": "Feature", "properties": { "LAYER": "07.Grid", "GM_TYPE": "Unknown Line Type", "ELEVATION": 0 }, "geometry": { "type": "MultiLineString", "coordinates": [ [ [ 776000.0, 8982060.0 ], [ 776000.0, 8982004.305500352755189 ] ] ] } },
{ "type": "Feature", "properties": { "LAYER": "07.Grid", "GM_TYPE": "Unknown Line Type", "ELEVATION": 0 }, "geometry": { "type": "MultiLineString", "coordinates": [ [ [ 776004.305500334943645, 8982000.0 ], [ 776060.0, 8982000.0 ] ] ] } },
{ "type": "Feature", "properties": { "LAYER": "07.Grid", "GM_TYPE": "Unknown Line Type", "ELEVATION": 0 }, "geometry": { "type": "MultiLineString", "coordinates": [ [ [ 775940.0, 8982000.0 ], [ 775995.694499664125033, 8982000.0 ] ] ] } },
{ "type": "Feature", "properties": { "LAYER": "07.Grid", "GM_TYPE": "Unknown Line Type", "ELEVATION": 0 }, "geometry": { "type": "MultiLineString", "coordinates": [ [ [ 777200.0, 8981995.694499649107456 ], [ 777200.0, 8981940.0 ] ] ] } },
{ "type": "Feature", "properties": { "LAYER": "07.Grid", "GM_TYPE": "Unknown Line Type", "ELEVATION": 0 }, "geometry": { "type": "MultiLineString", "coordinates": [ [ [ 777200.0, 8982060.0 ], [ 777200.0, 8982004.305500352755189 ] ] ] } },
{ "type": "Feature", "properties": { "LAYER": "07.Grid", "GM_TYPE": "Unknown Line Type", "ELEVATION": 0 }, "geometry": { "type": "MultiLineString", "coordinates": [ [ [ 777204.30550033506006, 8982000.0 ], [ 777260.0, 8982000.0 ] ] ] } },
{ "type": "Feature", "properties": { "LAYER": "07.Grid", "GM_TYPE": "Unknown Line Type", "ELEVATION": 0 }, "geometry": { "type": "MultiLineString", "coordinates": [ [ [ 777140.0, 8982000.0 ], [ 777195.694499664008617, 8982000.0 ] ] ] } },
{ "type": "Feature", "properties": { "LAYER": "07.Grid", "GM_TYPE": "Unknown Line Type", "ELEVATION": 0 }, "geometry": { "type": "MultiLineString", "coordinates": [ [ [ 778400.0, 8981995.694499649107456 ], [ 778400.0, 8981940.0 ] ] ] } },
{ "type": "Feature", "properties": { "LAYER": "07.Grid", "GM_TYPE": "Unknown Line Type", "ELEVATION": 0 }, "geometry": { "type": "MultiLineString", "coordinates": [ [ [ 778400.0, 8982060.0 ], [ 778400.0, 8982004.305500352755189 ] ] ] } },
{ "type": "Feature", "properties": { "LAYER": "07.Grid", "GM_TYPE": "Unknown Line Type", "ELEVATION": 0 }, "geometry": { "type": "MultiLineString", "coordinates": [ [ [ 778340.0, 8982000.0 ], [ 778395.694499664008617, 8982000.0 ] ] ] } },
{ "type": "Feature", "properties": { "LAYER": "07.Grid", "GM_TYPE": "Unknown Line Type", "ELEVATION": 0 }, "geometry": { "type": "MultiLineString", "coordinates": [ [ [ 772400.0, 8980795.694499649107456 ], [ 772400.0, 8980740.0 ] ] ] } },
{ "type": "Feature", "properties": { "LAYER": "07.Grid", "GM_TYPE": "Unknown Line Type", "ELEVATION": 0 }, "geometry": { "type": "MultiLineString", "coordinates": [ [ [ 772400.0, 8980860.0 ], [ 772400.0, 8980804.305500350892544 ] ] ] } },
{ "type": "Feature", "properties": { "LAYER": "07.Grid", "GM_TYPE": "Unknown Line Type", "ELEVATION": 0 }, "geometry": { "type": "MultiLineString", "coordinates": [ [ [ 772404.30550033506006, 8980800.0 ], [ 772460.0, 8980800.0 ] ] ] } },
{ "type": "Feature", "properties": { "LAYER": "07.Grid", "GM_TYPE": "Unknown Line Type", "ELEVATION": 0 }, "geometry": { "type": "MultiLineString", "coordinates": [ [ [ 773600.0, 8980795.694499649107456 ], [ 773600.0, 8980740.0 ] ] ] } },
{ "type": "Feature", "properties": { "LAYER": "07.Grid", "GM_TYPE": "Unknown Line Type", "ELEVATION": 0 }, "geometry": { "type": "MultiLineString", "coordinates": [ [ [ 773600.0, 8980860.0 ], [ 773600.0, 8980804.305500350892544 ] ] ] } },
{ "type": "Feature", "properties": { "LAYER": "07.Grid", "GM_TYPE": "Unknown Line Type", "ELEVATION": 0 }, "geometry": { "type": "MultiLineString", "coordinates": [ [ [ 773604.30550033506006, 8980800.0 ], [ 773660.0, 8980800.0 ] ] ] } },
{ "type": "Feature", "properties": { "LAYER": "07.Grid", "GM_TYPE": "Unknown Line Type", "ELEVATION": 0 }, "geometry": { "type": "MultiLineString", "coordinates": [ [ [ 773540.0, 8980800.0 ], [ 773595.694499664008617, 8980800.0 ] ] ] } },
{ "type": "Feature", "properties": { "LAYER": "07.Grid", "GM_TYPE": "Unknown Line Type", "ELEVATION": 0 }, "geometry": { "type": "MultiLineString", "coordinates": [ [ [ 774800.0, 8980795.694499649107456 ], [ 774800.0, 8980740.0 ] ] ] } },
{ "type": "Feature", "properties": { "LAYER": "07.Grid", "GM_TYPE": "Unknown Line Type", "ELEVATION": 0 }, "geometry": { "type": "MultiLineString", "coordinates": [ [ [ 774800.0, 8980860.0 ], [ 774800.0, 8980804.305500350892544 ] ] ] } },
{ "type": "Feature", "properties": { "LAYER": "07.Grid", "GM_TYPE": "Unknown Line Type", "ELEVATION": 0 }, "geometry": { "type": "MultiLineString", "coordinates": [ [ [ 774804.305500334943645, 8980800.0 ], [ 774860.0, 8980800.0 ] ] ] } },
{ "type": "Feature", "properties": { "LAYER": "07.Grid", "GM_TYPE": "Unknown Line Type", "ELEVATION": 0 }, "geometry": { "type": "MultiLineString", "coordinates": [ [ [ 774740.0, 8980800.0 ], [ 774795.694499664125033, 8980800.0 ] ] ] } },
{ "type": "Feature", "properties": { "LAYER": "07.Grid", "GM_TYPE": "Unknown Line Type", "ELEVATION": 0 }, "geometry": { "type": "MultiLineString", "coordinates": [ [ [ 776000.0, 8980795.694499649107456 ], [ 776000.0, 8980740.0 ] ] ] } },
{ "type": "Feature", "properties": { "LAYER": "07.Grid", "GM_TYPE": "Unknown Line Type", "ELEVATION": 0 }, "geometry": { "type": "MultiLineString", "coordinates": [ [ [ 776000.0, 8980860.0 ], [ 776000.0, 8980804.305500350892544 ] ] ] } },
{ "type": "Feature", "properties": { "LAYER": "07.Grid", "GM_TYPE": "Unknown Line Type", "ELEVATION": 0 }, "geometry": { "type": "MultiLineString", "coordinates": [ [ [ 776004.305500334943645, 8980800.0 ], [ 776060.0, 8980800.0 ] ] ] } },
{ "type": "Feature", "properties": { "LAYER": "07.Grid", "GM_TYPE": "Unknown Line Type", "ELEVATION": 0 }, "geometry": { "type": "MultiLineString", "coordinates": [ [ [ 775940.0, 8980800.0 ], [ 775995.694499664125033, 8980800.0 ] ] ] } },
{ "type": "Feature", "properties": { "LAYER": "07.Grid", "GM_TYPE": "Unknown Line Type", "ELEVATION": 0 }, "geometry": { "type": "MultiLineString", "coordinates": [ [ [ 777200.0, 8980795.694499649107456 ], [ 777200.0, 8980740.0 ] ] ] } },
{ "type": "Feature", "properties": { "LAYER": "07.Grid", "GM_TYPE": "Unknown Line Type", "ELEVATION": 0 }, "geometry": { "type": "MultiLineString", "coordinates": [ [ [ 777200.0, 8980860.0 ], [ 777200.0, 8980804.305500350892544 ] ] ] } },
{ "type": "Feature", "properties": { "LAYER": "07.Grid", "GM_TYPE": "Unknown Line Type", "ELEVATION": 0 }, "geometry": { "type": "MultiLineString", "coordinates": [ [ [ 777204.30550033506006, 8980800.0 ], [ 777260.0, 8980800.0 ] ] ] } },
{ "type": "Feature", "properties": { "LAYER": "07.Grid", "GM_TYPE": "Unknown Line Type", "ELEVATION": 0 }, "geometry": { "type": "MultiLineString", "coordinates": [ [ [ 777140.0, 8980800.0 ], [ 777195.694499664008617, 8980800.0 ] ] ] } },
{ "type": "Feature", "properties": { "LAYER": "07.Grid", "GM_TYPE": "Unknown Line Type", "ELEVATION": 0 }, "geometry": { "type": "MultiLineString", "coordinates": [ [ [ 778400.0, 8980795.694499649107456 ], [ 778400.0, 8980740.0 ] ] ] } },
{ "type": "Feature", "properties": { "LAYER": "07.Grid", "GM_TYPE": "Unknown Line Type", "ELEVATION": 0 }, "geometry": { "type": "MultiLineString", "coordinates": [ [ [ 778400.0, 8980860.0 ], [ 778400.0, 8980804.305500350892544 ] ] ] } },
{ "type": "Feature", "properties": { "LAYER": "07.Grid", "GM_TYPE": "Unknown Line Type", "ELEVATION": 0 }, "geometry": { "type": "MultiLineString", "coordinates": [ [ [ 778340.0, 8980800.0 ], [ 778395.694499664008617, 8980800.0 ] ] ] } },
{ "type": "Feature", "properties": { "LAYER": "07.Grid", "GM_TYPE": "Unknown Line Type", "ELEVATION": 0 }, "geometry": { "type": "MultiLineString", "coordinates": [ [ [ 772400.0, 8979660.0 ], [ 772400.0, 8979604.305500350892544 ] ] ] } },
{ "type": "Feature", "properties": { "LAYER": "07.Grid", "GM_TYPE": "Unknown Line Type", "ELEVATION": 0 }, "geometry": { "type": "MultiLineString", "coordinates": [ [ [ 772404.30550033506006, 8979600.0 ], [ 772460.0, 8979600.0 ] ] ] } },
{ "type": "Feature", "properties": { "LAYER": "07.Grid", "GM_TYPE": "Unknown Line Type", "ELEVATION": 0 }, "geometry": { "type": "MultiLineString", "coordinates": [ [ [ 773600.0, 8979660.0 ], [ 773600.0, 8979604.305500350892544 ] ] ] } },
{ "type": "Feature", "properties": { "LAYER": "07.Grid", "GM_TYPE": "Unknown Line Type", "ELEVATION": 0 }, "geometry": { "type": "MultiLineString", "coordinates": [ [ [ 773604.30550033506006, 8979600.0 ], [ 773660.0, 8979600.0 ] ] ] } },
{ "type": "Feature", "properties": { "LAYER": "07.Grid", "GM_TYPE": "Unknown Line Type", "ELEVATION": 0 }, "geometry": { "type": "MultiLineString", "coordinates": [ [ [ 773540.0, 8979600.0 ], [ 773595.694499664008617, 8979600.0 ] ] ] } },
{ "type": "Feature", "properties": { "LAYER": "07.Grid", "GM_TYPE": "Unknown Line Type", "ELEVATION": 0 }, "geometry": { "type": "MultiLineString", "coordinates": [ [ [ 774800.0, 8979660.0 ], [ 774800.0, 8979604.305500350892544 ] ] ] } },
{ "type": "Feature", "properties": { "LAYER": "07.Grid", "GM_TYPE": "Unknown Line Type", "ELEVATION": 0 }, "geometry": { "type": "MultiLineString", "coordinates": [ [ [ 774804.305500334943645, 8979600.0 ], [ 774860.0, 8979600.0 ] ] ] } },
{ "type": "Feature", "properties": { "LAYER": "07.Grid", "GM_TYPE": "Unknown Line Type", "ELEVATION": 0 }, "geometry": { "type": "MultiLineString", "coordinates": [ [ [ 774740.0, 8979600.0 ], [ 774795.694499664125033, 8979600.0 ] ] ] } },
{ "type": "Feature", "properties": { "LAYER": "07.Grid", "GM_TYPE": "Unknown Line Type", "ELEVATION": 0 }, "geometry": { "type": "MultiLineString", "coordinates": [ [ [ 776000.0, 8979660.0 ], [ 776000.0, 8979604.305500350892544 ] ] ] } },
{ "type": "Feature", "properties": { "LAYER": "07.Grid", "GM_TYPE": "Unknown Line Type", "ELEVATION": 0 }, "geometry": { "type": "MultiLineString", "coordinates": [ [ [ 776004.305500334943645, 8979600.0 ], [ 776060.0, 8979600.0 ] ] ] } },
{ "type": "Feature", "properties": { "LAYER": "07.Grid", "GM_TYPE": "Unknown Line Type", "ELEVATION": 0 }, "geometry": { "type": "MultiLineString", "coordinates": [ [ [ 775940.0, 8979600.0 ], [ 775995.694499664125033, 8979600.0 ] ] ] } },
{ "type": "Feature", "properties": { "LAYER": "07.Grid", "GM_TYPE": "Unknown Line Type", "ELEVATION": 0 }, "geometry": { "type": "MultiLineString", "coordinates": [ [ [ 772400.0, 8981995.694499649107456 ], [ 772400.0, 8981940.0 ] ] ] } },
{ "type": "Feature", "properties": { "LAYER": "07.Grid", "GM_TYPE": "Unknown Line Type", "ELEVATION": 0 }, "geometry": { "type": "MultiLineString", "coordinates": [ [ [ 772400.0, 8982060.0 ], [ 772400.0, 8982004.305500352755189 ] ] ] } },
{ "type": "Feature", "properties": { "LAYER": "07.Grid", "GM_TYPE": "Unknown Line Type", "ELEVATION": 0 }, "geometry": { "type": "MultiLineString", "coordinates": [ [ [ 772404.30550033506006, 8982000.0 ], [ 772460.0, 8982000.0 ] ] ] } },
{ "type": "Feature", "properties": { "LAYER": "07.Grid", "GM_TYPE": "Unknown Line Type", "ELEVATION": 0 }, "geometry": { "type": "MultiLineString", "coordinates": [ [ [ 772400.0, 8980795.694499649107456 ], [ 772400.0, 8980740.0 ] ] ] } },
{ "type": "Feature", "properties": { "LAYER": "07.Grid", "GM_TYPE": "Unknown Line Type", "ELEVATION": 0 }, "geometry": { "type": "MultiLineString", "coordinates": [ [ [ 772400.0, 8980860.0 ], [ 772400.0, 8980804.305500350892544 ] ] ] } },
{ "type": "Feature", "properties": { "LAYER": "07.Grid", "GM_TYPE": "Unknown Line Type", "ELEVATION": 0 }, "geometry": { "type": "MultiLineString", "coordinates": [ [ [ 772404.30550033506006, 8980800.0 ], [ 772460.0, 8980800.0 ] ] ] } },
{ "type": "Feature", "properties": { "LAYER": "07.Grid", "GM_TYPE": "Unknown Line Type", "ELEVATION": 0 }, "geometry": { "type": "MultiLineString", "coordinates": [ [ [ 772400.0, 8979660.0 ], [ 772400.0, 8979604.305500350892544 ] ] ] } },
{ "type": "Feature", "properties": { "LAYER": "07.Grid", "GM_TYPE": "Unknown Line Type", "ELEVATION": 0 }, "geometry": { "type": "MultiLineString", "coordinates": [ [ [ 772404.30550033506006, 8979600.0 ], [ 772460.0, 8979600.0 ] ] ] } },
{ "type": "Feature", "properties": { "LAYER": "07.Grid", "GM_TYPE": "Unknown Line Type", "ELEVATION": 0 }, "geometry": { "type": "MultiLineString", "coordinates": [ [ [ 772400.0, 8981995.694499649107456 ], [ 772400.0, 8981940.0 ] ] ] } },
{ "type": "Feature", "properties": { "LAYER": "07.Grid", "GM_TYPE": "Unknown Line Type", "ELEVATION": 0 }, "geometry": { "type": "MultiLineString", "coordinates": [ [ [ 772400.0, 8982060.0 ], [ 772400.0, 8982004.305500352755189 ] ] ] } },
{ "type": "Feature", "properties": { "LAYER": "07.Grid", "GM_TYPE": "Unknown Line Type", "ELEVATION": 0 }, "geometry": { "type": "MultiLineString", "coordinates": [ [ [ 772404.30550033506006, 8982000.0 ], [ 772460.0, 8982000.0 ] ] ] } },
{ "type": "Feature", "properties": { "LAYER": "07.Grid", "GM_TYPE": "Unknown Line Type", "ELEVATION": 0 }, "geometry": { "type": "MultiLineString", "coordinates": [ [ [ 772395.694499665056355, 8982000.0 ], [ 772340.0, 8982000.0 ] ] ] } },
{ "type": "Feature", "properties": { "LAYER": "07.Grid", "GM_TYPE": "Unknown Line Type", "ELEVATION": 0 }, "geometry": { "type": "MultiLineString", "coordinates": [ [ [ 771200.0, 8981995.694499649107456 ], [ 771200.0, 8981940.0 ] ] ] } },
{ "type": "Feature", "properties": { "LAYER": "07.Grid", "GM_TYPE": "Unknown Line Type", "ELEVATION": 0 }, "geometry": { "type": "MultiLineString", "coordinates": [ [ [ 771200.0, 8982060.0 ], [ 771200.0, 8982004.305500352755189 ] ] ] } },
{ "type": "Feature", "properties": { "LAYER": "07.Grid", "GM_TYPE": "Unknown Line Type", "ELEVATION": 0 }, "geometry": { "type": "MultiLineString", "coordinates": [ [ [ 771204.305500334943645, 8982000.0 ], [ 771260.0, 8982000.0 ] ] ] } },
{ "type": "Feature", "properties": { "LAYER": "07.Grid", "GM_TYPE": "Unknown Line Type", "ELEVATION": 0 }, "geometry": { "type": "MultiLineString", "coordinates": [ [ [ 771195.69449966493994, 8982000.0 ], [ 771140.0, 8982000.0 ] ] ] } },
{ "type": "Feature", "properties": { "LAYER": "07.Grid", "GM_TYPE": "Unknown Line Type", "ELEVATION": 0 }, "geometry": { "type": "MultiLineString", "coordinates": [ [ [ 772400.0, 8980795.694499649107456 ], [ 772400.0, 8980740.0 ] ] ] } },
{ "type": "Feature", "properties": { "LAYER": "07.Grid", "GM_TYPE": "Unknown Line Type", "ELEVATION": 0 }, "geometry": { "type": "MultiLineString", "coordinates": [ [ [ 772400.0, 8980860.0 ], [ 772400.0, 8980804.305500350892544 ] ] ] } },
{ "type": "Feature", "properties": { "LAYER": "07.Grid", "GM_TYPE": "Unknown Line Type", "ELEVATION": 0 }, "geometry": { "type": "MultiLineString", "coordinates": [ [ [ 772404.30550033506006, 8980800.0 ], [ 772460.0, 8980800.0 ] ] ] } },
{ "type": "Feature", "properties": { "LAYER": "07.Grid", "GM_TYPE": "Unknown Line Type", "ELEVATION": 0 }, "geometry": { "type": "MultiLineString", "coordinates": [ [ [ 772395.694499665056355, 8980800.0 ], [ 772340.0, 8980800.0 ] ] ] } },
{ "type": "Feature", "properties": { "LAYER": "07.Grid", "GM_TYPE": "Unknown Line Type", "ELEVATION": 0 }, "geometry": { "type": "MultiLineString", "coordinates": [ [ [ 771200.0, 8980795.694499649107456 ], [ 771200.0, 8980740.0 ] ] ] } },
{ "type": "Feature", "properties": { "LAYER": "07.Grid", "GM_TYPE": "Unknown Line Type", "ELEVATION": 0 }, "geometry": { "type": "MultiLineString", "coordinates": [ [ [ 771200.0, 8980860.0 ], [ 771200.0, 8980804.305500350892544 ] ] ] } },
{ "type": "Feature", "properties": { "LAYER": "07.Grid", "GM_TYPE": "Unknown Line Type", "ELEVATION": 0 }, "geometry": { "type": "MultiLineString", "coordinates": [ [ [ 771204.305500334943645, 8980800.0 ], [ 771260.0, 8980800.0 ] ] ] } },
{ "type": "Feature", "properties": { "LAYER": "07.Grid", "GM_TYPE": "Unknown Line Type", "ELEVATION": 0 }, "geometry": { "type": "MultiLineString", "coordinates": [ [ [ 771195.69449966493994, 8980800.0 ], [ 771140.0, 8980800.0 ] ] ] } },
{ "type": "Feature", "properties": { "LAYER": "07.Grid", "GM_TYPE": "Unknown Line Type", "ELEVATION": 0 }, "geometry": { "type": "MultiLineString", "coordinates": [ [ [ 772400.0, 8979595.694499649107456 ], [ 772400.0, 8979540.0 ] ] ] } },
{ "type": "Feature", "properties": { "LAYER": "07.Grid", "GM_TYPE": "Unknown Line Type", "ELEVATION": 0 }, "geometry": { "type": "MultiLineString", "coordinates": [ [ [ 772400.0, 8979660.0 ], [ 772400.0, 8979604.305500350892544 ] ] ] } },
{ "type": "Feature", "properties": { "LAYER": "07.Grid", "GM_TYPE": "Unknown Line Type", "ELEVATION": 0 }, "geometry": { "type": "MultiLineString", "coordinates": [ [ [ 772404.30550033506006, 8979600.0 ], [ 772460.0, 8979600.0 ] ] ] } },
{ "type": "Feature", "properties": { "LAYER": "07.Grid", "GM_TYPE": "Unknown Line Type", "ELEVATION": 0 }, "geometry": { "type": "MultiLineString", "coordinates": [ [ [ 772395.694499665056355, 8979600.0 ], [ 772340.0, 8979600.0 ] ] ] } },
{ "type": "Feature", "properties": { "LAYER": "07.Grid", "GM_TYPE": "Unknown Line Type", "ELEVATION": 0 }, "geometry": { "type": "MultiLineString", "coordinates": [ [ [ 771200.0, 8979595.694499649107456 ], [ 771200.0, 8979540.0 ] ] ] } },
{ "type": "Feature", "properties": { "LAYER": "07.Grid", "GM_TYPE": "Unknown Line Type", "ELEVATION": 0 }, "geometry": { "type": "MultiLineString", "coordinates": [ [ [ 771200.0, 8979660.0 ], [ 771200.0, 8979604.305500350892544 ] ] ] } },
{ "type": "Feature", "properties": { "LAYER": "07.Grid", "GM_TYPE": "Unknown Line Type", "ELEVATION": 0 }, "geometry": { "type": "MultiLineString", "coordinates": [ [ [ 771204.305500334943645, 8979600.0 ], [ 771260.0, 8979600.0 ] ] ] } },
{ "type": "Feature", "properties": { "LAYER": "07.Grid", "GM_TYPE": "Unknown Line Type", "ELEVATION": 0 }, "geometry": { "type": "MultiLineString", "coordinates": [ [ [ 771195.69449966493994, 8979600.0 ], [ 771140.0, 8979600.0 ] ] ] } }
]
}
