{
"type": "FeatureCollection",
"name": "09_oe_li_pemukiman",
"crs": { "type": "name", "properties": { "name": "urn:ogc:def:crs:EPSG::32751" } },
"features": [
{ "type": "Feature", "properties": { "LAYER": "pemukiman", "GM_TYPE": "Unknown Line Type", "ELEVATION": 0 }, "geometry": { "type": "MultiLineString", "coordinates": [ [ [ 772991.64676658064127, 8984182.475611431524158 ], [ 773046.199244224117137, 8984143.113559506833553 ], [ 773129.281980789499357, 8984084.318504838272929 ], [ 773205.441187729360536, 8984030.711230343207717 ], [ 773311.025509895640425, 8983982.291771475225687 ], [ 773421.802517386851832, 8983930.413757033646107 ], [ 773448.368580850888975, 8983905.347104610875249 ] ] ] } },
{ "type": "Feature", "properties": { "LAYER": "pemukiman", "GM_TYPE": "Unknown Line Type", "ELEVATION": 0 }, "geometry": { "type": "MultiLineString", "coordinates": [ [ [ 773452.817336251842789, 8983898.829375641420484 ], [ 773449.496788312448189, 8983847.408919749781489 ], [ 773226.211852817912586, 8983918.30886572599411 ], [ 773075.624359450303018, 8983984.021031530573964 ], [ 772944.076686870888807, 8984099.881916262209415 ], [ 772930.828645169269294, 8984108.322015622630715 ] ] ] } },
{ "type": "Feature", "properties": { "LAYER": "pemukiman", "GM_TYPE": "Unknown Line Type", "ELEVATION": 0 }, "geometry": { "type": "MultiLineString", "coordinates": [ [ [ 772926.119379503419623, 8984111.322207726538181 ], [ 772907.639518543030135, 8984123.095409091562033 ] ] ] } },
{ "type": "Feature", "properties": { "LAYER": "pemukiman", "GM_TYPE": "Unknown Line Type", "ELEVATION": 0 }, "geometry": { "type": "MultiLineString", "coordinates": [ [ [ 775564.193346923100762, 8983528.664240408688784 ], [ 775578.193877251935191, 8983545.810086956247687 ], [ 775560.089310392271727, 8983565.189647495746613 ], [ 775464.393707969458774, 8983603.948768574744463 ], [ 775388.095821016468108, 8983615.576514594256878 ], [ 775342.834403867716901, 8983576.817393517121673 ], [ 775256.207109312526882, 8983513.832101918756962 ], [ 774987.813144541927613, 8983435.268168980255723 ], [ 774760.447605093941092, 8983433.560254311189055 ], [ 774783.442315847030841, 8983407.774079231545329 ] ] ] } },
{ "type": "Feature", "properties": { "LAYER": "pemukiman", "GM_TYPE": "Unknown Line Type", "ELEVATION": 0 }, "geometry": { "type": "MultiLineString", "coordinates": [ [ [ 774787.28655639255885, 8983403.463163526728749 ], [ 774844.213884547585621, 8983339.625089352950454 ], [ 774984.394134502275847, 8983329.377636799588799 ], [ 775314.330661045270972, 8983421.604887086898088 ], [ 775345.420770561904646, 8983465.70789585262537 ], [ 775437.236822943435982, 8983553.561917636543512 ], [ 775481.261622810736299, 8983539.219474844634533 ] ] ] } },
{ "type": "Feature", "properties": { "LAYER": "pemukiman", "GM_TYPE": "Unknown Line Type", "ELEVATION": 0 }, "geometry": { "type": "MultiLineString", "coordinates": [ [ [ 775486.090570360072888, 8983537.646295543760061 ], [ 775496.723291647154838, 8983534.182357098907232 ], [ 775538.10519349144306, 8983496.715202413499355 ], [ 775560.98546893207822, 8983524.735690383240581 ] ] ] } },
{ "type": "Feature", "properties": { "LAYER": "pemukiman", "GM_TYPE": "Unknown Line Type", "ELEVATION": 0 }, "geometry": { "type": "MultiLineString", "coordinates": [ [ [ 776002.085479062749073, 8983441.130598317831755 ], [ 775994.227580606704578, 8983476.021726183593273 ], [ 775693.305159501149319, 8983381.480806073173881 ], [ 775688.38345913880039, 8983369.058700494468212 ] ] ] } },
{ "type": "Feature", "properties": { "LAYER": "pemukiman", "GM_TYPE": "Unknown Line Type", "ELEVATION": 0 }, "geometry": { "type": "MultiLineString", "coordinates": [ [ [ 775686.095808726269752, 8983363.284794555976987 ], [ 775657.345880310516804, 8983290.721529858186841 ], [ 775695.197801276342943, 8983269.922506159171462 ], [ 775863.638651424553245, 8983328.53789790160954 ], [ 776011.260975525947288, 8983400.38899009488523 ], [ 776003.186312380828895, 8983436.242609972134233 ] ] ] } },
{ "type": "Feature", "properties": { "LAYER": "pemukiman", "GM_TYPE": "Unknown Line Type", "ELEVATION": 0 }, "geometry": { "type": "MultiLineString", "coordinates": [ [ [ 776621.666555520729162, 8983370.008382124826312 ], [ 776627.371507948730141, 8983301.613563481718302 ], [ 776554.476906110299751, 8983306.072302926331758 ], [ 776554.476906110299751, 8983246.622384533286095 ], [ 776609.519751614076085, 8983200.548684483394027 ], [ 776578.279197081690654, 8983179.741186454892159 ], [ 776480.094727771240287, 8983206.493658594787121 ], [ 776496.458831393625587, 8983258.512368211522698 ], [ 776413.150736781419255, 8983368.494726104661822 ], [ 776337.280905730323866, 8983381.870979901403189 ], [ 776337.280905730323866, 8983420.5134357213974 ], [ 776283.725712938467041, 8983433.889654062688351 ], [ 776288.190490669920109, 8983466.006038408726454 ] ] ] } },
{ "type": "Feature", "properties": { "LAYER": "pemukiman", "GM_TYPE": "Unknown Line Type", "ELEVATION": 0 }, "geometry": { "type": "MultiLineString", "coordinates": [ [ [ 776288.949388642329723, 8983471.465001974254847 ], [ 776291.163900287705474, 8983487.39459834434092 ], [ 776426.539534979383461, 8983441.320898294448853 ], [ 776493.483525969088078, 8983444.293403077870607 ], [ 776597.618606128380634, 8983398.219703027978539 ], [ 776619.807664827792905, 8983374.665951820090413 ] ] ] } },
{ "type": "Feature", "properties": { "LAYER": "pemukiman", "GM_TYPE": "Unknown Line Type", "ELEVATION": 0 }, "geometry": { "type": "MultiLineString", "coordinates": [ [ [ 774375.363648021477275, 8983597.553416967391968 ], [ 774378.672021198319271, 8983601.159167451784015 ], [ 774608.219578310381621, 8983440.080596536397934 ], [ 774599.034748634207062, 8983418.669430050998926 ] ] ] } },
{ "type": "Feature", "properties": { "LAYER": "pemukiman", "GM_TYPE": "Unknown Line Type", "ELEVATION": 0 }, "geometry": { "type": "MultiLineString", "coordinates": [ [ [ 774597.005106475553475, 8983413.938040608540177 ], [ 774588.048046062234789, 8983399.225766960531473 ], [ 774404.785853984765708, 8983517.390381798148155 ], [ 774350.846998724387959, 8983566.084595469757915 ], [ 774371.948380265850574, 8983593.831163551658392 ] ] ] } },
{ "type": "Feature", "properties": { "LAYER": "pemukiman", "GM_TYPE": "Unknown Line Type", "ELEVATION": 0 }, "geometry": { "type": "MultiLineString", "coordinates": [ [ [ 772907.639518543030135, 8984123.095409091562033 ], [ 772944.779875896056183, 8984149.347928799688816 ] ] ] } },
{ "type": "Feature", "properties": { "LAYER": "pemukiman", "GM_TYPE": "Unknown Line Type", "ELEVATION": 0 }, "geometry": { "type": "MultiLineString", "coordinates": [ [ [ 772948.92260574165266, 8984152.27620156109333 ], [ 772991.646766580059193, 8984182.475611431524158 ] ] ] } }
]
}
