{
"type": "FeatureCollection",
"name": "09_oe_li_salexisting",
"crs": { "type": "name", "properties": { "name": "urn:ogc:def:crs:EPSG::32751" } },
"features": [
{ "type": "Feature", "properties": { "LAYER": "07.Sal_existing", "GM_TYPE": "Unknown Line Type", "ELEVATION": 0 }, "geometry": { "type": "MultiLineString", "coordinates": [ [ [ 777956.234862734447233, 8983293.330031918361783 ], [ 777949.714182191644795, 8983289.670873364433646 ], [ 777900.091111352667212, 8983247.156613655388355 ], [ 777872.969986923155375, 8983205.413034280762076 ], [ 777846.230509545654058, 8983163.992131797596812 ], [ 777835.320759759284556, 8983147.416746007278562 ], [ 777829.772735277190804, 8983139.151413835585117 ], [ 777823.178491074591875, 8983126.332734271883965 ], [ 777817.318498888635077, 8983118.133121142163873 ], [ 777811.547583248466253, 8983109.844239857047796 ], [ 777806.951427591848187, 8983099.216692607849836 ], [ 777800.042208680533804, 8983092.766806425526738 ], [ 777795.24454260955099, 8983086.596879603341222 ] ] ] } },
{ "type": "Feature", "properties": { "LAYER": "07.Sal_existing", "GM_TYPE": "Unknown Line Type", "ELEVATION": 0 }, "geometry": { "type": "MultiLineString", "coordinates": [ [ [ 772878.245129914954305, 8983481.09801271930337 ], [ 772909.837434376007877, 8983474.885905310511589 ], [ 772941.907526812050492, 8983477.625469842925668 ], [ 772989.216232675476931, 8983475.198002349585295 ], [ 773001.936683338135481, 8983471.628180118277669 ], [ 773039.669271599152125, 8983463.77460790798068 ], [ 773116.27279002009891, 8983452.838688489049673 ], [ 773160.213530021021143, 8983445.932025376707315 ], [ 773175.387467490159906, 8983445.062205919995904 ], [ 773211.456628634477966, 8983441.210154872387648 ], [ 773234.093131903442554, 8983437.855150070041418 ], [ 773296.792013859841973, 8983428.204954992979765 ], [ 773357.974629270844162, 8983419.019086634740233 ], [ 773388.678016281104647, 8983412.223195925354958 ], [ 773404.768174545955844, 8983408.507725952193141 ], [ 773438.741004106472246, 8983400.659413330256939 ], [ 773469.229565602377988, 8983392.43522372469306 ], [ 773480.679203562089242, 8983388.772533092647791 ], [ 773496.002733465400524, 8983388.389806415885687 ], [ 773513.241684066946618, 8983391.451635122299194 ], [ 773518.081617134041153, 8983392.466689508408308 ], [ 773525.491832154453732, 8983392.23534413613379 ], [ 773530.076912557240576, 8983392.096530796959996 ], [ 773533.550467279623263, 8983391.772638102993369 ], [ 773536.421938745188527, 8983391.032305391505361 ], [ 773539.941534548532218, 8983389.319637147709727 ], [ 773545.062544963438995, 8983386.93594348244369 ], [ 773552.565294467960484, 8983381.393127270042896 ], [ 773563.482673460035585, 8983376.167096972465515 ], [ 773577.88904211577028, 8983371.985975500196218 ], [ 773612.745900391135365, 8983353.08018196746707 ], [ 773667.163230404956266, 8983341.183959847316146 ], [ 773697.068866588640958, 8983328.710910893976688 ], [ 773713.428671718691476, 8983323.28790994733572 ], [ 773797.564413811545819, 8983310.323578890413046 ], [ 773850.892333768890239, 8983304.871160950511694 ], [ 773919.546003005933017, 8983305.141441389918327 ], [ 773946.897844028309919, 8983300.978042319417 ], [ 774004.518098004278727, 8983283.941155096516013 ], [ 774055.429493635194376, 8983275.986442867666483 ], [ 774090.90095110272523, 8983263.394625103101134 ], [ 774127.108684961916879, 8983247.813726058229804 ], [ 774157.473995091160759, 8983211.850995475426316 ], [ 774183.450906862970442, 8983166.871629912406206 ], [ 774201.151973972795531, 8983104.297337908297777 ], [ 774204.496865130146034, 8983032.384398842230439 ], [ 774209.139380570850335, 8982979.150714134797454 ], [ 774206.452904455247335, 8982909.050344882532954 ], [ 774199.603538815397769, 8982818.264234768226743 ], [ 774203.66903676756192, 8982788.552844185382128 ], [ 774221.367213621153496, 8982680.051039073616266 ], [ 774230.026239247992635, 8982594.944426499307156 ], [ 774223.823868985055014, 8982569.898289414122701 ], [ 774357.174526534043252, 8982050.342051530256867 ], [ 774876.712754100910388, 8981422.671398609876633 ] ] ] } },
{ "type": "Feature", "properties": { "LAYER": "07.Sal_existing", "GM_TYPE": "Unknown Line Type", "ELEVATION": 0 }, "geometry": { "type": "MultiLineString", "coordinates": [ [ [ 772863.769576317979954, 8983034.539086431264877 ], [ 772873.482108969124965, 8983033.291502349078655 ], [ 772875.716810409212485, 8983033.129954148083925 ], [ 772884.563345080940053, 8983032.515723599120975 ], [ 772895.45557343296241, 8983031.460819009691477 ], [ 772908.426289207884111, 8983030.925772339105606 ], [ 772956.322112040012144, 8983028.29630932956934 ], [ 773004.964356285985559, 8983025.749049689620733 ], [ 773073.16027752996888, 8983021.633208690211177 ], [ 773080.684074426069856, 8983021.119330670684576 ] ] ] } },
{ "type": "Feature", "properties": { "LAYER": "07.Sal_existing", "GM_TYPE": "Unknown Line Type", "ELEVATION": 0 }, "geometry": { "type": "MultiLineString", "coordinates": [ [ [ 777795.24454260955099, 8983086.596879603341222 ], [ 777768.010738338110968, 8983047.815688839182258 ], [ 777737.414280787925236, 8983016.806998070329428 ], [ 777710.18553489795886, 8983017.736280489712954 ], [ 777690.577930968953297, 8983018.952502269297838 ], [ 777640.969750268035568, 8983021.88107212074101 ], [ 777588.995132765965536, 8983024.237332932651043 ], [ 777553.665811870014295, 8983026.575781630352139 ], [ 777535.972030161996372, 8983017.327129550278187 ], [ 777497.348822425934486, 8982984.95009016059339 ], [ 777478.986289517953992, 8982969.977338010445237 ], [ 777459.050313650048338, 8982953.508228870108724 ], [ 777421.787428627954796, 8982923.984497031196952 ], [ 777377.540996215888299, 8982936.050192812457681 ], [ 777329.951248822850175, 8982951.451394049450755 ], [ 777283.137506240862422, 8982966.711648691445589 ], [ 777235.713619067915715, 8982982.757910419255495 ], [ 777188.27637464099098, 8982997.364785950630903 ], [ 777141.351047097006813, 8983013.961451709270477 ], [ 777093.590374346007593, 8983029.577383812516928 ], [ 777045.75705447094515, 8983045.021860169246793 ], [ 776998.002804894116707, 8983060.930413410067558 ], [ 776950.100456978892908, 8983076.394051609560847 ], [ 776904.627876193029806, 8983091.976531539112329 ], [ 776869.473727367119864, 8983104.683921320363879 ], [ 776856.907974760048091, 8983108.579227330163121 ], [ 776809.471019285847433, 8983123.621345989406109 ], [ 776759.755634443135932, 8983133.740002879872918 ], [ 776710.829312420915812, 8983142.222608579322696 ], [ 776661.772792145144194, 8983152.199745329096913 ], [ 776612.357677080086432, 8983160.408859018236399 ], [ 776587.838428206043318, 8983164.525534709915519 ], [ 776563.181782794068567, 8983168.581560380756855 ], [ 776514.632876412943006, 8983177.822654159739614 ], [ 776470.302391055040061, 8983192.728642649948597 ], [ 776446.47099568718113, 8983231.385411979630589 ], [ 776424.626361437141895, 8983276.153324520215392 ], [ 776395.765599604113959, 8983317.965011842548847 ], [ 776362.773744591861032, 8983338.494877882301807 ], [ 776314.71003271418158, 8983354.597402120009065 ], [ 776265.639588025980629, 8983362.936601610854268 ], [ 776246.152500684023835, 8983367.170534159988165 ], [ 776216.891051984042861, 8983367.775046709924936 ], [ 776181.355712704011239, 8983327.34204070083797 ], [ 776149.426651998073794, 8983289.248007420450449 ], [ 776116.938240392948501, 8983251.824095310643315 ], [ 776085.145417639054358, 8983214.360697090625763 ], [ 776073.434616827988066, 8983200.012376710772514 ], [ 776052.95441341586411, 8983175.71074959076941 ], [ 776019.191898116027005, 8983137.779305670410395 ], [ 775988.025415648124181, 8983098.474680727347732 ], [ 775954.57707141013816, 8983066.617970339953899 ], [ 775911.449591255164705, 8983045.159758731722832 ], [ 775875.560112613020465, 8983026.849141387268901 ], [ 775866.760879070847295, 8983022.390522230416536 ], [ 775820.585053296992555, 8983004.835027750581503 ], [ 775775.476446720887907, 8982983.438210939988494 ], [ 775730.523393267067149, 8982963.435322349891067 ], [ 775684.26108673796989, 8982941.230511331930757 ], [ 775672.903809297014959, 8982936.33238497748971 ], [ 775658.683218725025654, 8982930.18487224727869 ], [ 775638.035366605035961, 8982921.46504165045917 ], [ 775592.65199323091656, 8982900.197234319522977 ], [ 775547.732913361978717, 8982878.324696889147162 ], [ 775501.662147097056732, 8982859.275358559563756 ], [ 775456.837236078106798, 8982837.770089019089937 ], [ 775431.217715633101761, 8982826.457384018227458 ], [ 775421.822789879981428, 8982834.430143512785435 ], [ 775397.059316195896827, 8982868.215166959911585 ], [ 775388.058061738032848, 8982876.39431181922555 ], [ 775364.430481350864284, 8982893.730548081919551 ], [ 775340.333325981977396, 8982891.891219461336732 ], [ 775291.164043369120918, 8982887.105003792792559 ], [ 775240.613301418023184, 8982881.552157210186124 ], [ 775191.328795980778523, 8982876.907879330217838 ], [ 775142.210240797954611, 8982871.836185149848461 ], [ 775092.417385689099319, 8982866.131084479391575 ], [ 775043.002887215116061, 8982861.32036530226469 ], [ 774995.954432634054683, 8982860.906367940828204 ], [ 774952.237389714224264, 8982879.64968990907073 ], [ 774908.852680122014135, 8982903.66347304917872 ], [ 774864.651795394951478, 8982927.74483204074204 ], [ 774820.35823029500898, 8982951.66257094964385 ], [ 774775.519007105147466, 8982976.085596961900592 ], [ 774727.495786295970902, 8982993.613154210150242 ], [ 774681.226073321071453, 8983008.867854239419103 ], [ 774632.738251872942783, 8983024.466535769402981 ], [ 774585.637170212925412, 8983040.313394209370017 ], [ 774542.769173220032826, 8983057.39236612059176 ], [ 774515.870354584185407, 8983086.995559049770236 ], [ 774506.742210000986233, 8983134.48175410926342 ], [ 774506.713405388058163, 8983161.777160229161382 ], [ 774507.238147779018618, 8983183.287302810698748 ], [ 774507.691302645020187, 8983233.183774759992957 ], [ 774508.206577920936979, 8983283.47991987131536 ], [ 774508.485001697088592, 8983333.495920330286026 ], [ 774515.144326567067765, 8983380.96746763959527 ], [ 774501.139868629048578, 8983402.445089820772409 ], [ 774505.216839695931412, 8983428.341346679255366 ], [ 774487.831894696108066, 8983443.277546150609851 ], [ 774465.106196749140508, 8983459.298951260745525 ], [ 774434.342979085049592, 8983475.440593322739005 ], [ 774388.178871738142334, 8983496.918916130438447 ], [ 774356.829530395800248, 8983533.342199509963393 ], [ 774326.040826443000697, 8983572.334351310506463 ], [ 774295.205450124107301, 8983611.76899316906929 ], [ 774264.3797144331038, 8983650.580708930268884 ], [ 774232.08442617894616, 8983688.997652480378747 ], [ 774201.815238324110396, 8983729.034787960350513 ], [ 774171.023403826868162, 8983768.267803670838475 ], [ 774156.258400887134485, 8983786.826539769768715 ], [ 774139.781872567953542, 8983807.777979889884591 ], [ 774116.692375279031694, 8983833.577801929786801 ], [ 774074.696675765095279, 8983860.063055090606213 ], [ 774020.776575259980746, 8983856.280563529580832 ], [ 773999.661866817157716, 8983842.133077330887318 ], [ 773981.523346976027824, 8983823.404306009411812 ], [ 773947.244844416039996, 8983788.387155599892139 ], [ 773912.951955125899985, 8983753.294496480375528 ], [ 773901.676104228128679, 8983742.393025260418653 ], [ 773879.240517059108242, 8983723.507980529218912 ], [ 773840.576456059236079, 8983716.400963040068746 ], [ 773791.714098594849929, 8983718.837324919179082 ], [ 773740.705507857957855, 8983720.675916101783514 ], [ 773710.89005519694183, 8983716.072266630828381 ], [ 773691.324502759147435, 8983704.262457620352507 ], [ 773666.386576008051634, 8983676.475780088454485 ], [ 773636.312566565116867, 8983636.323795840144157 ], [ 773608.135692810057662, 8983594.456177750602365 ], [ 773597.313178792945109, 8983563.186258319765329 ], [ 773593.936480402946472, 8983546.078384291380644 ], [ 773585.052008550963365, 8983497.214005649089813 ], [ 773575.633974110009149, 8983448.124057669192553 ], [ 773564.764197562937625, 8983399.187375400215387 ], [ 773556.866345720016398, 8983384.776037419214845 ], [ 773553.508807954960503, 8983369.515447150915861 ], [ 773544.621357043040916, 8983351.231930749490857 ], [ 773512.518016063142568, 8983312.586107587441802 ], [ 773483.341184802935459, 8983273.525557950139046 ], [ 773453.826505339122377, 8983233.330812830477953 ], [ 773425.831113943131641, 8983194.851096430793405 ], [ 773396.226165732135996, 8983154.77257477119565 ], [ 773383.061012123129331, 8983134.704541940242052 ], [ 773369.256167238112539, 8983112.540139952674508 ], [ 773382.895231537055224, 8983061.802397612482309 ] ] ] } },
{ "type": "Feature", "properties": { "LAYER": "07.Sal_existing", "GM_TYPE": "Unknown Line Type", "ELEVATION": 0 }, "geometry": { "type": "MultiLineString", "coordinates": [ [ [ 772901.43715570284985, 8983685.500865949317813 ], [ 772904.681882033008151, 8983684.253793789073825 ], [ 772908.510173470131122, 8983683.095986619591713 ], [ 772917.068292964017019, 8983684.0653439424932 ], [ 772963.151853204122745, 8983685.010175902396441 ], [ 773012.57411804003641, 8983686.114802090451121 ], [ 773037.08029736590106, 8983698.051636330783367 ], [ 773075.902091458905488, 8983685.210881620645523 ], [ 773133.327171681099571, 8983662.585541989654303 ], [ 773148.690865294076502, 8983637.339393060654402 ], [ 773150.853018754045479, 8983607.933886919170618 ], [ 773180.410171031951904, 8983561.555754421278834 ], [ 773287.208978235954419, 8983546.196956649422646 ], [ 773434.375679440097883, 8983549.242670770734549 ], [ 773589.128987982985564, 8983565.447905190289021 ], [ 773605.351356307975948, 8983561.141892401501536 ], [ 773617.406904740026221, 8983558.65802788361907 ] ] ] } },
{ "type": "Feature", "properties": { "LAYER": "07.Sal_existing", "GM_TYPE": "Unknown Line Type", "ELEVATION": 0 }, "geometry": { "type": "MultiLineString", "coordinates": [ [ [ 772905.023282121052034, 8983589.355533862486482 ], [ 772902.435814116033725, 8983536.156999932602048 ], [ 772909.837434376007877, 8983474.885905310511589 ] ] ] } },
{ "type": "Feature", "properties": { "LAYER": "07.Sal_existing", "GM_TYPE": "Unknown Line Type", "ELEVATION": 0 }, "geometry": { "type": "MultiLineString", "coordinates": [ [ [ 772909.837434376007877, 8983474.885905310511589 ], [ 772902.485363935120404, 8983384.997229410335422 ], [ 772900.520451694959775, 8983304.222900900989771 ], [ 772898.304599025053903, 8983261.528025489300489 ], [ 772895.6090848071035, 8983205.545779660344124 ], [ 772893.085353794042021, 8983177.964697929099202 ], [ 772892.294541934970766, 8983159.479264698922634 ], [ 772889.325841626967303, 8983119.627866199240088 ], [ 772886.363771328004077, 8983065.776866801083088 ], [ 772884.563345080940053, 8983032.515723599120975 ], [ 772863.502407428226434, 8982629.095045432448387 ] ] ] } },
{ "type": "Feature", "properties": { "LAYER": "07.Sal_existing", "GM_TYPE": "Unknown Line Type", "ELEVATION": 0 }, "geometry": { "type": "MultiLineString", "coordinates": [ [ [ 772956.322112040012144, 8983028.29630932956934 ], [ 772955.09898856212385, 8982991.039962558075786 ], [ 772953.588411562959664, 8982958.906425841152668 ], [ 772946.506009200005792, 8982832.322074519470334 ], [ 772940.188583125011064, 8982732.347689982503653 ], [ 773030.279063552967273, 8982721.896783428266644 ], [ 773090.228441818035208, 8982721.335763210430741 ], [ 773114.285772705916315, 8982721.206091910600662 ], [ 773164.900890094228089, 8982728.161545049399137 ], [ 773207.956193550955504, 8982728.317301910370588 ], [ 773216.391882907017134, 8982769.258630190044641 ] ] ] } },
{ "type": "Feature", "properties": { "LAYER": "07.Sal_existing", "GM_TYPE": "Unknown Line Type", "ELEVATION": 0 }, "geometry": { "type": "MultiLineString", "coordinates": [ [ [ 771873.764855585992336, 8982696.200042279437184 ], [ 771946.621722511015832, 8982691.34702985920012 ], [ 772013.308576652081683, 8982687.079454109072685 ], [ 772055.992845955886878, 8982685.222970770671964 ], [ 772121.507885482045822, 8982681.469168342649937 ], [ 772424.008440455887467, 8982659.678468918427825 ], [ 772489.034939137869515, 8982655.557254942134023 ], [ 772522.832687172922306, 8982653.763996075838804 ], [ 772631.131260019843467, 8982646.271898658946157 ], [ 772863.502407428226434, 8982629.095045432448387 ], [ 772925.68923190201167, 8982625.661712400615215 ], [ 772976.061125145992264, 8982623.649362670257688 ], [ 773048.989701360347681, 8982619.743944006040692 ], [ 773127.335879621678032, 8982619.471622783690691 ], [ 773290.599589901277795, 8982615.3369912635535 ], [ 773332.695728996070102, 8982613.875972842797637 ], [ 773366.837967387400568, 8982608.034681851044297 ], [ 773387.432560221874155, 8982605.826985577121377 ], [ 773420.765053978771903, 8982605.154232440516353 ], [ 773439.63855707005132, 8982605.414111230522394 ], [ 773485.443945294944569, 8982602.394553320482373 ], [ 773552.922706752666272, 8982598.568954547867179 ], [ 773826.197699111071415, 8982591.088400185108185 ], [ 773915.99058646010235, 8982582.650952681899071 ], [ 774107.743172180955298, 8982574.374656472355127 ], [ 774123.640805313945748, 8982572.105710476636887 ], [ 774223.823868985055014, 8982569.898289414122701 ] ] ] } },
{ "type": "Feature", "properties": { "LAYER": "07.Sal_existing", "GM_TYPE": "Unknown Line Type", "ELEVATION": 0 }, "geometry": { "type": "MultiLineString", "coordinates": [ [ [ 773332.49692137085367, 8982605.484852513298392 ], [ 773330.031029527075589, 8982597.259010180830956 ], [ 773350.765947032952681, 8982592.529140530154109 ], [ 773352.033544967067428, 8982579.995732529088855 ], [ 773349.557810769882053, 8982515.510920077562332 ], [ 773347.632892988971435, 8982459.935520950704813 ], [ 773345.817394364974461, 8982395.659845760092139 ], [ 773344.316927915904671, 8982349.922615310177207 ], [ 773342.383925044094212, 8982294.803608719259501 ], [ 773340.10993685410358, 8982252.603807719424367 ], [ 773340.669975365861319, 8982248.999611169099808 ], [ 773336.960011587943882, 8982198.837771460413933 ], [ 773337.932523149996996, 8982176.480372309684753 ], [ 773335.930247865151614, 8982123.914417779073119 ], [ 773332.690750468056649, 8982062.870346140116453 ], [ 773330.03416852792725, 8981972.672598170116544 ], [ 773328.797800097963773, 8981922.895394090563059 ], [ 773328.393133519100957, 8981900.381191620603204 ], [ 773328.928682535886765, 8981898.284200709313154 ] ] ] } },
{ "type": "Feature", "properties": { "LAYER": "07.Sal_existing", "GM_TYPE": "Unknown Line Type", "ELEVATION": 0 }, "geometry": { "type": "MultiLineString", "coordinates": [ [ [ 773367.779942562920041, 8982601.933140959590673 ], [ 773377.038774833083153, 8982597.131146272644401 ], [ 773381.346895390888676, 8982591.127589421346784 ], [ 773402.755071371560916, 8982587.629411516711116 ], [ 773425.555692526395433, 8982582.211654867976904 ], [ 773426.879140694974922, 8982549.326818559318781 ], [ 773424.955240260111168, 8982500.870264939963818 ], [ 773422.568201121990569, 8982443.656677110120654 ], [ 773421.167885940056294, 8982389.765151809900999 ], [ 773417.966946359607391, 8982312.984093576669693 ], [ 773417.101677799248137, 8982292.228864042088389 ], [ 773406.798501722980291, 8982196.993318280205131 ], [ 773412.134376281988807, 8982177.236414359882474 ], [ 773411.497190495138057, 8982153.730237850919366 ], [ 773409.864162795129232, 8982115.106605669483542 ], [ 773408.898183269076981, 8982083.987539960071445 ], [ 773407.032454684027471, 8982031.437452290207148 ], [ 773405.634382607182488, 8981993.060774330049753 ], [ 773392.360738293034956, 8981894.939449239522219 ] ] ] } },
{ "type": "Feature", "properties": { "LAYER": "07.Sal_existing", "GM_TYPE": "Unknown Line Type", "ELEVATION": 0 }, "geometry": { "type": "MultiLineString", "coordinates": [ [ [ 773252.649608256993815, 8981904.466935060918331 ], [ 773256.239561684196815, 8981994.660992989316583 ], [ 773257.015027459012344, 8982056.89045643247664 ], [ 773259.97298533085268, 8982104.597021380439401 ], [ 773261.294336055987515, 8982157.524827940389514 ], [ 773264.40851661900524, 8982233.009343249723315 ], [ 773267.54725373594556, 8982333.035142589360476 ], [ 773267.864462464116514, 8982402.273497998714447 ], [ 773273.220677886041813, 8982470.948405092582107 ], [ 773275.601408080896363, 8982529.589613461866975 ], [ 773276.700740390922874, 8982574.650955930352211 ], [ 773250.247786660562269, 8982596.47808531858027 ], [ 773176.585540744359605, 8982600.350394947454333 ], [ 773159.347313128877431, 8982601.957106979563832 ], [ 773128.1899348750012, 8982601.345963759347796 ], [ 773093.313131144852377, 8982608.122321244329214 ], [ 773035.722935973433778, 8982614.151978833600879 ], [ 772906.694466411252506, 8982618.663022469729185 ], [ 772859.893888451275416, 8982622.992350438609719 ], [ 772859.027192215784453, 8982625.58994416333735 ], [ 772879.372054139850661, 8983032.876164112240076 ] ] ] } },
{ "type": "Feature", "properties": { "LAYER": "07.Sal_existing", "GM_TYPE": "Unknown Line Type", "ELEVATION": 0 }, "geometry": { "type": "MultiLineString", "coordinates": [ [ [ 773860.111125709605403, 8982587.901702830567956 ], [ 773853.047455474035814, 8982513.205225210636854 ], [ 773852.798087354982272, 8982489.609514370560646 ], [ 773848.75865731597878, 8982417.79235184006393 ], [ 773846.678742589079775, 8982363.013770697638392 ], [ 773828.409491064492613, 8981990.128898192197084 ], [ 773829.6951758969808, 8981920.727882709354162 ], [ 773826.776517551043071, 8981847.072246650233865 ], [ 773823.73646262800321, 8981779.626479059457779 ], [ 773820.867890732944943, 8981684.436218939721584 ], [ 773818.019088682951406, 8981654.136207010596991 ], [ 773818.047124250908382, 8981632.181558890268207 ], [ 773817.762296339031309, 8981585.934483459219337 ], [ 773815.685682987910695, 8981534.721596669405699 ], [ 773813.759691083105281, 8981487.786485059186816 ], [ 773810.547392721986398, 8981384.044468820095062 ] ] ] } },
{ "type": "Feature", "properties": { "LAYER": "07.Sal_existing", "GM_TYPE": "Unknown Line Type", "ELEVATION": 0 }, "geometry": { "type": "MultiLineString", "coordinates": [ [ [ 773109.117628679960035, 8982008.867280349135399 ], [ 773119.652464120881632, 8981961.822481090202928 ], [ 773070.823089511017315, 8981903.862545300275087 ], [ 773145.753204224980436, 8981811.353075509890914 ], [ 773152.93245303875301, 8981764.288983585312963 ], [ 773173.531975325080566, 8981748.376883463934064 ], [ 773190.553339919424616, 8981721.240626335144043 ], [ 773206.517988007050008, 8981685.384051220491529 ], [ 773215.556006841943599, 8981663.303779205307364 ], [ 773216.991070266580209, 8981616.947381656616926 ], [ 773215.947759316070005, 8981567.339950872585177 ], [ 773230.006937515572645, 8981497.987887995317578 ], [ 773235.279117460013367, 8981415.467714430764318 ], [ 773242.308706559822895, 8981371.574001088738441 ], [ 773248.459602962480858, 8981324.168789353221655 ], [ 773261.576185144949704, 8981269.185306960716844 ], [ 773267.390615395153873, 8981208.926233660429716 ], [ 773291.255789846996777, 8981154.472712660208344 ], [ 773309.840163297951221, 8981107.232195800170302 ], [ 773328.025559060042724, 8981061.177003610879183 ], [ 773357.782420631032437, 8980992.158917710185051 ], [ 773370.749849320040084, 8980897.154997548088431 ], [ 773371.776339674950577, 8980828.543802740052342 ], [ 773345.451568695949391, 8980792.221633449196815 ], [ 773341.926620649290271, 8980717.786397382616997 ], [ 773324.606501744943671, 8980643.2183758597821 ], [ 773278.316500039072707, 8980637.976139429956675 ], [ 773253.870351729099639, 8980617.719485549256206 ], [ 773243.10416916909162, 8980569.902675917372108 ], [ 773184.82165768800769, 8980504.263110088184476 ], [ 773084.737149534979835, 8980322.754934169352055 ], [ 772901.934686232591048, 8979976.73329060152173 ] ] ] } },
{ "type": "Feature", "properties": { "LAYER": "07.Sal_existing", "GM_TYPE": "Unknown Line Type", "ELEVATION": 0 }, "geometry": { "type": "MultiLineString", "coordinates": [ [ [ 771463.638580529950559, 8982080.497137349098921 ], [ 771461.456024536979385, 8982042.235358161851764 ], [ 771459.771563112968579, 8982014.769223919138312 ], [ 771458.139240264892578, 8981987.177457040175796 ], [ 771456.067295270971954, 8981950.104612439870834 ], [ 771439.759854500065558, 8981943.505671689286828 ], [ 771441.681513070943765, 8981939.225288050249219 ], [ 771445.893623237148859, 8981922.79238872975111 ], [ 771450.354536660946906, 8981888.043164540082216 ] ] ] } },
{ "type": "Feature", "properties": { "LAYER": "07.Sal_existing", "GM_TYPE": "Unknown Line Type", "ELEVATION": 0 }, "geometry": { "type": "MultiLineString", "coordinates": [ [ [ 771397.040355505887419, 8981877.21817471832037 ], [ 771387.498543757945299, 8981910.46661102026701 ], [ 771393.163453097920865, 8981923.345159949734807 ], [ 771390.866158554097638, 8981929.238846350461245 ], [ 771386.843370044021867, 8981955.820514038205147 ] ] ] } },
{ "type": "Feature", "properties": { "LAYER": "07.Sal_existing", "GM_TYPE": "Unknown Line Type", "ELEVATION": 0 }, "geometry": { "type": "MultiLineString", "coordinates": [ [ [ 771625.119343859958462, 8982201.583273289725184 ], [ 771623.736928257043473, 8982153.829633729532361 ], [ 771620.210294349119067, 8982131.772278990596533 ], [ 771618.503479514969513, 8982100.005360692739487 ], [ 771617.380335668101907, 8982078.866776779294014 ], [ 771614.050320310052484, 8982026.911609100177884 ], [ 771612.914644991979003, 8982005.681265080347657 ], [ 771612.333364175050519, 8981998.509149262681603 ], [ 771611.869221225148067, 8981991.24242527037859 ], [ 771610.889395895879716, 8981949.453787060454488 ], [ 771608.636544219101779, 8981905.575956089422107 ], [ 771607.691533308010548, 8981863.91479391977191 ], [ 771603.134799747029319, 8981801.553782850503922 ], [ 771594.731692117056809, 8981636.151272097602487 ], [ 771592.388162815012038, 8981607.575325330719352 ], [ 771591.136432499857619, 8981577.691712979227304 ], [ 771590.075844718143344, 8981536.807737862691283 ], [ 771577.911016047000885, 8981447.645140882581472 ], [ 771580.632525139953941, 8981407.344215959310532 ] ] ] } },
{ "type": "Feature", "properties": { "LAYER": "07.Sal_existing", "GM_TYPE": "Unknown Line Type", "ELEVATION": 0 }, "geometry": { "type": "MultiLineString", "coordinates": [ [ [ 771387.498543757945299, 8981910.46661102026701 ], [ 771337.982756749959663, 8981895.207711087539792 ], [ 771296.200298313051462, 8981881.504715472459793 ], [ 771295.407575427205302, 8981850.782428601756692 ], [ 771295.602056929143146, 8981826.736474150791764 ], [ 771295.888202758040279, 8981774.755477510392666 ], [ 771293.709692539996468, 8981737.323016997426748 ], [ 771289.680579800042324, 8981672.819736730307341 ] ] ] } },
{ "type": "Feature", "properties": { "LAYER": "07.Sal_existing", "GM_TYPE": "Unknown Line Type", "ELEVATION": 0 }, "geometry": { "type": "MultiLineString", "coordinates": [ [ [ 771737.708344492013566, 8981489.473272740840912 ], [ 771740.64659520611167, 8981516.026907779276371 ], [ 771744.830859570880421, 8981586.026578851044178 ], [ 771742.870872649014927, 8981633.62419961951673 ], [ 771747.309565200936049, 8981696.82349688000977 ], [ 771750.290935535915196, 8981734.819868739694357 ], [ 771753.462752617197111, 8981772.5928561296314 ], [ 771760.737284422037192, 8981850.762505430728197 ], [ 771766.475695553002879, 8981933.344458190724254 ], [ 771779.428195267915726, 8982056.436943279579282 ], [ 771778.27611692098435, 8982068.69168983027339 ], [ 771779.752069259062409, 8982097.218433868139982 ], [ 771781.64544501202181, 8982134.453488050028682 ], [ 771783.464160316041671, 8982164.059094060212374 ], [ 771786.176574747078121, 8982197.100787259638309 ], [ 771786.932800087030046, 8982224.439884558320045 ] ] ] } },
{ "type": "Feature", "properties": { "LAYER": "07.Sal_existing", "GM_TYPE": "Unknown Line Type", "ELEVATION": 0 }, "geometry": { "type": "MultiLineString", "coordinates": [ [ [ 772121.507885482045822, 8982681.469168342649937 ], [ 772114.544393402058631, 8982635.306715229526162 ], [ 772108.543368142913096, 8982536.520310780033469 ], [ 772110.045400982024148, 8982479.560636840760708 ], [ 772091.730300922179595, 8982331.828481180593371 ], [ 772093.30539857421536, 8982278.509476179257035 ], [ 772096.638894652016461, 8982235.18796312995255 ], [ 772093.74635128909722, 8982170.223648009821773 ], [ 772093.506868632975966, 8982165.409247459843755 ], [ 772093.737206860794686, 8982162.831776790320873 ] ] ] } },
{ "type": "Feature", "properties": { "LAYER": "07.Sal_existing", "GM_TYPE": "Unknown Line Type", "ELEVATION": 0 }, "geometry": { "type": "MultiLineString", "coordinates": [ [ [ 772858.337778650107794, 8982833.528914149850607 ], [ 772797.011041307938285, 8982838.430739369243383 ], [ 772763.789490687078796, 8982840.424358220770955 ], [ 772708.967962843133137, 8982844.30516673065722 ], [ 772674.362645720946603, 8982846.721344320103526 ], [ 772633.788125517079607, 8982846.841076789423823 ], [ 772559.75234937784262, 8982856.978966742753983 ] ] ] } },
{ "type": "Feature", "properties": { "LAYER": "07.Sal_existing", "GM_TYPE": "Unknown Line Type", "ELEVATION": 0 }, "geometry": { "type": "MultiLineString", "coordinates": [ [ [ 772639.83150660910178, 8982924.155266279354692 ], [ 772638.621370100066997, 8982909.829530160874128 ], [ 772636.114632172044367, 8982878.322764569893479 ], [ 772635.598233130993322, 8982863.956959009170532 ], [ 772633.788125517079607, 8982846.841076789423823 ], [ 772633.753007119055837, 8982830.915686430409551 ], [ 772632.034700999152847, 8982819.918470362201333 ], [ 772630.414666634984314, 8982782.51363586075604 ], [ 772627.783984666108154, 8982741.145572559908032 ], [ 772624.06549419905059, 8982697.357759330421686 ], [ 772621.070625507971272, 8982660.368226140737534 ], [ 772631.131260019843467, 8982646.271898658946157 ] ] ] } },
{ "type": "Feature", "properties": { "LAYER": "07.Sal_existing", "GM_TYPE": "Unknown Line Type", "ELEVATION": 0 }, "geometry": { "type": "MultiLineString", "coordinates": [ [ [ 772863.769576317979954, 8983034.539086431264877 ], [ 772824.609512418042868, 8983038.18258118070662 ], [ 772759.672504910035059, 8983041.343637200072408 ], [ 772699.799645937979221, 8983045.772743871435523 ], [ 772648.609257718897425, 8983049.289426140487194 ], [ 772603.953205461031757, 8983052.556343080475926 ] ] ] } },
{ "type": "Feature", "properties": { "LAYER": "07.Sal_existing", "GM_TYPE": "Unknown Line Type", "ELEVATION": 0 }, "geometry": { "type": "MultiLineString", "coordinates": [ [ [ 772614.837783236987889, 8983152.460253419354558 ], [ 772654.781026557087898, 8983149.358700029551983 ], [ 772688.260835136985406, 8983147.961320439353585 ], [ 772727.146596072008833, 8983144.368093118071556 ], [ 772777.776328177074902, 8983139.680753290653229 ], [ 772804.677808145992458, 8983137.408275030553341 ] ] ] } },
{ "type": "Feature", "properties": { "LAYER": "07.Sal_existing", "GM_TYPE": "Unknown Line Type", "ELEVATION": 0 }, "geometry": { "type": "MultiLineString", "coordinates": [ [ [ 772708.849694484961219, 8983345.374689800664783 ], [ 772741.895689310971648, 8983343.515115609392524 ], [ 772781.373882354120724, 8983340.711520390585065 ], [ 772811.344991512945853, 8983335.48179486207664 ], [ 772840.739503925899044, 8983336.556191258132458 ], [ 772882.045826488058083, 8983332.38432583026588 ] ] ] } },
{ "type": "Feature", "properties": { "LAYER": "07.Sal_existing", "GM_TYPE": "Unknown Line Type", "ELEVATION": 0 }, "geometry": { "type": "MultiLineString", "coordinates": [ [ [ 772824.296362144057639, 8983467.166685262694955 ], [ 772821.146108733955771, 8983424.710514780133963 ], [ 772814.868802867131308, 8983369.293675730004907 ], [ 772811.344991512945853, 8983335.48179486207664 ], [ 772810.321835262933746, 8983318.080515559762716 ], [ 772807.83556978800334, 8983272.620632380247116 ], [ 772807.366452795919031, 8983260.62864800915122 ], [ 772809.538910050876439, 8983238.872475562617183 ], [ 772804.681050859042443, 8983226.192656442523003 ], [ 772802.668399005895481, 8983208.073778392747045 ], [ 772799.673988634021953, 8983177.447603339329362 ], [ 772804.677808145992458, 8983137.408275030553341 ] ] ] } },
{ "type": "Feature", "properties": { "LAYER": "07.Sal_existing", "GM_TYPE": "Unknown Line Type", "ELEVATION": 0 }, "geometry": { "type": "MultiLineString", "coordinates": [ [ [ 772809.538910050876439, 8983238.872475562617183 ], [ 772840.270959924091585, 8983236.028186500072479 ], [ 772872.774542785948142, 8983234.367254380136728 ] ] ] } },
{ "type": "Feature", "properties": { "LAYER": "07.Sal_existing", "GM_TYPE": "Unknown Line Type", "ELEVATION": 0 }, "geometry": { "type": "MultiLineString", "coordinates": [ [ [ 772562.750766391051002, 8982904.168413000181317 ], [ 772559.75234937784262, 8982856.978966742753983 ], [ 772557.49199451005552, 8982824.735095089301467 ], [ 772554.791715065948665, 8982782.164984859526157 ], [ 772551.797653752146289, 8982741.139157680794597 ], [ 772549.41970967897214, 8982705.245524980127811 ], [ 772546.52661863702815, 8982661.646726170554757 ], [ 772591.852973892120644, 8982662.163056671619415 ], [ 772621.070625507971272, 8982660.368226140737534 ] ] ] } },
{ "type": "Feature", "properties": { "LAYER": "07.Sal_existing", "GM_TYPE": "Unknown Line Type", "ELEVATION": 0 }, "geometry": { "type": "MultiLineString", "coordinates": [ [ [ 772545.89646897604689, 8982661.797489551827312 ], [ 772472.601854737149552, 8982673.466180739924312 ], [ 772475.708597267046571, 8982723.52024401910603 ], [ 772478.27082891901955, 8982761.310444489121437 ], [ 772480.609689602046274, 8982794.29369530081749 ], [ 772483.838692998047918, 8982831.445365361869335 ], [ 772489.249820872093551, 8982911.323118170723319 ], [ 772492.35674462292809, 8982957.975015191361308 ] ] ] } },
{ "type": "Feature", "properties": { "LAYER": "07.Sal_existing", "GM_TYPE": "Unknown Line Type", "ELEVATION": 0 }, "geometry": { "type": "MultiLineString", "coordinates": [ [ [ 772400.576722129946575, 8982724.721089009195566 ], [ 772404.281391947995871, 8982766.002490919083357 ], [ 772405.884397575980984, 8982804.701072020456195 ], [ 772409.617974627180956, 8982843.164724400267005 ], [ 772412.497448690119199, 8982882.611102651804686 ] ] ] } },
{ "type": "Feature", "properties": { "LAYER": "07.Sal_existing", "GM_TYPE": "Unknown Line Type", "ELEVATION": 0 }, "geometry": { "type": "MultiLineString", "coordinates": [ [ [ 773382.895231537055224, 8983061.802397612482309 ], [ 773713.623464061995037, 8982381.288694301620126 ] ] ] } },
{ "type": "Feature", "properties": { "LAYER": "07.Sal_existing", "GM_TYPE": "Unknown Line Type", "ELEVATION": 0 }, "geometry": { "type": "MultiLineString", "coordinates": [ [ [ 773715.496147169149481, 8982377.539178101345897 ], [ 773822.080834195599891, 8982158.261426098644733 ] ] ] } },
{ "type": "Feature", "properties": { "LAYER": "07.Sal_existing", "GM_TYPE": "Unknown Line Type", "ELEVATION": 0 }, "geometry": { "type": "MultiLineString", "coordinates": [ [ [ 773794.200024678604677, 8981241.154064701870084 ], [ 773792.732851210981607, 8981361.183631256222725 ], [ 773797.305443918216042, 8981460.440279480069876 ], [ 773803.157809452735819, 8981674.7480727750808 ], [ 773815.840261474950239, 8981978.967846874147654 ], [ 773822.080834195716307, 8982158.261426098644733 ] ] ] } },
{ "type": "Feature", "properties": { "LAYER": "07.Sal_existing", "GM_TYPE": "Unknown Line Type", "ELEVATION": 0 }, "geometry": { "type": "MultiLineString", "coordinates": [ [ [ 773795.233861837536097, 8981045.026940915733576 ], [ 773793.95732462964952, 8981070.76506638713181 ], [ 773793.957304656039923, 8981070.765469510108232 ], [ 773793.95728472340852, 8981070.765872636809945 ], [ 773793.95726483175531, 8981070.766275763511658 ], [ 773793.957244980963878, 8981070.766678893938661 ], [ 773793.957225169171579, 8981070.767082026228309 ], [ 773793.957205400220118, 8981070.767485160380602 ], [ 773793.957185670384206, 8981070.76788829639554 ], [ 773793.957165981526487, 8981070.768291432410479 ], [ 773793.957146333530545, 8981070.768694572150707 ], [ 773793.957126726396382, 8981070.769097715616226 ], [ 773793.957107160240412, 8981070.769500859081745 ], [ 773793.95708763319999, 8981070.769904004409909 ], [ 773793.957068148883991, 8981070.770307151600718 ], [ 773793.95704870368354, 8981070.770710300654173 ], [ 773793.957029299461283, 8981070.771113453432918 ], [ 773793.957009936100803, 8981070.771516606211662 ], [ 773793.956990613718517, 8981070.771919762715697 ], [ 773793.956971332314424, 8981070.772322919219732 ], [ 773793.956952091772109, 8981070.772726079449058 ], [ 773793.956932890228927, 8981070.773129239678383 ], [ 773793.956913731526583, 8981070.773532403632998 ], [ 773793.956894611939788, 8981070.773935567587614 ], [ 773793.956875533331186, 8981070.77433873526752 ], [ 773793.956856495584361, 8981070.774741904810071 ], [ 773793.95683749881573, 8981070.775145076215267 ], [ 773793.956818542908877, 8981070.775548247620463 ], [ 773793.956799626117572, 8981070.77595142275095 ], [ 773793.956780752167106, 8981070.776354599744081 ], [ 773793.956761917215772, 8981070.776757778599858 ], [ 773793.956743123242632, 8981070.77716095931828 ], [ 773793.956724370131269, 8981070.777564140036702 ], [ 773793.9567056579981, 8981070.777967324480414 ], [ 773793.956686986843124, 8981070.778370510786772 ], [ 773793.956668354687281, 8981070.778773698955774 ], [ 773793.956649765372276, 8981070.779176888987422 ], [ 773793.95663121517282, 8981070.779580080881715 ], [ 773793.956612705835141, 8981070.779983274638653 ], [ 773793.956594239338301, 8981070.780386470258236 ], [ 773793.956575810094364, 8981070.780789667740464 ], [ 773793.95655742357485, 8981070.781192867085338 ], [ 773793.956539078033529, 8981070.781596068292856 ], [ 773793.956520773353986, 8981070.78199927136302 ], [ 773793.956502507789992, 8981070.782402476295829 ], [ 773793.95648428320419, 8981070.782805681228638 ], [ 773793.956466099480167, 8981070.783208889886737 ], [ 773793.956447956734337, 8981070.783612100407481 ], [ 773793.9564298549667, 8981070.784015312790871 ], [ 773793.956411794177257, 8981070.784418527036905 ], [ 773793.956393774249591, 8981070.784821743145585 ], [ 773793.956375793321058, 8981070.78522496111691 ], [ 773793.956357853487134, 8981070.785628179088235 ], [ 773793.956339956377633, 8981070.78603140078485 ], [ 773793.956322098267265, 8981070.78643462434411 ], [ 773793.95630428113509, 8981070.786837847903371 ], [ 773793.956286503118463, 8981070.787241075187922 ], [ 773793.956268767942674, 8981070.787644304335117 ], [ 773793.956251073628664, 8981070.788047533482313 ], [ 773793.956233418430202, 8981070.788450766354799 ], [ 773793.956215804209933, 8981070.788853999227285 ], [ 773793.956198230851442, 8981070.789257235825062 ], [ 773793.956180698471144, 8981070.789660472422838 ], [ 773793.956163207069039, 8981070.79006371088326 ], [ 773793.956145756528713, 8981070.790466953068972 ], [ 773793.956128345103934, 8981070.790870195254683 ], [ 773793.956110976519994, 8981070.791273439303041 ], [ 773793.956093646935187, 8981070.791676685214043 ], [ 773793.956076358328573, 8981070.79207993298769 ], [ 773793.956059110700153, 8981070.792483182623982 ], [ 773793.95604190393351, 8981070.79288643412292 ], [ 773793.956024738145061, 8981070.793289687484503 ], [ 773793.956007613334805, 8981070.793692940846086 ], [ 773793.955990527640097, 8981070.794096197932959 ], [ 773793.955973484669812, 8981070.794499456882477 ], [ 773793.95595648069866, 8981070.794902715831995 ], [ 773793.955939517822117, 8981070.795305978506804 ], [ 773793.955922595807351, 8981070.795709241181612 ], [ 773793.955905714770779, 8981070.796112505719066 ], [ 773793.955888872849755, 8981070.79651577398181 ], [ 773793.955872073653154, 8981070.796919042244554 ], [ 773793.955855313572101, 8981070.797322312369943 ], [ 773793.955838596331887, 8981070.797725584357977 ], [ 773793.955821918090805, 8981070.798128856346011 ], [ 773793.955805280827917, 8981070.798532132059336 ], [ 773793.955788684543222, 8981070.798935409635305 ], [ 773793.95577212725766, 8981070.799338687211275 ], [ 773793.955755612929352, 8981070.799741968512535 ], [ 773793.955739137483761, 8981070.800145249813795 ], [ 773793.955722704995424, 8981070.8005485329777 ], [ 773793.955706311506219, 8981070.800951818004251 ], [ 773793.955689958995208, 8981070.801355104893446 ], [ 773793.95567364746239, 8981070.801758393645287 ], [ 773793.955657376907766, 8981070.802161684259772 ], [ 773793.955641145352274, 8981070.802564976736903 ], [ 773793.955624956637621, 8981070.802968269214034 ], [ 773793.9556088069221, 8981070.80337156355381 ], [ 773793.955592700163834, 8981070.803774861618876 ], [ 773793.9555766324047, 8981070.804178159683943 ], [ 773793.955560605507344, 8981070.804581459611654 ], [ 773793.955544619704597, 8981070.804984761402011 ], [ 773793.955528672900982, 8981070.805388063192368 ], [ 773793.955512768938206, 8981070.805791368708014 ], [ 773793.955496904090978, 8981070.806194674223661 ], [ 773793.955481081968173, 8981070.806597983464599 ], [ 773793.955465298960917, 8981070.807001292705536 ], [ 773793.955449556931853, 8981070.807404603809118 ], [ 773793.955433855880983, 8981070.807807916775346 ], [ 773793.955418195691891, 8981070.808211231604218 ], [ 773793.955402574618347, 8981070.808614546433091 ], [ 773793.955386996385641, 8981070.809017864987254 ], [ 773793.955371457268484, 8981070.809421183541417 ], [ 773793.955355959013104, 8981070.809824503958225 ], [ 773793.955340501735918, 8981070.810227826237679 ], [ 773793.955325085436925, 8981070.810631150379777 ], [ 773793.955309710116126, 8981070.811034474521875 ], [ 773793.955294375657104, 8981070.811437802389264 ], [ 773793.95527908031363, 8981070.811841130256653 ], [ 773793.955263827810995, 8981070.812244459986687 ], [ 773793.955248614307493, 8981070.812647791579366 ], [ 773793.955233441898599, 8981070.81305112503469 ], [ 773793.955218310351484, 8981070.813454458490014 ], [ 773793.955203219782561, 8981070.813857795670629 ], [ 773793.955188170075417, 8981070.814261132851243 ], [ 773793.955173161346465, 8981070.814664471894503 ], [ 773793.955158191849478, 8981070.815067812800407 ], [ 773793.955143263097852, 8981070.815471153706312 ], [ 773793.955128377303481, 8981070.815874498337507 ], [ 773793.955113530508243, 8981070.816277842968702 ], [ 773793.955098724807613, 8981070.816681189462543 ], [ 773793.9550839579897, 8981070.817084537819028 ], [ 773793.955069234129041, 8981070.817487888038158 ], [ 773793.955054551246576, 8981070.817891238257289 ], [ 773793.955039907363243, 8981070.818294590339065 ], [ 773793.955025304458104, 8981070.818697944283485 ], [ 773793.955010742531158, 8981070.819101300090551 ], [ 773793.95499622146599, 8981070.819504657760262 ], [ 773793.95498174149543, 8981070.819908015429974 ], [ 773793.954967302386649, 8981070.82031137496233 ], [ 773793.954952904256061, 8981070.820714736357331 ], [ 773793.954938545124605, 8981070.821118099614978 ], [ 773793.954924227087758, 8981070.82152146473527 ], [ 773793.95490994991269, 8981070.821924829855561 ], [ 773793.954895715578459, 8981070.822328196838498 ], [ 773793.954881518497132, 8981070.82273156568408 ], [ 773793.954867364140227, 8981070.823134934529662 ], [ 773793.954853250877932, 8981070.823538307100534 ], [ 773793.954839176614769, 8981070.823941679671407 ], [ 773793.954825145192444, 8981070.824345054104924 ], [ 773793.954811152885668, 8981070.824748428538442 ], [ 773793.95479720144067, 8981070.825151806697249 ], [ 773793.95478329109028, 8981070.825555184856057 ], [ 773793.954769421601668, 8981070.82595856487751 ], [ 773793.954755593091249, 8981070.826361946761608 ], [ 773793.954741803696379, 8981070.826765328645706 ], [ 773793.954728057025932, 8981070.827168712392449 ], [ 773793.954714349587448, 8981070.827572098001838 ], [ 773793.954700683010742, 8981070.827975485473871 ], [ 773793.954687057412229, 8981070.828378872945905 ], [ 773793.95467347279191, 8981070.828782262280583 ], [ 773793.954659929033369, 8981070.829185653477907 ], [ 773793.954646424506791, 8981070.829589046537876 ], [ 773793.954632962704636, 8981070.829992439597845 ], [ 773793.95461954001803, 8981070.830395834520459 ], [ 773793.954606158309616, 8981070.830799231305718 ], [ 773793.954592817579396, 8981070.831202628090978 ], [ 773793.954579517710954, 8981070.831606028601527 ], [ 773793.954566258820705, 8981070.832009429112077 ], [ 773793.954553041025065, 8981070.832412829622626 ], [ 773793.954539862112142, 8981070.832816233858466 ], [ 773793.954526726156473, 8981070.833219638094306 ], [ 773793.954513629316352, 8981070.833623042330146 ], [ 773793.954500573338009, 8981070.834026450291276 ], [ 773793.954487558454275, 8981070.834429858252406 ], [ 773793.954474584432319, 8981070.834833268076181 ], [ 773793.954461651388556, 8981070.835236679762602 ], [ 773793.954448757460341, 8981070.835640091449022 ], [ 773793.954435906256549, 8981070.836043504998088 ], [ 773793.954423094284721, 8981070.836446920409799 ], [ 773793.95441032317467, 8981070.836850335821509 ], [ 773793.954397593042813, 8981070.837253753095865 ], [ 773793.954384903889149, 8981070.837657172232866 ], [ 773793.040475344983861, 8981099.939330464228988 ], [ 773793.040464133489877, 8981099.939687971025705 ], [ 773793.040452955523506, 8981099.940045481547713 ], [ 773793.040441807359457, 8981099.940402990207076 ], [ 773793.040430692606606, 8981099.940760500729084 ], [ 773793.040419609635137, 8981099.941118013113737 ], [ 773793.040408558212221, 8981099.94147552549839 ], [ 773793.040397538454272, 8981099.941833039745688 ], [ 773793.040386550361291, 8981099.942190553992987 ], [ 773793.040375595795922, 8981099.942548068240285 ], [ 773793.040364671032876, 8981099.942905586212873 ], [ 773793.040353779797442, 8981099.943263104185462 ], [ 773793.040342920226976, 8981099.943620622158051 ], [ 773793.040332094067708, 8981099.943978141993284 ], [ 773793.040321297827177, 8981099.944335661828518 ], [ 773793.040310534997843, 8981099.944693183526397 ], [ 773793.040299801970832, 8981099.945050705224276 ], [ 773793.040289102471434, 8981099.9454082287848 ], [ 773793.040278434637003, 8981099.945765752345324 ], [ 773793.040267800330184, 8981099.946123277768493 ], [ 773793.040257195825689, 8981099.946480805054307 ], [ 773793.04024662473239, 8981099.946838332340121 ], [ 773793.040236083557829, 8981099.947195859625936 ], [ 773793.040225575794466, 8981099.947553388774395 ], [ 773793.04021509969607, 8981099.9479109197855 ], [ 773793.040204657125287, 8981099.948268450796604 ], [ 773793.040194244356826, 8981099.948625981807709 ], [ 773793.040183865115978, 8981099.948983514681458 ], [ 773793.040173515677452, 8981099.949341047555208 ], [ 773793.040163199766539, 8981099.949698582291603 ], [ 773793.040152917266823, 8981099.950056118890643 ], [ 773793.040142664685845, 8981099.950413655489683 ], [ 773793.04013244365342, 8981099.950771192088723 ], [ 773793.040122256148607, 8981099.951128730550408 ], [ 773793.040112100308761, 8981099.951486269012094 ], [ 773793.040101976133883, 8981099.951843809336424 ], [ 773793.040091883623973, 8981099.952201351523399 ], [ 773793.04008182277903, 8981099.95255889184773 ], [ 773793.040071795461699, 8981099.95291643589735 ], [ 773793.040061797946692, 8981099.953273979946971 ], [ 773793.040051833842881, 8981099.953631523996592 ], [ 773793.040041901404038, 8981099.953989069908857 ], [ 773793.040032002609223, 8981099.954346615821123 ], [ 773793.040022133500315, 8981099.954704163596034 ], [ 773793.040012296056375, 8981099.955061711370945 ], [ 773793.040002492140047, 8981099.955419261008501 ], [ 773793.039992719888687, 8981099.955776810646057 ], [ 773793.039982979302295, 8981099.956134360283613 ], [ 773793.039973270264454, 8981099.956491911783814 ], [ 773793.039963594870642, 8981099.956849465146661 ], [ 773793.039953949279152, 8981099.957207018509507 ], [ 773793.039944337098859, 8981099.957564571872354 ], [ 773793.039934756583534, 8981099.957922127097845 ], [ 773793.039925207733177, 8981099.958279684185982 ], [ 773793.039915690664202, 8981099.958637239411473 ], [ 773793.039906207006425, 8981099.958994798362255 ], [ 773793.039896753034554, 8981099.959352355450392 ], [ 773793.039887332706712, 8981099.959709916263819 ], [ 773793.039877944043837, 8981099.960067475214601 ], [ 773793.03986858704593, 8981099.960425036028028 ], [ 773793.039859261596575, 8981099.9607825987041 ], [ 773793.039849969791248, 8981099.961140161380172 ], [ 773793.039840707671829, 8981099.961497724056244 ], [ 773793.039831479080021, 8981099.961855288594961 ], [ 773793.039822282153182, 8981099.962212854996324 ], [ 773793.039813117007725, 8981099.962570419535041 ], [ 773793.03980398341082, 8981099.962927987799048 ], [ 773793.039794883225113, 8981099.963285554200411 ], [ 773793.039785812958144, 8981099.963643122464418 ], [ 773793.039776776218787, 8981099.964000692591071 ], [ 773793.039767771144398, 8981099.964358262717724 ], [ 773793.03975879761856, 8981099.964715832844377 ], [ 773793.039749857736751, 8981099.965073404833674 ], [ 773793.039740947540849, 8981099.965430976822972 ], [ 773793.03973207087256, 8981099.965788550674915 ], [ 773793.039723225985654, 8981099.966146124526858 ], [ 773793.039714412647299, 8981099.966503700241446 ], [ 773793.039705630973913, 8981099.966861275956035 ], [ 773793.039696880965494, 8981099.967218851670623 ], [ 773793.039688164484687, 8981099.967576429247856 ], [ 773793.039679479552433, 8981099.967934006825089 ], [ 773793.039670824538916, 8981099.968291586264968 ], [ 773793.039662203053012, 8981099.968649165704846 ], [ 773793.039653614978306, 8981099.969006745144725 ], [ 773793.039645056822337, 8981099.969364326447248 ], [ 773793.039636532077566, 8981099.969721907749772 ], [ 773793.039628037251532, 8981099.970079490914941 ], [ 773793.039619575836696, 8981099.97043707408011 ], [ 773793.039611146086827, 8981099.970794657245278 ], [ 773793.039602749864571, 8981099.971152242273092 ], [ 773793.039594383444637, 8981099.971509829163551 ], [ 773793.039586050552316, 8981099.971867414191365 ], [ 773793.039577747462317, 8981099.972225001081824 ], [ 773793.039569477899931, 8981099.972582589834929 ], [ 773793.039561240002513, 8981099.972940178588033 ], [ 773793.039553035516292, 8981099.973297767341137 ], [ 773793.039544860948808, 8981099.973655357956886 ], [ 773793.039536719792522, 8981099.974012948572636 ], [ 773793.039528608554974, 8981099.974370539188385 ], [ 773793.039520530728623, 8981099.97472813166678 ], [ 773793.039512486429885, 8981099.975085724145174 ], [ 773793.039504472049884, 8981099.975443318486214 ], [ 773793.039496489218436, 8981099.975800912827253 ], [ 773793.039488539914601, 8981099.976158507168293 ], [ 773793.039480622275732, 8981099.976516103371978 ], [ 773793.039472736301832, 8981099.976873699575663 ], [ 773793.039464881992899, 8981099.977231297641993 ], [ 773793.039457059348933, 8981099.977588895708323 ], [ 773793.039449270232581, 8981099.977946493774652 ], [ 773793.039441510802135, 8981099.978304093703628 ], [ 773793.039433785015717, 8981099.978661693632603 ], [ 773793.039426090777852, 8981099.979019293561578 ], [ 773793.039418428321369, 8981099.979376895353198 ], [ 773793.039410799276084, 8981099.979734497144818 ], [ 773793.039403200149536, 8981099.980092098936439 ], [ 773793.039395634434186, 8981099.980449702590704 ], [ 773793.039388100383803, 8981099.980807306244969 ], [ 773793.039380598114803, 8981099.98116491176188 ], [ 773793.039373127394356, 8981099.98152251727879 ], [ 773793.039365690201521, 8981099.981880122795701 ], [ 773793.039358282811008, 8981099.982237730175257 ], [ 773793.039350908948109, 8981099.982595337554812 ], [ 773793.039343566750176, 8981099.982952944934368 ], [ 773793.039336256217211, 8981099.983310554176569 ], [ 773793.039328977232799, 8981099.98366816341877 ], [ 773793.039321731892414, 8981099.984025772660971 ], [ 773793.039314516354352, 8981099.984383383765817 ], [ 773793.039307334343903, 8981099.984740994870663 ], [ 773793.039300183882006, 8981099.985098607838154 ], [ 773793.039293065201491, 8981099.985456220805645 ], [ 773793.039285978069529, 8981099.985813833773136 ], [ 773793.039278924581595, 8981099.986171446740627 ], [ 773793.039271900779568, 8981099.986529061570764 ], [ 773793.039264910505153, 8981099.9868866764009 ], [ 773793.039257952012122, 8981099.987244293093681 ], [ 773793.039251025067642, 8981099.987601907923818 ], [ 773793.039244129788131, 8981099.987959526479244 ], [ 773793.039237268036231, 8981099.988317143172026 ], [ 773793.0392304379493, 8981099.988674761727452 ], [ 773793.039223637664691, 8981099.989032380282879 ], [ 773793.039216870907694, 8981099.989389998838305 ], [ 773793.039210135815665, 8981099.989747619256377 ], [ 773793.039203434251249, 8981099.990105239674449 ], [ 773793.039196762489155, 8981099.990462861955166 ], [ 773793.039190124254674, 8981099.990820482373238 ], [ 773793.039183517568745, 8981099.991178104653955 ], [ 773793.039176942664199, 8981099.991535728797317 ], [ 773793.03917039942462, 8981099.991893352940679 ], [ 773793.039163887733594, 8981099.992250977084041 ], [ 773793.039157409686595, 8981099.992608601227403 ], [ 773793.039150963304564, 8981099.99296622723341 ], [ 773793.039144546608441, 8981099.993323851376772 ], [ 773793.039138163556345, 8981099.993681479245424 ], [ 773793.039131813915446, 8981099.994039105251431 ], [ 773793.03912549407687, 8981099.994396733120084 ], [ 773793.039119207882322, 8981099.994754360988736 ], [ 773793.039112951373681, 8981099.995111990720034 ], [ 773793.039106728392653, 8981099.995469618588686 ], [ 773793.039100537193008, 8981099.995827250182629 ], [ 773793.03909437940456, 8981099.996184879913926 ], [ 773793.039088251418434, 8981099.996542509645224 ], [ 773793.039082156959921, 8981099.996900141239166 ], [ 773793.039076092303731, 8981099.997257774695754 ], [ 773793.039070061175153, 8981099.997615406289697 ], [ 773793.039064061711542, 8981099.997973039746284 ], [ 773793.039058095775545, 8981099.998330673202872 ], [ 773793.039052159641869, 8981099.99868830665946 ], [ 773793.039046257035807, 8981099.999045941978693 ], [ 773793.039040384232067, 8981099.999403577297926 ], [ 773793.039034544955939, 8981099.999761212617159 ], [ 773793.039028737344779, 8981100.000118849799037 ], [ 773793.039022963261232, 8981100.000476486980915 ], [ 773793.039017218980007, 8981100.000834124162793 ], [ 773793.039011508109979, 8981100.001191761344671 ], [ 773793.039005829021335, 8981100.001549400389194 ], [ 773793.039000181597658, 8981100.001907039433718 ], [ 773793.038994565838948, 8981100.002264678478241 ], [ 773793.03898898162879, 8981100.002622317522764 ], [ 773793.038983431062661, 8981100.002979958429933 ], [ 773793.038977910182439, 8981100.003337599337101 ], [ 773793.038972422946244, 8981100.003695240244269 ], [ 773792.616199128096923, 8981127.637484872713685 ], [ 773792.616194441914558, 8981127.637791866436601 ], [ 773792.616189781925641, 8981127.638098862022161 ], [ 773792.61618514417205, 8981127.638405855745077 ], [ 773792.616180528886616, 8981127.638712851330638 ], [ 773792.616175937699154, 8981127.639019846916199 ], [ 773792.616171370842494, 8981127.639326844364405 ], [ 773792.616166828083806, 8981127.639633839949965 ], [ 773792.616162307676859, 8981127.639940835535526 ], [ 773792.616157811600715, 8981127.640247832983732 ], [ 773792.616153337759897, 8981127.640554830431938 ], [ 773792.616148889996111, 8981127.640861827880144 ], [ 773792.616144462837838, 8981127.641168827190995 ], [ 773792.616140061640181, 8981127.641475824639201 ], [ 773792.616135682794265, 8981127.641782823950052 ], [ 773792.616131328279153, 8981127.642089823260903 ], [ 773792.616126995999366, 8981127.642396822571754 ], [ 773792.616122687933967, 8981127.642703821882606 ], [ 773792.616118404082954, 8981127.643010823056102 ], [ 773792.616114142583683, 8981127.643317822366953 ], [ 773792.616109905298799, 8981127.643624823540449 ], [ 773792.616105692344718, 8981127.643931824713945 ], [ 773792.616101501625963, 8981127.644238825887442 ], [ 773792.616097335121594, 8981127.644545827060938 ], [ 773792.616093192831613, 8981127.644852830097079 ], [ 773792.616089072893374, 8981127.645159831270576 ], [ 773792.616084977169521, 8981127.645466834306717 ], [ 773792.616080905660056, 8981127.645773837342858 ], [ 773792.616076856502332, 8981127.646080840379 ], [ 773792.616072831558995, 8981127.646387845277786 ], [ 773792.6160688289674, 8981127.646694848313928 ], [ 773792.616064850590192, 8981127.647001853212714 ], [ 773792.616060896427371, 8981127.647308856248856 ], [ 773792.616056966478936, 8981127.647615861147642 ], [ 773792.616053058882244, 8981127.647922866046429 ], [ 773792.616049175499938, 8981127.64822987280786 ], [ 773792.616045314469375, 8981127.648536877706647 ], [ 773792.616041477653198, 8981127.648843884468079 ], [ 773792.616037665051408, 8981127.64915089122951 ], [ 773792.61603387480136, 8981127.649457896128297 ], [ 773792.616030108649284, 8981127.649764902889729 ], [ 773792.616026366828009, 8981127.650071911513805 ], [ 773792.616022647358477, 8981127.650378918275237 ], [ 773792.616018952103332, 8981127.650685926899314 ], [ 773792.616015281062573, 8981127.650992933660746 ], [ 773792.616011632373556, 8981127.651299942284822 ], [ 773792.616008007782511, 8981127.651606950908899 ], [ 773792.616004407522269, 8981127.651913959532976 ], [ 773792.616000829613768, 8981127.652220968157053 ], [ 773792.615997275919653, 8981127.652527978643775 ], [ 773792.615993746323511, 8981127.652834987267852 ], [ 773792.615990239195526, 8981127.653141997754574 ], [ 773792.615986756281927, 8981127.653449008241296 ], [ 773792.615983295603655, 8981127.653756018728018 ], [ 773792.615979861118831, 8981127.65406302921474 ], [ 773792.615976448985748, 8981127.654370039701462 ], [ 773792.615973059087992, 8981127.654677052050829 ], [ 773792.615969693521038, 8981127.654984062537551 ], [ 773792.615966352168471, 8981127.655291074886918 ], [ 773792.61596303305123, 8981127.655598087236285 ], [ 773792.615959740127437, 8981127.655905099585652 ], [ 773792.61595646769274, 8981127.656212111935019 ], [ 773792.61595322121866, 8981127.656519124284387 ], [ 773792.615949997212738, 8981127.656826138496399 ], [ 773792.615946795442142, 8981127.657133150845766 ], [ 773792.615943619864993, 8981127.657440165057778 ], [ 773792.61594046652317, 8981127.657747179269791 ], [ 773792.61593733751215, 8981127.658054191619158 ], [ 773792.615934230852872, 8981127.65836120583117 ], [ 773792.615931148291565, 8981127.658668221905828 ], [ 773792.615928088198416, 8981127.65897523611784 ], [ 773792.615925054065883, 8981127.659282250329852 ], [ 773792.615922042401507, 8981127.65958926640451 ], [ 773792.615919052972458, 8981127.659896282479167 ], [ 773792.615916087757796, 8981127.660203296691179 ], [ 773792.615913146873936, 8981127.660510312765837 ], [ 773792.615910230088048, 8981127.660817328840494 ], [ 773792.615907335770316, 8981127.661124344915152 ], [ 773792.615904465550557, 8981127.661431362852454 ], [ 773792.615901617798954, 8981127.661738378927112 ], [ 773792.615898796007968, 8981127.662045396864414 ], [ 773792.615895994822495, 8981127.662352412939072 ], [ 773792.615893219597638, 8981127.662659430876374 ], [ 773792.615890466724522, 8981127.662966448813677 ], [ 773792.615887738182209, 8981127.663273466750979 ], [ 773792.615885031875223, 8981127.663580484688282 ], [ 773792.615882349782623, 8981127.663887502625585 ], [ 773792.615879692020826, 8981127.664194520562887 ], [ 773792.615877056494355, 8981127.66450153850019 ], [ 773792.615874445298687, 8981127.664808558300138 ], [ 773792.61587185820099, 8981127.665115578100085 ], [ 773792.615869293455034, 8981127.665422596037388 ], [ 773792.615866753039882, 8981127.665729615837336 ], [ 773792.6158642367227, 8981127.666036635637283 ], [ 773792.615861742757261, 8981127.666343655437231 ], [ 773792.615859273006208, 8981127.666650675237179 ], [ 773792.615856827585958, 8981127.666957695037127 ], [ 773792.615854404401034, 8981127.667264716699719 ], [ 773792.615852005430497, 8981127.667571736499667 ], [ 773792.615849628928117, 8981127.66787875816226 ], [ 773792.615847278386354, 8981127.668185777962208 ], [ 773792.615844948333688, 8981127.668492799624801 ], [ 773792.615842644358054, 8981127.668799821287394 ], [ 773792.615840362850577, 8981127.669106842949986 ], [ 773792.615838105441071, 8981127.669413864612579 ], [ 773792.615835870383307, 8981127.669720886275172 ], [ 773792.615833659539931, 8981127.670027907937765 ], [ 773792.615831473027356, 8981127.670334929600358 ], [ 773792.615829310612753, 8981127.670641953125596 ], [ 773792.615827170549892, 8981127.670948974788189 ], [ 773792.615825052838773, 8981127.671255998313427 ], [ 773792.615822961321101, 8981127.67156301997602 ], [ 773792.615820892038755, 8981127.671870043501258 ], [ 773792.615818846970797, 8981127.672177067026496 ], [ 773792.61581682425458, 8981127.672484090551734 ], [ 773792.61581482575275, 8981127.672791114076972 ], [ 773792.615812849719077, 8981127.67309813760221 ], [ 773792.615810899646021, 8981127.673405161127448 ], [ 773792.615808971924707, 8981127.673712184652686 ], [ 773792.615807066555135, 8981127.674019208177924 ], [ 773792.615805187262595, 8981127.674326233565807 ], [ 773792.615803328459151, 8981127.674633257091045 ], [ 773792.615801495849155, 8981127.674940282478929 ], [ 773792.615799685474485, 8981127.675247306004167 ], [ 773792.615797899314202, 8981127.67555433139205 ], [ 773792.615796137368307, 8981127.675861356779933 ], [ 773792.615794397774152, 8981127.676168382167816 ], [ 773792.61579268053174, 8981127.676475407555699 ], [ 773792.615790989482775, 8981127.676782431080937 ], [ 773792.615789320669137, 8981127.677089458331466 ], [ 773792.615787676069885, 8981127.677396483719349 ], [ 773792.615786053822376, 8981127.677703509107232 ], [ 773792.615784455789253, 8981127.678010534495115 ], [ 773792.615782881970517, 8981127.678317559882998 ], [ 773792.615781330619939, 8981127.678624587133527 ], [ 773792.615779803367332, 8981127.67893161252141 ], [ 773792.615778300329112, 8981127.679238639771938 ], [ 773792.615776819642633, 8981127.679545665159822 ], [ 773792.615775363170542, 8981127.67985269241035 ], [ 773792.615773930912837, 8981127.680159717798233 ], [ 773792.615772521006875, 8981127.680466745048761 ], [ 773792.615771135431714, 8981127.68077377229929 ], [ 773792.615769773954526, 8981127.681080799549818 ], [ 773792.615768434829079, 8981127.681387826800346 ], [ 773792.615767119918019, 8981127.681694854050875 ], [ 773792.615765829221345, 8981127.682001881301403 ], [ 773792.615764560876414, 8981127.682308908551931 ], [ 773792.61576331674587, 8981127.68261593580246 ], [ 773792.615762095083483, 8981127.682922963052988 ], [ 773792.615760897519067, 8981127.683229990303516 ], [ 773792.615759724169038, 8981127.683537017554045 ], [ 773792.615758575033396, 8981127.683844046667218 ], [ 773792.615757448249497, 8981127.684151073917747 ], [ 773792.615756345679983, 8981127.684458101168275 ], [ 773792.615755265462212, 8981127.684765130281448 ], [ 773792.615754209575243, 8981127.685072157531977 ], [ 773792.615753177786246, 8981127.68537918664515 ], [ 773792.61575216834899, 8981127.685686213895679 ], [ 773792.615751183126122, 8981127.685993243008852 ], [ 773792.61575022211764, 8981127.686300272122025 ], [ 773792.6157492834609, 8981127.686607299372554 ], [ 773792.615748369018547, 8981127.686914328485727 ], [ 773792.615747478906997, 8981127.687221357598901 ], [ 773792.615746611030772, 8981127.687528386712074 ], [ 773792.615745767368935, 8981127.687835415825248 ], [ 773792.615744947921485, 8981127.688142443075776 ], [ 773792.615744150825776, 8981127.68844947218895 ], [ 773792.615743377944455, 8981127.688756501302123 ], [ 773792.61574262753129, 8981127.689063530415297 ], [ 773792.615741903078742, 8981127.68937055952847 ], [ 773792.615741199115291, 8981127.689677588641644 ], [ 773792.615740521228872, 8981127.689984617754817 ], [ 773792.615739865694195, 8981127.69029164686799 ], [ 773792.61573923449032, 8981127.690598677843809 ], [ 773792.615738625521772, 8981127.690905706956983 ], [ 773792.61573804076761, 8981127.691212736070156 ], [ 773792.615737480227835, 8981127.69151976518333 ], [ 773792.615736943902448, 8981127.691826794296503 ], [ 773792.615736430045217, 8981127.692133823409677 ], [ 773792.615735938423313, 8981127.692440854385495 ], [ 773792.615735472878441, 8981127.692747883498669 ], [ 773792.577090762904845, 8981153.775809340178967 ], [ 773792.577090400387533, 8981153.776059009134769 ], [ 773792.577090054634027, 8981153.776308678090572 ], [ 773792.577089723781683, 8981153.776558347046375 ], [ 773792.577089407830499, 8981153.776808016002178 ], [ 773792.577089108759537, 8981153.777057686820626 ], [ 773792.577088824473321, 8981153.777307355776429 ], [ 773792.577088555088267, 8981153.777557024732232 ], [ 773792.577088302467018, 8981153.777806693688035 ], [ 773792.577088064746931, 8981153.778056362643838 ], [ 773792.57708784379065, 8981153.778306033462286 ], [ 773792.577087635872886, 8981153.778555702418089 ], [ 773792.577087446581572, 8981153.778805371373892 ], [ 773792.577087270328775, 8981153.779055040329695 ], [ 773792.577087110956199, 8981153.779304709285498 ], [ 773792.577086968231015, 8981153.779554380103946 ], [ 773792.577086838544346, 8981153.779804049059749 ], [ 773792.577086725621484, 8981153.780053718015552 ], [ 773792.577086629462428, 8981153.780303386971354 ], [ 773792.577086548204534, 8981153.780553057789803 ], [ 773792.5770864818478, 8981153.780802726745605 ], [ 773792.577086430392228, 8981153.781052395701408 ], [ 773792.577086395816877, 8981153.781302064657211 ], [ 773792.577086376026273, 8981153.781551733613014 ], [ 773792.577086372999474, 8981153.781801404431462 ], [ 773792.577086384873837, 8981153.782051073387265 ], [ 773792.577086411649361, 8981153.782300742343068 ], [ 773792.577086455188692, 8981153.782550411298871 ], [ 773792.577086513629183, 8981153.782800082117319 ], [ 773792.577086588949896, 8981153.783049751073122 ], [ 773792.577086679055355, 8981153.783299420028925 ], [ 773792.577086784061976, 8981153.783549088984728 ], [ 773792.577086903969757, 8981153.783798759803176 ], [ 773792.577087040641345, 8981153.784048428758979 ], [ 773792.577087194076739, 8981153.784298097714782 ], [ 773792.577087360550649, 8981153.784547766670585 ], [ 773792.577087543904781, 8981153.784797437489033 ], [ 773792.577087743906304, 8981153.785047106444836 ], [ 773792.577087956946343, 8981153.785296775400639 ], [ 773792.577088188612834, 8981153.785546444356441 ], [ 773792.57708843331784, 8981153.785796113312244 ], [ 773792.577088694786653, 8981153.786045782268047 ], [ 773792.577088971156627, 8981153.786295453086495 ], [ 773792.577089264406823, 8981153.786545122042298 ], [ 773792.577089572441764, 8981153.786794790998101 ], [ 773792.577089895377867, 8981153.787044459953904 ], [ 773792.577090235077776, 8981153.787294128909707 ], [ 773792.577090589678846, 8981153.78754379786551 ], [ 773792.577090959181078, 8981153.787793466821313 ], [ 773792.577091345563531, 8981153.788043137639761 ], [ 773792.57709174673073, 8981153.788292806595564 ], [ 773792.577092164661735, 8981153.788542475551367 ], [ 773792.577092597493902, 8981153.78879214450717 ], [ 773792.57709304522723, 8981153.789041813462973 ], [ 773792.577093507861719, 8981153.789291482418776 ], [ 773792.577093987260014, 8981153.789541151374578 ], [ 773792.577094483538531, 8981153.789790820330381 ], [ 773792.577094994601794, 8981153.790040489286184 ], [ 773792.577095520566218, 8981153.790290158241987 ], [ 773792.577096061431803, 8981153.79053982719779 ], [ 773792.577096619061194, 8981153.790789494290948 ], [ 773792.577097191591747, 8981153.791039163246751 ], [ 773792.577097781002522, 8981153.791288832202554 ], [ 773792.577098385198042, 8981153.791538501158357 ], [ 773792.577099004294723, 8981153.79178817011416 ], [ 773792.577099640155211, 8981153.792037839069963 ], [ 773792.57710029091686, 8981153.792287508025765 ], [ 773792.57710095657967, 8981153.792537175118923 ], [ 773792.577101639006287, 8981153.792786844074726 ], [ 773792.57710233645048, 8981153.793036513030529 ], [ 773792.577103048679419, 8981153.793286180123687 ], [ 773792.577103777672164, 8981153.79353584907949 ], [ 773792.577104521566071, 8981153.793785518035293 ], [ 773792.577105282223783, 8981153.79403518512845 ], [ 773792.577106057782657, 8981153.794284854084253 ], [ 773792.577106848242693, 8981153.794534523040056 ], [ 773792.57710765558295, 8981153.794784190133214 ], [ 773792.577108477707952, 8981153.795033859089017 ], [ 773792.577109314734116, 8981153.795283526182175 ], [ 773792.577110168524086, 8981153.795533195137978 ], [ 773792.577111037215218, 8981153.795782862231135 ], [ 773792.577111922670156, 8981153.796032529324293 ], [ 773792.57711282314267, 8981153.796282198280096 ], [ 773792.57711373839993, 8981153.796531865373254 ], [ 773792.577114670420997, 8981153.796781532466412 ], [ 773792.577115617343225, 8981153.797031201422215 ], [ 773792.577116579166614, 8981153.797280868515372 ], [ 773792.577117557753809, 8981153.79753053560853 ], [ 773792.577118551242165, 8981153.797780202701688 ], [ 773792.577119559748098, 8981153.798029871657491 ], [ 773792.577120584901422, 8981153.798279538750648 ], [ 773792.577121624955907, 8981153.798529205843806 ], [ 773792.577122681774199, 8981153.798778872936964 ], [ 773792.577123753493652, 8981153.799028540030122 ], [ 773792.577124840114266, 8981153.79927820712328 ], [ 773792.577125943498686, 8981153.799527874216437 ], [ 773792.577127061784267, 8981153.799777541309595 ], [ 773792.577128195087425, 8981153.800027206540108 ], [ 773792.577129345037974, 8981153.800276873633265 ], [ 773792.577130509889685, 8981153.800526540726423 ], [ 773792.577131689642556, 8981153.800776207819581 ], [ 773792.577132886159234, 8981153.801025874912739 ], [ 773792.577134097577073, 8981153.801275540143251 ], [ 773792.577135325758718, 8981153.801525207236409 ], [ 773792.577136568841524, 8981153.801774872466922 ], [ 773792.577137826941907, 8981153.80202453956008 ], [ 773792.577139101689681, 8981153.802274204790592 ], [ 773792.577140391338617, 8981153.80252387188375 ], [ 773792.577141695888713, 8981153.802773537114263 ], [ 773792.577143017202616, 8981153.80302320420742 ], [ 773792.57714435341768, 8981153.803272869437933 ], [ 773792.57714570639655, 8981153.803522534668446 ], [ 773792.577147074276581, 8981153.803772201761603 ], [ 773792.577148457057774, 8981153.804021866992116 ], [ 773792.577149856602773, 8981153.804271532222629 ], [ 773792.577151271165349, 8981153.804521197453141 ], [ 773792.57715270051267, 8981153.804770862683654 ], [ 773792.577154146623798, 8981153.805020527914166 ], [ 773792.577155607636087, 8981153.805270193144679 ], [ 773792.577157083549537, 8981153.805519858375192 ], [ 773792.577158576226793, 8981153.805769523605704 ], [ 773792.577160083805211, 8981153.806019186973572 ], [ 773792.577161608147435, 8981153.806268852204084 ], [ 773792.57716314739082, 8981153.806518517434597 ], [ 773792.577164701535366, 8981153.80676818266511 ], [ 773792.577166270581074, 8981153.807017846032977 ], [ 773792.577167856507003, 8981153.80726751126349 ], [ 773792.577169459080324, 8981153.807517174631357 ], [ 773792.577171076554805, 8981153.80776683986187 ], [ 773792.577172708930448, 8981153.808016503229737 ], [ 773792.577174356207252, 8981153.808266166597605 ], [ 773792.577176020247862, 8981153.808515831828117 ], [ 773792.577177699189633, 8981153.808765495195985 ], [ 773792.577179394895211, 8981153.809015158563852 ], [ 773792.57718110550195, 8981153.80926482193172 ], [ 773792.57718283100985, 8981153.809514485299587 ], [ 773792.577184573281556, 8981153.809764148667455 ], [ 773792.577186330454424, 8981153.810013812035322 ], [ 773792.577188102528453, 8981153.81026347540319 ], [ 773792.577189891366288, 8981153.810513138771057 ], [ 773792.577191695105284, 8981153.810762802138925 ], [ 773792.577193515608087, 8981153.811012463644147 ], [ 773792.577195349149406, 8981153.811262127012014 ], [ 773792.577197201317176, 8981153.811511788517237 ], [ 773792.577199066523463, 8981153.811761451885104 ], [ 773792.577200948493555, 8981153.812011113390326 ], [ 773792.577202847227454, 8981153.812260776758194 ], [ 773792.577204758999869, 8981153.812510438263416 ], [ 773792.577206687536091, 8981153.812760099768639 ], [ 773792.577208632836118, 8981153.813009761273861 ], [ 773792.577210593037307, 8981153.813259424641728 ], [ 773792.577212568139657, 8981153.813509086146951 ], [ 773792.577214558143169, 8981153.813758747652173 ], [ 773792.577216564910486, 8981153.814008409157395 ], [ 773792.577218586578965, 8981153.814258068799973 ], [ 773792.57722062501125, 8981153.814507730305195 ], [ 773792.577222678344697, 8981153.814757391810417 ], [ 773792.577224746579304, 8981153.815007051452994 ], [ 773792.577226831577718, 8981153.815256712958217 ], [ 773792.577228931477293, 8981153.815506374463439 ], [ 773792.577231048140675, 8981153.815756034106016 ], [ 773792.577233179705217, 8981153.816005693748593 ], [ 773792.577235326170921, 8981153.816255355253816 ], [ 773792.577237487537786, 8981153.816505014896393 ], [ 773792.577239665668458, 8981153.81675467453897 ], [ 773792.577241860562935, 8981153.817004334181547 ], [ 773792.577244068495929, 8981153.817253993824124 ], [ 773792.577246293192729, 8981153.817503653466702 ], [ 773792.577248534653336, 8981153.817753313109279 ], [ 773792.577250789152458, 8981153.818002972751856 ], [ 773792.577253062278032, 8981153.818252630531788 ], [ 773792.577255348442122, 8981153.818502290174365 ], [ 773792.577257651370019, 8981153.818751947954297 ], [ 773792.577259969199076, 8981153.819001607596874 ], [ 773792.57726230379194, 8981153.819251265376806 ], [ 773792.57726465316955, 8981153.819500925019383 ], [ 773792.577267017564736, 8981153.819750582799315 ], [ 773792.577269398723729, 8981153.820000240579247 ], [ 773792.577271794783883, 8981153.820249898359179 ], [ 773792.577274205745198, 8981153.820499556139112 ], [ 773792.577276633470319, 8981153.820749213919044 ], [ 773792.81575282884296, 8981178.270237974822521 ], [ 773792.815754613489844, 8981178.270420586690307 ], [ 773792.815756407333538, 8981178.270603196695447 ], [ 773792.815758210606873, 8981178.270785808563232 ], [ 773792.815760019468144, 8981178.270968418568373 ], [ 773792.81576183938887, 8981178.271151028573513 ], [ 773792.815763665013947, 8981178.271333640441298 ], [ 773792.815765501814894, 8981178.271516250446439 ], [ 773792.815767344087362, 8981178.271698860451579 ], [ 773792.815769197652116, 8981178.271881472319365 ], [ 773792.815771056804806, 8981178.272064082324505 ], [ 773792.815772925154306, 8981178.272246692329645 ], [ 773792.815774802933447, 8981178.272429302334785 ], [ 773792.815776688163169, 8981178.272611912339926 ], [ 773792.815778582589701, 8981178.272794522345066 ], [ 773792.815780484583229, 8981178.272977132350206 ], [ 773792.815782394027337, 8981178.273159742355347 ], [ 773792.815784312668256, 8981178.273342352360487 ], [ 773792.815786240738817, 8981178.273524960502982 ], [ 773792.815788176259957, 8981178.273707570508122 ], [ 773792.815790119115263, 8981178.273890180513263 ], [ 773792.81579207140021, 8981178.274072790518403 ], [ 773792.815794031019323, 8981178.274255398660898 ], [ 773792.815796000068076, 8981178.274438008666039 ], [ 773792.815797978430055, 8981178.274620616808534 ], [ 773792.815799962263554, 8981178.274803226813674 ], [ 773792.81580195738934, 8981178.274985834956169 ], [ 773792.815803959849291, 8981178.275168443098664 ], [ 773792.815805969876237, 8981178.275351053103805 ], [ 773792.815807987353764, 8981178.2755336612463 ], [ 773792.815810015890747, 8981178.275716269388795 ], [ 773792.815812050132081, 8981178.27589887753129 ], [ 773792.815814093570225, 8981178.27608148753643 ], [ 773792.81581614643801, 8981178.276264095678926 ], [ 773792.815818206756376, 8981178.276446703821421 ], [ 773792.815820276271552, 8981178.276629311963916 ], [ 773792.815822353353724, 8981178.276811920106411 ], [ 773792.815824437770061, 8981178.276994526386261 ], [ 773792.81582653161604, 8981178.277177134528756 ], [ 773792.815828634658828, 8981178.277359742671251 ], [ 773792.815830745268613, 8981178.277542350813746 ], [ 773792.815832863212563, 8981178.277724957093596 ], [ 773792.815834990586154, 8981178.277907565236092 ], [ 773792.815837125410326, 8981178.278090171515942 ], [ 773792.815839269431308, 8981178.278272779658437 ], [ 773792.815841422881931, 8981178.278455385938287 ], [ 773792.815843581804074, 8981178.278637994080782 ], [ 773792.815845752018504, 8981178.278820600360632 ], [ 773792.815847929567099, 8981178.279003206640482 ], [ 773792.815850114682689, 8981178.279185814782977 ], [ 773792.815852307132445, 8981178.279368421062827 ], [ 773792.815854510874487, 8981178.279551027342677 ], [ 773792.81585672008805, 8981178.279733633622527 ], [ 773792.815858938731253, 8981178.279916239902377 ], [ 773792.815861166571267, 8981178.280098846182227 ], [ 773792.815863401978277, 8981178.280281452462077 ], [ 773792.815865646582097, 8981178.280464058741927 ], [ 773792.815867898636498, 8981178.280646665021777 ], [ 773792.815870158257894, 8981178.280829269438982 ], [ 773792.815872427076101, 8981178.281011875718832 ], [ 773792.815874705323949, 8981178.281194481998682 ], [ 773792.815876990905963, 8981178.281377086415887 ], [ 773792.815879284054972, 8981178.281559692695737 ], [ 773792.815881586400792, 8981178.281742297112942 ], [ 773792.815883898176253, 8981178.281924903392792 ], [ 773792.815886215423234, 8981178.282107507809997 ], [ 773792.815888543846086, 8981178.282290112227201 ], [ 773792.815890879835933, 8981178.282472718507051 ], [ 773792.815893223159947, 8981178.282655322924256 ], [ 773792.815895575913601, 8981178.282837927341461 ], [ 773792.81589793600142, 8981178.283020531758666 ], [ 773792.815900305402465, 8981178.283203136175871 ], [ 773792.815902682370506, 8981178.283385740593076 ], [ 773792.815905066672713, 8981178.283568345010281 ], [ 773792.81590746215079, 8981178.283750949427485 ], [ 773792.815909863333218, 8981178.283933551982045 ], [ 773792.815912273712456, 8981178.28411615639925 ], [ 773792.81591469340492, 8981178.284298760816455 ], [ 773792.81591712066438, 8981178.284481363371015 ], [ 773792.815919555258006, 8981178.284663967788219 ], [ 773792.815921999164857, 8981178.284846570342779 ], [ 773792.815924452501349, 8981178.285029174759984 ], [ 773792.815926913172007, 8981178.285211777314544 ], [ 773792.815929381293245, 8981178.285394379869103 ], [ 773792.815931858844124, 8981178.285576984286308 ], [ 773792.815934345591813, 8981178.285759586840868 ], [ 773792.815936837927438, 8981178.285942189395428 ], [ 773792.81593934155535, 8981178.286124791949987 ], [ 773792.815941852517426, 8981178.286307394504547 ], [ 773792.815944370930083, 8981178.286489997059107 ], [ 773792.815946898655966, 8981178.286672599613667 ], [ 773792.815949433948845, 8981178.286855202168226 ], [ 773792.815951978438534, 8981178.287037802860141 ], [ 773792.815954530378804, 8981178.287220405414701 ], [ 773792.815957089769654, 8981178.28740300796926 ], [ 773792.815959660452791, 8981178.287585608661175 ], [ 773792.815962236607447, 8981178.287768211215734 ], [ 773792.81596482207533, 8981178.287950811907649 ], [ 773792.815967416856438, 8981178.288133414462209 ], [ 773792.815970019088127, 8981178.288316015154123 ], [ 773792.815972628886811, 8981178.288498615846038 ], [ 773792.815975247882307, 8981178.288681216537952 ], [ 773792.815977876191027, 8981178.288863817229867 ], [ 773792.815980511950329, 8981178.289046417921782 ], [ 773792.815983155160211, 8981178.289229018613696 ], [ 773792.815985807683319, 8981178.289411619305611 ], [ 773792.815988469636068, 8981178.289594219997525 ], [ 773792.815991137060337, 8981178.28977682068944 ], [ 773792.815993815660477, 8981178.289959421381354 ], [ 773792.815996501711197, 8981178.290142020210624 ], [ 773792.815999195212498, 8981178.290324620902538 ], [ 773792.816001898027025, 8981178.290507219731808 ], [ 773792.816004608292133, 8981178.290689820423722 ], [ 773792.816007327870466, 8981178.290872419252992 ], [ 773792.81601005489938, 8981178.291055019944906 ], [ 773792.816012789378874, 8981178.291237618774176 ], [ 773792.816015535150655, 8981178.291420217603445 ], [ 773792.816018286393955, 8981178.291602816432714 ], [ 773792.816021046950482, 8981178.291785415261984 ], [ 773792.816023816820234, 8981178.291968014091253 ], [ 773792.816026594140567, 8981178.292150612920523 ], [ 773792.81602937891148, 8981178.292333211749792 ], [ 773792.816032172995619, 8981178.292515810579062 ], [ 773792.816034976392984, 8981178.292698407545686 ], [ 773792.81603778724093, 8981178.292881006374955 ], [ 773792.816040605539456, 8981178.293063605204225 ], [ 773792.816043433151208, 8981178.293246202170849 ], [ 773792.81604626821354, 8981178.293428801000118 ], [ 773792.816049112589099, 8981178.293611397966743 ], [ 773792.816051966277882, 8981178.293793994933367 ], [ 773792.816054825554602, 8981178.293976591899991 ], [ 773792.816057696007192, 8981178.29415919072926 ], [ 773792.816060573793948, 8981178.294341787695885 ], [ 773792.816063459147699, 8981178.294524384662509 ], [ 773792.816066351952031, 8981178.294706981629133 ], [ 773792.816069255932234, 8981178.294889578595757 ], [ 773792.816072165500373, 8981178.295072173699737 ], [ 773792.816075084381737, 8981178.295254770666361 ], [ 773792.816078012576327, 8981178.295437367632985 ], [ 773792.816080948221497, 8981178.295619962736964 ], [ 773792.816083893179893, 8981178.295802559703588 ], [ 773792.816086845472455, 8981178.295985154807568 ], [ 773792.816089805332012, 8981178.296167751774192 ], [ 773792.816092774504796, 8981178.296350346878171 ], [ 773792.816095752990805, 8981178.29653294198215 ], [ 773792.816098738927394, 8981178.296715537086129 ], [ 773792.816101732314564, 8981178.296898132190108 ], [ 773792.816104734898545, 8981178.297080727294087 ], [ 773792.816107745049521, 8981178.297263322398067 ], [ 773792.816110764513724, 8981178.297445917502046 ], [ 773792.816113793291152, 8981178.297628512606025 ], [ 773792.8161168275401, 8981178.297811107710004 ], [ 773792.816119873081334, 8981178.297993700951338 ], [ 773792.816122926073149, 8981178.298176296055317 ], [ 773792.816125986515544, 8981178.298358889296651 ], [ 773792.816129054292105, 8981178.29854148440063 ], [ 773792.816132133360952, 8981178.298724077641964 ], [ 773792.816135218017735, 8981178.298906670883298 ], [ 773792.816138311871327, 8981178.299089265987277 ], [ 773792.816141415154561, 8981178.299271859228611 ], [ 773792.816144525888376, 8981178.299454452469945 ], [ 773792.816147645819001, 8981178.299637045711279 ], [ 773792.816150773316622, 8981178.299819638952613 ], [ 773792.816153908264823, 8981178.300002230331302 ], [ 773792.816157052409835, 8981178.300184823572636 ], [ 773792.816160205984488, 8981178.30036741681397 ], [ 773792.816163367009722, 8981178.300550008192658 ], [ 773792.816166535369121, 8981178.300732601433992 ], [ 773792.81616971315816, 8981178.300915192812681 ], [ 773792.816172898281366, 8981178.30109778419137 ], [ 773792.816176092834212, 8981178.301280377432704 ], [ 773792.816179296583869, 8981178.301462968811393 ], [ 773792.816182506037876, 8981178.301645560190082 ], [ 773792.816185726667754, 8981178.30182815156877 ], [ 773792.816188952769153, 8981178.302010742947459 ], [ 773792.816192190162838, 8981178.302193334326148 ], [ 773792.816195433028042, 8981178.302375925704837 ], [ 773792.816198687185533, 8981178.302558515220881 ], [ 773792.816201946814544, 8981178.302741106599569 ], [ 773792.816205215873197, 8981178.302923697978258 ], [ 773792.816208494128659, 8981178.303106287494302 ], [ 773793.224797915201634, 8981201.036177836358547 ], [ 773793.22479973686859, 8981201.03627909719944 ], [ 773793.224801560398191, 8981201.036380358040333 ], [ 773793.224803387653083, 8981201.03648161701858 ], [ 773793.224805216770619, 8981201.036582877859473 ], [ 773793.224807047750801, 8981201.036684138700366 ], [ 773793.224808882456273, 8981201.036785399541259 ], [ 773793.22481071902439, 8981201.036886658519506 ], [ 773793.224812557455152, 8981201.036987919360399 ], [ 773793.224814399611205, 8981201.037089180201292 ], [ 773793.224816243629903, 8981201.03719043917954 ], [ 773793.224818091373891, 8981201.037291700020432 ], [ 773793.224819940980524, 8981201.03739295899868 ], [ 773793.224821792449802, 8981201.037494219839573 ], [ 773793.224823647644371, 8981201.037595478817821 ], [ 773793.224825504701585, 8981201.037696739658713 ], [ 773793.224827363621444, 8981201.037797998636961 ], [ 773793.224829226266593, 8981201.037899259477854 ], [ 773793.224831090774387, 8981201.038000518456101 ], [ 773793.224832959007472, 8981201.038101777434349 ], [ 773793.224834829103202, 8981201.038203038275242 ], [ 773793.224836701061577, 8981201.038304297253489 ], [ 773793.224838576745242, 8981201.038405556231737 ], [ 773793.224840454291552, 8981201.03850681707263 ], [ 773793.224842333584093, 8981201.038608076050878 ], [ 773793.224844216718338, 8981201.038709335029125 ], [ 773793.224846101715229, 8981201.038810594007373 ], [ 773793.224847990437411, 8981201.03891185298562 ], [ 773793.224849881022237, 8981201.039013113826513 ], [ 773793.224851773469709, 8981201.039114372804761 ], [ 773793.224853669642471, 8981201.039215631783009 ], [ 773793.224855567677878, 8981201.039316890761256 ], [ 773793.22485746757593, 8981201.039418149739504 ], [ 773793.224859371199273, 8981201.039519408717752 ], [ 773793.22486127668526, 8981201.039620667695999 ], [ 773793.224863185780123, 8981201.039721926674247 ], [ 773793.224865096854046, 8981201.039823185652494 ], [ 773793.224867009790614, 8981201.039924444630742 ], [ 773793.224868926452473, 8981201.04002570360899 ], [ 773793.224870844976977, 8981201.040126962587237 ], [ 773793.224872767226771, 8981201.04022821970284 ], [ 773793.224874689476565, 8981201.040329478681087 ], [ 773793.224876617314294, 8981201.040430737659335 ], [ 773793.224878545152023, 8981201.040531996637583 ], [ 773793.224880476598628, 8981201.040633253753185 ], [ 773793.224882411886938, 8981201.040734512731433 ], [ 773793.224884347175248, 8981201.040835771709681 ], [ 773793.224886286188848, 8981201.040937028825283 ], [ 773793.224888228927739, 8981201.041038287803531 ], [ 773793.224890173529275, 8981201.041139546781778 ], [ 773793.22489211987704, 8981201.041240803897381 ], [ 773793.224894070066512, 8981201.041342062875628 ], [ 773793.224896022118628, 8981201.041443319991231 ], [ 773793.22489797603339, 8981201.041544578969479 ], [ 773793.224899933673441, 8981201.041645836085081 ], [ 773793.224901893176138, 8981201.041747095063329 ], [ 773793.224903854425065, 8981201.041848352178931 ], [ 773793.224905819515698, 8981201.041949609294534 ], [ 773793.22490778833162, 8981201.042050868272781 ], [ 773793.224909757147543, 8981201.042152125388384 ], [ 773793.224911729688756, 8981201.042253382503986 ], [ 773793.224913705838844, 8981201.042354641482234 ], [ 773793.224915682105348, 8981201.042455898597836 ], [ 773793.224917663959786, 8981201.042557155713439 ], [ 773793.224919645814225, 8981201.042658412829041 ], [ 773793.224921631277539, 8981201.042759671807289 ], [ 773793.224923618719913, 8981201.042860928922892 ], [ 773793.224925609887578, 8981201.042962186038494 ], [ 773793.224927602917887, 8981201.043063443154097 ], [ 773793.224929597694427, 8981201.043164700269699 ], [ 773793.224931596312672, 8981201.043265957385302 ], [ 773793.224933596793562, 8981201.043367214500904 ], [ 773793.224935600999743, 8981201.043468471616507 ], [ 773793.224937606952153, 8981201.043569728732109 ], [ 773793.224939614883624, 8981201.043670985847712 ], [ 773793.224941626540385, 8981201.043772242963314 ], [ 773793.224943640059792, 8981201.043873500078917 ], [ 773793.224945655325428, 8981201.043974755331874 ], [ 773793.224947674432769, 8981201.044076012447476 ], [ 773793.224949695402756, 8981201.044177269563079 ], [ 773793.224951719981618, 8981201.044278526678681 ], [ 773793.224953744676895, 8981201.044379783794284 ], [ 773793.224955774960108, 8981201.044481039047241 ], [ 773793.224957805243321, 8981201.044582296162844 ], [ 773793.224959840998054, 8981201.044683553278446 ], [ 773793.224961876869202, 8981201.044784808531404 ], [ 773793.22496391646564, 8981201.044886065647006 ], [ 773793.224965957808308, 8981201.044987320899963 ], [ 773793.224968001130037, 8981201.045088578015566 ], [ 773793.224970048177056, 8981201.045189833268523 ], [ 773793.22497209883295, 8981201.045291090384126 ], [ 773793.224974149605259, 8981201.045392345637083 ], [ 773793.224976204102859, 8981201.045493602752686 ], [ 773793.224978262209333, 8981201.045594858005643 ], [ 773793.224980322294869, 8981201.045696115121245 ], [ 773793.224982384243049, 8981201.045797370374203 ], [ 773793.224984449800104, 8981201.04589862562716 ], [ 773793.224986515473574, 8981201.045999882742763 ], [ 773793.224988586618565, 8981201.04610113799572 ], [ 773793.224990657879971, 8981201.046202393248677 ], [ 773793.224992734729312, 8981201.046303648501635 ], [ 773793.224994811462238, 8981201.046404903754592 ], [ 773793.22499689203687, 8981201.046506159007549 ], [ 773793.224998974357732, 8981201.046607416123152 ], [ 773793.225001060520299, 8981201.046708671376109 ], [ 773793.225003148545511, 8981201.046809926629066 ], [ 773793.225005238316953, 8981201.046911181882024 ], [ 773793.225007331930101, 8981201.047012437134981 ], [ 773793.225009427289478, 8981201.047113692387938 ], [ 773793.225011524627917, 8981201.047214947640896 ], [ 773793.225013625691645, 8981201.047316202893853 ], [ 773793.225015728501603, 8981201.047417458146811 ], [ 773793.225017835153267, 8981201.047518711537123 ], [ 773793.22501994355116, 8981201.04761996679008 ], [ 773793.225022053928114, 8981201.047721222043037 ], [ 773793.225024167913944, 8981201.047822477295995 ], [ 773793.225026283878833, 8981201.047923732548952 ], [ 773793.225028403452598, 8981201.048024985939264 ], [ 773793.225030523142777, 8981201.048126241192222 ], [ 773793.225032648304477, 8981201.048227496445179 ], [ 773793.225034773582593, 8981201.048328749835491 ], [ 773793.225036902585998, 8981201.048430005088449 ], [ 773793.225039035198279, 8981201.048531258478761 ], [ 773793.225041167926975, 8981201.048632513731718 ], [ 773793.225043304264545, 8981201.048733768984675 ], [ 773793.225045444443822, 8981201.048835022374988 ], [ 773793.225047586369328, 8981201.0489362757653 ], [ 773793.225049730273895, 8981201.049037531018257 ], [ 773793.225051877787337, 8981201.049138784408569 ], [ 773793.225054027163424, 8981201.049240039661527 ], [ 773793.225056178518571, 8981201.049341293051839 ], [ 773793.225058333482593, 8981201.049442546442151 ], [ 773793.225060490425676, 8981201.049543801695108 ], [ 773793.225062649114989, 8981201.049645055085421 ], [ 773793.225064811646007, 8981201.049746308475733 ], [ 773793.2250669777859, 8981201.049847561866045 ], [ 773793.225069144042209, 8981201.049948815256357 ], [ 773793.225071313907392, 8981201.050050070509315 ], [ 773793.225073487614281, 8981201.050151323899627 ], [ 773793.225075661204755, 8981201.050252577289939 ], [ 773793.225077840383165, 8981201.050353830680251 ], [ 773793.225080019677989, 8981201.050455084070563 ], [ 773793.225082202581689, 8981201.050556337460876 ], [ 773793.225084387464449, 8981201.050657590851188 ], [ 773793.225086575956084, 8981201.0507588442415 ], [ 773793.225088766310364, 8981201.050860097631812 ], [ 773793.225090958643705, 8981201.050961349159479 ], [ 773793.22509315458592, 8981201.051062602549791 ], [ 773793.225095352507196, 8981201.051163855940104 ], [ 773793.225097554037347, 8981201.051265109330416 ], [ 773793.225099757430144, 8981201.051366362720728 ], [ 773793.225101962802, 8981201.051467614248395 ], [ 773793.225104171782732, 8981201.051568867638707 ], [ 773793.225106382626109, 8981201.051670121029019 ], [ 773793.225108595448546, 8981201.051771372556686 ], [ 773793.225110811879858, 8981201.051872625946999 ], [ 773793.225113030173816, 8981201.051973877474666 ], [ 773793.225115252309479, 8981201.052075130864978 ], [ 773793.225117476191372, 8981201.05217638425529 ], [ 773793.22511970193591, 8981201.052277635782957 ], [ 773793.225121931522153, 8981201.052378887310624 ], [ 773793.225124162854627, 8981201.052480140700936 ], [ 773793.225126396049745, 8981201.052581392228603 ], [ 773793.22512863308657, 8981201.052682645618916 ], [ 773793.225130871869624, 8981201.052783897146583 ], [ 773793.225133114377968, 8981201.05288514867425 ], [ 773793.225135358865373, 8981201.052986402064562 ], [ 773793.225137605099007, 8981201.053087653592229 ], [ 773793.225139855057932, 8981201.053188905119896 ], [ 773793.225142106879503, 8981201.053290156647563 ], [ 773793.225144360680133, 8981201.05339140817523 ], [ 773793.225146618089639, 8981201.053492659702897 ], [ 773793.225148877361789, 8981201.053593911230564 ], [ 773793.22515114035923, 8981201.053695162758231 ], [ 773793.225153405335732, 8981201.053796414285898 ], [ 773793.225155672058463, 8981201.05389766767621 ], [ 773793.225157942506485, 8981201.053998917341232 ], [ 773793.225160214817151, 8981201.054100168868899 ], [ 773793.225162489106879, 8981201.054201420396566 ], [ 773793.225164767005481, 8981201.054302671924233 ], [ 773793.225167046766728, 8981201.0544039234519 ], [ 773793.696862014592625, 8981221.988213740289211 ], [ 773794.031016457360238, 8981236.869742961600423 ] ] ] } },
{ "type": "Feature", "properties": { "LAYER": "07.Sal_existing", "GM_TYPE": "Unknown Line Type", "ELEVATION": 0 }, "geometry": { "type": "MultiLineString", "coordinates": [ [ [ 776691.573659420595504, 8981537.902984917163849 ], [ 776690.466766256373376, 8981514.826132735237479 ] ] ] } },
{ "type": "Feature", "properties": { "LAYER": "07.Sal_existing", "GM_TYPE": "Unknown Line Type", "ELEVATION": 0 }, "geometry": { "type": "MultiLineString", "coordinates": [ [ [ 776690.2783907961566, 8981510.830570861697197 ], [ 776644.883563278475776, 8980693.162153484299779 ] ] ] } },
{ "type": "Feature", "properties": { "LAYER": "07.Sal_existing", "GM_TYPE": "Unknown Line Type", "ELEVATION": 0 }, "geometry": { "type": "MultiLineString", "coordinates": [ [ [ 773372.378227953333408, 8983615.968197574838996 ], [ 773383.031141963554546, 8983619.31617384031415 ] ] ] } },
{ "type": "Feature", "properties": { "LAYER": "07.Sal_existing", "GM_TYPE": "Unknown Line Type", "ELEVATION": 0 }, "geometry": { "type": "MultiLineString", "coordinates": [ [ [ 771463.638580529950559, 8982080.497137349098921 ], [ 771461.456024536979385, 8982042.235358161851764 ], [ 771459.771563112968579, 8982014.769223919138312 ], [ 771458.139240264892578, 8981987.177457040175796 ], [ 771456.067295270971954, 8981950.104612439870834 ], [ 771439.759854500065558, 8981943.505671689286828 ], [ 771441.681513070943765, 8981939.225288050249219 ], [ 771445.893623237148859, 8981922.79238872975111 ], [ 771450.354536660946906, 8981888.043164540082216 ] ] ] } },
{ "type": "Feature", "properties": { "LAYER": "07.Sal_existing", "GM_TYPE": "Unknown Line Type", "ELEVATION": 0 }, "geometry": { "type": "MultiLineString", "coordinates": [ [ [ 771397.040355505887419, 8981877.21817471832037 ], [ 771387.498543757945299, 8981910.46661102026701 ], [ 771393.163453097920865, 8981923.345159949734807 ], [ 771390.866158554097638, 8981929.238846350461245 ], [ 771386.843370044021867, 8981955.820514038205147 ] ] ] } },
{ "type": "Feature", "properties": { "LAYER": "07.Sal_existing", "GM_TYPE": "Unknown Line Type", "ELEVATION": 0 }, "geometry": { "type": "MultiLineString", "coordinates": [ [ [ 771625.119343859958462, 8982201.583273289725184 ], [ 771623.736928257043473, 8982153.829633729532361 ], [ 771620.210294349119067, 8982131.772278990596533 ], [ 771618.503479514969513, 8982100.005360692739487 ], [ 771617.380335668101907, 8982078.866776779294014 ], [ 771614.050320310052484, 8982026.911609100177884 ], [ 771612.914644991979003, 8982005.681265080347657 ], [ 771612.333364175050519, 8981998.509149262681603 ], [ 771611.869221225148067, 8981991.24242527037859 ], [ 771610.889395895879716, 8981949.453787060454488 ], [ 771608.636544219101779, 8981905.575956089422107 ], [ 771607.691533308010548, 8981863.91479391977191 ], [ 771603.134799747029319, 8981801.553782850503922 ], [ 771594.731692117056809, 8981636.151272097602487 ], [ 771592.388162815012038, 8981607.575325330719352 ], [ 771591.136432499857619, 8981577.691712979227304 ], [ 771590.075844718143344, 8981536.807737862691283 ], [ 771577.911016047000885, 8981447.645140882581472 ], [ 771580.632525139953941, 8981407.344215959310532 ] ] ] } },
{ "type": "Feature", "properties": { "LAYER": "07.Sal_existing", "GM_TYPE": "Unknown Line Type", "ELEVATION": 0 }, "geometry": { "type": "MultiLineString", "coordinates": [ [ [ 771387.498543757945299, 8981910.46661102026701 ], [ 771337.982756749959663, 8981895.207711087539792 ], [ 771296.200298313051462, 8981881.504715472459793 ], [ 771295.407575427205302, 8981850.782428601756692 ], [ 771295.602056929143146, 8981826.736474150791764 ], [ 771295.888202758040279, 8981774.755477510392666 ], [ 771293.709692539996468, 8981737.323016997426748 ], [ 771289.680579800042324, 8981672.819736730307341 ] ] ] } },
{ "type": "Feature", "properties": { "LAYER": "07.Sal_existing", "GM_TYPE": "Unknown Line Type", "ELEVATION": 0 }, "geometry": { "type": "MultiLineString", "coordinates": [ [ [ 771737.708344492013566, 8981489.473272740840912 ], [ 771740.64659520611167, 8981516.026907779276371 ], [ 771744.830859570880421, 8981586.026578851044178 ], [ 771742.870872649014927, 8981633.62419961951673 ], [ 771747.309565200936049, 8981696.82349688000977 ], [ 771750.290935535915196, 8981734.819868739694357 ], [ 771753.462752617197111, 8981772.5928561296314 ], [ 771760.737284422037192, 8981850.762505430728197 ], [ 771766.475695553002879, 8981933.344458190724254 ], [ 771779.428195267915726, 8982056.436943279579282 ], [ 771778.27611692098435, 8982068.69168983027339 ], [ 771779.752069259062409, 8982097.218433868139982 ], [ 771781.64544501202181, 8982134.453488050028682 ], [ 771783.464160316041671, 8982164.059094060212374 ], [ 771786.176574747078121, 8982197.100787259638309 ], [ 771786.932800087030046, 8982224.439884558320045 ] ] ] } },
{ "type": "Feature", "properties": { "LAYER": "07.Sal_existing", "GM_TYPE": "Unknown Line Type", "ELEVATION": 0 }, "geometry": { "type": "MultiLineString", "coordinates": [ [ [ 772121.507885482045822, 8982681.469168342649937 ], [ 772114.544393402058631, 8982635.306715229526162 ], [ 772108.543368142913096, 8982536.520310780033469 ], [ 772110.045400982024148, 8982479.560636840760708 ], [ 772091.730300922179595, 8982331.828481180593371 ], [ 772093.30539857421536, 8982278.509476179257035 ], [ 772096.638894652016461, 8982235.18796312995255 ], [ 772093.74635128909722, 8982170.223648009821773 ], [ 772093.506868632975966, 8982165.409247459843755 ], [ 772093.737206860794686, 8982162.831776790320873 ] ] ] } },
{ "type": "Feature", "properties": { "LAYER": "07.Sal_existing", "GM_TYPE": "Unknown Line Type", "ELEVATION": 0 }, "geometry": { "type": "MultiLineString", "coordinates": [ [ [ 772562.750766391051002, 8982904.168413000181317 ], [ 772559.75234937784262, 8982856.978966742753983 ], [ 772557.49199451005552, 8982824.735095089301467 ], [ 772554.791715065948665, 8982782.164984859526157 ], [ 772551.797653752146289, 8982741.139157680794597 ], [ 772549.41970967897214, 8982705.245524980127811 ], [ 772546.52661863702815, 8982661.646726170554757 ], [ 772591.852973892120644, 8982662.163056671619415 ], [ 772621.070625507971272, 8982660.368226140737534 ] ] ] } },
{ "type": "Feature", "properties": { "LAYER": "07.Sal_existing", "GM_TYPE": "Unknown Line Type", "ELEVATION": 0 }, "geometry": { "type": "MultiLineString", "coordinates": [ [ [ 772400.576722129946575, 8982724.721089009195566 ], [ 772404.281391947995871, 8982766.002490919083357 ], [ 772405.884397575980984, 8982804.701072020456195 ], [ 772409.617974627180956, 8982843.164724400267005 ], [ 772412.497448690119199, 8982882.611102651804686 ] ] ] } }
]
}
