{
"type": "FeatureCollection",
"name": "09_rei_po_asesories",
"crs": { "type": "name", "properties": { "name": "urn:ogc:def:crs:EPSG::32751" } },
"xy_coordinate_resolution": 1e-15,
"features": [
{ "type": "Feature", "properties": { "LAYER": "_06.Asesories", "GM_TYPE": "Unknown Line Type", "ELEVATION": 0, "NAME": null, "path": "Point?crs=EPSG:32751&field=LAYER:string(13,0)&field=GM_TYPE:string(17,0)&field=ELEVATION:integer(1,0)&uid={e4f14619-dc9f-44d2-9bb4-d97699772648}" }, "geometry": { "type": "Point", "coordinates": [ 781816.541687309276313, 8997987.021930823102593 ] } },
{ "type": "Feature", "properties": { "LAYER": "_06.Asesories", "GM_TYPE": "Unknown Line Type", "ELEVATION": 0, "NAME": null, "path": "Point?crs=EPSG:32751&field=LAYER:string(13,0)&field=GM_TYPE:string(17,0)&field=ELEVATION:integer(1,0)&uid={e4f14619-dc9f-44d2-9bb4-d97699772648}" }, "geometry": { "type": "Point", "coordinates": [ 781815.239383669220842, 8997976.650672372430563 ] } },
{ "type": "Feature", "properties": { "LAYER": "_06.Asesories", "GM_TYPE": "Unknown Line Type", "ELEVATION": 0, "NAME": null, "path": "Point?crs=EPSG:32751&field=LAYER:string(13,0)&field=GM_TYPE:string(17,0)&field=ELEVATION:integer(1,0)&uid={e4f14619-dc9f-44d2-9bb4-d97699772648}" }, "geometry": { "type": "Point", "coordinates": [ 781845.660898681147955, 8997858.7261355035007 ] } },
{ "type": "Feature", "properties": { "LAYER": "_06.Asesories", "GM_TYPE": "Unknown Line Type", "ELEVATION": 0, "NAME": null, "path": "Point?crs=EPSG:32751&field=LAYER:string(13,0)&field=GM_TYPE:string(17,0)&field=ELEVATION:integer(1,0)&uid={e4f14619-dc9f-44d2-9bb4-d97699772648}" }, "geometry": { "type": "Point", "coordinates": [ 781855.143392373924144, 8997863.124011117964983 ] } },
{ "type": "Feature", "properties": { "LAYER": "_06.Asesories", "GM_TYPE": "Unknown Line Type", "ELEVATION": 0, "NAME": null, "path": "Point?crs=EPSG:32751&field=LAYER:string(13,0)&field=GM_TYPE:string(17,0)&field=ELEVATION:integer(1,0)&uid={e4f14619-dc9f-44d2-9bb4-d97699772648}" }, "geometry": { "type": "Point", "coordinates": [ 781816.541687309276313, 8997987.021930823102593 ] } },
{ "type": "Feature", "properties": { "LAYER": "_06.Asesories", "GM_TYPE": "Unknown Line Type", "ELEVATION": 0, "NAME": null, "path": "Point?crs=EPSG:32751&field=LAYER:string(13,0)&field=GM_TYPE:string(17,0)&field=ELEVATION:integer(1,0)&uid={e4f14619-dc9f-44d2-9bb4-d97699772648}" }, "geometry": { "type": "Point", "coordinates": [ 781815.239383669220842, 8997976.650672372430563 ] } },
{ "type": "Feature", "properties": { "LAYER": "_06.Asesories", "GM_TYPE": "Unknown Line Type", "ELEVATION": 0, "NAME": null, "path": "Point?crs=EPSG:32751&field=LAYER:string(13,0)&field=GM_TYPE:string(17,0)&field=ELEVATION:integer(1,0)&uid={e4f14619-dc9f-44d2-9bb4-d97699772648}" }, "geometry": { "type": "Point", "coordinates": [ 781845.660898681147955, 8997858.7261355035007 ] } },
{ "type": "Feature", "properties": { "LAYER": "_06.Asesories", "GM_TYPE": "Unknown Line Type", "ELEVATION": 0, "NAME": null, "path": "Point?crs=EPSG:32751&field=LAYER:string(13,0)&field=GM_TYPE:string(17,0)&field=ELEVATION:integer(1,0)&uid={e4f14619-dc9f-44d2-9bb4-d97699772648}" }, "geometry": { "type": "Point", "coordinates": [ 781855.143392373924144, 8997863.124011117964983 ] } },
{ "type": "Feature", "properties": { "LAYER": "_06.Asesories", "GM_TYPE": "Unknown Line Type", "ELEVATION": 0, "NAME": null, "path": "Point?crs=EPSG:32751&field=LAYER:string(13,0)&field=GM_TYPE:string(17,0)&field=ELEVATION:integer(1,0)&uid={e4f14619-dc9f-44d2-9bb4-d97699772648}" }, "geometry": { "type": "Point", "coordinates": [ 781912.390509430901147, 8996872.909941904246807 ] } },
{ "type": "Feature", "properties": { "LAYER": "_06.Asesories", "GM_TYPE": "Unknown Line Type", "ELEVATION": 0, "NAME": null, "path": "Point?crs=EPSG:32751&field=LAYER:string(13,0)&field=GM_TYPE:string(17,0)&field=ELEVATION:integer(1,0)&uid={e4f14619-dc9f-44d2-9bb4-d97699772648}" }, "geometry": { "type": "Point", "coordinates": [ 781858.7636647435138, 8997067.052190082147717 ] } },
{ "type": "Feature", "properties": { "LAYER": "_06.Asesories", "GM_TYPE": "Unknown Line Type", "ELEVATION": 0, "NAME": null, "path": "Point?crs=EPSG:32751&field=LAYER:string(13,0)&field=GM_TYPE:string(17,0)&field=ELEVATION:integer(1,0)&uid={e4f14619-dc9f-44d2-9bb4-d97699772648}" }, "geometry": { "type": "Point", "coordinates": [ 781852.058376760222018, 8997063.773997006937861 ] } },
{ "type": "Feature", "properties": { "LAYER": "_06.Asesories", "GM_TYPE": "Unknown Line Type", "ELEVATION": 0, "NAME": null, "path": "Point?crs=EPSG:32751&field=LAYER:string(13,0)&field=GM_TYPE:string(17,0)&field=ELEVATION:integer(1,0)&uid={e4f14619-dc9f-44d2-9bb4-d97699772648}" }, "geometry": { "type": "Point", "coordinates": [ 781912.390509430901147, 8996872.909941904246807 ] } },
{ "type": "Feature", "properties": { "LAYER": "_06.Asesories", "GM_TYPE": "Unknown Line Type", "ELEVATION": 0, "NAME": null, "path": "Point?crs=EPSG:32751&field=LAYER:string(13,0)&field=GM_TYPE:string(17,0)&field=ELEVATION:integer(1,0)&uid={e4f14619-dc9f-44d2-9bb4-d97699772648}" }, "geometry": { "type": "Point", "coordinates": [ 781858.7636647435138, 8997067.052190082147717 ] } },
{ "type": "Feature", "properties": { "LAYER": "_06.Asesories", "GM_TYPE": "Unknown Line Type", "ELEVATION": 0, "NAME": null, "path": "Point?crs=EPSG:32751&field=LAYER:string(13,0)&field=GM_TYPE:string(17,0)&field=ELEVATION:integer(1,0)&uid={e4f14619-dc9f-44d2-9bb4-d97699772648}" }, "geometry": { "type": "Point", "coordinates": [ 781852.058376760222018, 8997063.773997006937861 ] } },
{ "type": "Feature", "properties": { "LAYER": "_06.Asesories", "GM_TYPE": "Unknown Line Type", "ELEVATION": 0, "NAME": null, "path": "Point?crs=EPSG:32751&field=LAYER:string(13,0)&field=GM_TYPE:string(17,0)&field=ELEVATION:integer(1,0)&uid={e4f14619-dc9f-44d2-9bb4-d97699772648}" }, "geometry": { "type": "Point", "coordinates": [ 781969.73950902512297, 8997425.303021848201752 ] } },
{ "type": "Feature", "properties": { "LAYER": "_06.Asesories", "GM_TYPE": "Unknown Line Type", "ELEVATION": 0, "NAME": null, "path": "Point?crs=EPSG:32751&field=LAYER:string(13,0)&field=GM_TYPE:string(17,0)&field=ELEVATION:integer(1,0)&uid={e4f14619-dc9f-44d2-9bb4-d97699772648}" }, "geometry": { "type": "Point", "coordinates": [ 781976.168900155811571, 8997417.061545873060822 ] } },
{ "type": "Feature", "properties": { "LAYER": "_06.Asesories", "GM_TYPE": "Unknown Line Type", "ELEVATION": 0, "NAME": null, "path": "Point?crs=EPSG:32751&field=LAYER:string(13,0)&field=GM_TYPE:string(17,0)&field=ELEVATION:integer(1,0)&uid={e4f14619-dc9f-44d2-9bb4-d97699772648}" }, "geometry": { "type": "Point", "coordinates": [ 781969.73950902512297, 8997425.303021848201752 ] } },
{ "type": "Feature", "properties": { "LAYER": "_06.Asesories", "GM_TYPE": "Unknown Line Type", "ELEVATION": 0, "NAME": null, "path": "Point?crs=EPSG:32751&field=LAYER:string(13,0)&field=GM_TYPE:string(17,0)&field=ELEVATION:integer(1,0)&uid={e4f14619-dc9f-44d2-9bb4-d97699772648}" }, "geometry": { "type": "Point", "coordinates": [ 781976.168900155811571, 8997417.061545873060822 ] } },
{ "type": "Feature", "properties": { "LAYER": "_06.Asesories", "GM_TYPE": "Unknown Line Type", "ELEVATION": 0, "NAME": null, "path": "Point?crs=EPSG:32751&field=LAYER:string(13,0)&field=GM_TYPE:string(17,0)&field=ELEVATION:integer(1,0)&uid={e4f14619-dc9f-44d2-9bb4-d97699772648}" }, "geometry": { "type": "Point", "coordinates": [ 782143.058296564267948, 8996399.304028021171689 ] } },
{ "type": "Feature", "properties": { "LAYER": "_06.Asesories", "GM_TYPE": "Unknown Line Type", "ELEVATION": 0, "NAME": null, "path": "Point?crs=EPSG:32751&field=LAYER:string(13,0)&field=GM_TYPE:string(17,0)&field=ELEVATION:integer(1,0)&uid={e4f14619-dc9f-44d2-9bb4-d97699772648}" }, "geometry": { "type": "Point", "coordinates": [ 782136.648112870869227, 8996395.480811856687069 ] } },
{ "type": "Feature", "properties": { "LAYER": "_06.Asesories", "GM_TYPE": "Unknown Line Type", "ELEVATION": 0, "NAME": null, "path": "Point?crs=EPSG:32751&field=LAYER:string(13,0)&field=GM_TYPE:string(17,0)&field=ELEVATION:integer(1,0)&uid={e4f14619-dc9f-44d2-9bb4-d97699772648}" }, "geometry": { "type": "Point", "coordinates": [ 782212.827679615933448, 8996209.542104057967663 ] } },
{ "type": "Feature", "properties": { "LAYER": "_06.Asesories", "GM_TYPE": "Unknown Line Type", "ELEVATION": 0, "NAME": null, "path": "Point?crs=EPSG:32751&field=LAYER:string(13,0)&field=GM_TYPE:string(17,0)&field=ELEVATION:integer(1,0)&uid={e4f14619-dc9f-44d2-9bb4-d97699772648}" }, "geometry": { "type": "Point", "coordinates": [ 782222.51518538815435, 8996213.4678178075701 ] } },
{ "type": "Feature", "properties": { "LAYER": "_06.Asesories", "GM_TYPE": "Unknown Line Type", "ELEVATION": 0, "NAME": null, "path": "Point?crs=EPSG:32751&field=LAYER:string(13,0)&field=GM_TYPE:string(17,0)&field=ELEVATION:integer(1,0)&uid={e4f14619-dc9f-44d2-9bb4-d97699772648}" }, "geometry": { "type": "Point", "coordinates": [ 782045.235432495595887, 8996600.312072830274701 ] } },
{ "type": "Feature", "properties": { "LAYER": "_06.Asesories", "GM_TYPE": "Unknown Line Type", "ELEVATION": 0, "NAME": null, "path": "Point?crs=EPSG:32751&field=LAYER:string(13,0)&field=GM_TYPE:string(17,0)&field=ELEVATION:integer(1,0)&uid={e4f14619-dc9f-44d2-9bb4-d97699772648}" }, "geometry": { "type": "Point", "coordinates": [ 782054.922938268282451, 8996604.237786579877138 ] } },
{ "type": "Feature", "properties": { "LAYER": "_06.Asesories", "GM_TYPE": "Unknown Line Type", "ELEVATION": 0, "NAME": null, "path": "Point?crs=EPSG:32751&field=LAYER:string(13,0)&field=GM_TYPE:string(17,0)&field=ELEVATION:integer(1,0)&uid={e4f14619-dc9f-44d2-9bb4-d97699772648}" }, "geometry": { "type": "Point", "coordinates": [ 782274.115372579894029, 8996092.353028725832701 ] } },
{ "type": "Feature", "properties": { "LAYER": "_06.Asesories", "GM_TYPE": "Unknown Line Type", "ELEVATION": 0, "NAME": null, "path": "Point?crs=EPSG:32751&field=LAYER:string(13,0)&field=GM_TYPE:string(17,0)&field=ELEVATION:integer(1,0)&uid={e4f14619-dc9f-44d2-9bb4-d97699772648}" }, "geometry": { "type": "Point", "coordinates": [ 782267.500164479599334, 8996088.896663786843419 ] } },
{ "type": "Feature", "properties": { "LAYER": "_06.Asesories", "GM_TYPE": "Unknown Line Type", "ELEVATION": 0, "NAME": null, "path": "Point?crs=EPSG:32751&field=LAYER:string(13,0)&field=GM_TYPE:string(17,0)&field=ELEVATION:integer(1,0)&uid={e4f14619-dc9f-44d2-9bb4-d97699772648}" }, "geometry": { "type": "Point", "coordinates": [ 782143.058296564267948, 8996399.304028021171689 ] } },
{ "type": "Feature", "properties": { "LAYER": "_06.Asesories", "GM_TYPE": "Unknown Line Type", "ELEVATION": 0, "NAME": null, "path": "Point?crs=EPSG:32751&field=LAYER:string(13,0)&field=GM_TYPE:string(17,0)&field=ELEVATION:integer(1,0)&uid={e4f14619-dc9f-44d2-9bb4-d97699772648}" }, "geometry": { "type": "Point", "coordinates": [ 782136.648112870869227, 8996395.480811856687069 ] } },
{ "type": "Feature", "properties": { "LAYER": "_06.Asesories", "GM_TYPE": "Unknown Line Type", "ELEVATION": 0, "NAME": null, "path": "Point?crs=EPSG:32751&field=LAYER:string(13,0)&field=GM_TYPE:string(17,0)&field=ELEVATION:integer(1,0)&uid={e4f14619-dc9f-44d2-9bb4-d97699772648}" }, "geometry": { "type": "Point", "coordinates": [ 782212.827679615933448, 8996209.542104057967663 ] } },
{ "type": "Feature", "properties": { "LAYER": "_06.Asesories", "GM_TYPE": "Unknown Line Type", "ELEVATION": 0, "NAME": null, "path": "Point?crs=EPSG:32751&field=LAYER:string(13,0)&field=GM_TYPE:string(17,0)&field=ELEVATION:integer(1,0)&uid={e4f14619-dc9f-44d2-9bb4-d97699772648}" }, "geometry": { "type": "Point", "coordinates": [ 782222.51518538815435, 8996213.4678178075701 ] } },
{ "type": "Feature", "properties": { "LAYER": "_06.Asesories", "GM_TYPE": "Unknown Line Type", "ELEVATION": 0, "NAME": null, "path": "Point?crs=EPSG:32751&field=LAYER:string(13,0)&field=GM_TYPE:string(17,0)&field=ELEVATION:integer(1,0)&uid={e4f14619-dc9f-44d2-9bb4-d97699772648}" }, "geometry": { "type": "Point", "coordinates": [ 782045.235432495595887, 8996600.312072830274701 ] } },
{ "type": "Feature", "properties": { "LAYER": "_06.Asesories", "GM_TYPE": "Unknown Line Type", "ELEVATION": 0, "NAME": null, "path": "Point?crs=EPSG:32751&field=LAYER:string(13,0)&field=GM_TYPE:string(17,0)&field=ELEVATION:integer(1,0)&uid={e4f14619-dc9f-44d2-9bb4-d97699772648}" }, "geometry": { "type": "Point", "coordinates": [ 782054.922938268282451, 8996604.237786579877138 ] } },
{ "type": "Feature", "properties": { "LAYER": "_06.Asesories", "GM_TYPE": "Unknown Line Type", "ELEVATION": 0, "NAME": null, "path": "Point?crs=EPSG:32751&field=LAYER:string(13,0)&field=GM_TYPE:string(17,0)&field=ELEVATION:integer(1,0)&uid={e4f14619-dc9f-44d2-9bb4-d97699772648}" }, "geometry": { "type": "Point", "coordinates": [ 782274.115372579894029, 8996092.353028725832701 ] } },
{ "type": "Feature", "properties": { "LAYER": "_06.Asesories", "GM_TYPE": "Unknown Line Type", "ELEVATION": 0, "NAME": null, "path": "Point?crs=EPSG:32751&field=LAYER:string(13,0)&field=GM_TYPE:string(17,0)&field=ELEVATION:integer(1,0)&uid={e4f14619-dc9f-44d2-9bb4-d97699772648}" }, "geometry": { "type": "Point", "coordinates": [ 782267.500164479599334, 8996088.896663786843419 ] } },
{ "type": "Feature", "properties": { "LAYER": "_06.Asesories", "GM_TYPE": "Unknown Line Type", "ELEVATION": 0, "NAME": null, "path": "Point?crs=EPSG:32751&field=LAYER:string(13,0)&field=GM_TYPE:string(17,0)&field=ELEVATION:integer(1,0)&uid={e4f14619-dc9f-44d2-9bb4-d97699772648}" }, "geometry": { "type": "Point", "coordinates": [ 782468.607225281768478, 8995568.460298120975494 ] } },
{ "type": "Feature", "properties": { "LAYER": "_06.Asesories", "GM_TYPE": "Unknown Line Type", "ELEVATION": 0, "NAME": null, "path": "Point?crs=EPSG:32751&field=LAYER:string(13,0)&field=GM_TYPE:string(17,0)&field=ELEVATION:integer(1,0)&uid={e4f14619-dc9f-44d2-9bb4-d97699772648}" }, "geometry": { "type": "Point", "coordinates": [ 782479.016319188987836, 8995569.414111819118261 ] } },
{ "type": "Feature", "properties": { "LAYER": "_06.Asesories", "GM_TYPE": "Unknown Line Type", "ELEVATION": 0, "NAME": null, "path": "Point?crs=EPSG:32751&field=LAYER:string(13,0)&field=GM_TYPE:string(17,0)&field=ELEVATION:integer(1,0)&uid={e4f14619-dc9f-44d2-9bb4-d97699772648}" }, "geometry": { "type": "Point", "coordinates": [ 782333.057832379010506, 8995936.034191582351923 ] } },
{ "type": "Feature", "properties": { "LAYER": "_06.Asesories", "GM_TYPE": "Unknown Line Type", "ELEVATION": 0, "NAME": null, "path": "Point?crs=EPSG:32751&field=LAYER:string(13,0)&field=GM_TYPE:string(17,0)&field=ELEVATION:integer(1,0)&uid={e4f14619-dc9f-44d2-9bb4-d97699772648}" }, "geometry": { "type": "Point", "coordinates": [ 782342.645881023840047, 8995940.196921419352293 ] } },
{ "type": "Feature", "properties": { "LAYER": "_06.Asesories", "GM_TYPE": "Unknown Line Type", "ELEVATION": 0, "NAME": null, "path": "Point?crs=EPSG:32751&field=LAYER:string(13,0)&field=GM_TYPE:string(17,0)&field=ELEVATION:integer(1,0)&uid={e4f14619-dc9f-44d2-9bb4-d97699772648}" }, "geometry": { "type": "Point", "coordinates": [ 782468.607225281768478, 8995568.460298120975494 ] } },
{ "type": "Feature", "properties": { "LAYER": "_06.Asesories", "GM_TYPE": "Unknown Line Type", "ELEVATION": 0, "NAME": null, "path": "Point?crs=EPSG:32751&field=LAYER:string(13,0)&field=GM_TYPE:string(17,0)&field=ELEVATION:integer(1,0)&uid={e4f14619-dc9f-44d2-9bb4-d97699772648}" }, "geometry": { "type": "Point", "coordinates": [ 782479.016319188987836, 8995569.414111819118261 ] } },
{ "type": "Feature", "properties": { "LAYER": "_06.Asesories", "GM_TYPE": "Unknown Line Type", "ELEVATION": 0, "NAME": null, "path": "Point?crs=EPSG:32751&field=LAYER:string(13,0)&field=GM_TYPE:string(17,0)&field=ELEVATION:integer(1,0)&uid={e4f14619-dc9f-44d2-9bb4-d97699772648}" }, "geometry": { "type": "Point", "coordinates": [ 782333.057832379010506, 8995936.034191582351923 ] } },
{ "type": "Feature", "properties": { "LAYER": "_06.Asesories", "GM_TYPE": "Unknown Line Type", "ELEVATION": 0, "NAME": null, "path": "Point?crs=EPSG:32751&field=LAYER:string(13,0)&field=GM_TYPE:string(17,0)&field=ELEVATION:integer(1,0)&uid={e4f14619-dc9f-44d2-9bb4-d97699772648}" }, "geometry": { "type": "Point", "coordinates": [ 782342.645881023840047, 8995940.196921419352293 ] } },
{ "type": "Feature", "properties": { "LAYER": "_06.Asesories", "GM_TYPE": "Unknown Line Type", "ELEVATION": 0, "NAME": null, "path": "Point?crs=EPSG:32751&field=LAYER:string(13,0)&field=GM_TYPE:string(17,0)&field=ELEVATION:integer(1,0)&uid={e4f14619-dc9f-44d2-9bb4-d97699772648}" }, "geometry": { "type": "Point", "coordinates": [ 782687.440085601294413, 8994578.663702815771103 ] } },
{ "type": "Feature", "properties": { "LAYER": "_06.Asesories", "GM_TYPE": "Unknown Line Type", "ELEVATION": 0, "NAME": null, "path": "Point?crs=EPSG:32751&field=LAYER:string(13,0)&field=GM_TYPE:string(17,0)&field=ELEVATION:integer(1,0)&uid={e4f14619-dc9f-44d2-9bb4-d97699772648}" }, "geometry": { "type": "Point", "coordinates": [ 782681.83441962278448, 8994573.735828451812267 ] } },
{ "type": "Feature", "properties": { "LAYER": "_06.Asesories", "GM_TYPE": "Unknown Line Type", "ELEVATION": 0, "NAME": null, "path": "Point?crs=EPSG:32751&field=LAYER:string(13,0)&field=GM_TYPE:string(17,0)&field=ELEVATION:integer(1,0)&uid={e4f14619-dc9f-44d2-9bb4-d97699772648}" }, "geometry": { "type": "Point", "coordinates": [ 782687.440085601294413, 8994578.663702815771103 ] } },
{ "type": "Feature", "properties": { "LAYER": "_06.Asesories", "GM_TYPE": "Unknown Line Type", "ELEVATION": 0, "NAME": null, "path": "Point?crs=EPSG:32751&field=LAYER:string(13,0)&field=GM_TYPE:string(17,0)&field=ELEVATION:integer(1,0)&uid={e4f14619-dc9f-44d2-9bb4-d97699772648}" }, "geometry": { "type": "Point", "coordinates": [ 782681.83441962278448, 8994573.735828451812267 ] } },
{ "type": "Feature", "properties": { "LAYER": "_06.Asesories", "GM_TYPE": "Unknown Line Type", "ELEVATION": 0, "NAME": null, "path": "Point?crs=EPSG:32751&field=LAYER:string(13,0)&field=GM_TYPE:string(17,0)&field=ELEVATION:integer(1,0)&uid={e4f14619-dc9f-44d2-9bb4-d97699772648}" }, "geometry": { "type": "Point", "coordinates": [ 781816.541687309276313, 8997987.021930823102593 ] } },
{ "type": "Feature", "properties": { "LAYER": "_06.Asesories", "GM_TYPE": "Unknown Line Type", "ELEVATION": 0, "NAME": null, "path": "Point?crs=EPSG:32751&field=LAYER:string(13,0)&field=GM_TYPE:string(17,0)&field=ELEVATION:integer(1,0)&uid={e4f14619-dc9f-44d2-9bb4-d97699772648}" }, "geometry": { "type": "Point", "coordinates": [ 781815.239383669220842, 8997976.650672372430563 ] } },
{ "type": "Feature", "properties": { "LAYER": "_06.Asesories", "GM_TYPE": "Unknown Line Type", "ELEVATION": 0, "NAME": null, "path": "Point?crs=EPSG:32751&field=LAYER:string(13,0)&field=GM_TYPE:string(17,0)&field=ELEVATION:integer(1,0)&uid={e4f14619-dc9f-44d2-9bb4-d97699772648}" }, "geometry": { "type": "Point", "coordinates": [ 781845.660898681147955, 8997858.7261355035007 ] } },
{ "type": "Feature", "properties": { "LAYER": "_06.Asesories", "GM_TYPE": "Unknown Line Type", "ELEVATION": 0, "NAME": null, "path": "Point?crs=EPSG:32751&field=LAYER:string(13,0)&field=GM_TYPE:string(17,0)&field=ELEVATION:integer(1,0)&uid={e4f14619-dc9f-44d2-9bb4-d97699772648}" }, "geometry": { "type": "Point", "coordinates": [ 781855.143392373924144, 8997863.124011117964983 ] } },
{ "type": "Feature", "properties": { "LAYER": "_06.Asesories", "GM_TYPE": "Unknown Line Type", "ELEVATION": 0, "NAME": null, "path": "Point?crs=EPSG:32751&field=LAYER:string(13,0)&field=GM_TYPE:string(17,0)&field=ELEVATION:integer(1,0)&uid={e4f14619-dc9f-44d2-9bb4-d97699772648}" }, "geometry": { "type": "Point", "coordinates": [ 781816.541687309276313, 8997987.021930823102593 ] } },
{ "type": "Feature", "properties": { "LAYER": "_06.Asesories", "GM_TYPE": "Unknown Line Type", "ELEVATION": 0, "NAME": null, "path": "Point?crs=EPSG:32751&field=LAYER:string(13,0)&field=GM_TYPE:string(17,0)&field=ELEVATION:integer(1,0)&uid={e4f14619-dc9f-44d2-9bb4-d97699772648}" }, "geometry": { "type": "Point", "coordinates": [ 781815.239383669220842, 8997976.650672372430563 ] } },
{ "type": "Feature", "properties": { "LAYER": "_06.Asesories", "GM_TYPE": "Unknown Line Type", "ELEVATION": 0, "NAME": null, "path": "Point?crs=EPSG:32751&field=LAYER:string(13,0)&field=GM_TYPE:string(17,0)&field=ELEVATION:integer(1,0)&uid={e4f14619-dc9f-44d2-9bb4-d97699772648}" }, "geometry": { "type": "Point", "coordinates": [ 781845.660898681147955, 8997858.7261355035007 ] } },
{ "type": "Feature", "properties": { "LAYER": "_06.Asesories", "GM_TYPE": "Unknown Line Type", "ELEVATION": 0, "NAME": null, "path": "Point?crs=EPSG:32751&field=LAYER:string(13,0)&field=GM_TYPE:string(17,0)&field=ELEVATION:integer(1,0)&uid={e4f14619-dc9f-44d2-9bb4-d97699772648}" }, "geometry": { "type": "Point", "coordinates": [ 781855.143392373924144, 8997863.124011117964983 ] } },
{ "type": "Feature", "properties": { "LAYER": "_06.Asesories", "GM_TYPE": "Unknown Line Type", "ELEVATION": 0, "NAME": null, "path": "Point?crs=EPSG:32751&field=LAYER:string(13,0)&field=GM_TYPE:string(17,0)&field=ELEVATION:integer(1,0)&uid={e4f14619-dc9f-44d2-9bb4-d97699772648}" }, "geometry": { "type": "Point", "coordinates": [ 781912.390509430901147, 8996872.909941904246807 ] } },
{ "type": "Feature", "properties": { "LAYER": "_06.Asesories", "GM_TYPE": "Unknown Line Type", "ELEVATION": 0, "NAME": null, "path": "Point?crs=EPSG:32751&field=LAYER:string(13,0)&field=GM_TYPE:string(17,0)&field=ELEVATION:integer(1,0)&uid={e4f14619-dc9f-44d2-9bb4-d97699772648}" }, "geometry": { "type": "Point", "coordinates": [ 781858.7636647435138, 8997067.052190082147717 ] } },
{ "type": "Feature", "properties": { "LAYER": "_06.Asesories", "GM_TYPE": "Unknown Line Type", "ELEVATION": 0, "NAME": null, "path": "Point?crs=EPSG:32751&field=LAYER:string(13,0)&field=GM_TYPE:string(17,0)&field=ELEVATION:integer(1,0)&uid={e4f14619-dc9f-44d2-9bb4-d97699772648}" }, "geometry": { "type": "Point", "coordinates": [ 781852.058376760222018, 8997063.773997006937861 ] } },
{ "type": "Feature", "properties": { "LAYER": "_06.Asesories", "GM_TYPE": "Unknown Line Type", "ELEVATION": 0, "NAME": null, "path": "Point?crs=EPSG:32751&field=LAYER:string(13,0)&field=GM_TYPE:string(17,0)&field=ELEVATION:integer(1,0)&uid={e4f14619-dc9f-44d2-9bb4-d97699772648}" }, "geometry": { "type": "Point", "coordinates": [ 781912.390509430901147, 8996872.909941904246807 ] } },
{ "type": "Feature", "properties": { "LAYER": "_06.Asesories", "GM_TYPE": "Unknown Line Type", "ELEVATION": 0, "NAME": null, "path": "Point?crs=EPSG:32751&field=LAYER:string(13,0)&field=GM_TYPE:string(17,0)&field=ELEVATION:integer(1,0)&uid={e4f14619-dc9f-44d2-9bb4-d97699772648}" }, "geometry": { "type": "Point", "coordinates": [ 781858.7636647435138, 8997067.052190082147717 ] } },
{ "type": "Feature", "properties": { "LAYER": "_06.Asesories", "GM_TYPE": "Unknown Line Type", "ELEVATION": 0, "NAME": null, "path": "Point?crs=EPSG:32751&field=LAYER:string(13,0)&field=GM_TYPE:string(17,0)&field=ELEVATION:integer(1,0)&uid={e4f14619-dc9f-44d2-9bb4-d97699772648}" }, "geometry": { "type": "Point", "coordinates": [ 781852.058376760222018, 8997063.773997006937861 ] } },
{ "type": "Feature", "properties": { "LAYER": "_06.Asesories", "GM_TYPE": "Unknown Line Type", "ELEVATION": 0, "NAME": null, "path": "Point?crs=EPSG:32751&field=LAYER:string(13,0)&field=GM_TYPE:string(17,0)&field=ELEVATION:integer(1,0)&uid={e4f14619-dc9f-44d2-9bb4-d97699772648}" }, "geometry": { "type": "Point", "coordinates": [ 781969.73950902512297, 8997425.303021848201752 ] } },
{ "type": "Feature", "properties": { "LAYER": "_06.Asesories", "GM_TYPE": "Unknown Line Type", "ELEVATION": 0, "NAME": null, "path": "Point?crs=EPSG:32751&field=LAYER:string(13,0)&field=GM_TYPE:string(17,0)&field=ELEVATION:integer(1,0)&uid={e4f14619-dc9f-44d2-9bb4-d97699772648}" }, "geometry": { "type": "Point", "coordinates": [ 781976.168900155811571, 8997417.061545873060822 ] } },
{ "type": "Feature", "properties": { "LAYER": "_06.Asesories", "GM_TYPE": "Unknown Line Type", "ELEVATION": 0, "NAME": null, "path": "Point?crs=EPSG:32751&field=LAYER:string(13,0)&field=GM_TYPE:string(17,0)&field=ELEVATION:integer(1,0)&uid={e4f14619-dc9f-44d2-9bb4-d97699772648}" }, "geometry": { "type": "Point", "coordinates": [ 781969.73950902512297, 8997425.303021848201752 ] } },
{ "type": "Feature", "properties": { "LAYER": "_06.Asesories", "GM_TYPE": "Unknown Line Type", "ELEVATION": 0, "NAME": null, "path": "Point?crs=EPSG:32751&field=LAYER:string(13,0)&field=GM_TYPE:string(17,0)&field=ELEVATION:integer(1,0)&uid={e4f14619-dc9f-44d2-9bb4-d97699772648}" }, "geometry": { "type": "Point", "coordinates": [ 781976.168900155811571, 8997417.061545873060822 ] } },
{ "type": "Feature", "properties": { "LAYER": "_06.Asesories", "GM_TYPE": "Unknown Line Type", "ELEVATION": 0, "NAME": null, "path": "Point?crs=EPSG:32751&field=LAYER:string(13,0)&field=GM_TYPE:string(17,0)&field=ELEVATION:integer(1,0)&uid={e4f14619-dc9f-44d2-9bb4-d97699772648}" }, "geometry": { "type": "Point", "coordinates": [ 782143.058296564267948, 8996399.304028021171689 ] } },
{ "type": "Feature", "properties": { "LAYER": "_06.Asesories", "GM_TYPE": "Unknown Line Type", "ELEVATION": 0, "NAME": null, "path": "Point?crs=EPSG:32751&field=LAYER:string(13,0)&field=GM_TYPE:string(17,0)&field=ELEVATION:integer(1,0)&uid={e4f14619-dc9f-44d2-9bb4-d97699772648}" }, "geometry": { "type": "Point", "coordinates": [ 782136.648112870869227, 8996395.480811856687069 ] } },
{ "type": "Feature", "properties": { "LAYER": "_06.Asesories", "GM_TYPE": "Unknown Line Type", "ELEVATION": 0, "NAME": null, "path": "Point?crs=EPSG:32751&field=LAYER:string(13,0)&field=GM_TYPE:string(17,0)&field=ELEVATION:integer(1,0)&uid={e4f14619-dc9f-44d2-9bb4-d97699772648}" }, "geometry": { "type": "Point", "coordinates": [ 782212.827679615933448, 8996209.542104057967663 ] } },
{ "type": "Feature", "properties": { "LAYER": "_06.Asesories", "GM_TYPE": "Unknown Line Type", "ELEVATION": 0, "NAME": null, "path": "Point?crs=EPSG:32751&field=LAYER:string(13,0)&field=GM_TYPE:string(17,0)&field=ELEVATION:integer(1,0)&uid={e4f14619-dc9f-44d2-9bb4-d97699772648}" }, "geometry": { "type": "Point", "coordinates": [ 782222.51518538815435, 8996213.4678178075701 ] } },
{ "type": "Feature", "properties": { "LAYER": "_06.Asesories", "GM_TYPE": "Unknown Line Type", "ELEVATION": 0, "NAME": null, "path": "Point?crs=EPSG:32751&field=LAYER:string(13,0)&field=GM_TYPE:string(17,0)&field=ELEVATION:integer(1,0)&uid={e4f14619-dc9f-44d2-9bb4-d97699772648}" }, "geometry": { "type": "Point", "coordinates": [ 782045.235432495595887, 8996600.312072830274701 ] } },
{ "type": "Feature", "properties": { "LAYER": "_06.Asesories", "GM_TYPE": "Unknown Line Type", "ELEVATION": 0, "NAME": null, "path": "Point?crs=EPSG:32751&field=LAYER:string(13,0)&field=GM_TYPE:string(17,0)&field=ELEVATION:integer(1,0)&uid={e4f14619-dc9f-44d2-9bb4-d97699772648}" }, "geometry": { "type": "Point", "coordinates": [ 782054.922938268282451, 8996604.237786579877138 ] } },
{ "type": "Feature", "properties": { "LAYER": "_06.Asesories", "GM_TYPE": "Unknown Line Type", "ELEVATION": 0, "NAME": null, "path": "Point?crs=EPSG:32751&field=LAYER:string(13,0)&field=GM_TYPE:string(17,0)&field=ELEVATION:integer(1,0)&uid={e4f14619-dc9f-44d2-9bb4-d97699772648}" }, "geometry": { "type": "Point", "coordinates": [ 782274.115372579894029, 8996092.353028725832701 ] } },
{ "type": "Feature", "properties": { "LAYER": "_06.Asesories", "GM_TYPE": "Unknown Line Type", "ELEVATION": 0, "NAME": null, "path": "Point?crs=EPSG:32751&field=LAYER:string(13,0)&field=GM_TYPE:string(17,0)&field=ELEVATION:integer(1,0)&uid={e4f14619-dc9f-44d2-9bb4-d97699772648}" }, "geometry": { "type": "Point", "coordinates": [ 782267.500164479599334, 8996088.896663786843419 ] } },
{ "type": "Feature", "properties": { "LAYER": "_06.Asesories", "GM_TYPE": "Unknown Line Type", "ELEVATION": 0, "NAME": null, "path": "Point?crs=EPSG:32751&field=LAYER:string(13,0)&field=GM_TYPE:string(17,0)&field=ELEVATION:integer(1,0)&uid={e4f14619-dc9f-44d2-9bb4-d97699772648}" }, "geometry": { "type": "Point", "coordinates": [ 782143.058296564267948, 8996399.304028021171689 ] } },
{ "type": "Feature", "properties": { "LAYER": "_06.Asesories", "GM_TYPE": "Unknown Line Type", "ELEVATION": 0, "NAME": null, "path": "Point?crs=EPSG:32751&field=LAYER:string(13,0)&field=GM_TYPE:string(17,0)&field=ELEVATION:integer(1,0)&uid={e4f14619-dc9f-44d2-9bb4-d97699772648}" }, "geometry": { "type": "Point", "coordinates": [ 782136.648112870869227, 8996395.480811856687069 ] } },
{ "type": "Feature", "properties": { "LAYER": "_06.Asesories", "GM_TYPE": "Unknown Line Type", "ELEVATION": 0, "NAME": null, "path": "Point?crs=EPSG:32751&field=LAYER:string(13,0)&field=GM_TYPE:string(17,0)&field=ELEVATION:integer(1,0)&uid={e4f14619-dc9f-44d2-9bb4-d97699772648}" }, "geometry": { "type": "Point", "coordinates": [ 782212.827679615933448, 8996209.542104057967663 ] } },
{ "type": "Feature", "properties": { "LAYER": "_06.Asesories", "GM_TYPE": "Unknown Line Type", "ELEVATION": 0, "NAME": null, "path": "Point?crs=EPSG:32751&field=LAYER:string(13,0)&field=GM_TYPE:string(17,0)&field=ELEVATION:integer(1,0)&uid={e4f14619-dc9f-44d2-9bb4-d97699772648}" }, "geometry": { "type": "Point", "coordinates": [ 782222.51518538815435, 8996213.4678178075701 ] } },
{ "type": "Feature", "properties": { "LAYER": "_06.Asesories", "GM_TYPE": "Unknown Line Type", "ELEVATION": 0, "NAME": null, "path": "Point?crs=EPSG:32751&field=LAYER:string(13,0)&field=GM_TYPE:string(17,0)&field=ELEVATION:integer(1,0)&uid={e4f14619-dc9f-44d2-9bb4-d97699772648}" }, "geometry": { "type": "Point", "coordinates": [ 782045.235432495595887, 8996600.312072830274701 ] } },
{ "type": "Feature", "properties": { "LAYER": "_06.Asesories", "GM_TYPE": "Unknown Line Type", "ELEVATION": 0, "NAME": null, "path": "Point?crs=EPSG:32751&field=LAYER:string(13,0)&field=GM_TYPE:string(17,0)&field=ELEVATION:integer(1,0)&uid={e4f14619-dc9f-44d2-9bb4-d97699772648}" }, "geometry": { "type": "Point", "coordinates": [ 782054.922938268282451, 8996604.237786579877138 ] } },
{ "type": "Feature", "properties": { "LAYER": "_06.Asesories", "GM_TYPE": "Unknown Line Type", "ELEVATION": 0, "NAME": null, "path": "Point?crs=EPSG:32751&field=LAYER:string(13,0)&field=GM_TYPE:string(17,0)&field=ELEVATION:integer(1,0)&uid={e4f14619-dc9f-44d2-9bb4-d97699772648}" }, "geometry": { "type": "Point", "coordinates": [ 782274.115372579894029, 8996092.353028725832701 ] } },
{ "type": "Feature", "properties": { "LAYER": "_06.Asesories", "GM_TYPE": "Unknown Line Type", "ELEVATION": 0, "NAME": null, "path": "Point?crs=EPSG:32751&field=LAYER:string(13,0)&field=GM_TYPE:string(17,0)&field=ELEVATION:integer(1,0)&uid={e4f14619-dc9f-44d2-9bb4-d97699772648}" }, "geometry": { "type": "Point", "coordinates": [ 782267.500164479599334, 8996088.896663786843419 ] } },
{ "type": "Feature", "properties": { "LAYER": "_06.Asesories", "GM_TYPE": "Unknown Line Type", "ELEVATION": 0, "NAME": null, "path": "Point?crs=EPSG:32751&field=LAYER:string(13,0)&field=GM_TYPE:string(17,0)&field=ELEVATION:integer(1,0)&uid={e4f14619-dc9f-44d2-9bb4-d97699772648}" }, "geometry": { "type": "Point", "coordinates": [ 782468.607225281768478, 8995568.460298120975494 ] } },
{ "type": "Feature", "properties": { "LAYER": "_06.Asesories", "GM_TYPE": "Unknown Line Type", "ELEVATION": 0, "NAME": null, "path": "Point?crs=EPSG:32751&field=LAYER:string(13,0)&field=GM_TYPE:string(17,0)&field=ELEVATION:integer(1,0)&uid={e4f14619-dc9f-44d2-9bb4-d97699772648}" }, "geometry": { "type": "Point", "coordinates": [ 782479.016319188987836, 8995569.414111819118261 ] } },
{ "type": "Feature", "properties": { "LAYER": "_06.Asesories", "GM_TYPE": "Unknown Line Type", "ELEVATION": 0, "NAME": null, "path": "Point?crs=EPSG:32751&field=LAYER:string(13,0)&field=GM_TYPE:string(17,0)&field=ELEVATION:integer(1,0)&uid={e4f14619-dc9f-44d2-9bb4-d97699772648}" }, "geometry": { "type": "Point", "coordinates": [ 782333.057832379010506, 8995936.034191582351923 ] } },
{ "type": "Feature", "properties": { "LAYER": "_06.Asesories", "GM_TYPE": "Unknown Line Type", "ELEVATION": 0, "NAME": null, "path": "Point?crs=EPSG:32751&field=LAYER:string(13,0)&field=GM_TYPE:string(17,0)&field=ELEVATION:integer(1,0)&uid={e4f14619-dc9f-44d2-9bb4-d97699772648}" }, "geometry": { "type": "Point", "coordinates": [ 782342.645881023840047, 8995940.196921419352293 ] } },
{ "type": "Feature", "properties": { "LAYER": "_06.Asesories", "GM_TYPE": "Unknown Line Type", "ELEVATION": 0, "NAME": null, "path": "Point?crs=EPSG:32751&field=LAYER:string(13,0)&field=GM_TYPE:string(17,0)&field=ELEVATION:integer(1,0)&uid={e4f14619-dc9f-44d2-9bb4-d97699772648}" }, "geometry": { "type": "Point", "coordinates": [ 782468.607225281768478, 8995568.460298120975494 ] } },
{ "type": "Feature", "properties": { "LAYER": "_06.Asesories", "GM_TYPE": "Unknown Line Type", "ELEVATION": 0, "NAME": null, "path": "Point?crs=EPSG:32751&field=LAYER:string(13,0)&field=GM_TYPE:string(17,0)&field=ELEVATION:integer(1,0)&uid={e4f14619-dc9f-44d2-9bb4-d97699772648}" }, "geometry": { "type": "Point", "coordinates": [ 782479.016319188987836, 8995569.414111819118261 ] } },
{ "type": "Feature", "properties": { "LAYER": "_06.Asesories", "GM_TYPE": "Unknown Line Type", "ELEVATION": 0, "NAME": null, "path": "Point?crs=EPSG:32751&field=LAYER:string(13,0)&field=GM_TYPE:string(17,0)&field=ELEVATION:integer(1,0)&uid={e4f14619-dc9f-44d2-9bb4-d97699772648}" }, "geometry": { "type": "Point", "coordinates": [ 782333.057832379010506, 8995936.034191582351923 ] } },
{ "type": "Feature", "properties": { "LAYER": "_06.Asesories", "GM_TYPE": "Unknown Line Type", "ELEVATION": 0, "NAME": null, "path": "Point?crs=EPSG:32751&field=LAYER:string(13,0)&field=GM_TYPE:string(17,0)&field=ELEVATION:integer(1,0)&uid={e4f14619-dc9f-44d2-9bb4-d97699772648}" }, "geometry": { "type": "Point", "coordinates": [ 782342.645881023840047, 8995940.196921419352293 ] } },
{ "type": "Feature", "properties": { "LAYER": "_06.Asesories", "GM_TYPE": "Unknown Line Type", "ELEVATION": 0, "NAME": null, "path": "Point?crs=EPSG:32751&field=LAYER:string(13,0)&field=GM_TYPE:string(17,0)&field=ELEVATION:integer(1,0)&uid={e4f14619-dc9f-44d2-9bb4-d97699772648}" }, "geometry": { "type": "Point", "coordinates": [ 782687.440085601294413, 8994578.663702815771103 ] } },
{ "type": "Feature", "properties": { "LAYER": "_06.Asesories", "GM_TYPE": "Unknown Line Type", "ELEVATION": 0, "NAME": null, "path": "Point?crs=EPSG:32751&field=LAYER:string(13,0)&field=GM_TYPE:string(17,0)&field=ELEVATION:integer(1,0)&uid={e4f14619-dc9f-44d2-9bb4-d97699772648}" }, "geometry": { "type": "Point", "coordinates": [ 782681.83441962278448, 8994573.735828451812267 ] } },
{ "type": "Feature", "properties": { "LAYER": "_06.Asesories", "GM_TYPE": "Unknown Line Type", "ELEVATION": 0, "NAME": null, "path": "Point?crs=EPSG:32751&field=LAYER:string(13,0)&field=GM_TYPE:string(17,0)&field=ELEVATION:integer(1,0)&uid={e4f14619-dc9f-44d2-9bb4-d97699772648}" }, "geometry": { "type": "Point", "coordinates": [ 782687.440085601294413, 8994578.663702815771103 ] } },
{ "type": "Feature", "properties": { "LAYER": "_06.Asesories", "GM_TYPE": "Unknown Line Type", "ELEVATION": 0, "NAME": null, "path": "Point?crs=EPSG:32751&field=LAYER:string(13,0)&field=GM_TYPE:string(17,0)&field=ELEVATION:integer(1,0)&uid={e4f14619-dc9f-44d2-9bb4-d97699772648}" }, "geometry": { "type": "Point", "coordinates": [ 782681.83441962278448, 8994573.735828451812267 ] } },
{ "type": "Feature", "properties": { "LAYER": "_06.Asesories", "GM_TYPE": "Unknown Area Type", "ELEVATION": 0, "NAME": null, "path": "Point?crs=EPSG:32751&field=LAYER:string(13,0)&field=GM_TYPE:string(17,0)&field=ELEVATION:integer(1,0)&uid={3888c06c-de9c-4855-b72c-d961dd4d1bbd}" }, "geometry": { "type": "Point", "coordinates": [ 781815.884443032671697, 8997981.787782626226544 ] } },
{ "type": "Feature", "properties": { "LAYER": "_06.Asesories", "GM_TYPE": "Unknown Area Type", "ELEVATION": 0, "NAME": null, "path": "Point?crs=EPSG:32751&field=LAYER:string(13,0)&field=GM_TYPE:string(17,0)&field=ELEVATION:integer(1,0)&uid={3888c06c-de9c-4855-b72c-d961dd4d1bbd}" }, "geometry": { "type": "Point", "coordinates": [ 781850.446506668347865, 8997860.945647519081831 ] } },
{ "type": "Feature", "properties": { "LAYER": "_06.Asesories", "GM_TYPE": "Unknown Area Type", "ELEVATION": 0, "NAME": null, "path": "Point?crs=EPSG:32751&field=LAYER:string(13,0)&field=GM_TYPE:string(17,0)&field=ELEVATION:integer(1,0)&uid={3888c06c-de9c-4855-b72c-d961dd4d1bbd}" }, "geometry": { "type": "Point", "coordinates": [ 781815.884443032671697, 8997981.787782626226544 ] } },
{ "type": "Feature", "properties": { "LAYER": "_06.Asesories", "GM_TYPE": "Unknown Area Type", "ELEVATION": 0, "NAME": null, "path": "Point?crs=EPSG:32751&field=LAYER:string(13,0)&field=GM_TYPE:string(17,0)&field=ELEVATION:integer(1,0)&uid={3888c06c-de9c-4855-b72c-d961dd4d1bbd}" }, "geometry": { "type": "Point", "coordinates": [ 781850.446506668347865, 8997860.945647519081831 ] } },
{ "type": "Feature", "properties": { "LAYER": "_06.Asesories", "GM_TYPE": "Unknown Area Type", "ELEVATION": 0, "NAME": null, "path": "Point?crs=EPSG:32751&field=LAYER:string(13,0)&field=GM_TYPE:string(17,0)&field=ELEVATION:integer(1,0)&uid={3888c06c-de9c-4855-b72c-d961dd4d1bbd}" }, "geometry": { "type": "Point", "coordinates": [ 781889.779000767273828, 8997056.370214562863111 ] } },
{ "type": "Feature", "properties": { "LAYER": "_06.Asesories", "GM_TYPE": "Unknown Area Type", "ELEVATION": 0, "NAME": null, "path": "Point?crs=EPSG:32751&field=LAYER:string(13,0)&field=GM_TYPE:string(17,0)&field=ELEVATION:integer(1,0)&uid={3888c06c-de9c-4855-b72c-d961dd4d1bbd}" }, "geometry": { "type": "Point", "coordinates": [ 781892.064636240946129, 8996933.590265845879912 ] } },
{ "type": "Feature", "properties": { "LAYER": "_06.Asesories", "GM_TYPE": "Unknown Area Type", "ELEVATION": 0, "NAME": null, "path": "Point?crs=EPSG:32751&field=LAYER:string(13,0)&field=GM_TYPE:string(17,0)&field=ELEVATION:integer(1,0)&uid={3888c06c-de9c-4855-b72c-d961dd4d1bbd}" }, "geometry": { "type": "Point", "coordinates": [ 781893.060013473848812, 8996920.934244522824883 ] } },
{ "type": "Feature", "properties": { "LAYER": "_06.Asesories", "GM_TYPE": "Unknown Area Type", "ELEVATION": 0, "NAME": null, "path": "Point?crs=EPSG:32751&field=LAYER:string(13,0)&field=GM_TYPE:string(17,0)&field=ELEVATION:integer(1,0)&uid={3888c06c-de9c-4855-b72c-d961dd4d1bbd}" }, "geometry": { "type": "Point", "coordinates": [ 781911.532252382719889, 8996902.88120617158711 ] } },
{ "type": "Feature", "properties": { "LAYER": "_06.Asesories", "GM_TYPE": "Unknown Area Type", "ELEVATION": 0, "NAME": null, "path": "Point?crs=EPSG:32751&field=LAYER:string(13,0)&field=GM_TYPE:string(17,0)&field=ELEVATION:integer(1,0)&uid={3888c06c-de9c-4855-b72c-d961dd4d1bbd}" }, "geometry": { "type": "Point", "coordinates": [ 781902.941219695145264, 8996876.615795500576496 ] } },
{ "type": "Feature", "properties": { "LAYER": "_06.Asesories", "GM_TYPE": "Unknown Area Type", "ELEVATION": 0, "NAME": null, "path": "Point?crs=EPSG:32751&field=LAYER:string(13,0)&field=GM_TYPE:string(17,0)&field=ELEVATION:integer(1,0)&uid={3888c06c-de9c-4855-b72c-d961dd4d1bbd}" }, "geometry": { "type": "Point", "coordinates": [ 781900.090735041187145, 8996898.711217291653156 ] } },
{ "type": "Feature", "properties": { "LAYER": "_06.Asesories", "GM_TYPE": "Unknown Area Type", "ELEVATION": 0, "NAME": null, "path": "Point?crs=EPSG:32751&field=LAYER:string(13,0)&field=GM_TYPE:string(17,0)&field=ELEVATION:integer(1,0)&uid={3888c06c-de9c-4855-b72c-d961dd4d1bbd}" }, "geometry": { "type": "Point", "coordinates": [ 781899.033371891127899, 8996891.258511358872056 ] } },
{ "type": "Feature", "properties": { "LAYER": "_06.Asesories", "GM_TYPE": "Unknown Area Type", "ELEVATION": 0, "NAME": null, "path": "Point?crs=EPSG:32751&field=LAYER:string(13,0)&field=GM_TYPE:string(17,0)&field=ELEVATION:integer(1,0)&uid={3888c06c-de9c-4855-b72c-d961dd4d1bbd}" }, "geometry": { "type": "Point", "coordinates": [ 781894.123467847704887, 8996888.832937316969037 ] } },
{ "type": "Feature", "properties": { "LAYER": "_06.Asesories", "GM_TYPE": "Unknown Area Type", "ELEVATION": 0, "NAME": null, "path": "Point?crs=EPSG:32751&field=LAYER:string(13,0)&field=GM_TYPE:string(17,0)&field=ELEVATION:integer(1,0)&uid={3888c06c-de9c-4855-b72c-d961dd4d1bbd}" }, "geometry": { "type": "Point", "coordinates": [ 781823.017585909925401, 8997082.789598599076271 ] } },
{ "type": "Feature", "properties": { "LAYER": "_06.Asesories", "GM_TYPE": "Unknown Area Type", "ELEVATION": 0, "NAME": null, "path": "Point?crs=EPSG:32751&field=LAYER:string(13,0)&field=GM_TYPE:string(17,0)&field=ELEVATION:integer(1,0)&uid={3888c06c-de9c-4855-b72c-d961dd4d1bbd}" }, "geometry": { "type": "Point", "coordinates": [ 781820.090847905841656, 8997092.891109077259898 ] } },
{ "type": "Feature", "properties": { "LAYER": "_06.Asesories", "GM_TYPE": "Unknown Area Type", "ELEVATION": 0, "NAME": null, "path": "Point?crs=EPSG:32751&field=LAYER:string(13,0)&field=GM_TYPE:string(17,0)&field=ELEVATION:integer(1,0)&uid={3888c06c-de9c-4855-b72c-d961dd4d1bbd}" }, "geometry": { "type": "Point", "coordinates": [ 781815.321355133783072, 8997086.253693275153637 ] } },
{ "type": "Feature", "properties": { "LAYER": "_06.Asesories", "GM_TYPE": "Unknown Area Type", "ELEVATION": 0, "NAME": null, "path": "Point?crs=EPSG:32751&field=LAYER:string(13,0)&field=GM_TYPE:string(17,0)&field=ELEVATION:integer(1,0)&uid={3888c06c-de9c-4855-b72c-d961dd4d1bbd}" }, "geometry": { "type": "Point", "coordinates": [ 781759.416425276664086, 8997255.128263600170612 ] } },
{ "type": "Feature", "properties": { "LAYER": "_06.Asesories", "GM_TYPE": "Unknown Area Type", "ELEVATION": 0, "NAME": null, "path": "Point?crs=EPSG:32751&field=LAYER:string(13,0)&field=GM_TYPE:string(17,0)&field=ELEVATION:integer(1,0)&uid={3888c06c-de9c-4855-b72c-d961dd4d1bbd}" }, "geometry": { "type": "Point", "coordinates": [ 781768.664484924869612, 8997233.711407849565148 ] } },
{ "type": "Feature", "properties": { "LAYER": "_06.Asesories", "GM_TYPE": "Unknown Area Type", "ELEVATION": 0, "NAME": null, "path": "Point?crs=EPSG:32751&field=LAYER:string(13,0)&field=GM_TYPE:string(17,0)&field=ELEVATION:integer(1,0)&uid={3888c06c-de9c-4855-b72c-d961dd4d1bbd}" }, "geometry": { "type": "Point", "coordinates": [ 781758.517903985688463, 8997261.843368219211698 ] } },
{ "type": "Feature", "properties": { "LAYER": "_06.Asesories", "GM_TYPE": "Unknown Area Type", "ELEVATION": 0, "NAME": null, "path": "Point?crs=EPSG:32751&field=LAYER:string(13,0)&field=GM_TYPE:string(17,0)&field=ELEVATION:integer(1,0)&uid={3888c06c-de9c-4855-b72c-d961dd4d1bbd}" }, "geometry": { "type": "Point", "coordinates": [ 781752.337283872067928, 8997256.020962649956346 ] } },
{ "type": "Feature", "properties": { "LAYER": "_06.Asesories", "GM_TYPE": "Unknown Area Type", "ELEVATION": 0, "NAME": null, "path": "Point?crs=EPSG:32751&field=LAYER:string(13,0)&field=GM_TYPE:string(17,0)&field=ELEVATION:integer(1,0)&uid={3888c06c-de9c-4855-b72c-d961dd4d1bbd}" }, "geometry": { "type": "Point", "coordinates": [ 781713.605049551348202, 8997325.922072019428015 ] } },
{ "type": "Feature", "properties": { "LAYER": "_06.Asesories", "GM_TYPE": "Unknown Area Type", "ELEVATION": 0, "NAME": null, "path": "Point?crs=EPSG:32751&field=LAYER:string(13,0)&field=GM_TYPE:string(17,0)&field=ELEVATION:integer(1,0)&uid={3888c06c-de9c-4855-b72c-d961dd4d1bbd}" }, "geometry": { "type": "Point", "coordinates": [ 781889.779000767273828, 8997056.370214562863111 ] } },
{ "type": "Feature", "properties": { "LAYER": "_06.Asesories", "GM_TYPE": "Unknown Area Type", "ELEVATION": 0, "NAME": null, "path": "Point?crs=EPSG:32751&field=LAYER:string(13,0)&field=GM_TYPE:string(17,0)&field=ELEVATION:integer(1,0)&uid={3888c06c-de9c-4855-b72c-d961dd4d1bbd}" }, "geometry": { "type": "Point", "coordinates": [ 781892.064636240946129, 8996933.590265845879912 ] } },
{ "type": "Feature", "properties": { "LAYER": "_06.Asesories", "GM_TYPE": "Unknown Area Type", "ELEVATION": 0, "NAME": null, "path": "Point?crs=EPSG:32751&field=LAYER:string(13,0)&field=GM_TYPE:string(17,0)&field=ELEVATION:integer(1,0)&uid={3888c06c-de9c-4855-b72c-d961dd4d1bbd}" }, "geometry": { "type": "Point", "coordinates": [ 781893.060013473848812, 8996920.934244522824883 ] } },
{ "type": "Feature", "properties": { "LAYER": "_06.Asesories", "GM_TYPE": "Unknown Area Type", "ELEVATION": 0, "NAME": null, "path": "Point?crs=EPSG:32751&field=LAYER:string(13,0)&field=GM_TYPE:string(17,0)&field=ELEVATION:integer(1,0)&uid={3888c06c-de9c-4855-b72c-d961dd4d1bbd}" }, "geometry": { "type": "Point", "coordinates": [ 781911.532252382719889, 8996902.88120617158711 ] } },
{ "type": "Feature", "properties": { "LAYER": "_06.Asesories", "GM_TYPE": "Unknown Area Type", "ELEVATION": 0, "NAME": null, "path": "Point?crs=EPSG:32751&field=LAYER:string(13,0)&field=GM_TYPE:string(17,0)&field=ELEVATION:integer(1,0)&uid={3888c06c-de9c-4855-b72c-d961dd4d1bbd}" }, "geometry": { "type": "Point", "coordinates": [ 781902.941219695145264, 8996876.615795500576496 ] } },
{ "type": "Feature", "properties": { "LAYER": "_06.Asesories", "GM_TYPE": "Unknown Area Type", "ELEVATION": 0, "NAME": null, "path": "Point?crs=EPSG:32751&field=LAYER:string(13,0)&field=GM_TYPE:string(17,0)&field=ELEVATION:integer(1,0)&uid={3888c06c-de9c-4855-b72c-d961dd4d1bbd}" }, "geometry": { "type": "Point", "coordinates": [ 781900.090735041187145, 8996898.711217291653156 ] } },
{ "type": "Feature", "properties": { "LAYER": "_06.Asesories", "GM_TYPE": "Unknown Area Type", "ELEVATION": 0, "NAME": null, "path": "Point?crs=EPSG:32751&field=LAYER:string(13,0)&field=GM_TYPE:string(17,0)&field=ELEVATION:integer(1,0)&uid={3888c06c-de9c-4855-b72c-d961dd4d1bbd}" }, "geometry": { "type": "Point", "coordinates": [ 781899.033371891127899, 8996891.258511358872056 ] } },
{ "type": "Feature", "properties": { "LAYER": "_06.Asesories", "GM_TYPE": "Unknown Area Type", "ELEVATION": 0, "NAME": null, "path": "Point?crs=EPSG:32751&field=LAYER:string(13,0)&field=GM_TYPE:string(17,0)&field=ELEVATION:integer(1,0)&uid={3888c06c-de9c-4855-b72c-d961dd4d1bbd}" }, "geometry": { "type": "Point", "coordinates": [ 781894.123467847704887, 8996888.832937316969037 ] } },
{ "type": "Feature", "properties": { "LAYER": "_06.Asesories", "GM_TYPE": "Unknown Area Type", "ELEVATION": 0, "NAME": null, "path": "Point?crs=EPSG:32751&field=LAYER:string(13,0)&field=GM_TYPE:string(17,0)&field=ELEVATION:integer(1,0)&uid={3888c06c-de9c-4855-b72c-d961dd4d1bbd}" }, "geometry": { "type": "Point", "coordinates": [ 781823.017585909925401, 8997082.789598599076271 ] } },
{ "type": "Feature", "properties": { "LAYER": "_06.Asesories", "GM_TYPE": "Unknown Area Type", "ELEVATION": 0, "NAME": null, "path": "Point?crs=EPSG:32751&field=LAYER:string(13,0)&field=GM_TYPE:string(17,0)&field=ELEVATION:integer(1,0)&uid={3888c06c-de9c-4855-b72c-d961dd4d1bbd}" }, "geometry": { "type": "Point", "coordinates": [ 781820.090847905841656, 8997092.891109077259898 ] } },
{ "type": "Feature", "properties": { "LAYER": "_06.Asesories", "GM_TYPE": "Unknown Area Type", "ELEVATION": 0, "NAME": null, "path": "Point?crs=EPSG:32751&field=LAYER:string(13,0)&field=GM_TYPE:string(17,0)&field=ELEVATION:integer(1,0)&uid={3888c06c-de9c-4855-b72c-d961dd4d1bbd}" }, "geometry": { "type": "Point", "coordinates": [ 781815.321355133783072, 8997086.253693275153637 ] } },
{ "type": "Feature", "properties": { "LAYER": "_06.Asesories", "GM_TYPE": "Unknown Area Type", "ELEVATION": 0, "NAME": null, "path": "Point?crs=EPSG:32751&field=LAYER:string(13,0)&field=GM_TYPE:string(17,0)&field=ELEVATION:integer(1,0)&uid={3888c06c-de9c-4855-b72c-d961dd4d1bbd}" }, "geometry": { "type": "Point", "coordinates": [ 781759.416425276664086, 8997255.128263600170612 ] } },
{ "type": "Feature", "properties": { "LAYER": "_06.Asesories", "GM_TYPE": "Unknown Area Type", "ELEVATION": 0, "NAME": null, "path": "Point?crs=EPSG:32751&field=LAYER:string(13,0)&field=GM_TYPE:string(17,0)&field=ELEVATION:integer(1,0)&uid={3888c06c-de9c-4855-b72c-d961dd4d1bbd}" }, "geometry": { "type": "Point", "coordinates": [ 781768.664484924869612, 8997233.711407849565148 ] } },
{ "type": "Feature", "properties": { "LAYER": "_06.Asesories", "GM_TYPE": "Unknown Area Type", "ELEVATION": 0, "NAME": null, "path": "Point?crs=EPSG:32751&field=LAYER:string(13,0)&field=GM_TYPE:string(17,0)&field=ELEVATION:integer(1,0)&uid={3888c06c-de9c-4855-b72c-d961dd4d1bbd}" }, "geometry": { "type": "Point", "coordinates": [ 781758.517903985688463, 8997261.843368219211698 ] } },
{ "type": "Feature", "properties": { "LAYER": "_06.Asesories", "GM_TYPE": "Unknown Area Type", "ELEVATION": 0, "NAME": null, "path": "Point?crs=EPSG:32751&field=LAYER:string(13,0)&field=GM_TYPE:string(17,0)&field=ELEVATION:integer(1,0)&uid={3888c06c-de9c-4855-b72c-d961dd4d1bbd}" }, "geometry": { "type": "Point", "coordinates": [ 781752.337283872067928, 8997256.020962649956346 ] } },
{ "type": "Feature", "properties": { "LAYER": "_06.Asesories", "GM_TYPE": "Unknown Area Type", "ELEVATION": 0, "NAME": null, "path": "Point?crs=EPSG:32751&field=LAYER:string(13,0)&field=GM_TYPE:string(17,0)&field=ELEVATION:integer(1,0)&uid={3888c06c-de9c-4855-b72c-d961dd4d1bbd}" }, "geometry": { "type": "Point", "coordinates": [ 781713.605049551348202, 8997325.922072019428015 ] } },
{ "type": "Feature", "properties": { "LAYER": "_06.Asesories", "GM_TYPE": "Unknown Area Type", "ELEVATION": 0, "NAME": null, "path": "Point?crs=EPSG:32751&field=LAYER:string(13,0)&field=GM_TYPE:string(17,0)&field=ELEVATION:integer(1,0)&uid={3888c06c-de9c-4855-b72c-d961dd4d1bbd}" }, "geometry": { "type": "Point", "coordinates": [ 781972.984282660763711, 8997421.143728466704488 ] } },
{ "type": "Feature", "properties": { "LAYER": "_06.Asesories", "GM_TYPE": "Unknown Area Type", "ELEVATION": 0, "NAME": null, "path": "Point?crs=EPSG:32751&field=LAYER:string(13,0)&field=GM_TYPE:string(17,0)&field=ELEVATION:integer(1,0)&uid={3888c06c-de9c-4855-b72c-d961dd4d1bbd}" }, "geometry": { "type": "Point", "coordinates": [ 781972.984282660763711, 8997421.143728466704488 ] } },
{ "type": "Feature", "properties": { "LAYER": "_06.Asesories", "GM_TYPE": "Unknown Area Type", "ELEVATION": 0, "NAME": null, "path": "Point?crs=EPSG:32751&field=LAYER:string(13,0)&field=GM_TYPE:string(17,0)&field=ELEVATION:integer(1,0)&uid={3888c06c-de9c-4855-b72c-d961dd4d1bbd}" }, "geometry": { "type": "Point", "coordinates": [ 782217.716752732056193, 8996211.523326262831688 ] } },
{ "type": "Feature", "properties": { "LAYER": "_06.Asesories", "GM_TYPE": "Unknown Area Type", "ELEVATION": 0, "NAME": null, "path": "Point?crs=EPSG:32751&field=LAYER:string(13,0)&field=GM_TYPE:string(17,0)&field=ELEVATION:integer(1,0)&uid={3888c06c-de9c-4855-b72c-d961dd4d1bbd}" }, "geometry": { "type": "Point", "coordinates": [ 782050.124505612417124, 8996602.293295035138726 ] } },
{ "type": "Feature", "properties": { "LAYER": "_06.Asesories", "GM_TYPE": "Unknown Area Type", "ELEVATION": 0, "NAME": null, "path": "Point?crs=EPSG:32751&field=LAYER:string(13,0)&field=GM_TYPE:string(17,0)&field=ELEVATION:integer(1,0)&uid={3888c06c-de9c-4855-b72c-d961dd4d1bbd}" }, "geometry": { "type": "Point", "coordinates": [ 782217.716752732056193, 8996211.523326262831688 ] } },
{ "type": "Feature", "properties": { "LAYER": "_06.Asesories", "GM_TYPE": "Unknown Area Type", "ELEVATION": 0, "NAME": null, "path": "Point?crs=EPSG:32751&field=LAYER:string(13,0)&field=GM_TYPE:string(17,0)&field=ELEVATION:integer(1,0)&uid={3888c06c-de9c-4855-b72c-d961dd4d1bbd}" }, "geometry": { "type": "Point", "coordinates": [ 782050.124505612417124, 8996602.293295035138726 ] } },
{ "type": "Feature", "properties": { "LAYER": "_06.Asesories", "GM_TYPE": "Unknown Area Type", "ELEVATION": 0, "NAME": null, "path": "Point?crs=EPSG:32751&field=LAYER:string(13,0)&field=GM_TYPE:string(17,0)&field=ELEVATION:integer(1,0)&uid={3888c06c-de9c-4855-b72c-d961dd4d1bbd}" }, "geometry": { "type": "Point", "coordinates": [ 782473.860468211350963, 8995568.94166711717844 ] } },
{ "type": "Feature", "properties": { "LAYER": "_06.Asesories", "GM_TYPE": "Unknown Area Type", "ELEVATION": 0, "NAME": null, "path": "Point?crs=EPSG:32751&field=LAYER:string(13,0)&field=GM_TYPE:string(17,0)&field=ELEVATION:integer(1,0)&uid={3888c06c-de9c-4855-b72c-d961dd4d1bbd}" }, "geometry": { "type": "Point", "coordinates": [ 782337.896711651002988, 8995938.135030645877123 ] } },
{ "type": "Feature", "properties": { "LAYER": "_06.Asesories", "GM_TYPE": "Unknown Area Type", "ELEVATION": 0, "NAME": null, "path": "Point?crs=EPSG:32751&field=LAYER:string(13,0)&field=GM_TYPE:string(17,0)&field=ELEVATION:integer(1,0)&uid={3888c06c-de9c-4855-b72c-d961dd4d1bbd}" }, "geometry": { "type": "Point", "coordinates": [ 782473.860468211350963, 8995568.94166711717844 ] } },
{ "type": "Feature", "properties": { "LAYER": "_06.Asesories", "GM_TYPE": "Unknown Area Type", "ELEVATION": 0, "NAME": null, "path": "Point?crs=EPSG:32751&field=LAYER:string(13,0)&field=GM_TYPE:string(17,0)&field=ELEVATION:integer(1,0)&uid={3888c06c-de9c-4855-b72c-d961dd4d1bbd}" }, "geometry": { "type": "Point", "coordinates": [ 782337.896711651002988, 8995938.135030645877123 ] } },
{ "type": "Feature", "properties": { "LAYER": "_06.Asesories", "GM_TYPE": "Unknown Area Type", "ELEVATION": 0, "NAME": null, "path": "Point?crs=EPSG:32751&field=LAYER:string(13,0)&field=GM_TYPE:string(17,0)&field=ELEVATION:integer(1,0)&uid={3888c06c-de9c-4855-b72c-d961dd4d1bbd}" }, "geometry": { "type": "Point", "coordinates": [ 781815.884443032671697, 8997981.787782626226544 ] } },
{ "type": "Feature", "properties": { "LAYER": "_06.Asesories", "GM_TYPE": "Unknown Area Type", "ELEVATION": 0, "NAME": null, "path": "Point?crs=EPSG:32751&field=LAYER:string(13,0)&field=GM_TYPE:string(17,0)&field=ELEVATION:integer(1,0)&uid={3888c06c-de9c-4855-b72c-d961dd4d1bbd}" }, "geometry": { "type": "Point", "coordinates": [ 781850.446506668347865, 8997860.945647519081831 ] } },
{ "type": "Feature", "properties": { "LAYER": "_06.Asesories", "GM_TYPE": "Unknown Area Type", "ELEVATION": 0, "NAME": null, "path": "Point?crs=EPSG:32751&field=LAYER:string(13,0)&field=GM_TYPE:string(17,0)&field=ELEVATION:integer(1,0)&uid={3888c06c-de9c-4855-b72c-d961dd4d1bbd}" }, "geometry": { "type": "Point", "coordinates": [ 781815.884443032671697, 8997981.787782626226544 ] } },
{ "type": "Feature", "properties": { "LAYER": "_06.Asesories", "GM_TYPE": "Unknown Area Type", "ELEVATION": 0, "NAME": null, "path": "Point?crs=EPSG:32751&field=LAYER:string(13,0)&field=GM_TYPE:string(17,0)&field=ELEVATION:integer(1,0)&uid={3888c06c-de9c-4855-b72c-d961dd4d1bbd}" }, "geometry": { "type": "Point", "coordinates": [ 781850.446506668347865, 8997860.945647519081831 ] } },
{ "type": "Feature", "properties": { "LAYER": "_06.Asesories", "GM_TYPE": "Unknown Area Type", "ELEVATION": 0, "NAME": null, "path": "Point?crs=EPSG:32751&field=LAYER:string(13,0)&field=GM_TYPE:string(17,0)&field=ELEVATION:integer(1,0)&uid={3888c06c-de9c-4855-b72c-d961dd4d1bbd}" }, "geometry": { "type": "Point", "coordinates": [ 781889.779000767273828, 8997056.370214562863111 ] } },
{ "type": "Feature", "properties": { "LAYER": "_06.Asesories", "GM_TYPE": "Unknown Area Type", "ELEVATION": 0, "NAME": null, "path": "Point?crs=EPSG:32751&field=LAYER:string(13,0)&field=GM_TYPE:string(17,0)&field=ELEVATION:integer(1,0)&uid={3888c06c-de9c-4855-b72c-d961dd4d1bbd}" }, "geometry": { "type": "Point", "coordinates": [ 781892.064636240946129, 8996933.590265845879912 ] } },
{ "type": "Feature", "properties": { "LAYER": "_06.Asesories", "GM_TYPE": "Unknown Area Type", "ELEVATION": 0, "NAME": null, "path": "Point?crs=EPSG:32751&field=LAYER:string(13,0)&field=GM_TYPE:string(17,0)&field=ELEVATION:integer(1,0)&uid={3888c06c-de9c-4855-b72c-d961dd4d1bbd}" }, "geometry": { "type": "Point", "coordinates": [ 781893.060013473848812, 8996920.934244522824883 ] } },
{ "type": "Feature", "properties": { "LAYER": "_06.Asesories", "GM_TYPE": "Unknown Area Type", "ELEVATION": 0, "NAME": null, "path": "Point?crs=EPSG:32751&field=LAYER:string(13,0)&field=GM_TYPE:string(17,0)&field=ELEVATION:integer(1,0)&uid={3888c06c-de9c-4855-b72c-d961dd4d1bbd}" }, "geometry": { "type": "Point", "coordinates": [ 781911.532252382719889, 8996902.88120617158711 ] } },
{ "type": "Feature", "properties": { "LAYER": "_06.Asesories", "GM_TYPE": "Unknown Area Type", "ELEVATION": 0, "NAME": null, "path": "Point?crs=EPSG:32751&field=LAYER:string(13,0)&field=GM_TYPE:string(17,0)&field=ELEVATION:integer(1,0)&uid={3888c06c-de9c-4855-b72c-d961dd4d1bbd}" }, "geometry": { "type": "Point", "coordinates": [ 781902.941219695145264, 8996876.615795500576496 ] } },
{ "type": "Feature", "properties": { "LAYER": "_06.Asesories", "GM_TYPE": "Unknown Area Type", "ELEVATION": 0, "NAME": null, "path": "Point?crs=EPSG:32751&field=LAYER:string(13,0)&field=GM_TYPE:string(17,0)&field=ELEVATION:integer(1,0)&uid={3888c06c-de9c-4855-b72c-d961dd4d1bbd}" }, "geometry": { "type": "Point", "coordinates": [ 781900.090735041187145, 8996898.711217291653156 ] } },
{ "type": "Feature", "properties": { "LAYER": "_06.Asesories", "GM_TYPE": "Unknown Area Type", "ELEVATION": 0, "NAME": null, "path": "Point?crs=EPSG:32751&field=LAYER:string(13,0)&field=GM_TYPE:string(17,0)&field=ELEVATION:integer(1,0)&uid={3888c06c-de9c-4855-b72c-d961dd4d1bbd}" }, "geometry": { "type": "Point", "coordinates": [ 781899.033371891127899, 8996891.258511358872056 ] } },
{ "type": "Feature", "properties": { "LAYER": "_06.Asesories", "GM_TYPE": "Unknown Area Type", "ELEVATION": 0, "NAME": null, "path": "Point?crs=EPSG:32751&field=LAYER:string(13,0)&field=GM_TYPE:string(17,0)&field=ELEVATION:integer(1,0)&uid={3888c06c-de9c-4855-b72c-d961dd4d1bbd}" }, "geometry": { "type": "Point", "coordinates": [ 781894.123467847704887, 8996888.832937316969037 ] } },
{ "type": "Feature", "properties": { "LAYER": "_06.Asesories", "GM_TYPE": "Unknown Area Type", "ELEVATION": 0, "NAME": null, "path": "Point?crs=EPSG:32751&field=LAYER:string(13,0)&field=GM_TYPE:string(17,0)&field=ELEVATION:integer(1,0)&uid={3888c06c-de9c-4855-b72c-d961dd4d1bbd}" }, "geometry": { "type": "Point", "coordinates": [ 781823.017585909925401, 8997082.789598599076271 ] } },
{ "type": "Feature", "properties": { "LAYER": "_06.Asesories", "GM_TYPE": "Unknown Area Type", "ELEVATION": 0, "NAME": null, "path": "Point?crs=EPSG:32751&field=LAYER:string(13,0)&field=GM_TYPE:string(17,0)&field=ELEVATION:integer(1,0)&uid={3888c06c-de9c-4855-b72c-d961dd4d1bbd}" }, "geometry": { "type": "Point", "coordinates": [ 781820.090847905841656, 8997092.891109077259898 ] } },
{ "type": "Feature", "properties": { "LAYER": "_06.Asesories", "GM_TYPE": "Unknown Area Type", "ELEVATION": 0, "NAME": null, "path": "Point?crs=EPSG:32751&field=LAYER:string(13,0)&field=GM_TYPE:string(17,0)&field=ELEVATION:integer(1,0)&uid={3888c06c-de9c-4855-b72c-d961dd4d1bbd}" }, "geometry": { "type": "Point", "coordinates": [ 781815.321355133783072, 8997086.253693275153637 ] } },
{ "type": "Feature", "properties": { "LAYER": "_06.Asesories", "GM_TYPE": "Unknown Area Type", "ELEVATION": 0, "NAME": null, "path": "Point?crs=EPSG:32751&field=LAYER:string(13,0)&field=GM_TYPE:string(17,0)&field=ELEVATION:integer(1,0)&uid={3888c06c-de9c-4855-b72c-d961dd4d1bbd}" }, "geometry": { "type": "Point", "coordinates": [ 781759.416425276664086, 8997255.128263600170612 ] } },
{ "type": "Feature", "properties": { "LAYER": "_06.Asesories", "GM_TYPE": "Unknown Area Type", "ELEVATION": 0, "NAME": null, "path": "Point?crs=EPSG:32751&field=LAYER:string(13,0)&field=GM_TYPE:string(17,0)&field=ELEVATION:integer(1,0)&uid={3888c06c-de9c-4855-b72c-d961dd4d1bbd}" }, "geometry": { "type": "Point", "coordinates": [ 781768.664484924869612, 8997233.711407849565148 ] } },
{ "type": "Feature", "properties": { "LAYER": "_06.Asesories", "GM_TYPE": "Unknown Area Type", "ELEVATION": 0, "NAME": null, "path": "Point?crs=EPSG:32751&field=LAYER:string(13,0)&field=GM_TYPE:string(17,0)&field=ELEVATION:integer(1,0)&uid={3888c06c-de9c-4855-b72c-d961dd4d1bbd}" }, "geometry": { "type": "Point", "coordinates": [ 781758.517903985688463, 8997261.843368219211698 ] } },
{ "type": "Feature", "properties": { "LAYER": "_06.Asesories", "GM_TYPE": "Unknown Area Type", "ELEVATION": 0, "NAME": null, "path": "Point?crs=EPSG:32751&field=LAYER:string(13,0)&field=GM_TYPE:string(17,0)&field=ELEVATION:integer(1,0)&uid={3888c06c-de9c-4855-b72c-d961dd4d1bbd}" }, "geometry": { "type": "Point", "coordinates": [ 781752.337283872067928, 8997256.020962649956346 ] } },
{ "type": "Feature", "properties": { "LAYER": "_06.Asesories", "GM_TYPE": "Unknown Area Type", "ELEVATION": 0, "NAME": null, "path": "Point?crs=EPSG:32751&field=LAYER:string(13,0)&field=GM_TYPE:string(17,0)&field=ELEVATION:integer(1,0)&uid={3888c06c-de9c-4855-b72c-d961dd4d1bbd}" }, "geometry": { "type": "Point", "coordinates": [ 781713.605049551348202, 8997325.922072019428015 ] } },
{ "type": "Feature", "properties": { "LAYER": "_06.Asesories", "GM_TYPE": "Unknown Area Type", "ELEVATION": 0, "NAME": null, "path": "Point?crs=EPSG:32751&field=LAYER:string(13,0)&field=GM_TYPE:string(17,0)&field=ELEVATION:integer(1,0)&uid={3888c06c-de9c-4855-b72c-d961dd4d1bbd}" }, "geometry": { "type": "Point", "coordinates": [ 781889.779000767273828, 8997056.370214562863111 ] } },
{ "type": "Feature", "properties": { "LAYER": "_06.Asesories", "GM_TYPE": "Unknown Area Type", "ELEVATION": 0, "NAME": null, "path": "Point?crs=EPSG:32751&field=LAYER:string(13,0)&field=GM_TYPE:string(17,0)&field=ELEVATION:integer(1,0)&uid={3888c06c-de9c-4855-b72c-d961dd4d1bbd}" }, "geometry": { "type": "Point", "coordinates": [ 781892.064636240946129, 8996933.590265845879912 ] } },
{ "type": "Feature", "properties": { "LAYER": "_06.Asesories", "GM_TYPE": "Unknown Area Type", "ELEVATION": 0, "NAME": null, "path": "Point?crs=EPSG:32751&field=LAYER:string(13,0)&field=GM_TYPE:string(17,0)&field=ELEVATION:integer(1,0)&uid={3888c06c-de9c-4855-b72c-d961dd4d1bbd}" }, "geometry": { "type": "Point", "coordinates": [ 781893.060013473848812, 8996920.934244522824883 ] } },
{ "type": "Feature", "properties": { "LAYER": "_06.Asesories", "GM_TYPE": "Unknown Area Type", "ELEVATION": 0, "NAME": null, "path": "Point?crs=EPSG:32751&field=LAYER:string(13,0)&field=GM_TYPE:string(17,0)&field=ELEVATION:integer(1,0)&uid={3888c06c-de9c-4855-b72c-d961dd4d1bbd}" }, "geometry": { "type": "Point", "coordinates": [ 781911.532252382719889, 8996902.88120617158711 ] } },
{ "type": "Feature", "properties": { "LAYER": "_06.Asesories", "GM_TYPE": "Unknown Area Type", "ELEVATION": 0, "NAME": null, "path": "Point?crs=EPSG:32751&field=LAYER:string(13,0)&field=GM_TYPE:string(17,0)&field=ELEVATION:integer(1,0)&uid={3888c06c-de9c-4855-b72c-d961dd4d1bbd}" }, "geometry": { "type": "Point", "coordinates": [ 781902.941219695145264, 8996876.615795500576496 ] } },
{ "type": "Feature", "properties": { "LAYER": "_06.Asesories", "GM_TYPE": "Unknown Area Type", "ELEVATION": 0, "NAME": null, "path": "Point?crs=EPSG:32751&field=LAYER:string(13,0)&field=GM_TYPE:string(17,0)&field=ELEVATION:integer(1,0)&uid={3888c06c-de9c-4855-b72c-d961dd4d1bbd}" }, "geometry": { "type": "Point", "coordinates": [ 781900.090735041187145, 8996898.711217291653156 ] } },
{ "type": "Feature", "properties": { "LAYER": "_06.Asesories", "GM_TYPE": "Unknown Area Type", "ELEVATION": 0, "NAME": null, "path": "Point?crs=EPSG:32751&field=LAYER:string(13,0)&field=GM_TYPE:string(17,0)&field=ELEVATION:integer(1,0)&uid={3888c06c-de9c-4855-b72c-d961dd4d1bbd}" }, "geometry": { "type": "Point", "coordinates": [ 781899.033371891127899, 8996891.258511358872056 ] } },
{ "type": "Feature", "properties": { "LAYER": "_06.Asesories", "GM_TYPE": "Unknown Area Type", "ELEVATION": 0, "NAME": null, "path": "Point?crs=EPSG:32751&field=LAYER:string(13,0)&field=GM_TYPE:string(17,0)&field=ELEVATION:integer(1,0)&uid={3888c06c-de9c-4855-b72c-d961dd4d1bbd}" }, "geometry": { "type": "Point", "coordinates": [ 781894.123467847704887, 8996888.832937316969037 ] } },
{ "type": "Feature", "properties": { "LAYER": "_06.Asesories", "GM_TYPE": "Unknown Area Type", "ELEVATION": 0, "NAME": null, "path": "Point?crs=EPSG:32751&field=LAYER:string(13,0)&field=GM_TYPE:string(17,0)&field=ELEVATION:integer(1,0)&uid={3888c06c-de9c-4855-b72c-d961dd4d1bbd}" }, "geometry": { "type": "Point", "coordinates": [ 781823.017585909925401, 8997082.789598599076271 ] } },
{ "type": "Feature", "properties": { "LAYER": "_06.Asesories", "GM_TYPE": "Unknown Area Type", "ELEVATION": 0, "NAME": null, "path": "Point?crs=EPSG:32751&field=LAYER:string(13,0)&field=GM_TYPE:string(17,0)&field=ELEVATION:integer(1,0)&uid={3888c06c-de9c-4855-b72c-d961dd4d1bbd}" }, "geometry": { "type": "Point", "coordinates": [ 781820.090847905841656, 8997092.891109077259898 ] } },
{ "type": "Feature", "properties": { "LAYER": "_06.Asesories", "GM_TYPE": "Unknown Area Type", "ELEVATION": 0, "NAME": null, "path": "Point?crs=EPSG:32751&field=LAYER:string(13,0)&field=GM_TYPE:string(17,0)&field=ELEVATION:integer(1,0)&uid={3888c06c-de9c-4855-b72c-d961dd4d1bbd}" }, "geometry": { "type": "Point", "coordinates": [ 781815.321355133783072, 8997086.253693275153637 ] } },
{ "type": "Feature", "properties": { "LAYER": "_06.Asesories", "GM_TYPE": "Unknown Area Type", "ELEVATION": 0, "NAME": null, "path": "Point?crs=EPSG:32751&field=LAYER:string(13,0)&field=GM_TYPE:string(17,0)&field=ELEVATION:integer(1,0)&uid={3888c06c-de9c-4855-b72c-d961dd4d1bbd}" }, "geometry": { "type": "Point", "coordinates": [ 781759.416425276664086, 8997255.128263600170612 ] } },
{ "type": "Feature", "properties": { "LAYER": "_06.Asesories", "GM_TYPE": "Unknown Area Type", "ELEVATION": 0, "NAME": null, "path": "Point?crs=EPSG:32751&field=LAYER:string(13,0)&field=GM_TYPE:string(17,0)&field=ELEVATION:integer(1,0)&uid={3888c06c-de9c-4855-b72c-d961dd4d1bbd}" }, "geometry": { "type": "Point", "coordinates": [ 781768.664484924869612, 8997233.711407849565148 ] } },
{ "type": "Feature", "properties": { "LAYER": "_06.Asesories", "GM_TYPE": "Unknown Area Type", "ELEVATION": 0, "NAME": null, "path": "Point?crs=EPSG:32751&field=LAYER:string(13,0)&field=GM_TYPE:string(17,0)&field=ELEVATION:integer(1,0)&uid={3888c06c-de9c-4855-b72c-d961dd4d1bbd}" }, "geometry": { "type": "Point", "coordinates": [ 781758.517903985688463, 8997261.843368219211698 ] } },
{ "type": "Feature", "properties": { "LAYER": "_06.Asesories", "GM_TYPE": "Unknown Area Type", "ELEVATION": 0, "NAME": null, "path": "Point?crs=EPSG:32751&field=LAYER:string(13,0)&field=GM_TYPE:string(17,0)&field=ELEVATION:integer(1,0)&uid={3888c06c-de9c-4855-b72c-d961dd4d1bbd}" }, "geometry": { "type": "Point", "coordinates": [ 781752.337283872067928, 8997256.020962649956346 ] } },
{ "type": "Feature", "properties": { "LAYER": "_06.Asesories", "GM_TYPE": "Unknown Area Type", "ELEVATION": 0, "NAME": null, "path": "Point?crs=EPSG:32751&field=LAYER:string(13,0)&field=GM_TYPE:string(17,0)&field=ELEVATION:integer(1,0)&uid={3888c06c-de9c-4855-b72c-d961dd4d1bbd}" }, "geometry": { "type": "Point", "coordinates": [ 781713.605049551348202, 8997325.922072019428015 ] } },
{ "type": "Feature", "properties": { "LAYER": "_06.Asesories", "GM_TYPE": "Unknown Area Type", "ELEVATION": 0, "NAME": null, "path": "Point?crs=EPSG:32751&field=LAYER:string(13,0)&field=GM_TYPE:string(17,0)&field=ELEVATION:integer(1,0)&uid={3888c06c-de9c-4855-b72c-d961dd4d1bbd}" }, "geometry": { "type": "Point", "coordinates": [ 781972.984282660763711, 8997421.143728466704488 ] } },
{ "type": "Feature", "properties": { "LAYER": "_06.Asesories", "GM_TYPE": "Unknown Area Type", "ELEVATION": 0, "NAME": null, "path": "Point?crs=EPSG:32751&field=LAYER:string(13,0)&field=GM_TYPE:string(17,0)&field=ELEVATION:integer(1,0)&uid={3888c06c-de9c-4855-b72c-d961dd4d1bbd}" }, "geometry": { "type": "Point", "coordinates": [ 781972.984282660763711, 8997421.143728466704488 ] } },
{ "type": "Feature", "properties": { "LAYER": "_06.Asesories", "GM_TYPE": "Unknown Area Type", "ELEVATION": 0, "NAME": null, "path": "Point?crs=EPSG:32751&field=LAYER:string(13,0)&field=GM_TYPE:string(17,0)&field=ELEVATION:integer(1,0)&uid={3888c06c-de9c-4855-b72c-d961dd4d1bbd}" }, "geometry": { "type": "Point", "coordinates": [ 782217.716752732056193, 8996211.523326262831688 ] } },
{ "type": "Feature", "properties": { "LAYER": "_06.Asesories", "GM_TYPE": "Unknown Area Type", "ELEVATION": 0, "NAME": null, "path": "Point?crs=EPSG:32751&field=LAYER:string(13,0)&field=GM_TYPE:string(17,0)&field=ELEVATION:integer(1,0)&uid={3888c06c-de9c-4855-b72c-d961dd4d1bbd}" }, "geometry": { "type": "Point", "coordinates": [ 782050.124505612417124, 8996602.293295035138726 ] } },
{ "type": "Feature", "properties": { "LAYER": "_06.Asesories", "GM_TYPE": "Unknown Area Type", "ELEVATION": 0, "NAME": null, "path": "Point?crs=EPSG:32751&field=LAYER:string(13,0)&field=GM_TYPE:string(17,0)&field=ELEVATION:integer(1,0)&uid={3888c06c-de9c-4855-b72c-d961dd4d1bbd}" }, "geometry": { "type": "Point", "coordinates": [ 782217.716752732056193, 8996211.523326262831688 ] } },
{ "type": "Feature", "properties": { "LAYER": "_06.Asesories", "GM_TYPE": "Unknown Area Type", "ELEVATION": 0, "NAME": null, "path": "Point?crs=EPSG:32751&field=LAYER:string(13,0)&field=GM_TYPE:string(17,0)&field=ELEVATION:integer(1,0)&uid={3888c06c-de9c-4855-b72c-d961dd4d1bbd}" }, "geometry": { "type": "Point", "coordinates": [ 782050.124505612417124, 8996602.293295035138726 ] } },
{ "type": "Feature", "properties": { "LAYER": "_06.Asesories", "GM_TYPE": "Unknown Area Type", "ELEVATION": 0, "NAME": null, "path": "Point?crs=EPSG:32751&field=LAYER:string(13,0)&field=GM_TYPE:string(17,0)&field=ELEVATION:integer(1,0)&uid={3888c06c-de9c-4855-b72c-d961dd4d1bbd}" }, "geometry": { "type": "Point", "coordinates": [ 782473.860468211350963, 8995568.94166711717844 ] } },
{ "type": "Feature", "properties": { "LAYER": "_06.Asesories", "GM_TYPE": "Unknown Area Type", "ELEVATION": 0, "NAME": null, "path": "Point?crs=EPSG:32751&field=LAYER:string(13,0)&field=GM_TYPE:string(17,0)&field=ELEVATION:integer(1,0)&uid={3888c06c-de9c-4855-b72c-d961dd4d1bbd}" }, "geometry": { "type": "Point", "coordinates": [ 782337.896711651002988, 8995938.135030645877123 ] } },
{ "type": "Feature", "properties": { "LAYER": "_06.Asesories", "GM_TYPE": "Unknown Area Type", "ELEVATION": 0, "NAME": null, "path": "Point?crs=EPSG:32751&field=LAYER:string(13,0)&field=GM_TYPE:string(17,0)&field=ELEVATION:integer(1,0)&uid={3888c06c-de9c-4855-b72c-d961dd4d1bbd}" }, "geometry": { "type": "Point", "coordinates": [ 782473.860468211350963, 8995568.94166711717844 ] } },
{ "type": "Feature", "properties": { "LAYER": "_06.Asesories", "GM_TYPE": "Unknown Area Type", "ELEVATION": 0, "NAME": null, "path": "Point?crs=EPSG:32751&field=LAYER:string(13,0)&field=GM_TYPE:string(17,0)&field=ELEVATION:integer(1,0)&uid={3888c06c-de9c-4855-b72c-d961dd4d1bbd}" }, "geometry": { "type": "Point", "coordinates": [ 782337.896711651002988, 8995938.135030645877123 ] } },
{ "type": "Feature", "properties": { "LAYER": "_06.Asesories", "GM_TYPE": "Text", "ELEVATION": 279, "NAME": "MOTA BELULIH", "path": "D:/TGS GEOJSON/add data baru/REIBERE/POINT/REIBERE___06.Asesories.shx|layername=REIBERE___06.Asesories" }, "geometry": { "type": "Point", "coordinates": [ 780944.058184229303151, 8999098.259449779987335 ] } },
{ "type": "Feature", "properties": { "LAYER": "_06.Asesories", "GM_TYPE": "Text", "ELEVATION": 0, "NAME": "MOTA BELULIC", "path": "D:/TGS GEOJSON/add data baru/REIBERE/POINT/REIBERE___06.Asesories.shx|layername=REIBERE___06.Asesories" }, "geometry": { "type": "Point", "coordinates": [ 781404.407374195521697, 8998130.553929137066007 ] } },
{ "type": "Feature", "properties": { "LAYER": "_06.Asesories", "GM_TYPE": "Text", "ELEVATION": 0, "NAME": "MOTA HEMLAHA", "path": "D:/TGS GEOJSON/add data baru/REIBERE/POINT/REIBERE___06.Asesories.shx|layername=REIBERE___06.Asesories" }, "geometry": { "type": "Point", "coordinates": [ 781816.567002062220126, 8998055.35132466442883 ] } },
{ "type": "Feature", "properties": { "LAYER": "_06.Asesories", "GM_TYPE": "Text", "ELEVATION": 0, "NAME": "MOTA AIMETGUA", "path": "D:/TGS GEOJSON/add data baru/REIBERE/POINT/REIBERE___06.Asesories.shx|layername=REIBERE___06.Asesories" }, "geometry": { "type": "Point", "coordinates": [ 781869.506557999062352, 8997074.920838344842196 ] } },
{ "type": "Feature", "properties": { "LAYER": "_06.Asesories", "GM_TYPE": "Text", "ELEVATION": 0, "NAME": "RAEBERE VILAGE", "path": "D:/TGS GEOJSON/add data baru/REIBERE/POINT/REIBERE___06.Asesories.shx|layername=REIBERE___06.Asesories" }, "geometry": { "type": "Point", "coordinates": [ 781964.159621631610207, 8996793.768118549138308 ] } },
{ "type": "Feature", "properties": { "LAYER": "_06.Asesories", "GM_TYPE": "Text", "ELEVATION": 0, "NAME": "MOTA KAOL", "path": "D:/TGS GEOJSON/add data baru/REIBERE/POINT/REIBERE___06.Asesories.shx|layername=REIBERE___06.Asesories" }, "geometry": { "type": "Point", "coordinates": [ 782213.486106372554787, 8996442.283274427056313 ] } },
{ "type": "Feature", "properties": { "LAYER": "_06.Asesories", "GM_TYPE": "Text", "ELEVATION": 0, "NAME": "MOTA AIMIABA", "path": "D:/TGS GEOJSON/add data baru/REIBERE/POINT/REIBERE___06.Asesories.shx|layername=REIBERE___06.Asesories" }, "geometry": { "type": "Point", "coordinates": [ 782352.505111290491186, 8996190.659237217158079 ] } },
{ "type": "Feature", "properties": { "LAYER": "_06.Asesories", "GM_TYPE": "Text", "ELEVATION": 0, "NAME": "MOTA BELULIC", "path": "D:/TGS GEOJSON/add data baru/REIBERE/POINT/REIBERE___06.Asesories.shx|layername=REIBERE___06.Asesories" }, "geometry": { "type": "Point", "coordinates": [ 782054.995175363379531, 8995852.178345017135143 ] } },
{ "type": "Feature", "properties": { "LAYER": "_06.Asesories", "GM_TYPE": "Text", "ELEVATION": 0, "NAME": "MOTA AIMUTHUN", "path": "D:/TGS GEOJSON/add data baru/REIBERE/POINT/REIBERE___06.Asesories.shx|layername=REIBERE___06.Asesories" }, "geometry": { "type": "Point", "coordinates": [ 782426.764058210304938, 8994062.97868911549449 ] } },
{ "type": "Feature", "properties": { "LAYER": "_06.Asesories", "GM_TYPE": "Text", "ELEVATION": 0, "NAME": "MOTA BELULIC", "path": "D:/TGS GEOJSON/add data baru/REIBERE/POINT/REIBERE___06.Asesories.shx|layername=REIBERE___06.Asesories" }, "geometry": { "type": "Point", "coordinates": [ 781760.037674421910197, 8994747.488466860726476 ] } },
{ "type": "Feature", "properties": { "LAYER": "_06.Asesories", "GM_TYPE": "Text", "ELEVATION": 279, "NAME": "MOTA BELULIH", "path": "D:/TGS GEOJSON/add data baru/REIBERE/POINT/REIBERE___06.Asesories.shx|layername=REIBERE___06.Asesories" }, "geometry": { "type": "Point", "coordinates": [ 780944.058184229303151, 8999098.259449779987335 ] } },
{ "type": "Feature", "properties": { "LAYER": "_06.Asesories", "GM_TYPE": "Text", "ELEVATION": 0, "NAME": "MOTA BELULIC", "path": "D:/TGS GEOJSON/add data baru/REIBERE/POINT/REIBERE___06.Asesories.shx|layername=REIBERE___06.Asesories" }, "geometry": { "type": "Point", "coordinates": [ 781404.407374195521697, 8998130.553929137066007 ] } },
{ "type": "Feature", "properties": { "LAYER": "_06.Asesories", "GM_TYPE": "Text", "ELEVATION": 0, "NAME": "MOTA HEMLAHA", "path": "D:/TGS GEOJSON/add data baru/REIBERE/POINT/REIBERE___06.Asesories.shx|layername=REIBERE___06.Asesories" }, "geometry": { "type": "Point", "coordinates": [ 781816.567002062220126, 8998055.35132466442883 ] } },
{ "type": "Feature", "properties": { "LAYER": "_06.Asesories", "GM_TYPE": "Text", "ELEVATION": 0, "NAME": "MOTA AIMETGUA", "path": "D:/TGS GEOJSON/add data baru/REIBERE/POINT/REIBERE___06.Asesories.shx|layername=REIBERE___06.Asesories" }, "geometry": { "type": "Point", "coordinates": [ 781869.506557999062352, 8997074.920838344842196 ] } },
{ "type": "Feature", "properties": { "LAYER": "_06.Asesories", "GM_TYPE": "Text", "ELEVATION": 0, "NAME": "RAEBERE VILAGE", "path": "D:/TGS GEOJSON/add data baru/REIBERE/POINT/REIBERE___06.Asesories.shx|layername=REIBERE___06.Asesories" }, "geometry": { "type": "Point", "coordinates": [ 781964.159621631610207, 8996793.768118549138308 ] } },
{ "type": "Feature", "properties": { "LAYER": "_06.Asesories", "GM_TYPE": "Text", "ELEVATION": 0, "NAME": "MOTA KAOL", "path": "D:/TGS GEOJSON/add data baru/REIBERE/POINT/REIBERE___06.Asesories.shx|layername=REIBERE___06.Asesories" }, "geometry": { "type": "Point", "coordinates": [ 782213.486106372554787, 8996442.283274427056313 ] } },
{ "type": "Feature", "properties": { "LAYER": "_06.Asesories", "GM_TYPE": "Text", "ELEVATION": 0, "NAME": "MOTA AIMIABA", "path": "D:/TGS GEOJSON/add data baru/REIBERE/POINT/REIBERE___06.Asesories.shx|layername=REIBERE___06.Asesories" }, "geometry": { "type": "Point", "coordinates": [ 782352.505111290491186, 8996190.659237217158079 ] } },
{ "type": "Feature", "properties": { "LAYER": "_06.Asesories", "GM_TYPE": "Text", "ELEVATION": 0, "NAME": "MOTA BELULIC", "path": "D:/TGS GEOJSON/add data baru/REIBERE/POINT/REIBERE___06.Asesories.shx|layername=REIBERE___06.Asesories" }, "geometry": { "type": "Point", "coordinates": [ 782054.995175363379531, 8995852.178345017135143 ] } },
{ "type": "Feature", "properties": { "LAYER": "_06.Asesories", "GM_TYPE": "Text", "ELEVATION": 0, "NAME": "MOTA AIMUTHUN", "path": "D:/TGS GEOJSON/add data baru/REIBERE/POINT/REIBERE___06.Asesories.shx|layername=REIBERE___06.Asesories" }, "geometry": { "type": "Point", "coordinates": [ 782426.764058210304938, 8994062.97868911549449 ] } },
{ "type": "Feature", "properties": { "LAYER": "_06.Asesories", "GM_TYPE": "Text", "ELEVATION": 0, "NAME": "MOTA BELULIC", "path": "D:/TGS GEOJSON/add data baru/REIBERE/POINT/REIBERE___06.Asesories.shx|layername=REIBERE___06.Asesories" }, "geometry": { "type": "Point", "coordinates": [ 781760.037674421910197, 8994747.488466860726476 ] } }
]
}
