{
"type": "FeatureCollection",
"name": "09_rei_ar_boxtersier",
"crs": { "type": "name", "properties": { "name": "urn:ogc:def:crs:EPSG::32751" } },
"features": [
{ "type": "Feature", "properties": { "LAYER": "_Box tersier", "GM_TYPE": "Unknown Area Type", "ELEVATION": 0 }, "geometry": { "type": "MultiPolygon", "coordinates": [ [ [ [ 781723.286426640930586, 8997991.362168846651912 ], [ 781723.286426640930586, 8997988.862168846651912 ], [ 781720.786426640930586, 8997988.862168846651912 ], [ 781720.786426640930586, 8997991.362168846651912 ], [ 781723.286426640930586, 8997991.362168846651912 ] ] ] ] } },
{ "type": "Feature", "properties": { "LAYER": "_Box tersier", "GM_TYPE": "Unknown Area Type", "ELEVATION": 0 }, "geometry": { "type": "MultiPolygon", "coordinates": [ [ [ [ 781690.758171886554919, 8997755.684227092191577 ], [ 781690.758171886554919, 8997753.184227092191577 ], [ 781688.258171886554919, 8997753.184227092191577 ], [ 781688.258171886554919, 8997755.684227092191577 ], [ 781690.758171886554919, 8997755.684227092191577 ] ] ] ] } },
{ "type": "Feature", "properties": { "LAYER": "_Box tersier", "GM_TYPE": "Unknown Area Type", "ELEVATION": -519 }, "geometry": { "type": "MultiPolygon", "coordinates": [ [ [ [ 781871.986523316707462, 8997018.422188557684422 ], [ 781872.876423159148544, 8997016.085935516282916 ], [ 781870.540170117747039, 8997015.196035677567124 ], [ 781869.650270276237279, 8997017.532288720831275 ], [ 781871.986523316707462, 8997018.422188557684422 ] ] ] ] } },
{ "type": "Feature", "properties": { "LAYER": "_Box tersier", "GM_TYPE": "Unknown Area Type", "ELEVATION": -259 }, "geometry": { "type": "MultiPolygon", "coordinates": [ [ [ [ 782176.583533296827227, 8997209.00633155182004 ], [ 782176.121254354249686, 8997211.463219454512 ], [ 782178.578142262529582, 8997211.925498396158218 ], [ 782179.0404212041758, 8997209.468610491603613 ], [ 782176.583533296827227, 8997209.00633155182004 ] ] ] ] } },
{ "type": "Feature", "properties": { "LAYER": "_Box tersier", "GM_TYPE": "Unknown Area Type", "ELEVATION": -519 }, "geometry": { "type": "MultiPolygon", "coordinates": [ [ [ [ 782214.079457048210315, 8997137.422652818262577 ], [ 782212.893978848005645, 8997139.623707439750433 ], [ 782215.095033468562178, 8997140.809185635298491 ], [ 782216.280511666904204, 8997138.608131011947989 ], [ 782214.079457048210315, 8997137.422652818262577 ] ] ] ] } },
{ "type": "Feature", "properties": { "LAYER": "_Box tersier", "GM_TYPE": "Unknown Area Type", "ELEVATION": -519 }, "geometry": { "type": "MultiPolygon", "coordinates": [ [ [ [ 782034.165229470818304, 8997076.400003407150507 ], [ 782035.055129313259386, 8997074.063750365749002 ], [ 782032.71887627185788, 8997073.17385052703321 ], [ 782031.828976430348121, 8997075.51010357029736 ], [ 782034.165229470818304, 8997076.400003407150507 ] ] ] ] } },
{ "type": "Feature", "properties": { "LAYER": "_Box tersier", "GM_TYPE": "Unknown Area Type", "ELEVATION": -259 }, "geometry": { "type": "MultiPolygon", "coordinates": [ [ [ [ 782646.719839027267881, 8996262.670917781069875 ], [ 782644.329053016495891, 8996263.401768134906888 ], [ 782645.059903371264227, 8996265.792554149404168 ], [ 782647.450689383898862, 8996265.061703795567155 ], [ 782646.719839027267881, 8996262.670917781069875 ] ] ] ] } },
{ "type": "Feature", "properties": { "LAYER": "_Box tersier", "GM_TYPE": "Unknown Area Type", "ELEVATION": -13 }, "geometry": { "type": "MultiPolygon", "coordinates": [ [ [ [ 782646.524327459163032, 8996156.278297765180469 ], [ 782647.03525739943143, 8996153.831064512953162 ], [ 782644.588024143478833, 8996153.32013457454741 ], [ 782644.077094204141758, 8996155.767367826774716 ], [ 782646.524327459163032, 8996156.278297765180469 ] ] ] ] } },
{ "type": "Feature", "properties": { "LAYER": "_Box tersier", "GM_TYPE": "Unknown Area Type", "ELEVATION": 0 }, "geometry": { "type": "MultiPolygon", "coordinates": [ [ [ [ 782225.868741936050355, 8995028.899971639737487 ], [ 782223.93328208848834, 8995027.317569928243756 ], [ 782222.350880376063287, 8995029.253029776737094 ], [ 782224.286340223625302, 8995030.835431488230824 ], [ 782225.868741936050355, 8995028.899971639737487 ] ] ] ] } },
{ "type": "Feature", "properties": { "LAYER": "_Box tersier", "GM_TYPE": "Unknown Area Type", "ELEVATION": 0 }, "geometry": { "type": "MultiPolygon", "coordinates": [ [ [ [ 782391.270174854435027, 8994947.348636152222753 ], [ 782388.77579830493778, 8994947.516223853453994 ], [ 782388.943386006169021, 8994950.010600401088595 ], [ 782391.437762554734945, 8994949.843012699857354 ], [ 782391.270174854435027, 8994947.348636152222753 ] ] ] ] } },
{ "type": "Feature", "properties": { "LAYER": "_Box tersier", "GM_TYPE": "Unknown Area Type", "ELEVATION": 0 }, "geometry": { "type": "MultiPolygon", "coordinates": [ [ [ [ 782288.079806076944806, 8994853.385854359716177 ], [ 782286.379990805522539, 8994855.219055943191051 ], [ 782288.213192389928736, 8994856.918871212750673 ], [ 782289.91300766041968, 8994855.085669629275799 ], [ 782288.079806076944806, 8994853.385854359716177 ] ] ] ] } },
{ "type": "Feature", "properties": { "LAYER": "_Box tersier", "GM_TYPE": "Unknown Area Type", "ELEVATION": 0 }, "geometry": { "type": "MultiPolygon", "coordinates": [ [ [ [ 781723.286426640930586, 8997991.362168846651912 ], [ 781723.286426640930586, 8997988.862168846651912 ], [ 781720.786426640930586, 8997988.862168846651912 ], [ 781720.786426640930586, 8997991.362168846651912 ], [ 781723.286426640930586, 8997991.362168846651912 ] ] ] ] } },
{ "type": "Feature", "properties": { "LAYER": "_Box tersier", "GM_TYPE": "Unknown Area Type", "ELEVATION": 0 }, "geometry": { "type": "MultiPolygon", "coordinates": [ [ [ [ 781690.758171886554919, 8997755.684227092191577 ], [ 781690.758171886554919, 8997753.184227092191577 ], [ 781688.258171886554919, 8997753.184227092191577 ], [ 781688.258171886554919, 8997755.684227092191577 ], [ 781690.758171886554919, 8997755.684227092191577 ] ] ] ] } },
{ "type": "Feature", "properties": { "LAYER": "_Box tersier", "GM_TYPE": "Unknown Area Type", "ELEVATION": -519 }, "geometry": { "type": "MultiPolygon", "coordinates": [ [ [ [ 781871.986523316707462, 8997018.422188557684422 ], [ 781872.876423159148544, 8997016.085935516282916 ], [ 781870.540170117747039, 8997015.196035677567124 ], [ 781869.650270276237279, 8997017.532288720831275 ], [ 781871.986523316707462, 8997018.422188557684422 ] ] ] ] } },
{ "type": "Feature", "properties": { "LAYER": "_Box tersier", "GM_TYPE": "Unknown Area Type", "ELEVATION": -259 }, "geometry": { "type": "MultiPolygon", "coordinates": [ [ [ [ 782176.583533296827227, 8997209.00633155182004 ], [ 782176.121254354249686, 8997211.463219454512 ], [ 782178.578142262529582, 8997211.925498396158218 ], [ 782179.0404212041758, 8997209.468610491603613 ], [ 782176.583533296827227, 8997209.00633155182004 ] ] ] ] } },
{ "type": "Feature", "properties": { "LAYER": "_Box tersier", "GM_TYPE": "Unknown Area Type", "ELEVATION": -519 }, "geometry": { "type": "MultiPolygon", "coordinates": [ [ [ [ 782214.079457048210315, 8997137.422652818262577 ], [ 782212.893978848005645, 8997139.623707439750433 ], [ 782215.095033468562178, 8997140.809185635298491 ], [ 782216.280511666904204, 8997138.608131011947989 ], [ 782214.079457048210315, 8997137.422652818262577 ] ] ] ] } },
{ "type": "Feature", "properties": { "LAYER": "_Box tersier", "GM_TYPE": "Unknown Area Type", "ELEVATION": -519 }, "geometry": { "type": "MultiPolygon", "coordinates": [ [ [ [ 782034.165229470818304, 8997076.400003407150507 ], [ 782035.055129313259386, 8997074.063750365749002 ], [ 782032.71887627185788, 8997073.17385052703321 ], [ 782031.828976430348121, 8997075.51010357029736 ], [ 782034.165229470818304, 8997076.400003407150507 ] ] ] ] } },
{ "type": "Feature", "properties": { "LAYER": "_Box tersier", "GM_TYPE": "Unknown Area Type", "ELEVATION": -259 }, "geometry": { "type": "MultiPolygon", "coordinates": [ [ [ [ 782646.719839027267881, 8996262.670917781069875 ], [ 782644.329053016495891, 8996263.401768134906888 ], [ 782645.059903371264227, 8996265.792554149404168 ], [ 782647.450689383898862, 8996265.061703795567155 ], [ 782646.719839027267881, 8996262.670917781069875 ] ] ] ] } },
{ "type": "Feature", "properties": { "LAYER": "_Box tersier", "GM_TYPE": "Unknown Area Type", "ELEVATION": -13 }, "geometry": { "type": "MultiPolygon", "coordinates": [ [ [ [ 782646.524327459163032, 8996156.278297765180469 ], [ 782647.03525739943143, 8996153.831064512953162 ], [ 782644.588024143478833, 8996153.32013457454741 ], [ 782644.077094204141758, 8996155.767367826774716 ], [ 782646.524327459163032, 8996156.278297765180469 ] ] ] ] } },
{ "type": "Feature", "properties": { "LAYER": "_Box tersier", "GM_TYPE": "Unknown Area Type", "ELEVATION": 0 }, "geometry": { "type": "MultiPolygon", "coordinates": [ [ [ [ 782225.868741936050355, 8995028.899971639737487 ], [ 782223.93328208848834, 8995027.317569928243756 ], [ 782222.350880376063287, 8995029.253029776737094 ], [ 782224.286340223625302, 8995030.835431488230824 ], [ 782225.868741936050355, 8995028.899971639737487 ] ] ] ] } },
{ "type": "Feature", "properties": { "LAYER": "_Box tersier", "GM_TYPE": "Unknown Area Type", "ELEVATION": 0 }, "geometry": { "type": "MultiPolygon", "coordinates": [ [ [ [ 782391.270174854435027, 8994947.348636152222753 ], [ 782388.77579830493778, 8994947.516223853453994 ], [ 782388.943386006169021, 8994950.010600401088595 ], [ 782391.437762554734945, 8994949.843012699857354 ], [ 782391.270174854435027, 8994947.348636152222753 ] ] ] ] } },
{ "type": "Feature", "properties": { "LAYER": "_Box tersier", "GM_TYPE": "Unknown Area Type", "ELEVATION": 0 }, "geometry": { "type": "MultiPolygon", "coordinates": [ [ [ [ 782288.079806076944806, 8994853.385854359716177 ], [ 782286.379990805522539, 8994855.219055943191051 ], [ 782288.213192389928736, 8994856.918871212750673 ], [ 782289.91300766041968, 8994855.085669629275799 ], [ 782288.079806076944806, 8994853.385854359716177 ] ] ] ] } }
]
}
