{
"type": "FeatureCollection",
"name": "09_rei_li_bangunan",
"crs": { "type": "name", "properties": { "name": "urn:ogc:def:crs:EPSG::32751" } },
"features": [
{ "type": "Feature", "properties": { "LAYER": "_BANGUNAN", "GM_TYPE": "Unknown Line Type", "ELEVATION": 552 }, "geometry": { "type": "MultiLineString", "coordinates": [ [ [ 781009.66711214336101, 8999028.041047578677535 ], [ 780964.839465619646944, 8999011.690148299559951 ], [ 780973.559945234213956, 8998987.782070154324174 ], [ 780969.532725013210438, 8998979.130117231979966 ] ] ] } },
{ "type": "Feature", "properties": { "LAYER": "_BANGUNAN", "GM_TYPE": "Unknown Line Type", "ELEVATION": 552 }, "geometry": { "type": "MultiLineString", "coordinates": [ [ [ 780967.019585522939451, 8999005.713128762319684 ], [ 780962.659345715655945, 8999017.667167836800218 ], [ 780954.007392791914754, 8999021.69438805244863 ] ] ] } },
{ "type": "Feature", "properties": { "LAYER": "_BANGUNAN", "GM_TYPE": "Unknown Line Type", "ELEVATION": 552 }, "geometry": { "type": "MultiLineString", "coordinates": [ [ [ 781019.630807765177451, 8999018.130870914086699 ], [ 781014.027351950411685, 8999016.087008504197001 ], [ 781018.38759175746236, 8999004.132969429716468 ], [ 781027.039544676314108, 8999000.105749214068055 ] ] ] } },
{ "type": "Feature", "properties": { "LAYER": "_BANGUNAN", "GM_TYPE": "Unknown Line Type", "ELEVATION": 552 }, "geometry": { "type": "MultiLineString", "coordinates": [ [ [ 781017.450687861186452, 8999024.107890451326966 ], [ 781011.847232046420686, 8999022.064028041437268 ], [ 781007.48699223913718, 8999034.018067112192512 ], [ 781011.514212455018423, 8999042.670020034536719 ] ] ] } },
{ "type": "Feature", "properties": { "LAYER": "_BANGUNAN", "GM_TYPE": "Unknown Line Type", "ELEVATION": 552 }, "geometry": { "type": "MultiLineString", "coordinates": [ [ [ 781009.66711214336101, 8999028.041047578677535 ], [ 780964.839465619646944, 8999011.690148299559951 ], [ 780973.559945234213956, 8998987.782070154324174 ], [ 780969.532725013210438, 8998979.130117231979966 ] ] ] } },
{ "type": "Feature", "properties": { "LAYER": "_BANGUNAN", "GM_TYPE": "Unknown Line Type", "ELEVATION": 552 }, "geometry": { "type": "MultiLineString", "coordinates": [ [ [ 780967.019585522939451, 8999005.713128762319684 ], [ 780962.659345715655945, 8999017.667167836800218 ], [ 780954.007392791914754, 8999021.69438805244863 ] ] ] } },
{ "type": "Feature", "properties": { "LAYER": "_BANGUNAN", "GM_TYPE": "Unknown Line Type", "ELEVATION": 552 }, "geometry": { "type": "MultiLineString", "coordinates": [ [ [ 781019.630807765177451, 8999018.130870914086699 ], [ 781014.027351950411685, 8999016.087008504197001 ], [ 781018.38759175746236, 8999004.132969429716468 ], [ 781027.039544676314108, 8999000.105749214068055 ] ] ] } },
{ "type": "Feature", "properties": { "LAYER": "_BANGUNAN", "GM_TYPE": "Unknown Line Type", "ELEVATION": 552 }, "geometry": { "type": "MultiLineString", "coordinates": [ [ [ 781017.450687861186452, 8999024.107890451326966 ], [ 781011.847232046420686, 8999022.064028041437268 ], [ 781007.48699223913718, 8999034.018067112192512 ], [ 781011.514212455018423, 8999042.670020034536719 ] ] ] } }
]
}
