{
"type": "FeatureCollection",
"name": "09_rei_ar_legend",
"crs": { "type": "name", "properties": { "name": "urn:ogc:def:crs:EPSG::32751" } },
"features": [
{ "type": "Feature", "properties": { "LAYER": "Legend", "GM_TYPE": "Unknown Area Type", "ELEVATION": 0 }, "geometry": { "type": "MultiPolygon", "coordinates": [ [ [ [ 781893.199481064337306, 8996937.074161985889077 ], [ 781895.368535399553366, 8996932.006076643243432 ], [ 781890.929791418253444, 8996930.106369707733393 ], [ 781888.7607370816404, 8996935.174455050379038 ], [ 781893.199481064337306, 8996937.074161985889077 ] ] ] ] } },
{ "type": "Feature", "properties": { "LAYER": "Legend", "GM_TYPE": "Unknown Area Type", "ELEVATION": 0 }, "geometry": { "type": "MultiPolygon", "coordinates": [ [ [ [ 781894.549807007540949, 8996924.180035667493939 ], [ 781896.461300536408089, 8996919.845258181914687 ], [ 781891.570219939923845, 8996917.688453378155828 ], [ 781889.658726411522366, 8996922.02323086373508 ], [ 781894.549807007540949, 8996924.180035667493939 ] ] ] ] } },
{ "type": "Feature", "properties": { "LAYER": "Legend", "GM_TYPE": "Unknown Area Type", "ELEVATION": 0 }, "geometry": { "type": "MultiPolygon", "coordinates": [ [ [ [ 781904.007952679879963, 8996879.876054333522916 ], [ 781905.69325088779442, 8996874.56798418238759 ], [ 781901.87448671052698, 8996873.355536673218012 ], [ 781900.189188502146862, 8996878.663606824353337 ], [ 781904.007952679879963, 8996879.876054333522916 ] ] ] ] } },
{ "type": "Feature", "properties": { "LAYER": "Legend", "GM_TYPE": "Unknown Area Type", "ELEVATION": 0 }, "geometry": { "type": "MultiPolygon", "coordinates": [ [ [ [ 781912.598985367338173, 8996906.141465004533529 ], [ 781914.284283576300368, 8996900.833394851535559 ], [ 781910.465519397635944, 8996899.620947340503335 ], [ 781908.780221189721487, 8996904.929017493501306 ], [ 781912.598985367338173, 8996906.141465004533529 ] ] ] ] } },
{ "type": "Feature", "properties": { "LAYER": "Legend", "GM_TYPE": "Unknown Area Type", "ELEVATION": 0 }, "geometry": { "type": "MultiPolygon", "coordinates": [ [ [ [ 781895.190200832206756, 8996892.093196142464876 ], [ 781896.875499040470459, 8996886.785125995054841 ], [ 781893.05673486366868, 8996885.572678487747908 ], [ 781891.371436654124409, 8996890.880748635157943 ], [ 781895.190200832206756, 8996892.093196142464876 ] ] ] ] } },
{ "type": "Feature", "properties": { "LAYER": "Legend", "GM_TYPE": "Unknown Area Type", "ELEVATION": 0 }, "geometry": { "type": "MultiPolygon", "coordinates": [ [ [ [ 781900.100104875396937, 8996894.51877018623054 ], [ 781901.785403084475547, 8996889.21070003695786 ], [ 781897.966638906742446, 8996887.998252531513572 ], [ 781896.281340698129497, 8996893.306322680786252 ], [ 781900.100104875396937, 8996894.51877018623054 ] ] ] ] } },
{ "type": "Feature", "properties": { "LAYER": "Legend", "GM_TYPE": "Unknown Area Type", "ELEVATION": 0 }, "geometry": { "type": "MultiPolygon", "coordinates": [ [ [ [ 781901.157468025339767, 8996901.971476117148995 ], [ 781902.842766234534793, 8996896.66340596973896 ], [ 781899.02400205633603, 8996895.450958466157317 ], [ 781897.338703847723082, 8996900.759028613567352 ], [ 781901.157468025339767, 8996901.971476117148995 ] ] ] ] } },
{ "type": "Feature", "properties": { "LAYER": "Legend", "GM_TYPE": "Unknown Area Type", "ELEVATION": 0 }, "geometry": { "type": "MultiPolygon", "coordinates": [ [ [ [ 781914.532637134077959, 8996870.216526022180915 ], [ 781912.582264600205235, 8996869.597287910059094 ], [ 781910.896966390893795, 8996874.90535806491971 ], [ 781914.532637134077959, 8996876.059673888608813 ], [ 781914.532637134077959, 8996870.216526022180915 ] ] ] ] } },
{ "type": "Feature", "properties": { "LAYER": "Legend", "GM_TYPE": "Unknown Area Type", "ELEVATION": 0 }, "geometry": { "type": "MultiPolygon", "coordinates": [ [ [ [ 781894.282823033630848, 8997057.075421880930662 ], [ 781888.987687805318274, 8997051.956608949229121 ], [ 781885.325673578307033, 8997055.744764678180218 ], [ 781890.48833321116399, 8997060.735513310879469 ], [ 781894.282823033630848, 8997057.075421880930662 ] ] ] ] } },
{ "type": "Feature", "properties": { "LAYER": "Legend", "GM_TYPE": "Unknown Area Type", "ELEVATION": 0 }, "geometry": { "type": "MultiPolygon", "coordinates": [ [ [ [ 781753.404016856220551, 8997259.28122148104012 ], [ 781755.08931506506633, 8997253.97315132804215 ], [ 781751.270550886983983, 8997252.760703824460506 ], [ 781749.585252679418772, 8997258.068773971870542 ], [ 781753.404016856220551, 8997259.28122148104012 ] ] ] ] } },
{ "type": "Feature", "properties": { "LAYER": "Legend", "GM_TYPE": "Unknown Area Type", "ELEVATION": 0 }, "geometry": { "type": "MultiPolygon", "coordinates": [ [ [ [ 781821.157580890576355, 8997096.151367902755737 ], [ 781822.842879099189304, 8997090.843297755345702 ], [ 781819.024114920757711, 8997089.630850248038769 ], [ 781817.338816712494008, 8997094.938920399174094 ], [ 781821.157580890576355, 8997096.151367902755737 ] ] ] ] } },
{ "type": "Feature", "properties": { "LAYER": "Legend", "GM_TYPE": "Unknown Area Type", "ELEVATION": 0 }, "geometry": { "type": "MultiPolygon", "coordinates": [ [ [ [ 781824.084318894543685, 8997086.0498574282974 ], [ 781825.769617102574557, 8997080.74178727902472 ], [ 781821.950852925307117, 8997079.529339769855142 ], [ 781820.265554717392661, 8997084.837409920990467 ], [ 781824.084318894543685, 8997086.0498574282974 ] ] ] ] } },
{ "type": "Feature", "properties": { "LAYER": "Legend", "GM_TYPE": "Unknown Area Type", "ELEVATION": 0 }, "geometry": { "type": "MultiPolygon", "coordinates": [ [ [ [ 781816.388088117935695, 8997089.513952104374766 ], [ 781818.073386326781474, 8997084.205881951376796 ], [ 781814.254622148815542, 8997082.993434445932508 ], [ 781812.569323940435424, 8997088.301504595205188 ], [ 781816.388088117935695, 8997089.513952104374766 ] ] ] ] } },
{ "type": "Feature", "properties": { "LAYER": "Legend", "GM_TYPE": "Unknown Area Type", "ELEVATION": 0 }, "geometry": { "type": "MultiPolygon", "coordinates": [ [ [ [ 781769.731217909255065, 8997236.971666678786278 ], [ 781771.416516117751598, 8997231.663596527650952 ], [ 781767.597751939669251, 8997230.451149020344019 ], [ 781765.912453731987625, 8997235.759219171479344 ], [ 781769.731217909255065, 8997236.971666678786278 ] ] ] ] } },
{ "type": "Feature", "properties": { "LAYER": "Legend", "GM_TYPE": "Unknown Area Type", "ELEVATION": 0 }, "geometry": { "type": "MultiPolygon", "coordinates": [ [ [ [ 781759.584636970306747, 8997265.103627048432827 ], [ 781761.269935178454034, 8997259.795556899160147 ], [ 781757.451171000837348, 8997258.583109393715858 ], [ 781755.765872791642323, 8997263.891179542988539 ], [ 781759.584636970306747, 8997265.103627048432827 ] ] ] ] } },
{ "type": "Feature", "properties": { "LAYER": "Legend", "GM_TYPE": "Unknown Area Type", "ELEVATION": 0 }, "geometry": { "type": "MultiPolygon", "coordinates": [ [ [ [ 781760.483158261165954, 8997258.388522427529097 ], [ 781762.168456469895318, 8997253.080452278256416 ], [ 781758.349692291929387, 8997251.868004772812128 ], [ 781756.664394083549269, 8997257.176074920222163 ], [ 781760.483158261165954, 8997258.388522427529097 ] ] ] ] } },
{ "type": "Feature", "properties": { "LAYER": "Legend", "GM_TYPE": "Unknown Area Type", "ELEVATION": 0 }, "geometry": { "type": "MultiPolygon", "coordinates": [ [ [ [ 781714.671782535966486, 8997329.182330848649144 ], [ 781716.35708074469585, 8997323.874260699376464 ], [ 781712.538316567195579, 8997322.66181318834424 ], [ 781710.853018358233385, 8997327.969883341342211 ], [ 781714.671782535966486, 8997329.182330848649144 ] ] ] ] } },
{ "type": "Feature", "properties": { "LAYER": "Legend", "GM_TYPE": "Unknown Area Type", "ELEVATION": 0 }, "geometry": { "type": "MultiPolygon", "coordinates": [ [ [ [ 781922.823493011062965, 8996821.031676957383752 ], [ 781919.004728833097033, 8996819.819229450076818 ], [ 781917.319430624833331, 8996825.127299599349499 ], [ 781921.138194802450016, 8996826.339747106656432 ], [ 781922.823493011062965, 8996821.031676957383752 ] ] ] ] } },
{ "type": "Feature", "properties": { "LAYER": "Legend", "GM_TYPE": "Unknown Area Type", "ELEVATION": 0 }, "geometry": { "type": "MultiPolygon", "coordinates": [ [ [ [ 781924.715651268605143, 8996813.5428088568151 ], [ 781920.896887090755627, 8996812.330361349508166 ], [ 781919.211588882608339, 8996817.638431498780847 ], [ 781923.030353059992194, 8996818.85087900981307 ], [ 781924.715651268605143, 8996813.5428088568151 ] ] ] ] } },
{ "type": "Feature", "properties": { "LAYER": "Legend", "GM_TYPE": "Unknown Area Type", "ELEVATION": 0 }, "geometry": { "type": "MultiPolygon", "coordinates": [ [ [ [ 781953.850182403228246, 8996801.805728990584612 ], [ 781950.031418225145899, 8996800.593281481415033 ], [ 781948.346120016882196, 8996805.901351632550359 ], [ 781952.164884194498882, 8996807.113799141719937 ], [ 781953.850182403228246, 8996801.805728990584612 ] ] ] ] } },
{ "type": "Feature", "properties": { "LAYER": "Legend", "GM_TYPE": "Unknown Area Type", "ELEVATION": 0 }, "geometry": { "type": "MultiPolygon", "coordinates": [ [ [ [ 781952.200414794497192, 8996766.727525873109698 ], [ 781948.381650616414845, 8996765.515078365802765 ], [ 781946.696352408151142, 8996770.8231485132128 ], [ 781950.515116585651413, 8996772.035596022382379 ], [ 781952.200414794497192, 8996766.727525873109698 ] ] ] ] } },
{ "type": "Feature", "properties": { "LAYER": "Legend", "GM_TYPE": "Unknown Area Type", "ELEVATION": 0 }, "geometry": { "type": "MultiPolygon", "coordinates": [ [ [ [ 781923.030353060574271, 8996818.85087900981307 ], [ 781924.715651268954389, 8996813.5428088568151 ], [ 781920.896887091454118, 8996812.330361349508166 ], [ 781919.211588882724755, 8996817.638431498780847 ], [ 781923.030353060574271, 8996818.85087900981307 ] ] ] ] } },
{ "type": "Feature", "properties": { "LAYER": "Legend", "GM_TYPE": "Unknown Area Type", "ELEVATION": 0 }, "geometry": { "type": "MultiPolygon", "coordinates": [ [ [ [ 781921.13819480210077, 8996826.339747106656432 ], [ 781922.823493010248058, 8996821.031676957383752 ], [ 781919.004728832980618, 8996819.819229450076818 ], [ 781917.319430624949746, 8996825.127299599349499 ], [ 781921.13819480210077, 8996826.339747106656432 ] ] ] ] } },
{ "type": "Feature", "properties": { "LAYER": "Legend", "GM_TYPE": "Unknown Area Type", "ELEVATION": 0 }, "geometry": { "type": "MultiPolygon", "coordinates": [ [ [ [ 781952.164884194615297, 8996807.113799141719937 ], [ 781953.850182402995415, 8996801.805728992447257 ], [ 781950.031418224796653, 8996800.593281479552388 ], [ 781948.34612001653295, 8996805.901351632550359 ], [ 781952.164884194615297, 8996807.113799141719937 ] ] ] ] } },
{ "type": "Feature", "properties": { "LAYER": "Legend", "GM_TYPE": "Unknown Area Type", "ELEVATION": 0 }, "geometry": { "type": "MultiPolygon", "coordinates": [ [ [ [ 781950.515116585767828, 8996772.035596024245024 ], [ 781952.200414794147946, 8996766.727525873109698 ], [ 781948.381650616065599, 8996765.51507836394012 ], [ 781946.696352408034727, 8996770.8231485132128 ], [ 781950.515116585767828, 8996772.035596024245024 ] ] ] ] } },
{ "type": "Feature", "properties": { "LAYER": "Legend", "GM_TYPE": "Unknown Area Type", "ELEVATION": 0 }, "geometry": { "type": "MultiPolygon", "coordinates": [ [ [ [ 781922.823493011062965, 8996821.031676957383752 ], [ 781919.004728833097033, 8996819.819229450076818 ], [ 781917.319430624833331, 8996825.127299599349499 ], [ 781921.138194802450016, 8996826.339747106656432 ], [ 781922.823493011062965, 8996821.031676957383752 ] ] ] ] } },
{ "type": "Feature", "properties": { "LAYER": "Legend", "GM_TYPE": "Unknown Area Type", "ELEVATION": 0 }, "geometry": { "type": "MultiPolygon", "coordinates": [ [ [ [ 781924.715651268605143, 8996813.5428088568151 ], [ 781920.896887090755627, 8996812.330361349508166 ], [ 781919.211588882608339, 8996817.638431498780847 ], [ 781923.030353059992194, 8996818.85087900981307 ], [ 781924.715651268605143, 8996813.5428088568151 ] ] ] ] } },
{ "type": "Feature", "properties": { "LAYER": "Legend", "GM_TYPE": "Unknown Area Type", "ELEVATION": 0 }, "geometry": { "type": "MultiPolygon", "coordinates": [ [ [ [ 781953.850182403228246, 8996801.805728990584612 ], [ 781950.031418225145899, 8996800.593281481415033 ], [ 781948.346120016882196, 8996805.901351632550359 ], [ 781952.164884194498882, 8996807.113799141719937 ], [ 781953.850182403228246, 8996801.805728990584612 ] ] ] ] } },
{ "type": "Feature", "properties": { "LAYER": "Legend", "GM_TYPE": "Unknown Area Type", "ELEVATION": 0 }, "geometry": { "type": "MultiPolygon", "coordinates": [ [ [ [ 781952.200414794497192, 8996766.727525873109698 ], [ 781948.381650616414845, 8996765.515078365802765 ], [ 781946.696352408151142, 8996770.8231485132128 ], [ 781950.515116585651413, 8996772.035596022382379 ], [ 781952.200414794497192, 8996766.727525873109698 ] ] ] ] } },
{ "type": "Feature", "properties": { "LAYER": "Legend", "GM_TYPE": "Unknown Area Type", "ELEVATION": 0 }, "geometry": { "type": "MultiPolygon", "coordinates": [ [ [ [ 781893.199481064337306, 8996937.074161985889077 ], [ 781895.368535399553366, 8996932.006076643243432 ], [ 781890.929791418253444, 8996930.106369707733393 ], [ 781888.7607370816404, 8996935.174455050379038 ], [ 781893.199481064337306, 8996937.074161985889077 ] ] ] ] } },
{ "type": "Feature", "properties": { "LAYER": "Legend", "GM_TYPE": "Unknown Area Type", "ELEVATION": 0 }, "geometry": { "type": "MultiPolygon", "coordinates": [ [ [ [ 781894.549807007540949, 8996924.180035667493939 ], [ 781896.461300536408089, 8996919.845258181914687 ], [ 781891.570219939923845, 8996917.688453378155828 ], [ 781889.658726411522366, 8996922.02323086373508 ], [ 781894.549807007540949, 8996924.180035667493939 ] ] ] ] } },
{ "type": "Feature", "properties": { "LAYER": "Legend", "GM_TYPE": "Unknown Area Type", "ELEVATION": 0 }, "geometry": { "type": "MultiPolygon", "coordinates": [ [ [ [ 781904.007952679879963, 8996879.876054333522916 ], [ 781905.69325088779442, 8996874.56798418238759 ], [ 781901.87448671052698, 8996873.355536673218012 ], [ 781900.189188502146862, 8996878.663606824353337 ], [ 781904.007952679879963, 8996879.876054333522916 ] ] ] ] } },
{ "type": "Feature", "properties": { "LAYER": "Legend", "GM_TYPE": "Unknown Area Type", "ELEVATION": 0 }, "geometry": { "type": "MultiPolygon", "coordinates": [ [ [ [ 781912.598985367338173, 8996906.141465004533529 ], [ 781914.284283576300368, 8996900.833394851535559 ], [ 781910.465519397635944, 8996899.620947340503335 ], [ 781908.780221189721487, 8996904.929017493501306 ], [ 781912.598985367338173, 8996906.141465004533529 ] ] ] ] } },
{ "type": "Feature", "properties": { "LAYER": "Legend", "GM_TYPE": "Unknown Area Type", "ELEVATION": 0 }, "geometry": { "type": "MultiPolygon", "coordinates": [ [ [ [ 781895.190200832206756, 8996892.093196142464876 ], [ 781896.875499040470459, 8996886.785125995054841 ], [ 781893.05673486366868, 8996885.572678487747908 ], [ 781891.371436654124409, 8996890.880748635157943 ], [ 781895.190200832206756, 8996892.093196142464876 ] ] ] ] } },
{ "type": "Feature", "properties": { "LAYER": "Legend", "GM_TYPE": "Unknown Area Type", "ELEVATION": 0 }, "geometry": { "type": "MultiPolygon", "coordinates": [ [ [ [ 781900.100104875396937, 8996894.51877018623054 ], [ 781901.785403084475547, 8996889.21070003695786 ], [ 781897.966638906742446, 8996887.998252531513572 ], [ 781896.281340698129497, 8996893.306322680786252 ], [ 781900.100104875396937, 8996894.51877018623054 ] ] ] ] } },
{ "type": "Feature", "properties": { "LAYER": "Legend", "GM_TYPE": "Unknown Area Type", "ELEVATION": 0 }, "geometry": { "type": "MultiPolygon", "coordinates": [ [ [ [ 781901.157468025339767, 8996901.971476117148995 ], [ 781902.842766234534793, 8996896.66340596973896 ], [ 781899.02400205633603, 8996895.450958466157317 ], [ 781897.338703847723082, 8996900.759028613567352 ], [ 781901.157468025339767, 8996901.971476117148995 ] ] ] ] } },
{ "type": "Feature", "properties": { "LAYER": "Legend", "GM_TYPE": "Unknown Area Type", "ELEVATION": 0 }, "geometry": { "type": "MultiPolygon", "coordinates": [ [ [ [ 781914.532637134077959, 8996870.216526022180915 ], [ 781912.582264600205235, 8996869.597287910059094 ], [ 781910.896966390893795, 8996874.90535806491971 ], [ 781914.532637134077959, 8996876.059673888608813 ], [ 781914.532637134077959, 8996870.216526022180915 ] ] ] ] } },
{ "type": "Feature", "properties": { "LAYER": "Legend", "GM_TYPE": "Unknown Area Type", "ELEVATION": 0 }, "geometry": { "type": "MultiPolygon", "coordinates": [ [ [ [ 781894.282823033630848, 8997057.075421880930662 ], [ 781888.987687805318274, 8997051.956608949229121 ], [ 781885.325673578307033, 8997055.744764678180218 ], [ 781890.48833321116399, 8997060.735513310879469 ], [ 781894.282823033630848, 8997057.075421880930662 ] ] ] ] } },
{ "type": "Feature", "properties": { "LAYER": "Legend", "GM_TYPE": "Unknown Area Type", "ELEVATION": 0 }, "geometry": { "type": "MultiPolygon", "coordinates": [ [ [ [ 781753.404016856220551, 8997259.28122148104012 ], [ 781755.08931506506633, 8997253.97315132804215 ], [ 781751.270550886983983, 8997252.760703824460506 ], [ 781749.585252679418772, 8997258.068773971870542 ], [ 781753.404016856220551, 8997259.28122148104012 ] ] ] ] } },
{ "type": "Feature", "properties": { "LAYER": "Legend", "GM_TYPE": "Unknown Area Type", "ELEVATION": 0 }, "geometry": { "type": "MultiPolygon", "coordinates": [ [ [ [ 781821.157580890576355, 8997096.151367902755737 ], [ 781822.842879099189304, 8997090.843297755345702 ], [ 781819.024114920757711, 8997089.630850248038769 ], [ 781817.338816712494008, 8997094.938920399174094 ], [ 781821.157580890576355, 8997096.151367902755737 ] ] ] ] } },
{ "type": "Feature", "properties": { "LAYER": "Legend", "GM_TYPE": "Unknown Area Type", "ELEVATION": 0 }, "geometry": { "type": "MultiPolygon", "coordinates": [ [ [ [ 781824.084318894543685, 8997086.0498574282974 ], [ 781825.769617102574557, 8997080.74178727902472 ], [ 781821.950852925307117, 8997079.529339769855142 ], [ 781820.265554717392661, 8997084.837409920990467 ], [ 781824.084318894543685, 8997086.0498574282974 ] ] ] ] } },
{ "type": "Feature", "properties": { "LAYER": "Legend", "GM_TYPE": "Unknown Area Type", "ELEVATION": 0 }, "geometry": { "type": "MultiPolygon", "coordinates": [ [ [ [ 781816.388088117935695, 8997089.513952104374766 ], [ 781818.073386326781474, 8997084.205881951376796 ], [ 781814.254622148815542, 8997082.993434445932508 ], [ 781812.569323940435424, 8997088.301504595205188 ], [ 781816.388088117935695, 8997089.513952104374766 ] ] ] ] } },
{ "type": "Feature", "properties": { "LAYER": "Legend", "GM_TYPE": "Unknown Area Type", "ELEVATION": 0 }, "geometry": { "type": "MultiPolygon", "coordinates": [ [ [ [ 781769.731217909255065, 8997236.971666678786278 ], [ 781771.416516117751598, 8997231.663596527650952 ], [ 781767.597751939669251, 8997230.451149020344019 ], [ 781765.912453731987625, 8997235.759219171479344 ], [ 781769.731217909255065, 8997236.971666678786278 ] ] ] ] } },
{ "type": "Feature", "properties": { "LAYER": "Legend", "GM_TYPE": "Unknown Area Type", "ELEVATION": 0 }, "geometry": { "type": "MultiPolygon", "coordinates": [ [ [ [ 781759.584636970306747, 8997265.103627048432827 ], [ 781761.269935178454034, 8997259.795556899160147 ], [ 781757.451171000837348, 8997258.583109393715858 ], [ 781755.765872791642323, 8997263.891179542988539 ], [ 781759.584636970306747, 8997265.103627048432827 ] ] ] ] } },
{ "type": "Feature", "properties": { "LAYER": "Legend", "GM_TYPE": "Unknown Area Type", "ELEVATION": 0 }, "geometry": { "type": "MultiPolygon", "coordinates": [ [ [ [ 781760.483158261165954, 8997258.388522427529097 ], [ 781762.168456469895318, 8997253.080452278256416 ], [ 781758.349692291929387, 8997251.868004772812128 ], [ 781756.664394083549269, 8997257.176074920222163 ], [ 781760.483158261165954, 8997258.388522427529097 ] ] ] ] } },
{ "type": "Feature", "properties": { "LAYER": "Legend", "GM_TYPE": "Unknown Area Type", "ELEVATION": 0 }, "geometry": { "type": "MultiPolygon", "coordinates": [ [ [ [ 781714.671782535966486, 8997329.182330848649144 ], [ 781716.35708074469585, 8997323.874260699376464 ], [ 781712.538316567195579, 8997322.66181318834424 ], [ 781710.853018358233385, 8997327.969883341342211 ], [ 781714.671782535966486, 8997329.182330848649144 ] ] ] ] } },
{ "type": "Feature", "properties": { "LAYER": "Legend", "GM_TYPE": "Unknown Area Type", "ELEVATION": 0 }, "geometry": { "type": "MultiPolygon", "coordinates": [ [ [ [ 781922.823493011062965, 8996821.031676957383752 ], [ 781919.004728833097033, 8996819.819229450076818 ], [ 781917.319430624833331, 8996825.127299599349499 ], [ 781921.138194802450016, 8996826.339747106656432 ], [ 781922.823493011062965, 8996821.031676957383752 ] ] ] ] } },
{ "type": "Feature", "properties": { "LAYER": "Legend", "GM_TYPE": "Unknown Area Type", "ELEVATION": 0 }, "geometry": { "type": "MultiPolygon", "coordinates": [ [ [ [ 781924.715651268605143, 8996813.5428088568151 ], [ 781920.896887090755627, 8996812.330361349508166 ], [ 781919.211588882608339, 8996817.638431498780847 ], [ 781923.030353059992194, 8996818.85087900981307 ], [ 781924.715651268605143, 8996813.5428088568151 ] ] ] ] } },
{ "type": "Feature", "properties": { "LAYER": "Legend", "GM_TYPE": "Unknown Area Type", "ELEVATION": 0 }, "geometry": { "type": "MultiPolygon", "coordinates": [ [ [ [ 781953.850182403228246, 8996801.805728990584612 ], [ 781950.031418225145899, 8996800.593281481415033 ], [ 781948.346120016882196, 8996805.901351632550359 ], [ 781952.164884194498882, 8996807.113799141719937 ], [ 781953.850182403228246, 8996801.805728990584612 ] ] ] ] } },
{ "type": "Feature", "properties": { "LAYER": "Legend", "GM_TYPE": "Unknown Area Type", "ELEVATION": 0 }, "geometry": { "type": "MultiPolygon", "coordinates": [ [ [ [ 781952.200414794497192, 8996766.727525873109698 ], [ 781948.381650616414845, 8996765.515078365802765 ], [ 781946.696352408151142, 8996770.8231485132128 ], [ 781950.515116585651413, 8996772.035596022382379 ], [ 781952.200414794497192, 8996766.727525873109698 ] ] ] ] } },
{ "type": "Feature", "properties": { "LAYER": "Legend", "GM_TYPE": "Unknown Area Type", "ELEVATION": 0 }, "geometry": { "type": "MultiPolygon", "coordinates": [ [ [ [ 781923.030353060574271, 8996818.85087900981307 ], [ 781924.715651268954389, 8996813.5428088568151 ], [ 781920.896887091454118, 8996812.330361349508166 ], [ 781919.211588882724755, 8996817.638431498780847 ], [ 781923.030353060574271, 8996818.85087900981307 ] ] ] ] } },
{ "type": "Feature", "properties": { "LAYER": "Legend", "GM_TYPE": "Unknown Area Type", "ELEVATION": 0 }, "geometry": { "type": "MultiPolygon", "coordinates": [ [ [ [ 781921.13819480210077, 8996826.339747106656432 ], [ 781922.823493010248058, 8996821.031676957383752 ], [ 781919.004728832980618, 8996819.819229450076818 ], [ 781917.319430624949746, 8996825.127299599349499 ], [ 781921.13819480210077, 8996826.339747106656432 ] ] ] ] } },
{ "type": "Feature", "properties": { "LAYER": "Legend", "GM_TYPE": "Unknown Area Type", "ELEVATION": 0 }, "geometry": { "type": "MultiPolygon", "coordinates": [ [ [ [ 781952.164884194615297, 8996807.113799141719937 ], [ 781953.850182402995415, 8996801.805728992447257 ], [ 781950.031418224796653, 8996800.593281479552388 ], [ 781948.34612001653295, 8996805.901351632550359 ], [ 781952.164884194615297, 8996807.113799141719937 ] ] ] ] } },
{ "type": "Feature", "properties": { "LAYER": "Legend", "GM_TYPE": "Unknown Area Type", "ELEVATION": 0 }, "geometry": { "type": "MultiPolygon", "coordinates": [ [ [ [ 781950.515116585767828, 8996772.035596024245024 ], [ 781952.200414794147946, 8996766.727525873109698 ], [ 781948.381650616065599, 8996765.51507836394012 ], [ 781946.696352408034727, 8996770.8231485132128 ], [ 781950.515116585767828, 8996772.035596024245024 ] ] ] ] } },
{ "type": "Feature", "properties": { "LAYER": "Legend", "GM_TYPE": "Unknown Area Type", "ELEVATION": 0 }, "geometry": { "type": "MultiPolygon", "coordinates": [ [ [ [ 781922.823493011062965, 8996821.031676957383752 ], [ 781919.004728833097033, 8996819.819229450076818 ], [ 781917.319430624833331, 8996825.127299599349499 ], [ 781921.138194802450016, 8996826.339747106656432 ], [ 781922.823493011062965, 8996821.031676957383752 ] ] ] ] } },
{ "type": "Feature", "properties": { "LAYER": "Legend", "GM_TYPE": "Unknown Area Type", "ELEVATION": 0 }, "geometry": { "type": "MultiPolygon", "coordinates": [ [ [ [ 781924.715651268605143, 8996813.5428088568151 ], [ 781920.896887090755627, 8996812.330361349508166 ], [ 781919.211588882608339, 8996817.638431498780847 ], [ 781923.030353059992194, 8996818.85087900981307 ], [ 781924.715651268605143, 8996813.5428088568151 ] ] ] ] } },
{ "type": "Feature", "properties": { "LAYER": "Legend", "GM_TYPE": "Unknown Area Type", "ELEVATION": 0 }, "geometry": { "type": "MultiPolygon", "coordinates": [ [ [ [ 781953.850182403228246, 8996801.805728990584612 ], [ 781950.031418225145899, 8996800.593281481415033 ], [ 781948.346120016882196, 8996805.901351632550359 ], [ 781952.164884194498882, 8996807.113799141719937 ], [ 781953.850182403228246, 8996801.805728990584612 ] ] ] ] } },
{ "type": "Feature", "properties": { "LAYER": "Legend", "GM_TYPE": "Unknown Area Type", "ELEVATION": 0 }, "geometry": { "type": "MultiPolygon", "coordinates": [ [ [ [ 781952.200414794497192, 8996766.727525873109698 ], [ 781948.381650616414845, 8996765.515078365802765 ], [ 781946.696352408151142, 8996770.8231485132128 ], [ 781950.515116585651413, 8996772.035596022382379 ], [ 781952.200414794497192, 8996766.727525873109698 ] ] ] ] } }
]
}
