{
"type": "FeatureCollection",
"name": "09_rei_po_namabang",
"crs": { "type": "name", "properties": { "name": "urn:ogc:def:crs:EPSG::32751" } },
"features": [
{ "type": "Feature", "properties": { "NAME": "Rb.1a", "LAYER": "Nama Bang", "GM_TYPE": "Text", "ELEVATION": 0 }, "geometry": { "type": "Point", "coordinates": [ 781110.38545833749231, 8998943.75533838570118 ] } },
{ "type": "Feature", "properties": { "NAME": "Rb.1d", "LAYER": "Nama Bang", "GM_TYPE": "Text", "ELEVATION": 0 }, "geometry": { "type": "Point", "coordinates": [ 781203.52506975561846, 8998852.104361847043037 ] } },
{ "type": "Feature", "properties": { "NAME": "Rb.1j", "LAYER": "Nama Bang", "GM_TYPE": "Text", "ELEVATION": 0 }, "geometry": { "type": "Point", "coordinates": [ 781467.001267030485906, 8998470.208485228940845 ] } },
{ "type": "Feature", "properties": { "NAME": "Rb.1", "LAYER": "Nama Bang", "GM_TYPE": "Text", "ELEVATION": 271 }, "geometry": { "type": "Point", "coordinates": [ 781822.739696781616658, 8997967.27600684389472 ] } },
{ "type": "Feature", "properties": { "NAME": "T.1", "LAYER": "Nama Bang", "GM_TYPE": "Text", "ELEVATION": 0 }, "geometry": { "type": "Point", "coordinates": [ 781705.605810554348864, 8997986.508828815072775 ] } },
{ "type": "Feature", "properties": { "NAME": "T.2", "LAYER": "Nama Bang", "GM_TYPE": "Text", "ELEVATION": 0 }, "geometry": { "type": "Point", "coordinates": [ 781698.53064662066754, 8997749.206160364672542 ] } },
{ "type": "Feature", "properties": { "NAME": "K.1", "LAYER": "Nama Bang", "GM_TYPE": "Text", "ELEVATION": 0 }, "geometry": { "type": "Point", "coordinates": [ 781794.895555525785312, 8997971.391294684261084 ] } },
{ "type": "Feature", "properties": { "NAME": "Rb.1 l", "LAYER": "Nama Bang", "GM_TYPE": "Text", "ELEVATION": 276 }, "geometry": { "type": "Point", "coordinates": [ 781600.830965412897058, 8998410.392602412030101 ] } },
{ "type": "Feature", "properties": { "NAME": "K.1", "LAYER": "Nama Bang", "GM_TYPE": "Text", "ELEVATION": 254 }, "geometry": { "type": "Point", "coordinates": [ 781682.651121826143935, 8997387.949922325089574 ] } },
{ "type": "Feature", "properties": { "NAME": "T.4", "LAYER": "Nama Bang", "GM_TYPE": "Text", "ELEVATION": 249 }, "geometry": { "type": "Point", "coordinates": [ 781853.360286755720153, 8997014.352588864043355 ] } },
{ "type": "Feature", "properties": { "NAME": "Rb.2", "LAYER": "Nama Bang", "GM_TYPE": "Text", "ELEVATION": 0 }, "geometry": { "type": "Point", "coordinates": [ 782189.179887420730665, 8997214.304718658328056 ] } },
{ "type": "Feature", "properties": { "NAME": "Rb.3", "LAYER": "Nama Bang", "GM_TYPE": "Text", "ELEVATION": 259 }, "geometry": { "type": "Point", "coordinates": [ 782428.606575510581024, 8996891.915299195796251 ] } },
{ "type": "Feature", "properties": { "NAME": "T.2", "LAYER": "Nama Bang", "GM_TYPE": "Text", "ELEVATION": 262 }, "geometry": { "type": "Point", "coordinates": [ 782220.699708822648972, 8997139.657635422423482 ] } },
{ "type": "Feature", "properties": { "NAME": "T.3", "LAYER": "Nama Bang", "GM_TYPE": "Text", "ELEVATION": 0 }, "geometry": { "type": "Point", "coordinates": [ 782016.089531612582505, 8997075.022299516946077 ] } },
{ "type": "Feature", "properties": { "NAME": "K.1", "LAYER": "Nama Bang", "GM_TYPE": "Text", "ELEVATION": 253 }, "geometry": { "type": "Point", "coordinates": [ 782409.004585475195199, 8996874.855301037430763 ] } },
{ "type": "Feature", "properties": { "NAME": "T.1", "LAYER": "Nama Bang", "GM_TYPE": "Text", "ELEVATION": 261 }, "geometry": { "type": "Point", "coordinates": [ 782180.999326054705307, 8997206.605855919420719 ] } },
{ "type": "Feature", "properties": { "NAME": "Rb.2c", "LAYER": "Nama Bang", "GM_TYPE": "Text", "ELEVATION": 0 }, "geometry": { "type": "Point", "coordinates": [ 781943.872596966568381, 8997543.656348615884781 ] } },
{ "type": "Feature", "properties": { "NAME": "Rb.2d", "LAYER": "Nama Bang", "GM_TYPE": "Text", "ELEVATION": 0 }, "geometry": { "type": "Point", "coordinates": [ 781994.41250402550213, 8997413.520507633686066 ] } },
{ "type": "Feature", "properties": { "NAME": "Rb.4", "LAYER": "Nama Bang", "GM_TYPE": "Text", "ELEVATION": 0 }, "geometry": { "type": "Point", "coordinates": [ 782666.195422528544441, 8996263.361164186149836 ] } },
{ "type": "Feature", "properties": { "NAME": "K.1", "LAYER": "Nama Bang", "GM_TYPE": "Text", "ELEVATION": 0 }, "geometry": { "type": "Point", "coordinates": [ 782023.710207131691277, 8996675.826869804412127 ] } },
{ "type": "Feature", "properties": { "NAME": "K2", "LAYER": "Nama Bang", "GM_TYPE": "Text", "ELEVATION": 0 }, "geometry": { "type": "Point", "coordinates": [ 782442.3212496698834, 8996649.127317659556866 ] } },
{ "type": "Feature", "properties": { "NAME": "T1", "LAYER": "Nama Bang", "GM_TYPE": "Text", "ELEVATION": 0 }, "geometry": { "type": "Point", "coordinates": [ 782627.34266456880141, 8996259.357653176411986 ] } },
{ "type": "Feature", "properties": { "NAME": "T2", "LAYER": "Nama Bang", "GM_TYPE": "Text", "ELEVATION": 249 }, "geometry": { "type": "Point", "coordinates": [ 782652.002933480776846, 8996149.994062365964055 ] } },
{ "type": "Feature", "properties": { "NAME": "K.1", "LAYER": "Nama Bang", "GM_TYPE": "Text", "ELEVATION": -245 }, "geometry": { "type": "Point", "coordinates": [ 782481.879228186211549, 8996102.39755529537797 ] } },
{ "type": "Feature", "properties": { "NAME": "Rb.4c", "LAYER": "Nama Bang", "GM_TYPE": "Text", "ELEVATION": 0 }, "geometry": { "type": "Point", "coordinates": [ 782558.348448991426267, 8996493.463468322530389 ] } },
{ "type": "Feature", "properties": { "NAME": "Rb.5", "LAYER": "Nama Bang", "GM_TYPE": "Text", "ELEVATION": 0 }, "geometry": { "type": "Point", "coordinates": [ 782693.586902420618571, 8996000.730260390788317 ] } },
{ "type": "Feature", "properties": { "NAME": "Rb.6", "LAYER": "Nama Bang", "GM_TYPE": "Text", "ELEVATION": 0 }, "geometry": { "type": "Point", "coordinates": [ 782701.835617769276723, 8995510.320655681192875 ] } },
{ "type": "Feature", "properties": { "NAME": "Rb.7", "LAYER": "Nama Bang", "GM_TYPE": "Text", "ELEVATION": 0 }, "geometry": { "type": "Point", "coordinates": [ 782472.684160344884731, 8995290.211913092061877 ] } },
{ "type": "Feature", "properties": { "NAME": "K.1", "LAYER": "Nama Bang", "GM_TYPE": "Text", "ELEVATION": 230 }, "geometry": { "type": "Point", "coordinates": [ 782694.479509445722215, 8995497.391219809651375 ] } },
{ "type": "Feature", "properties": { "NAME": "K.1", "LAYER": "Nama Bang", "GM_TYPE": "Text", "ELEVATION": -1 }, "geometry": { "type": "Point", "coordinates": [ 782663.621598703321069, 8995999.160624800249934 ] } },
{ "type": "Feature", "properties": { "NAME": "Rb.8", "LAYER": "Nama Bang", "GM_TYPE": "Text", "ELEVATION": 0 }, "geometry": { "type": "Point", "coordinates": [ 782398.260231704683974, 8994949.878423387184739 ] } },
{ "type": "Feature", "properties": { "NAME": "T2", "LAYER": "Nama Bang", "GM_TYPE": "Text", "ELEVATION": 0 }, "geometry": { "type": "Point", "coordinates": [ 782223.606010720715858, 8995017.760333629325032 ] } },
{ "type": "Feature", "properties": { "NAME": "T.1", "LAYER": "Nama Bang", "GM_TYPE": "Text", "ELEVATION": 0 }, "geometry": { "type": "Point", "coordinates": [ 782295.614120501675643, 8994847.939671592786908 ] } },
{ "type": "Feature", "properties": { "NAME": "K2", "LAYER": "Nama Bang", "GM_TYPE": "Text", "ELEVATION": 0 }, "geometry": { "type": "Point", "coordinates": [ 782651.786336658173241, 8995233.706921963021159 ] } },
{ "type": "Feature", "properties": { "NAME": "K.1", "LAYER": "Nama Bang", "GM_TYPE": "Text", "ELEVATION": 0 }, "geometry": { "type": "Point", "coordinates": [ 782406.383797763730399, 8994940.137321684509516 ] } },
{ "type": "Feature", "properties": { "NAME": "T.1", "LAYER": "Nama Bang", "GM_TYPE": "Text", "ELEVATION": 0 }, "geometry": { "type": "Point", "coordinates": [ 782379.787427950184792, 8994953.734971184283495 ] } },
{ "type": "Feature", "properties": { "NAME": "K.1", "LAYER": "Nama Bang", "GM_TYPE": "Text", "ELEVATION": 0 }, "geometry": { "type": "Point", "coordinates": [ 782311.069769296329468, 8994435.740361960604787 ] } },
{ "type": "Feature", "properties": { "NAME": "K.1", "LAYER": "Nama Bang", "GM_TYPE": "Text", "ELEVATION": 0 }, "geometry": { "type": "Point", "coordinates": [ 781890.616397202597, 8994521.239610737189651 ] } },
{ "type": "Feature", "properties": { "NAME": "Rb.1a", "LAYER": "Nama Bang", "GM_TYPE": "Text", "ELEVATION": 0 }, "geometry": { "type": "Point", "coordinates": [ 781110.38545833749231, 8998943.75533838570118 ] } },
{ "type": "Feature", "properties": { "NAME": "Rb.1d", "LAYER": "Nama Bang", "GM_TYPE": "Text", "ELEVATION": 0 }, "geometry": { "type": "Point", "coordinates": [ 781203.52506975561846, 8998852.104361847043037 ] } },
{ "type": "Feature", "properties": { "NAME": "Rb.1j", "LAYER": "Nama Bang", "GM_TYPE": "Text", "ELEVATION": 0 }, "geometry": { "type": "Point", "coordinates": [ 781467.001267030485906, 8998470.208485228940845 ] } },
{ "type": "Feature", "properties": { "NAME": "Rb.1", "LAYER": "Nama Bang", "GM_TYPE": "Text", "ELEVATION": 271 }, "geometry": { "type": "Point", "coordinates": [ 781822.739696781616658, 8997967.27600684389472 ] } },
{ "type": "Feature", "properties": { "NAME": "T.1", "LAYER": "Nama Bang", "GM_TYPE": "Text", "ELEVATION": 0 }, "geometry": { "type": "Point", "coordinates": [ 781705.605810554348864, 8997986.508828815072775 ] } },
{ "type": "Feature", "properties": { "NAME": "T.2", "LAYER": "Nama Bang", "GM_TYPE": "Text", "ELEVATION": 0 }, "geometry": { "type": "Point", "coordinates": [ 781698.53064662066754, 8997749.206160364672542 ] } },
{ "type": "Feature", "properties": { "NAME": "K.1", "LAYER": "Nama Bang", "GM_TYPE": "Text", "ELEVATION": 0 }, "geometry": { "type": "Point", "coordinates": [ 781794.895555525785312, 8997971.391294684261084 ] } },
{ "type": "Feature", "properties": { "NAME": "Rb.1 l", "LAYER": "Nama Bang", "GM_TYPE": "Text", "ELEVATION": 276 }, "geometry": { "type": "Point", "coordinates": [ 781600.830965412897058, 8998410.392602412030101 ] } },
{ "type": "Feature", "properties": { "NAME": "K.1", "LAYER": "Nama Bang", "GM_TYPE": "Text", "ELEVATION": 254 }, "geometry": { "type": "Point", "coordinates": [ 781682.651121826143935, 8997387.949922325089574 ] } },
{ "type": "Feature", "properties": { "NAME": "T.4", "LAYER": "Nama Bang", "GM_TYPE": "Text", "ELEVATION": 249 }, "geometry": { "type": "Point", "coordinates": [ 781853.360286755720153, 8997014.352588864043355 ] } },
{ "type": "Feature", "properties": { "NAME": "Rb.2", "LAYER": "Nama Bang", "GM_TYPE": "Text", "ELEVATION": 0 }, "geometry": { "type": "Point", "coordinates": [ 782189.179887420730665, 8997214.304718658328056 ] } },
{ "type": "Feature", "properties": { "NAME": "Rb.3", "LAYER": "Nama Bang", "GM_TYPE": "Text", "ELEVATION": 259 }, "geometry": { "type": "Point", "coordinates": [ 782428.606575510581024, 8996891.915299195796251 ] } },
{ "type": "Feature", "properties": { "NAME": "T.2", "LAYER": "Nama Bang", "GM_TYPE": "Text", "ELEVATION": 262 }, "geometry": { "type": "Point", "coordinates": [ 782220.699708822648972, 8997139.657635422423482 ] } },
{ "type": "Feature", "properties": { "NAME": "T.3", "LAYER": "Nama Bang", "GM_TYPE": "Text", "ELEVATION": 0 }, "geometry": { "type": "Point", "coordinates": [ 782016.089531612582505, 8997075.022299516946077 ] } },
{ "type": "Feature", "properties": { "NAME": "K.1", "LAYER": "Nama Bang", "GM_TYPE": "Text", "ELEVATION": 253 }, "geometry": { "type": "Point", "coordinates": [ 782409.004585475195199, 8996874.855301037430763 ] } },
{ "type": "Feature", "properties": { "NAME": "T.1", "LAYER": "Nama Bang", "GM_TYPE": "Text", "ELEVATION": 261 }, "geometry": { "type": "Point", "coordinates": [ 782180.999326054705307, 8997206.605855919420719 ] } },
{ "type": "Feature", "properties": { "NAME": "Rb.2c", "LAYER": "Nama Bang", "GM_TYPE": "Text", "ELEVATION": 0 }, "geometry": { "type": "Point", "coordinates": [ 781943.872596966568381, 8997543.656348615884781 ] } },
{ "type": "Feature", "properties": { "NAME": "Rb.2d", "LAYER": "Nama Bang", "GM_TYPE": "Text", "ELEVATION": 0 }, "geometry": { "type": "Point", "coordinates": [ 781994.41250402550213, 8997413.520507633686066 ] } },
{ "type": "Feature", "properties": { "NAME": "Rb.4", "LAYER": "Nama Bang", "GM_TYPE": "Text", "ELEVATION": 0 }, "geometry": { "type": "Point", "coordinates": [ 782666.195422528544441, 8996263.361164186149836 ] } },
{ "type": "Feature", "properties": { "NAME": "K.1", "LAYER": "Nama Bang", "GM_TYPE": "Text", "ELEVATION": 0 }, "geometry": { "type": "Point", "coordinates": [ 782023.710207131691277, 8996675.826869804412127 ] } },
{ "type": "Feature", "properties": { "NAME": "K2", "LAYER": "Nama Bang", "GM_TYPE": "Text", "ELEVATION": 0 }, "geometry": { "type": "Point", "coordinates": [ 782442.3212496698834, 8996649.127317659556866 ] } },
{ "type": "Feature", "properties": { "NAME": "T1", "LAYER": "Nama Bang", "GM_TYPE": "Text", "ELEVATION": 0 }, "geometry": { "type": "Point", "coordinates": [ 782627.34266456880141, 8996259.357653176411986 ] } },
{ "type": "Feature", "properties": { "NAME": "T2", "LAYER": "Nama Bang", "GM_TYPE": "Text", "ELEVATION": 249 }, "geometry": { "type": "Point", "coordinates": [ 782652.002933480776846, 8996149.994062365964055 ] } },
{ "type": "Feature", "properties": { "NAME": "K.1", "LAYER": "Nama Bang", "GM_TYPE": "Text", "ELEVATION": -245 }, "geometry": { "type": "Point", "coordinates": [ 782481.879228186211549, 8996102.39755529537797 ] } },
{ "type": "Feature", "properties": { "NAME": "Rb.4c", "LAYER": "Nama Bang", "GM_TYPE": "Text", "ELEVATION": 0 }, "geometry": { "type": "Point", "coordinates": [ 782558.348448991426267, 8996493.463468322530389 ] } },
{ "type": "Feature", "properties": { "NAME": "Rb.5", "LAYER": "Nama Bang", "GM_TYPE": "Text", "ELEVATION": 0 }, "geometry": { "type": "Point", "coordinates": [ 782693.586902420618571, 8996000.730260390788317 ] } },
{ "type": "Feature", "properties": { "NAME": "Rb.6", "LAYER": "Nama Bang", "GM_TYPE": "Text", "ELEVATION": 0 }, "geometry": { "type": "Point", "coordinates": [ 782701.835617769276723, 8995510.320655681192875 ] } },
{ "type": "Feature", "properties": { "NAME": "Rb.7", "LAYER": "Nama Bang", "GM_TYPE": "Text", "ELEVATION": 0 }, "geometry": { "type": "Point", "coordinates": [ 782472.684160344884731, 8995290.211913092061877 ] } },
{ "type": "Feature", "properties": { "NAME": "K.1", "LAYER": "Nama Bang", "GM_TYPE": "Text", "ELEVATION": 230 }, "geometry": { "type": "Point", "coordinates": [ 782694.479509445722215, 8995497.391219809651375 ] } },
{ "type": "Feature", "properties": { "NAME": "K.1", "LAYER": "Nama Bang", "GM_TYPE": "Text", "ELEVATION": -1 }, "geometry": { "type": "Point", "coordinates": [ 782663.621598703321069, 8995999.160624800249934 ] } },
{ "type": "Feature", "properties": { "NAME": "Rb.8", "LAYER": "Nama Bang", "GM_TYPE": "Text", "ELEVATION": 0 }, "geometry": { "type": "Point", "coordinates": [ 782398.260231704683974, 8994949.878423387184739 ] } },
{ "type": "Feature", "properties": { "NAME": "T2", "LAYER": "Nama Bang", "GM_TYPE": "Text", "ELEVATION": 0 }, "geometry": { "type": "Point", "coordinates": [ 782223.606010720715858, 8995017.760333629325032 ] } },
{ "type": "Feature", "properties": { "NAME": "T.1", "LAYER": "Nama Bang", "GM_TYPE": "Text", "ELEVATION": 0 }, "geometry": { "type": "Point", "coordinates": [ 782295.614120501675643, 8994847.939671592786908 ] } },
{ "type": "Feature", "properties": { "NAME": "K2", "LAYER": "Nama Bang", "GM_TYPE": "Text", "ELEVATION": 0 }, "geometry": { "type": "Point", "coordinates": [ 782651.786336658173241, 8995233.706921963021159 ] } },
{ "type": "Feature", "properties": { "NAME": "K.1", "LAYER": "Nama Bang", "GM_TYPE": "Text", "ELEVATION": 0 }, "geometry": { "type": "Point", "coordinates": [ 782406.383797763730399, 8994940.137321684509516 ] } },
{ "type": "Feature", "properties": { "NAME": "T.1", "LAYER": "Nama Bang", "GM_TYPE": "Text", "ELEVATION": 0 }, "geometry": { "type": "Point", "coordinates": [ 782379.787427950184792, 8994953.734971184283495 ] } },
{ "type": "Feature", "properties": { "NAME": "K.1", "LAYER": "Nama Bang", "GM_TYPE": "Text", "ELEVATION": 0 }, "geometry": { "type": "Point", "coordinates": [ 782311.069769296329468, 8994435.740361960604787 ] } },
{ "type": "Feature", "properties": { "NAME": "K.1", "LAYER": "Nama Bang", "GM_TYPE": "Text", "ELEVATION": 0 }, "geometry": { "type": "Point", "coordinates": [ 781890.616397202597, 8994521.239610737189651 ] } }
]
}
