{
"type": "FeatureCollection",
"name": "09_rei_li_cotambah",
"crs": { "type": "name", "properties": { "name": "urn:ogc:def:crs:EPSG::32751" } },
"features": [
{ "type": "Feature", "properties": { "LAYER": "CO_TAMBAH", "GM_TYPE": "Unknown Line Type", "ELEVATION": 265.788 }, "geometry": { "type": "MultiLineString", "coordinates": [ [ [ 781816.594106676173396, 8997945.900341955944896 ], [ 781817.129354716278613, 8997946.075042758136988 ] ] ] } },
{ "type": "Feature", "properties": { "LAYER": "CO_TAMBAH", "GM_TYPE": "Unknown Line Type", "ELEVATION": 265.451 }, "geometry": { "type": "MultiLineString", "coordinates": [ [ [ 781818.528276203200221, 8997937.553469646722078 ], [ 781818.897123669274151, 8997937.658792220056057 ] ] ] } },
{ "type": "Feature", "properties": { "LAYER": "CO_TAMBAH", "GM_TYPE": "Unknown Line Type", "ELEVATION": 265.243 }, "geometry": { "type": "MultiLineString", "coordinates": [ [ [ 781826.694116513361223, 8997902.74306757375598 ], [ 781827.019479018519633, 8997902.791882798075676 ] ] ] } },
{ "type": "Feature", "properties": { "LAYER": "CO_TAMBAH", "GM_TYPE": "Unknown Line Type", "ELEVATION": 265.848 }, "geometry": { "type": "MultiLineString", "coordinates": [ [ [ 781811.907381569268182, 8997969.581885119900107 ], [ 781812.693791049649008, 8997969.363981045782566 ] ] ] } },
{ "type": "Feature", "properties": { "LAYER": "CO_TAMBAH", "GM_TYPE": "Unknown Line Type", "ELEVATION": 265.333 }, "geometry": { "type": "MultiLineString", "coordinates": [ [ [ 781823.281524820136838, 8997916.74529442191124 ], [ 781823.696547068539076, 8997916.920793121680617 ] ] ] } },
{ "type": "Feature", "properties": { "LAYER": "CO_TAMBAH", "GM_TYPE": "Unknown Line Type", "ELEVATION": 265.674 }, "geometry": { "type": "MultiLineString", "coordinates": [ [ [ 781831.4462912020972, 8997882.572887342423201 ], [ 781831.709600679925643, 8997882.704462714493275 ] ] ] } },
{ "type": "Feature", "properties": { "LAYER": "CO_TAMBAH", "GM_TYPE": "Unknown Line Type", "ELEVATION": 264.987 }, "geometry": { "type": "MultiLineString", "coordinates": [ [ [ 781832.282884011277929, 8997870.671339264139533 ], [ 781832.576946077635512, 8997870.679688004776835 ] ] ] } },
{ "type": "Feature", "properties": { "LAYER": "CO_TAMBAH", "GM_TYPE": "Unknown Line Type", "ELEVATION": 265.074 }, "geometry": { "type": "MultiLineString", "coordinates": [ [ [ 781834.414635095279664, 8997832.393064390867949 ], [ 781834.530270948540419, 8997832.405908606946468 ] ] ] } },
{ "type": "Feature", "properties": { "LAYER": "CO_TAMBAH", "GM_TYPE": "Unknown Line Type", "ELEVATION": 264.545 }, "geometry": { "type": "MultiLineString", "coordinates": [ [ [ 781802.505228939582594, 8997794.926816437393427 ], [ 781803.137110487092286, 8997794.30574019998312 ] ] ] } },
{ "type": "Feature", "properties": { "LAYER": "CO_TAMBAH", "GM_TYPE": "Unknown Line Type", "ELEVATION": 264.621 }, "geometry": { "type": "MultiLineString", "coordinates": [ [ [ 781791.302871790714562, 8997783.273297959938645 ], [ 781792.911859467742033, 8997782.551414085552096 ] ] ] } },
{ "type": "Feature", "properties": { "LAYER": "CO_TAMBAH", "GM_TYPE": "Unknown Line Type", "ELEVATION": 264.933 }, "geometry": { "type": "MultiLineString", "coordinates": [ [ [ 781783.317633207305335, 8997765.760598327964544 ], [ 781783.748169448110275, 8997765.424410697072744 ] ] ] } },
{ "type": "Feature", "properties": { "LAYER": "CO_TAMBAH", "GM_TYPE": "Unknown Line Type", "ELEVATION": 264.534 }, "geometry": { "type": "MultiLineString", "coordinates": [ [ [ 781776.606656377785839, 8997752.415556695312262 ], [ 781777.465492089977488, 8997751.974336663261056 ] ] ] } },
{ "type": "Feature", "properties": { "LAYER": "CO_TAMBAH", "GM_TYPE": "Unknown Line Type", "ELEVATION": 264.481 }, "geometry": { "type": "MultiLineString", "coordinates": [ [ [ 781773.664533334434964, 8997742.642721647396684 ], [ 781774.308930114493705, 8997742.673392079770565 ] ] ] } },
{ "type": "Feature", "properties": { "LAYER": "CO_TAMBAH", "GM_TYPE": "Unknown Line Type", "ELEVATION": 264.359 }, "geometry": { "type": "MultiLineString", "coordinates": [ [ [ 781723.697941525140777, 8997971.051535911858082 ], [ 781724.560237990459427, 8997970.764234147965908 ] ] ] } },
{ "type": "Feature", "properties": { "LAYER": "CO_TAMBAH", "GM_TYPE": "Unknown Line Type", "ELEVATION": 264.123 }, "geometry": { "type": "MultiLineString", "coordinates": [ [ [ 781721.215396733605303, 8997966.581904346123338 ], [ 781722.774507077760063, 8997965.782390806823969 ] ] ] } },
{ "type": "Feature", "properties": { "LAYER": "CO_TAMBAH", "GM_TYPE": "Unknown Line Type", "ELEVATION": 263.746 }, "geometry": { "type": "MultiLineString", "coordinates": [ [ [ 781713.878777673700824, 8997951.666850144043565 ], [ 781715.0739364863839, 8997951.094095405191183 ] ] ] } },
{ "type": "Feature", "properties": { "LAYER": "CO_TAMBAH", "GM_TYPE": "Unknown Line Type", "ELEVATION": 263.441 }, "geometry": { "type": "MultiLineString", "coordinates": [ [ [ 781710.143087845062837, 8997933.411988344043493 ], [ 781712.046045789727941, 8997932.879400972276926 ] ] ] } },
{ "type": "Feature", "properties": { "LAYER": "CO_TAMBAH", "GM_TYPE": "Unknown Line Type", "ELEVATION": 262.726 }, "geometry": { "type": "MultiLineString", "coordinates": [ [ [ 781703.355609039543197, 8997902.738734988495708 ], [ 781705.370867481920868, 8997902.370261669158936 ] ] ] } },
{ "type": "Feature", "properties": { "LAYER": "CO_TAMBAH", "GM_TYPE": "Unknown Line Type", "ELEVATION": 263.081 }, "geometry": { "type": "MultiLineString", "coordinates": [ [ [ 781707.612532295752317, 8997921.617222409695387 ], [ 781708.972561702947132, 8997920.977502597495914 ] ] ] } },
{ "type": "Feature", "properties": { "LAYER": "CO_TAMBAH", "GM_TYPE": "Unknown Line Type", "ELEVATION": 261.959 }, "geometry": { "type": "MultiLineString", "coordinates": [ [ [ 781695.02171871997416, 8997859.620039379224181 ], [ 781696.866384444292635, 8997859.366502335295081 ] ] ] } },
{ "type": "Feature", "properties": { "LAYER": "CO_TAMBAH", "GM_TYPE": "Unknown Line Type", "ELEVATION": 261.358 }, "geometry": { "type": "MultiLineString", "coordinates": [ [ [ 781689.667800138005987, 8997832.042514592409134 ], [ 781691.621706401114352, 8997832.162102030590177 ] ] ] } },
{ "type": "Feature", "properties": { "LAYER": "CO_TAMBAH", "GM_TYPE": "Unknown Line Type", "ELEVATION": 261.278 }, "geometry": { "type": "MultiLineString", "coordinates": [ [ [ 781693.881975766038522, 8997819.110218159854412 ], [ 781695.440963711822405, 8997819.968133961781859 ] ] ] } },
{ "type": "Feature", "properties": { "LAYER": "CO_TAMBAH", "GM_TYPE": "Unknown Line Type", "ELEVATION": 261.277 }, "geometry": { "type": "MultiLineString", "coordinates": [ [ [ 781695.41296508628875, 8997813.070381158962846 ], [ 781698.160594131913967, 8997813.509809041395783 ] ] ] } },
{ "type": "Feature", "properties": { "LAYER": "CO_TAMBAH", "GM_TYPE": "Unknown Line Type", "ELEVATION": 260.918 }, "geometry": { "type": "MultiLineString", "coordinates": [ [ [ 781693.844338269438595, 8997790.668647376820445 ], [ 781695.268730894080363, 8997790.603558335453272 ] ] ] } },
{ "type": "Feature", "properties": { "LAYER": "CO_TAMBAH", "GM_TYPE": "Unknown Line Type", "ELEVATION": 260.558 }, "geometry": { "type": "MultiLineString", "coordinates": [ [ [ 781689.285764248343185, 8997756.297446860000491 ], [ 781690.114033968769945, 8997756.218065710738301 ] ] ] } },
{ "type": "Feature", "properties": { "LAYER": "CO_TAMBAH", "GM_TYPE": "Unknown Line Type", "ELEVATION": 260.558 }, "geometry": { "type": "MultiLineString", "coordinates": [ [ [ 781688.983623890089802, 8997752.629839293658733 ], [ 781689.581692889798433, 8997752.542673772200942 ] ] ] } },
{ "type": "Feature", "properties": { "LAYER": "CO_TAMBAH", "GM_TYPE": "Unknown Line Type", "ELEVATION": 259.043 }, "geometry": { "type": "MultiLineString", "coordinates": [ [ [ 781685.718066172557883, 8997733.984571702778339 ], [ 781687.490149667835794, 8997733.320350574329495 ] ] ] } },
{ "type": "Feature", "properties": { "LAYER": "CO_TAMBAH", "GM_TYPE": "Unknown Line Type", "ELEVATION": 259.501 }, "geometry": { "type": "MultiLineString", "coordinates": [ [ [ 781682.507036925759166, 8997710.047895697876811 ], [ 781683.535611566738226, 8997709.860973428934813 ] ] ] } },
{ "type": "Feature", "properties": { "LAYER": "CO_TAMBAH", "GM_TYPE": "Unknown Line Type", "ELEVATION": 258.424 }, "geometry": { "type": "MultiLineString", "coordinates": [ [ [ 781681.540671252529137, 8997705.19484481588006 ], [ 781683.066030248184688, 8997704.792743002995849 ] ] ] } },
{ "type": "Feature", "properties": { "LAYER": "CO_TAMBAH", "GM_TYPE": "Unknown Line Type", "ELEVATION": 265.364 }, "geometry": { "type": "MultiLineString", "coordinates": [ [ [ 781747.265554378274828, 8997986.417206330224872 ], [ 781747.265554378274828, 8997985.620029263198376 ] ] ] } },
{ "type": "Feature", "properties": { "LAYER": "CO_TAMBAH", "GM_TYPE": "Unknown Line Type", "ELEVATION": 265.257 }, "geometry": { "type": "MultiLineString", "coordinates": [ [ [ 781737.303802628535777, 8997988.632934879511595 ], [ 781737.303802628535777, 8997987.109266055747867 ] ] ] } },
{ "type": "Feature", "properties": { "LAYER": "CO_TAMBAH", "GM_TYPE": "Unknown Line Type", "ELEVATION": 264.634 }, "geometry": { "type": "MultiLineString", "coordinates": [ [ [ 781727.836317708715796, 8997990.236257836222649 ], [ 781727.718885685317218, 8997988.870646515861154 ] ] ] } },
{ "type": "Feature", "properties": { "LAYER": "CO_TAMBAH", "GM_TYPE": "Unknown Line Type", "ELEVATION": 258.392 }, "geometry": { "type": "MultiLineString", "coordinates": [ [ [ 781678.5241024044808, 8997642.896893056109548 ], [ 781680.162251491332427, 8997642.828682482242584 ] ] ] } },
{ "type": "Feature", "properties": { "LAYER": "CO_TAMBAH", "GM_TYPE": "Unknown Line Type", "ELEVATION": 257.986 }, "geometry": { "type": "MultiLineString", "coordinates": [ [ [ 781677.468355326913297, 8997626.076126921921968 ], [ 781679.286032212316059, 8997625.997134990990162 ] ] ] } },
{ "type": "Feature", "properties": { "LAYER": "CO_TAMBAH", "GM_TYPE": "Unknown Line Type", "ELEVATION": 257.606 }, "geometry": { "type": "MultiLineString", "coordinates": [ [ [ 781676.81976640294306, 8997621.713958630338311 ], [ 781678.290811125189066, 8997621.433098435401917 ] ] ] } },
{ "type": "Feature", "properties": { "LAYER": "CO_TAMBAH", "GM_TYPE": "Unknown Line Type", "ELEVATION": 257.693 }, "geometry": { "type": "MultiLineString", "coordinates": [ [ [ 781672.883496257476509, 8997603.919698210433125 ], [ 781674.289822845370509, 8997603.377516595646739 ] ] ] } },
{ "type": "Feature", "properties": { "LAYER": "CO_TAMBAH", "GM_TYPE": "Unknown Line Type", "ELEVATION": 257.202 }, "geometry": { "type": "MultiLineString", "coordinates": [ [ [ 781673.69453840830829, 8997580.23591703735292 ], [ 781675.834551381878555, 8997580.282428668811917 ] ] ] } },
{ "type": "Feature", "properties": { "LAYER": "CO_TAMBAH", "GM_TYPE": "Unknown Line Type", "ELEVATION": 256.705 }, "geometry": { "type": "MultiLineString", "coordinates": [ [ [ 781672.54160703078378, 8997553.513077536597848 ], [ 781674.193464734358713, 8997554.135243587195873 ] ] ] } },
{ "type": "Feature", "properties": { "LAYER": "CO_TAMBAH", "GM_TYPE": "Unknown Line Type", "ELEVATION": 256.535 }, "geometry": { "type": "MultiLineString", "coordinates": [ [ [ 781683.919514031382278, 8997529.366203987970948 ], [ 781684.842979078413919, 8997530.097429109737277 ] ] ] } },
{ "type": "Feature", "properties": { "LAYER": "CO_TAMBAH", "GM_TYPE": "Unknown Line Type", "ELEVATION": 256.244 }, "geometry": { "type": "MultiLineString", "coordinates": [ [ [ 781685.398453447967768, 8997514.104044571518898 ], [ 781687.517413903144188, 8997515.066776962950826 ] ] ] } },
{ "type": "Feature", "properties": { "LAYER": "CO_TAMBAH", "GM_TYPE": "Unknown Line Type", "ELEVATION": 255.824 }, "geometry": { "type": "MultiLineString", "coordinates": [ [ [ 781687.096210537478328, 8997501.971242219209671 ], [ 781688.644794622436166, 8997502.61304435133934 ] ] ] } },
{ "type": "Feature", "properties": { "LAYER": "CO_TAMBAH", "GM_TYPE": "Unknown Line Type", "ELEVATION": 255.76 }, "geometry": { "type": "MultiLineString", "coordinates": [ [ [ 781692.955817954964004, 8997463.646553019061685 ], [ 781694.171019499539398, 8997464.32136089541018 ] ] ] } },
{ "type": "Feature", "properties": { "LAYER": "CO_TAMBAH", "GM_TYPE": "Unknown Line Type", "ELEVATION": 255.885 }, "geometry": { "type": "MultiLineString", "coordinates": [ [ [ 781695.597052223864011, 8997444.898473314940929 ], [ 781697.729690696112812, 8997445.295904504135251 ] ] ] } },
{ "type": "Feature", "properties": { "LAYER": "CO_TAMBAH", "GM_TYPE": "Unknown Line Type", "ELEVATION": 255.642 }, "geometry": { "type": "MultiLineString", "coordinates": [ [ [ 781699.538126505096443, 8997421.609476644545794 ], [ 781701.690073319012299, 8997421.72896677814424 ] ] ] } },
{ "type": "Feature", "properties": { "LAYER": "CO_TAMBAH", "GM_TYPE": "Unknown Line Type", "ELEVATION": 255.165 }, "geometry": { "type": "MultiLineString", "coordinates": [ [ [ 781702.812619303003885, 8997390.044289775192738 ], [ 781704.570045594358817, 8997390.34620670042932 ] ] ] } },
{ "type": "Feature", "properties": { "LAYER": "CO_TAMBAH", "GM_TYPE": "Unknown Line Type", "ELEVATION": 254.785 }, "geometry": { "type": "MultiLineString", "coordinates": [ [ [ 781712.726611285936087, 8997368.964790213853121 ], [ 781714.12871513038408, 8997370.203770557418466 ] ] ] } },
{ "type": "Feature", "properties": { "LAYER": "CO_TAMBAH", "GM_TYPE": "Unknown Line Type", "ELEVATION": 254.506 }, "geometry": { "type": "MultiLineString", "coordinates": [ [ [ 781716.99041945009958, 8997360.702436737716198 ], [ 781718.311526177916676, 8997361.790964605286717 ] ] ] } },
{ "type": "Feature", "properties": { "LAYER": "CO_TAMBAH", "GM_TYPE": "Unknown Line Type", "ELEVATION": 254.104 }, "geometry": { "type": "MultiLineString", "coordinates": [ [ [ 781723.839158636168577, 8997349.632084600627422 ], [ 781724.563940540887415, 8997350.42241257801652 ] ] ] } },
{ "type": "Feature", "properties": { "LAYER": "CO_TAMBAH", "GM_TYPE": "Unknown Line Type", "ELEVATION": 253.615 }, "geometry": { "type": "MultiLineString", "coordinates": [ [ [ 781734.887263248441741, 8997328.471043726429343 ], [ 781735.517829013522714, 8997328.904341414570808 ] ] ] } },
{ "type": "Feature", "properties": { "LAYER": "CO_TAMBAH", "GM_TYPE": "Unknown Line Type", "ELEVATION": 253.23 }, "geometry": { "type": "MultiLineString", "coordinates": [ [ [ 781745.358075982891023, 8997307.622720595449209 ], [ 781746.157949283253402, 8997307.959783967584372 ] ] ] } },
{ "type": "Feature", "properties": { "LAYER": "CO_TAMBAH", "GM_TYPE": "Unknown Line Type", "ELEVATION": 252.447 }, "geometry": { "type": "MultiLineString", "coordinates": [ [ [ 781761.764933912432753, 8997266.477441508322954 ], [ 781763.359386783791706, 8997267.414933066815138 ] ] ] } },
{ "type": "Feature", "properties": { "LAYER": "CO_TAMBAH", "GM_TYPE": "Unknown Line Type", "ELEVATION": 252.631 }, "geometry": { "type": "MultiLineString", "coordinates": [ [ [ 781771.094137117965147, 8997245.322997890412807 ], [ 781772.180055391974747, 8997246.274053720757365 ] ] ] } },
{ "type": "Feature", "properties": { "LAYER": "CO_TAMBAH", "GM_TYPE": "Unknown Line Type", "ELEVATION": 247.77 }, "geometry": { "type": "MultiLineString", "coordinates": [ [ [ 781926.86591279739514, 8996883.653552364557981 ], [ 781928.938270076061599, 8996884.689263256266713 ] ] ] } },
{ "type": "Feature", "properties": { "LAYER": "CO_TAMBAH", "GM_TYPE": "Unknown Line Type", "ELEVATION": 257.658 }, "geometry": { "type": "MultiLineString", "coordinates": [ [ [ 782173.701169253559783, 8997215.524199107661843 ], [ 782174.547602339531295, 8997215.524199107661843 ] ] ] } },
{ "type": "Feature", "properties": { "LAYER": "CO_TAMBAH", "GM_TYPE": "Unknown Line Type", "ELEVATION": 259.672 }, "geometry": { "type": "MultiLineString", "coordinates": [ [ [ 782191.42246341239661, 8997178.397692162543535 ], [ 782192.451119586941786, 8997178.397692162543535 ] ] ] } },
{ "type": "Feature", "properties": { "LAYER": "CO_TAMBAH", "GM_TYPE": "Unknown Line Type", "ELEVATION": 254.58 }, "geometry": { "type": "MultiLineString", "coordinates": [ [ [ 782422.332795341848396, 8996885.551104562357068 ], [ 782421.693418749724515, 8996885.551104562357068 ] ] ] } },
{ "type": "Feature", "properties": { "LAYER": "CO_TAMBAH", "GM_TYPE": "Unknown Line Type", "ELEVATION": 247.318 }, "geometry": { "type": "MultiLineString", "coordinates": [ [ [ 781949.660955473780632, 8996830.571676056832075 ], [ 781950.749811308458447, 8996831.131391972303391 ] ] ] } },
{ "type": "Feature", "properties": { "LAYER": "CO_TAMBAH", "GM_TYPE": "Unknown Line Type", "ELEVATION": 245.272 }, "geometry": { "type": "MultiLineString", "coordinates": [ [ [ 782008.259208886418492, 8996686.516387334093451 ], [ 782010.947590457624756, 8996688.262333374470472 ] ] ] } },
{ "type": "Feature", "properties": { "LAYER": "CO_TAMBAH", "GM_TYPE": "Unknown Line Type", "ELEVATION": 249.504 }, "geometry": { "type": "MultiLineString", "coordinates": [ [ [ 782147.144137410097755, 8996857.983540497720242 ], [ 782150.392875681864098, 8996861.459165161475539 ] ] ] } },
{ "type": "Feature", "properties": { "LAYER": "CO_TAMBAH", "GM_TYPE": "Unknown Line Type", "ELEVATION": 255.033 }, "geometry": { "type": "MultiLineString", "coordinates": [ [ [ 782438.023251932230778, 8996846.97872731089592 ], [ 782438.916160264634527, 8996847.446051040664315 ] ] ] } },
{ "type": "Feature", "properties": { "LAYER": "CO_TAMBAH", "GM_TYPE": "Unknown Line Type", "ELEVATION": 254.6 }, "geometry": { "type": "MultiLineString", "coordinates": [ [ [ 782440.207254161825404, 8996840.941851096227765 ], [ 782441.218949455069378, 8996841.515099704265594 ] ] ] } },
{ "type": "Feature", "properties": { "LAYER": "CO_TAMBAH", "GM_TYPE": "Unknown Line Type", "ELEVATION": 255.276 }, "geometry": { "type": "MultiLineString", "coordinates": [ [ [ 782443.932173735811375, 8996830.702360196039081 ], [ 782446.022131222067401, 8996831.879062755033374 ] ] ] } },
{ "type": "Feature", "properties": { "LAYER": "CO_TAMBAH", "GM_TYPE": "Unknown Line Type", "ELEVATION": 254.761 }, "geometry": { "type": "MultiLineString", "coordinates": [ [ [ 782453.740183303249069, 8996808.293621247634292 ], [ 782455.171827586134896, 8996809.190932977944613 ] ] ] } },
{ "type": "Feature", "properties": { "LAYER": "CO_TAMBAH", "GM_TYPE": "Unknown Line Type", "ELEVATION": 254.704 }, "geometry": { "type": "MultiLineString", "coordinates": [ [ [ 782459.555516301188618, 8996795.579886676743627 ], [ 782460.333649924141355, 8996795.796186482533813 ] ] ] } },
{ "type": "Feature", "properties": { "LAYER": "CO_TAMBAH", "GM_TYPE": "Unknown Line Type", "ELEVATION": 254.585 }, "geometry": { "type": "MultiLineString", "coordinates": [ [ [ 782471.166820144047961, 8996732.08494028262794 ], [ 782472.583570463117212, 8996731.720569007098675 ] ] ] } },
{ "type": "Feature", "properties": { "LAYER": "CO_TAMBAH", "GM_TYPE": "Unknown Line Type", "ELEVATION": 254.517 }, "geometry": { "type": "MultiLineString", "coordinates": [ [ [ 782466.932283838745207, 8996711.477508457377553 ], [ 782467.252108916058205, 8996711.339763160794973 ] ] ] } },
{ "type": "Feature", "properties": { "LAYER": "CO_TAMBAH", "GM_TYPE": "Unknown Line Type", "ELEVATION": 254.911 }, "geometry": { "type": "MultiLineString", "coordinates": [ [ [ 782463.812089593964629, 8996678.563512828201056 ], [ 782464.857189920498058, 8996678.762424804270267 ] ] ] } },
{ "type": "Feature", "properties": { "LAYER": "CO_TAMBAH", "GM_TYPE": "Unknown Line Type", "ELEVATION": 247.108 }, "geometry": { "type": "MultiLineString", "coordinates": [ [ [ 782643.066112149856053, 8996259.136127553880215 ], [ 782645.825598906259984, 8996258.481867460533977 ] ] ] } },
{ "type": "Feature", "properties": { "LAYER": "CO_TAMBAH", "GM_TYPE": "Unknown Line Type", "ELEVATION": 246.455 }, "geometry": { "type": "MultiLineString", "coordinates": [ [ [ 782638.00040147267282, 8996189.009510545060039 ], [ 782638.34743083093781, 8996189.182048685848713 ] ] ] } },
{ "type": "Feature", "properties": { "LAYER": "CO_TAMBAH", "GM_TYPE": "Unknown Line Type", "ELEVATION": 246.835 }, "geometry": { "type": "MultiLineString", "coordinates": [ [ [ 782642.376870231819339, 8996170.683235669508576 ], [ 782643.182619422441348, 8996170.719780366867781 ] ] ] } },
{ "type": "Feature", "properties": { "LAYER": "CO_TAMBAH", "GM_TYPE": "Unknown Line Type", "ELEVATION": 217.957 }, "geometry": { "type": "MultiLineString", "coordinates": [ [ [ 782552.665516230743378, 8994961.713185533881187 ], [ 782555.392949546454474, 8994960.491097280755639 ] ] ] } },
{ "type": "Feature", "properties": { "LAYER": "CO_TAMBAH", "GM_TYPE": "Unknown Line Type", "ELEVATION": 225.564 }, "geometry": { "type": "MultiLineString", "coordinates": [ [ [ 782643.682387900073081, 8995225.561137724667788 ], [ 782645.755566880106926, 8995224.215728532522917 ] ] ] } },
{ "type": "Feature", "properties": { "LAYER": "CO_TAMBAH", "GM_TYPE": "Unknown Line Type", "ELEVATION": 224.924 }, "geometry": { "type": "MultiLineString", "coordinates": [ [ [ 782634.09948995814193, 8995206.931932484731078 ], [ 782638.227336848736741, 8995205.022432504221797 ] ] ] } },
{ "type": "Feature", "properties": { "LAYER": "CO_TAMBAH", "GM_TYPE": "Unknown Line Type", "ELEVATION": 219.816 }, "geometry": { "type": "MultiLineString", "coordinates": [ [ [ 782588.616059903171845, 8995100.029142398387194 ], [ 782590.879425683058798, 8995099.005665803328156 ] ] ] } },
{ "type": "Feature", "properties": { "LAYER": "CO_TAMBAH", "GM_TYPE": "Unknown Line Type", "ELEVATION": 200.385 }, "geometry": { "type": "MultiLineString", "coordinates": [ [ [ 781935.093443974968977, 8994491.567930525168777 ], [ 781936.933570777997375, 8994491.567930525168777 ] ] ] } },
{ "type": "Feature", "properties": { "LAYER": "CO_TAMBAH", "GM_TYPE": "Unknown Line Type", "ELEVATION": 200.156 }, "geometry": { "type": "MultiLineString", "coordinates": [ [ [ 781937.816623285762034, 8994485.70320501178503 ], [ 781939.660089792334475, 8994485.70320501178503 ] ] ] } },
{ "type": "Feature", "properties": { "LAYER": "CO_TAMBAH", "GM_TYPE": "Unknown Line Type", "ELEVATION": 199.674 }, "geometry": { "type": "MultiLineString", "coordinates": [ [ [ 781949.769521940383129, 8994460.479805117473006 ], [ 781951.93240367481485, 8994460.479805117473006 ] ] ] } },
{ "type": "Feature", "properties": { "LAYER": "CO_TAMBAH", "GM_TYPE": "Unknown Line Type", "ELEVATION": 216.174 }, "geometry": { "type": "MultiLineString", "coordinates": [ [ [ 782372.559350304072723, 8994933.944078179076314 ], [ 782376.620232644374482, 8994928.624099841341376 ] ] ] } },
{ "type": "Feature", "properties": { "LAYER": "CO_TAMBAH", "GM_TYPE": "Unknown Line Type", "ELEVATION": 215.875 }, "geometry": { "type": "MultiLineString", "coordinates": [ [ [ 782356.314182870206423, 8994918.491260224953294 ], [ 782359.880291735520586, 8994915.137640787288547 ] ] ] } },
{ "type": "Feature", "properties": { "LAYER": "CO_TAMBAH", "GM_TYPE": "Unknown Line Type", "ELEVATION": 214.528 }, "geometry": { "type": "MultiLineString", "coordinates": [ [ [ 782342.803563136607409, 8994907.030049981549382 ], [ 782345.925300755421631, 8994903.613765640184283 ] ] ] } },
{ "type": "Feature", "properties": { "LAYER": "CO_TAMBAH", "GM_TYPE": "Unknown Line Type", "ELEVATION": 214.999 }, "geometry": { "type": "MultiLineString", "coordinates": [ [ [ 782320.678748950944282, 8994887.645240731537342 ], [ 782323.130262937746011, 8994884.428019672632217 ] ] ] } },
{ "type": "Feature", "properties": { "LAYER": "CO_TAMBAH", "GM_TYPE": "Unknown Line Type", "ELEVATION": 214.484 }, "geometry": { "type": "MultiLineString", "coordinates": [ [ [ 782314.030266607296653, 8994880.855065945535898 ], [ 782316.033805588027462, 8994878.671167656779289 ] ] ] } },
{ "type": "Feature", "properties": { "LAYER": "CO_TAMBAH", "GM_TYPE": "Unknown Line Type", "ELEVATION": 214.048 }, "geometry": { "type": "MultiLineString", "coordinates": [ [ [ 782289.753176464815624, 8994857.07821468450129 ], [ 782290.341068056877702, 8994856.326891107484698 ] ] ] } },
{ "type": "Feature", "properties": { "LAYER": "CO_TAMBAH", "GM_TYPE": "Unknown Line Type", "ELEVATION": 216.859 }, "geometry": { "type": "MultiLineString", "coordinates": [ [ [ 782391.714540796237998, 8994946.428440075367689 ], [ 782393.121493800659664, 8994944.857971234247088 ] ] ] } },
{ "type": "Feature", "properties": { "LAYER": "CO_TAMBAH", "GM_TYPE": "Unknown Line Type", "ELEVATION": 210.867 }, "geometry": { "type": "MultiLineString", "coordinates": [ [ [ 782304.047072028741241, 8994632.905479254201055 ], [ 782306.875141063821502, 8994632.552253752946854 ] ] ] } },
{ "type": "Feature", "properties": { "LAYER": "CO_TAMBAH", "GM_TYPE": "Unknown Line Type", "ELEVATION": 0.0 }, "geometry": { "type": "MultiLineString", "coordinates": [ [ [ 782397.26901757158339, 8994946.472415197640657 ], [ 782397.742067686165683, 8994947.066827218979597 ] ] ] } },
{ "type": "Feature", "properties": { "LAYER": "CO_TAMBAH", "GM_TYPE": "Unknown Line Type", "ELEVATION": 199.674 }, "geometry": { "type": "MultiLineString", "coordinates": [ [ [ 781949.769521940383129, 8994460.479805117473006 ], [ 781951.93240367481485, 8994460.479805117473006 ] ] ] } },
{ "type": "Feature", "properties": { "LAYER": "CO_TAMBAH", "GM_TYPE": "Unknown Line Type", "ELEVATION": 199.517 }, "geometry": { "type": "MultiLineString", "coordinates": [ [ [ 781952.219119715853594, 8994453.655085258185863 ], [ 781954.998824755311944, 8994453.655085258185863 ] ] ] } },
{ "type": "Feature", "properties": { "LAYER": "CO_TAMBAH", "GM_TYPE": "Unknown Line Type", "ELEVATION": 199.154 }, "geometry": { "type": "MultiLineString", "coordinates": [ [ [ 781961.613182381377555, 8994435.022739257663488 ], [ 781962.511961403652094, 8994435.022739257663488 ] ] ] } },
{ "type": "Feature", "properties": { "LAYER": "CO_TAMBAH", "GM_TYPE": "Unknown Line Type", "ELEVATION": 198.667 }, "geometry": { "type": "MultiLineString", "coordinates": [ [ [ 781969.450095810811035, 8994403.510546609759331 ], [ 781971.30395527544897, 8994403.510546609759331 ] ] ] } },
{ "type": "Feature", "properties": { "LAYER": "CO_TAMBAH", "GM_TYPE": "Unknown Line Type", "ELEVATION": 198.418 }, "geometry": { "type": "MultiLineString", "coordinates": [ [ [ 781976.81526365398895, 8994359.843116942793131 ], [ 781980.992858932469971, 8994359.843116942793131 ] ] ] } },
{ "type": "Feature", "properties": { "LAYER": "CO_TAMBAH", "GM_TYPE": "Unknown Line Type", "ELEVATION": 198.687 }, "geometry": { "type": "MultiLineString", "coordinates": [ [ [ 781969.772402125410736, 8994322.032044433057308 ], [ 781973.80369845032692, 8994322.032044433057308 ] ] ] } },
{ "type": "Feature", "properties": { "LAYER": "CO_TAMBAH", "GM_TYPE": "Unknown Line Type", "ELEVATION": 196.238 }, "geometry": { "type": "MultiLineString", "coordinates": [ [ [ 781996.456708162208088, 8994208.173322668299079 ], [ 782001.14674854837358, 8994208.173322668299079 ] ] ] } },
{ "type": "Feature", "properties": { "LAYER": "CO_TAMBAH", "GM_TYPE": "Unknown Line Type", "ELEVATION": 196.014 }, "geometry": { "type": "MultiLineString", "coordinates": [ [ [ 781995.537766302935779, 8994179.209154106676579 ], [ 782000.67866666673217, 8994179.209154106676579 ] ] ] } },
{ "type": "Feature", "properties": { "LAYER": "CO_TAMBAH", "GM_TYPE": "Unknown Line Type", "ELEVATION": 195.441 }, "geometry": { "type": "MultiLineString", "coordinates": [ [ [ 781994.287221790174954, 8994148.021228283643723 ], [ 781998.250552655779757, 8994148.021228283643723 ] ] ] } },
{ "type": "Feature", "properties": { "LAYER": "CO_TAMBAH", "GM_TYPE": "Unknown Line Type", "ELEVATION": 195.041 }, "geometry": { "type": "MultiLineString", "coordinates": [ [ [ 781990.7667754907161, 8994126.977766785770655 ], [ 781995.058369306265377, 8994126.977766785770655 ] ] ] } },
{ "type": "Feature", "properties": { "LAYER": "CO_TAMBAH", "GM_TYPE": "Unknown Line Type", "ELEVATION": 198.667 }, "geometry": { "type": "MultiLineString", "coordinates": [ [ [ 781969.450095810811035, 8994403.510546609759331 ], [ 781971.30395527544897, 8994403.510546609759331 ] ] ] } },
{ "type": "Feature", "properties": { "LAYER": "CO_TAMBAH", "GM_TYPE": "Unknown Line Type", "ELEVATION": 265.788 }, "geometry": { "type": "MultiLineString", "coordinates": [ [ [ 781816.594106676173396, 8997945.900341955944896 ], [ 781817.129354716278613, 8997946.075042758136988 ] ] ] } },
{ "type": "Feature", "properties": { "LAYER": "CO_TAMBAH", "GM_TYPE": "Unknown Line Type", "ELEVATION": 265.451 }, "geometry": { "type": "MultiLineString", "coordinates": [ [ [ 781818.528276203200221, 8997937.553469646722078 ], [ 781818.897123669274151, 8997937.658792220056057 ] ] ] } },
{ "type": "Feature", "properties": { "LAYER": "CO_TAMBAH", "GM_TYPE": "Unknown Line Type", "ELEVATION": 265.243 }, "geometry": { "type": "MultiLineString", "coordinates": [ [ [ 781826.694116513361223, 8997902.74306757375598 ], [ 781827.019479018519633, 8997902.791882798075676 ] ] ] } },
{ "type": "Feature", "properties": { "LAYER": "CO_TAMBAH", "GM_TYPE": "Unknown Line Type", "ELEVATION": 265.848 }, "geometry": { "type": "MultiLineString", "coordinates": [ [ [ 781811.907381569268182, 8997969.581885119900107 ], [ 781812.693791049649008, 8997969.363981045782566 ] ] ] } },
{ "type": "Feature", "properties": { "LAYER": "CO_TAMBAH", "GM_TYPE": "Unknown Line Type", "ELEVATION": 265.333 }, "geometry": { "type": "MultiLineString", "coordinates": [ [ [ 781823.281524820136838, 8997916.74529442191124 ], [ 781823.696547068539076, 8997916.920793121680617 ] ] ] } },
{ "type": "Feature", "properties": { "LAYER": "CO_TAMBAH", "GM_TYPE": "Unknown Line Type", "ELEVATION": 265.674 }, "geometry": { "type": "MultiLineString", "coordinates": [ [ [ 781831.4462912020972, 8997882.572887342423201 ], [ 781831.709600679925643, 8997882.704462714493275 ] ] ] } },
{ "type": "Feature", "properties": { "LAYER": "CO_TAMBAH", "GM_TYPE": "Unknown Line Type", "ELEVATION": 264.987 }, "geometry": { "type": "MultiLineString", "coordinates": [ [ [ 781832.282884011277929, 8997870.671339264139533 ], [ 781832.576946077635512, 8997870.679688004776835 ] ] ] } },
{ "type": "Feature", "properties": { "LAYER": "CO_TAMBAH", "GM_TYPE": "Unknown Line Type", "ELEVATION": 265.074 }, "geometry": { "type": "MultiLineString", "coordinates": [ [ [ 781834.414635095279664, 8997832.393064390867949 ], [ 781834.530270948540419, 8997832.405908606946468 ] ] ] } },
{ "type": "Feature", "properties": { "LAYER": "CO_TAMBAH", "GM_TYPE": "Unknown Line Type", "ELEVATION": 264.545 }, "geometry": { "type": "MultiLineString", "coordinates": [ [ [ 781802.505228939582594, 8997794.926816437393427 ], [ 781803.137110487092286, 8997794.30574019998312 ] ] ] } },
{ "type": "Feature", "properties": { "LAYER": "CO_TAMBAH", "GM_TYPE": "Unknown Line Type", "ELEVATION": 264.621 }, "geometry": { "type": "MultiLineString", "coordinates": [ [ [ 781791.302871790714562, 8997783.273297959938645 ], [ 781792.911859467742033, 8997782.551414085552096 ] ] ] } },
{ "type": "Feature", "properties": { "LAYER": "CO_TAMBAH", "GM_TYPE": "Unknown Line Type", "ELEVATION": 264.933 }, "geometry": { "type": "MultiLineString", "coordinates": [ [ [ 781783.317633207305335, 8997765.760598327964544 ], [ 781783.748169448110275, 8997765.424410697072744 ] ] ] } },
{ "type": "Feature", "properties": { "LAYER": "CO_TAMBAH", "GM_TYPE": "Unknown Line Type", "ELEVATION": 264.534 }, "geometry": { "type": "MultiLineString", "coordinates": [ [ [ 781776.606656377785839, 8997752.415556695312262 ], [ 781777.465492089977488, 8997751.974336663261056 ] ] ] } },
{ "type": "Feature", "properties": { "LAYER": "CO_TAMBAH", "GM_TYPE": "Unknown Line Type", "ELEVATION": 264.481 }, "geometry": { "type": "MultiLineString", "coordinates": [ [ [ 781773.664533334434964, 8997742.642721647396684 ], [ 781774.308930114493705, 8997742.673392079770565 ] ] ] } },
{ "type": "Feature", "properties": { "LAYER": "CO_TAMBAH", "GM_TYPE": "Unknown Line Type", "ELEVATION": 264.359 }, "geometry": { "type": "MultiLineString", "coordinates": [ [ [ 781723.697941525140777, 8997971.051535911858082 ], [ 781724.560237990459427, 8997970.764234147965908 ] ] ] } },
{ "type": "Feature", "properties": { "LAYER": "CO_TAMBAH", "GM_TYPE": "Unknown Line Type", "ELEVATION": 264.123 }, "geometry": { "type": "MultiLineString", "coordinates": [ [ [ 781721.215396733605303, 8997966.581904346123338 ], [ 781722.774507077760063, 8997965.782390806823969 ] ] ] } },
{ "type": "Feature", "properties": { "LAYER": "CO_TAMBAH", "GM_TYPE": "Unknown Line Type", "ELEVATION": 263.746 }, "geometry": { "type": "MultiLineString", "coordinates": [ [ [ 781713.878777673700824, 8997951.666850144043565 ], [ 781715.0739364863839, 8997951.094095405191183 ] ] ] } },
{ "type": "Feature", "properties": { "LAYER": "CO_TAMBAH", "GM_TYPE": "Unknown Line Type", "ELEVATION": 263.441 }, "geometry": { "type": "MultiLineString", "coordinates": [ [ [ 781710.143087845062837, 8997933.411988344043493 ], [ 781712.046045789727941, 8997932.879400972276926 ] ] ] } },
{ "type": "Feature", "properties": { "LAYER": "CO_TAMBAH", "GM_TYPE": "Unknown Line Type", "ELEVATION": 262.726 }, "geometry": { "type": "MultiLineString", "coordinates": [ [ [ 781703.355609039543197, 8997902.738734988495708 ], [ 781705.370867481920868, 8997902.370261669158936 ] ] ] } },
{ "type": "Feature", "properties": { "LAYER": "CO_TAMBAH", "GM_TYPE": "Unknown Line Type", "ELEVATION": 263.081 }, "geometry": { "type": "MultiLineString", "coordinates": [ [ [ 781707.612532295752317, 8997921.617222409695387 ], [ 781708.972561702947132, 8997920.977502597495914 ] ] ] } },
{ "type": "Feature", "properties": { "LAYER": "CO_TAMBAH", "GM_TYPE": "Unknown Line Type", "ELEVATION": 261.959 }, "geometry": { "type": "MultiLineString", "coordinates": [ [ [ 781695.02171871997416, 8997859.620039379224181 ], [ 781696.866384444292635, 8997859.366502335295081 ] ] ] } },
{ "type": "Feature", "properties": { "LAYER": "CO_TAMBAH", "GM_TYPE": "Unknown Line Type", "ELEVATION": 261.358 }, "geometry": { "type": "MultiLineString", "coordinates": [ [ [ 781689.667800138005987, 8997832.042514592409134 ], [ 781691.621706401114352, 8997832.162102030590177 ] ] ] } },
{ "type": "Feature", "properties": { "LAYER": "CO_TAMBAH", "GM_TYPE": "Unknown Line Type", "ELEVATION": 261.278 }, "geometry": { "type": "MultiLineString", "coordinates": [ [ [ 781693.881975766038522, 8997819.110218159854412 ], [ 781695.440963711822405, 8997819.968133961781859 ] ] ] } },
{ "type": "Feature", "properties": { "LAYER": "CO_TAMBAH", "GM_TYPE": "Unknown Line Type", "ELEVATION": 261.277 }, "geometry": { "type": "MultiLineString", "coordinates": [ [ [ 781695.41296508628875, 8997813.070381158962846 ], [ 781698.160594131913967, 8997813.509809041395783 ] ] ] } },
{ "type": "Feature", "properties": { "LAYER": "CO_TAMBAH", "GM_TYPE": "Unknown Line Type", "ELEVATION": 260.918 }, "geometry": { "type": "MultiLineString", "coordinates": [ [ [ 781693.844338269438595, 8997790.668647376820445 ], [ 781695.268730894080363, 8997790.603558335453272 ] ] ] } },
{ "type": "Feature", "properties": { "LAYER": "CO_TAMBAH", "GM_TYPE": "Unknown Line Type", "ELEVATION": 260.558 }, "geometry": { "type": "MultiLineString", "coordinates": [ [ [ 781689.285764248343185, 8997756.297446860000491 ], [ 781690.114033968769945, 8997756.218065710738301 ] ] ] } },
{ "type": "Feature", "properties": { "LAYER": "CO_TAMBAH", "GM_TYPE": "Unknown Line Type", "ELEVATION": 260.558 }, "geometry": { "type": "MultiLineString", "coordinates": [ [ [ 781688.983623890089802, 8997752.629839293658733 ], [ 781689.581692889798433, 8997752.542673772200942 ] ] ] } },
{ "type": "Feature", "properties": { "LAYER": "CO_TAMBAH", "GM_TYPE": "Unknown Line Type", "ELEVATION": 259.043 }, "geometry": { "type": "MultiLineString", "coordinates": [ [ [ 781685.718066172557883, 8997733.984571702778339 ], [ 781687.490149667835794, 8997733.320350574329495 ] ] ] } },
{ "type": "Feature", "properties": { "LAYER": "CO_TAMBAH", "GM_TYPE": "Unknown Line Type", "ELEVATION": 259.501 }, "geometry": { "type": "MultiLineString", "coordinates": [ [ [ 781682.507036925759166, 8997710.047895697876811 ], [ 781683.535611566738226, 8997709.860973428934813 ] ] ] } },
{ "type": "Feature", "properties": { "LAYER": "CO_TAMBAH", "GM_TYPE": "Unknown Line Type", "ELEVATION": 258.424 }, "geometry": { "type": "MultiLineString", "coordinates": [ [ [ 781681.540671252529137, 8997705.19484481588006 ], [ 781683.066030248184688, 8997704.792743002995849 ] ] ] } },
{ "type": "Feature", "properties": { "LAYER": "CO_TAMBAH", "GM_TYPE": "Unknown Line Type", "ELEVATION": 265.364 }, "geometry": { "type": "MultiLineString", "coordinates": [ [ [ 781747.265554378274828, 8997986.417206330224872 ], [ 781747.265554378274828, 8997985.620029263198376 ] ] ] } },
{ "type": "Feature", "properties": { "LAYER": "CO_TAMBAH", "GM_TYPE": "Unknown Line Type", "ELEVATION": 265.257 }, "geometry": { "type": "MultiLineString", "coordinates": [ [ [ 781737.303802628535777, 8997988.632934879511595 ], [ 781737.303802628535777, 8997987.109266055747867 ] ] ] } },
{ "type": "Feature", "properties": { "LAYER": "CO_TAMBAH", "GM_TYPE": "Unknown Line Type", "ELEVATION": 264.634 }, "geometry": { "type": "MultiLineString", "coordinates": [ [ [ 781727.836317708715796, 8997990.236257836222649 ], [ 781727.718885685317218, 8997988.870646515861154 ] ] ] } },
{ "type": "Feature", "properties": { "LAYER": "CO_TAMBAH", "GM_TYPE": "Unknown Line Type", "ELEVATION": 258.392 }, "geometry": { "type": "MultiLineString", "coordinates": [ [ [ 781678.5241024044808, 8997642.896893056109548 ], [ 781680.162251491332427, 8997642.828682482242584 ] ] ] } },
{ "type": "Feature", "properties": { "LAYER": "CO_TAMBAH", "GM_TYPE": "Unknown Line Type", "ELEVATION": 257.986 }, "geometry": { "type": "MultiLineString", "coordinates": [ [ [ 781677.468355326913297, 8997626.076126921921968 ], [ 781679.286032212316059, 8997625.997134990990162 ] ] ] } },
{ "type": "Feature", "properties": { "LAYER": "CO_TAMBAH", "GM_TYPE": "Unknown Line Type", "ELEVATION": 257.606 }, "geometry": { "type": "MultiLineString", "coordinates": [ [ [ 781676.81976640294306, 8997621.713958630338311 ], [ 781678.290811125189066, 8997621.433098435401917 ] ] ] } },
{ "type": "Feature", "properties": { "LAYER": "CO_TAMBAH", "GM_TYPE": "Unknown Line Type", "ELEVATION": 257.693 }, "geometry": { "type": "MultiLineString", "coordinates": [ [ [ 781672.883496257476509, 8997603.919698210433125 ], [ 781674.289822845370509, 8997603.377516595646739 ] ] ] } },
{ "type": "Feature", "properties": { "LAYER": "CO_TAMBAH", "GM_TYPE": "Unknown Line Type", "ELEVATION": 257.202 }, "geometry": { "type": "MultiLineString", "coordinates": [ [ [ 781673.69453840830829, 8997580.23591703735292 ], [ 781675.834551381878555, 8997580.282428668811917 ] ] ] } },
{ "type": "Feature", "properties": { "LAYER": "CO_TAMBAH", "GM_TYPE": "Unknown Line Type", "ELEVATION": 256.705 }, "geometry": { "type": "MultiLineString", "coordinates": [ [ [ 781672.54160703078378, 8997553.513077536597848 ], [ 781674.193464734358713, 8997554.135243587195873 ] ] ] } },
{ "type": "Feature", "properties": { "LAYER": "CO_TAMBAH", "GM_TYPE": "Unknown Line Type", "ELEVATION": 256.535 }, "geometry": { "type": "MultiLineString", "coordinates": [ [ [ 781683.919514031382278, 8997529.366203987970948 ], [ 781684.842979078413919, 8997530.097429109737277 ] ] ] } },
{ "type": "Feature", "properties": { "LAYER": "CO_TAMBAH", "GM_TYPE": "Unknown Line Type", "ELEVATION": 256.244 }, "geometry": { "type": "MultiLineString", "coordinates": [ [ [ 781685.398453447967768, 8997514.104044571518898 ], [ 781687.517413903144188, 8997515.066776962950826 ] ] ] } },
{ "type": "Feature", "properties": { "LAYER": "CO_TAMBAH", "GM_TYPE": "Unknown Line Type", "ELEVATION": 255.824 }, "geometry": { "type": "MultiLineString", "coordinates": [ [ [ 781687.096210537478328, 8997501.971242219209671 ], [ 781688.644794622436166, 8997502.61304435133934 ] ] ] } },
{ "type": "Feature", "properties": { "LAYER": "CO_TAMBAH", "GM_TYPE": "Unknown Line Type", "ELEVATION": 255.76 }, "geometry": { "type": "MultiLineString", "coordinates": [ [ [ 781692.955817954964004, 8997463.646553019061685 ], [ 781694.171019499539398, 8997464.32136089541018 ] ] ] } },
{ "type": "Feature", "properties": { "LAYER": "CO_TAMBAH", "GM_TYPE": "Unknown Line Type", "ELEVATION": 255.885 }, "geometry": { "type": "MultiLineString", "coordinates": [ [ [ 781695.597052223864011, 8997444.898473314940929 ], [ 781697.729690696112812, 8997445.295904504135251 ] ] ] } },
{ "type": "Feature", "properties": { "LAYER": "CO_TAMBAH", "GM_TYPE": "Unknown Line Type", "ELEVATION": 255.642 }, "geometry": { "type": "MultiLineString", "coordinates": [ [ [ 781699.538126505096443, 8997421.609476644545794 ], [ 781701.690073319012299, 8997421.72896677814424 ] ] ] } },
{ "type": "Feature", "properties": { "LAYER": "CO_TAMBAH", "GM_TYPE": "Unknown Line Type", "ELEVATION": 255.165 }, "geometry": { "type": "MultiLineString", "coordinates": [ [ [ 781702.812619303003885, 8997390.044289775192738 ], [ 781704.570045594358817, 8997390.34620670042932 ] ] ] } },
{ "type": "Feature", "properties": { "LAYER": "CO_TAMBAH", "GM_TYPE": "Unknown Line Type", "ELEVATION": 254.785 }, "geometry": { "type": "MultiLineString", "coordinates": [ [ [ 781712.726611285936087, 8997368.964790213853121 ], [ 781714.12871513038408, 8997370.203770557418466 ] ] ] } },
{ "type": "Feature", "properties": { "LAYER": "CO_TAMBAH", "GM_TYPE": "Unknown Line Type", "ELEVATION": 254.506 }, "geometry": { "type": "MultiLineString", "coordinates": [ [ [ 781716.99041945009958, 8997360.702436737716198 ], [ 781718.311526177916676, 8997361.790964605286717 ] ] ] } },
{ "type": "Feature", "properties": { "LAYER": "CO_TAMBAH", "GM_TYPE": "Unknown Line Type", "ELEVATION": 254.104 }, "geometry": { "type": "MultiLineString", "coordinates": [ [ [ 781723.839158636168577, 8997349.632084600627422 ], [ 781724.563940540887415, 8997350.42241257801652 ] ] ] } },
{ "type": "Feature", "properties": { "LAYER": "CO_TAMBAH", "GM_TYPE": "Unknown Line Type", "ELEVATION": 253.615 }, "geometry": { "type": "MultiLineString", "coordinates": [ [ [ 781734.887263248441741, 8997328.471043726429343 ], [ 781735.517829013522714, 8997328.904341414570808 ] ] ] } },
{ "type": "Feature", "properties": { "LAYER": "CO_TAMBAH", "GM_TYPE": "Unknown Line Type", "ELEVATION": 253.23 }, "geometry": { "type": "MultiLineString", "coordinates": [ [ [ 781745.358075982891023, 8997307.622720595449209 ], [ 781746.157949283253402, 8997307.959783967584372 ] ] ] } },
{ "type": "Feature", "properties": { "LAYER": "CO_TAMBAH", "GM_TYPE": "Unknown Line Type", "ELEVATION": 252.447 }, "geometry": { "type": "MultiLineString", "coordinates": [ [ [ 781761.764933912432753, 8997266.477441508322954 ], [ 781763.359386783791706, 8997267.414933066815138 ] ] ] } },
{ "type": "Feature", "properties": { "LAYER": "CO_TAMBAH", "GM_TYPE": "Unknown Line Type", "ELEVATION": 252.631 }, "geometry": { "type": "MultiLineString", "coordinates": [ [ [ 781771.094137117965147, 8997245.322997890412807 ], [ 781772.180055391974747, 8997246.274053720757365 ] ] ] } },
{ "type": "Feature", "properties": { "LAYER": "CO_TAMBAH", "GM_TYPE": "Unknown Line Type", "ELEVATION": 247.77 }, "geometry": { "type": "MultiLineString", "coordinates": [ [ [ 781926.86591279739514, 8996883.653552364557981 ], [ 781928.938270076061599, 8996884.689263256266713 ] ] ] } },
{ "type": "Feature", "properties": { "LAYER": "CO_TAMBAH", "GM_TYPE": "Unknown Line Type", "ELEVATION": 257.658 }, "geometry": { "type": "MultiLineString", "coordinates": [ [ [ 782173.701169253559783, 8997215.524199107661843 ], [ 782174.547602339531295, 8997215.524199107661843 ] ] ] } },
{ "type": "Feature", "properties": { "LAYER": "CO_TAMBAH", "GM_TYPE": "Unknown Line Type", "ELEVATION": 259.672 }, "geometry": { "type": "MultiLineString", "coordinates": [ [ [ 782191.42246341239661, 8997178.397692162543535 ], [ 782192.451119586941786, 8997178.397692162543535 ] ] ] } },
{ "type": "Feature", "properties": { "LAYER": "CO_TAMBAH", "GM_TYPE": "Unknown Line Type", "ELEVATION": 254.58 }, "geometry": { "type": "MultiLineString", "coordinates": [ [ [ 782422.332795341848396, 8996885.551104562357068 ], [ 782421.693418749724515, 8996885.551104562357068 ] ] ] } },
{ "type": "Feature", "properties": { "LAYER": "CO_TAMBAH", "GM_TYPE": "Unknown Line Type", "ELEVATION": 247.318 }, "geometry": { "type": "MultiLineString", "coordinates": [ [ [ 781949.660955473780632, 8996830.571676056832075 ], [ 781950.749811308458447, 8996831.131391972303391 ] ] ] } },
{ "type": "Feature", "properties": { "LAYER": "CO_TAMBAH", "GM_TYPE": "Unknown Line Type", "ELEVATION": 245.272 }, "geometry": { "type": "MultiLineString", "coordinates": [ [ [ 782008.259208886418492, 8996686.516387334093451 ], [ 782010.947590457624756, 8996688.262333374470472 ] ] ] } },
{ "type": "Feature", "properties": { "LAYER": "CO_TAMBAH", "GM_TYPE": "Unknown Line Type", "ELEVATION": 249.504 }, "geometry": { "type": "MultiLineString", "coordinates": [ [ [ 782147.144137410097755, 8996857.983540497720242 ], [ 782150.392875681864098, 8996861.459165161475539 ] ] ] } },
{ "type": "Feature", "properties": { "LAYER": "CO_TAMBAH", "GM_TYPE": "Unknown Line Type", "ELEVATION": 255.033 }, "geometry": { "type": "MultiLineString", "coordinates": [ [ [ 782438.023251932230778, 8996846.97872731089592 ], [ 782438.916160264634527, 8996847.446051040664315 ] ] ] } },
{ "type": "Feature", "properties": { "LAYER": "CO_TAMBAH", "GM_TYPE": "Unknown Line Type", "ELEVATION": 254.6 }, "geometry": { "type": "MultiLineString", "coordinates": [ [ [ 782440.207254161825404, 8996840.941851096227765 ], [ 782441.218949455069378, 8996841.515099704265594 ] ] ] } },
{ "type": "Feature", "properties": { "LAYER": "CO_TAMBAH", "GM_TYPE": "Unknown Line Type", "ELEVATION": 255.276 }, "geometry": { "type": "MultiLineString", "coordinates": [ [ [ 782443.932173735811375, 8996830.702360196039081 ], [ 782446.022131222067401, 8996831.879062755033374 ] ] ] } },
{ "type": "Feature", "properties": { "LAYER": "CO_TAMBAH", "GM_TYPE": "Unknown Line Type", "ELEVATION": 254.761 }, "geometry": { "type": "MultiLineString", "coordinates": [ [ [ 782453.740183303249069, 8996808.293621247634292 ], [ 782455.171827586134896, 8996809.190932977944613 ] ] ] } },
{ "type": "Feature", "properties": { "LAYER": "CO_TAMBAH", "GM_TYPE": "Unknown Line Type", "ELEVATION": 254.704 }, "geometry": { "type": "MultiLineString", "coordinates": [ [ [ 782459.555516301188618, 8996795.579886676743627 ], [ 782460.333649924141355, 8996795.796186482533813 ] ] ] } },
{ "type": "Feature", "properties": { "LAYER": "CO_TAMBAH", "GM_TYPE": "Unknown Line Type", "ELEVATION": 254.585 }, "geometry": { "type": "MultiLineString", "coordinates": [ [ [ 782471.166820144047961, 8996732.08494028262794 ], [ 782472.583570463117212, 8996731.720569007098675 ] ] ] } },
{ "type": "Feature", "properties": { "LAYER": "CO_TAMBAH", "GM_TYPE": "Unknown Line Type", "ELEVATION": 254.517 }, "geometry": { "type": "MultiLineString", "coordinates": [ [ [ 782466.932283838745207, 8996711.477508457377553 ], [ 782467.252108916058205, 8996711.339763160794973 ] ] ] } },
{ "type": "Feature", "properties": { "LAYER": "CO_TAMBAH", "GM_TYPE": "Unknown Line Type", "ELEVATION": 254.911 }, "geometry": { "type": "MultiLineString", "coordinates": [ [ [ 782463.812089593964629, 8996678.563512828201056 ], [ 782464.857189920498058, 8996678.762424804270267 ] ] ] } },
{ "type": "Feature", "properties": { "LAYER": "CO_TAMBAH", "GM_TYPE": "Unknown Line Type", "ELEVATION": 247.108 }, "geometry": { "type": "MultiLineString", "coordinates": [ [ [ 782643.066112149856053, 8996259.136127553880215 ], [ 782645.825598906259984, 8996258.481867460533977 ] ] ] } },
{ "type": "Feature", "properties": { "LAYER": "CO_TAMBAH", "GM_TYPE": "Unknown Line Type", "ELEVATION": 246.455 }, "geometry": { "type": "MultiLineString", "coordinates": [ [ [ 782638.00040147267282, 8996189.009510545060039 ], [ 782638.34743083093781, 8996189.182048685848713 ] ] ] } },
{ "type": "Feature", "properties": { "LAYER": "CO_TAMBAH", "GM_TYPE": "Unknown Line Type", "ELEVATION": 246.835 }, "geometry": { "type": "MultiLineString", "coordinates": [ [ [ 782642.376870231819339, 8996170.683235669508576 ], [ 782643.182619422441348, 8996170.719780366867781 ] ] ] } },
{ "type": "Feature", "properties": { "LAYER": "CO_TAMBAH", "GM_TYPE": "Unknown Line Type", "ELEVATION": 217.957 }, "geometry": { "type": "MultiLineString", "coordinates": [ [ [ 782552.665516230743378, 8994961.713185533881187 ], [ 782555.392949546454474, 8994960.491097280755639 ] ] ] } },
{ "type": "Feature", "properties": { "LAYER": "CO_TAMBAH", "GM_TYPE": "Unknown Line Type", "ELEVATION": 225.564 }, "geometry": { "type": "MultiLineString", "coordinates": [ [ [ 782643.682387900073081, 8995225.561137724667788 ], [ 782645.755566880106926, 8995224.215728532522917 ] ] ] } },
{ "type": "Feature", "properties": { "LAYER": "CO_TAMBAH", "GM_TYPE": "Unknown Line Type", "ELEVATION": 224.924 }, "geometry": { "type": "MultiLineString", "coordinates": [ [ [ 782634.09948995814193, 8995206.931932484731078 ], [ 782638.227336848736741, 8995205.022432504221797 ] ] ] } },
{ "type": "Feature", "properties": { "LAYER": "CO_TAMBAH", "GM_TYPE": "Unknown Line Type", "ELEVATION": 219.816 }, "geometry": { "type": "MultiLineString", "coordinates": [ [ [ 782588.616059903171845, 8995100.029142398387194 ], [ 782590.879425683058798, 8995099.005665803328156 ] ] ] } },
{ "type": "Feature", "properties": { "LAYER": "CO_TAMBAH", "GM_TYPE": "Unknown Line Type", "ELEVATION": 200.385 }, "geometry": { "type": "MultiLineString", "coordinates": [ [ [ 781935.093443974968977, 8994491.567930525168777 ], [ 781936.933570777997375, 8994491.567930525168777 ] ] ] } },
{ "type": "Feature", "properties": { "LAYER": "CO_TAMBAH", "GM_TYPE": "Unknown Line Type", "ELEVATION": 200.156 }, "geometry": { "type": "MultiLineString", "coordinates": [ [ [ 781937.816623285762034, 8994485.70320501178503 ], [ 781939.660089792334475, 8994485.70320501178503 ] ] ] } },
{ "type": "Feature", "properties": { "LAYER": "CO_TAMBAH", "GM_TYPE": "Unknown Line Type", "ELEVATION": 199.674 }, "geometry": { "type": "MultiLineString", "coordinates": [ [ [ 781949.769521940383129, 8994460.479805117473006 ], [ 781951.93240367481485, 8994460.479805117473006 ] ] ] } },
{ "type": "Feature", "properties": { "LAYER": "CO_TAMBAH", "GM_TYPE": "Unknown Line Type", "ELEVATION": 216.174 }, "geometry": { "type": "MultiLineString", "coordinates": [ [ [ 782372.559350304072723, 8994933.944078179076314 ], [ 782376.620232644374482, 8994928.624099841341376 ] ] ] } },
{ "type": "Feature", "properties": { "LAYER": "CO_TAMBAH", "GM_TYPE": "Unknown Line Type", "ELEVATION": 215.875 }, "geometry": { "type": "MultiLineString", "coordinates": [ [ [ 782356.314182870206423, 8994918.491260224953294 ], [ 782359.880291735520586, 8994915.137640787288547 ] ] ] } },
{ "type": "Feature", "properties": { "LAYER": "CO_TAMBAH", "GM_TYPE": "Unknown Line Type", "ELEVATION": 214.528 }, "geometry": { "type": "MultiLineString", "coordinates": [ [ [ 782342.803563136607409, 8994907.030049981549382 ], [ 782345.925300755421631, 8994903.613765640184283 ] ] ] } },
{ "type": "Feature", "properties": { "LAYER": "CO_TAMBAH", "GM_TYPE": "Unknown Line Type", "ELEVATION": 214.999 }, "geometry": { "type": "MultiLineString", "coordinates": [ [ [ 782320.678748950944282, 8994887.645240731537342 ], [ 782323.130262937746011, 8994884.428019672632217 ] ] ] } },
{ "type": "Feature", "properties": { "LAYER": "CO_TAMBAH", "GM_TYPE": "Unknown Line Type", "ELEVATION": 214.484 }, "geometry": { "type": "MultiLineString", "coordinates": [ [ [ 782314.030266607296653, 8994880.855065945535898 ], [ 782316.033805588027462, 8994878.671167656779289 ] ] ] } },
{ "type": "Feature", "properties": { "LAYER": "CO_TAMBAH", "GM_TYPE": "Unknown Line Type", "ELEVATION": 214.048 }, "geometry": { "type": "MultiLineString", "coordinates": [ [ [ 782289.753176464815624, 8994857.07821468450129 ], [ 782290.341068056877702, 8994856.326891107484698 ] ] ] } },
{ "type": "Feature", "properties": { "LAYER": "CO_TAMBAH", "GM_TYPE": "Unknown Line Type", "ELEVATION": 216.859 }, "geometry": { "type": "MultiLineString", "coordinates": [ [ [ 782391.714540796237998, 8994946.428440075367689 ], [ 782393.121493800659664, 8994944.857971234247088 ] ] ] } },
{ "type": "Feature", "properties": { "LAYER": "CO_TAMBAH", "GM_TYPE": "Unknown Line Type", "ELEVATION": 210.867 }, "geometry": { "type": "MultiLineString", "coordinates": [ [ [ 782304.047072028741241, 8994632.905479254201055 ], [ 782306.875141063821502, 8994632.552253752946854 ] ] ] } },
{ "type": "Feature", "properties": { "LAYER": "CO_TAMBAH", "GM_TYPE": "Unknown Line Type", "ELEVATION": 0.0 }, "geometry": { "type": "MultiLineString", "coordinates": [ [ [ 782397.26901757158339, 8994946.472415197640657 ], [ 782397.742067686165683, 8994947.066827218979597 ] ] ] } },
{ "type": "Feature", "properties": { "LAYER": "CO_TAMBAH", "GM_TYPE": "Unknown Line Type", "ELEVATION": 199.674 }, "geometry": { "type": "MultiLineString", "coordinates": [ [ [ 781949.769521940383129, 8994460.479805117473006 ], [ 781951.93240367481485, 8994460.479805117473006 ] ] ] } },
{ "type": "Feature", "properties": { "LAYER": "CO_TAMBAH", "GM_TYPE": "Unknown Line Type", "ELEVATION": 199.517 }, "geometry": { "type": "MultiLineString", "coordinates": [ [ [ 781952.219119715853594, 8994453.655085258185863 ], [ 781954.998824755311944, 8994453.655085258185863 ] ] ] } },
{ "type": "Feature", "properties": { "LAYER": "CO_TAMBAH", "GM_TYPE": "Unknown Line Type", "ELEVATION": 199.154 }, "geometry": { "type": "MultiLineString", "coordinates": [ [ [ 781961.613182381377555, 8994435.022739257663488 ], [ 781962.511961403652094, 8994435.022739257663488 ] ] ] } },
{ "type": "Feature", "properties": { "LAYER": "CO_TAMBAH", "GM_TYPE": "Unknown Line Type", "ELEVATION": 198.667 }, "geometry": { "type": "MultiLineString", "coordinates": [ [ [ 781969.450095810811035, 8994403.510546609759331 ], [ 781971.30395527544897, 8994403.510546609759331 ] ] ] } },
{ "type": "Feature", "properties": { "LAYER": "CO_TAMBAH", "GM_TYPE": "Unknown Line Type", "ELEVATION": 198.418 }, "geometry": { "type": "MultiLineString", "coordinates": [ [ [ 781976.81526365398895, 8994359.843116942793131 ], [ 781980.992858932469971, 8994359.843116942793131 ] ] ] } },
{ "type": "Feature", "properties": { "LAYER": "CO_TAMBAH", "GM_TYPE": "Unknown Line Type", "ELEVATION": 198.687 }, "geometry": { "type": "MultiLineString", "coordinates": [ [ [ 781969.772402125410736, 8994322.032044433057308 ], [ 781973.80369845032692, 8994322.032044433057308 ] ] ] } },
{ "type": "Feature", "properties": { "LAYER": "CO_TAMBAH", "GM_TYPE": "Unknown Line Type", "ELEVATION": 196.238 }, "geometry": { "type": "MultiLineString", "coordinates": [ [ [ 781996.456708162208088, 8994208.173322668299079 ], [ 782001.14674854837358, 8994208.173322668299079 ] ] ] } },
{ "type": "Feature", "properties": { "LAYER": "CO_TAMBAH", "GM_TYPE": "Unknown Line Type", "ELEVATION": 196.014 }, "geometry": { "type": "MultiLineString", "coordinates": [ [ [ 781995.537766302935779, 8994179.209154106676579 ], [ 782000.67866666673217, 8994179.209154106676579 ] ] ] } },
{ "type": "Feature", "properties": { "LAYER": "CO_TAMBAH", "GM_TYPE": "Unknown Line Type", "ELEVATION": 195.441 }, "geometry": { "type": "MultiLineString", "coordinates": [ [ [ 781994.287221790174954, 8994148.021228283643723 ], [ 781998.250552655779757, 8994148.021228283643723 ] ] ] } },
{ "type": "Feature", "properties": { "LAYER": "CO_TAMBAH", "GM_TYPE": "Unknown Line Type", "ELEVATION": 195.041 }, "geometry": { "type": "MultiLineString", "coordinates": [ [ [ 781990.7667754907161, 8994126.977766785770655 ], [ 781995.058369306265377, 8994126.977766785770655 ] ] ] } },
{ "type": "Feature", "properties": { "LAYER": "CO_TAMBAH", "GM_TYPE": "Unknown Line Type", "ELEVATION": 198.667 }, "geometry": { "type": "MultiLineString", "coordinates": [ [ [ 781969.450095810811035, 8994403.510546609759331 ], [ 781971.30395527544897, 8994403.510546609759331 ] ] ] } }
]
}
