{
"type": "FeatureCollection",
"name": "09_rei_li_salexisting",
"crs": { "type": "name", "properties": { "name": "urn:ogc:def:crs:EPSG::32751" } },
"xy_coordinate_resolution": 1e-15,
"features": [
{ "type": "Feature", "properties": { "LAYER": "_07.Sal_existing", "GM_TYPE": "Unknown Area Type", "ELEVATION": 0 }, "geometry": { "type": "MultiLineString", "coordinates": [ [ [ 781450.088847450097091, 8998460.52033462934196 ], [ 781419.872032373095863, 8998482.660171249881387 ], [ 781411.703231221996248, 8998515.053046029061079 ], [ 781394.108422913122922, 8998561.474598038941622 ], [ 781378.209461689111777, 8998608.599649839103222 ], [ 781367.130704134120606, 8998621.209372319281101 ], [ 781332.013443328090943, 8998652.786877598613501 ], [ 781295.16710751701612, 8998685.924215618520975 ], [ 781260.043462744099088, 8998721.379531629383564 ], [ 781234.815952872042544, 8998764.559549920260906 ], [ 781221.946920963120647, 8998797.602355169132352 ], [ 781201.534889957052656, 8998843.07638230919838 ], [ 781173.780588687048294, 8998885.129710229113698 ], [ 781138.514824285055511, 8998911.614874389022589 ], [ 781099.130757334060036, 8998941.172761918976903 ], [ 781063.74285664409399, 8998975.921091379597783 ], [ 781028.111185137066059, 8999010.07312235981226 ], [ 781063.74285664409399, 8998975.921091379597783 ], [ 781099.130757334060036, 8998941.172761918976903 ], [ 781138.514824285055511, 8998911.614874389022589 ], [ 781173.780588687048294, 8998885.129710229113698 ], [ 781201.534889957052656, 8998843.07638230919838 ], [ 781221.946920963120647, 8998797.602355169132352 ], [ 781234.815952872042544, 8998764.559549920260906 ], [ 781260.043462744099088, 8998721.379531629383564 ], [ 781295.16710751701612, 8998685.924215618520975 ], [ 781332.013443328090943, 8998652.786877598613501 ], [ 781367.130704134120606, 8998621.209372319281101 ], [ 781378.209461689111777, 8998608.599649839103222 ], [ 781394.108422913122922, 8998561.474598038941622 ], [ 781411.703231221996248, 8998515.053046029061079 ], [ 781419.872032373095863, 8998482.660171249881387 ], [ 781450.088847450097091, 8998460.52033462934196 ] ] ] } },
{ "type": "Feature", "properties": { "LAYER": "_07.Sal_existing", "GM_TYPE": "Unknown Area Type", "ELEVATION": 0 }, "geometry": { "type": "MultiLineString", "coordinates": [ [ [ 781914.532637133845128, 8998159.120242374017835 ], [ 781926.817673963145353, 8998185.833707949146628 ], [ 781948.790875828126445, 8998209.972941409796476 ], [ 781981.737152327084914, 8998245.973779259249568 ], [ 781963.666756499093026, 8998260.831474509090185 ], [ 781952.530951164080761, 8998270.835134429857135 ], [ 781941.296017031068914, 8998280.927844999358058 ], [ 781930.215422279085033, 8998290.882005790248513 ], [ 781919.213261489057913, 8998303.233920389786363 ], [ 781914.532637134427205, 8998301.228923160582781 ], [ 781919.213261489057913, 8998303.233920389786363 ], [ 781930.215422279085033, 8998290.882005790248513 ], [ 781941.296017031068914, 8998280.927844999358058 ], [ 781952.530951164080761, 8998270.835134429857135 ], [ 781963.666756499093026, 8998260.831474509090185 ], [ 781981.737152327084914, 8998245.973779259249568 ], [ 781948.790875828126445, 8998209.972941409796476 ], [ 781926.817673963145353, 8998185.833707949146628 ], [ 781914.532637133845128, 8998159.120242374017835 ] ] ] } },
{ "type": "Feature", "properties": { "LAYER": "_07.Sal_existing", "GM_TYPE": "Unknown Area Type", "ELEVATION": 0 }, "geometry": { "type": "MultiLineString", "coordinates": [ [ [ 782671.233296840451658, 8996060.52033462934196 ], [ 782666.276769473101012, 8996074.089022198691964 ], [ 782654.38324487709906, 8996121.881534589454532 ], [ 782645.95513615407981, 8996170.515839159488678 ], [ 782634.134870484122075, 8996218.22527644969523 ], [ 782649.673156154109165, 8996263.273196639493108 ], [ 782649.680739129078574, 8996290.578016249462962 ], [ 782639.536873086122796, 8996308.911859879270196 ], [ 782624.534275944111869, 8996319.438952449709177 ], [ 782611.350297681055963, 8996347.19751163944602 ], [ 782593.296549422084354, 8996388.987729448825121 ], [ 782567.115805541165173, 8996430.984750378876925 ], [ 782542.776643337099813, 8996474.053632918745279 ], [ 782541.580394946155138, 8996498.090766828507185 ], [ 782548.531380216125399, 8996522.027292069047689 ], [ 782553.261962386080995, 8996539.876384319737554 ], [ 782544.804606779129244, 8996565.17639471963048 ], [ 782523.881790403160267, 8996575.324453389272094 ], [ 782488.423174757044762, 8996609.605406248942018 ], [ 782468.235087678185664, 8996654.389639139175415 ], [ 782468.511090576066636, 8996700.756876958534122 ], [ 782480.734717923100106, 8996749.255778379738331 ], [ 782463.717372972052544, 8996796.960432279855013 ], [ 782444.479877140023746, 8996842.791847668588161 ], [ 782437.700163146713749, 8996860.52033462934196 ], [ 782427.189691343111917, 8996888.004497310146689 ], [ 782423.93972868216224, 8996905.772473141551018 ], [ 782413.924621419049799, 8996916.643142050132155 ], [ 782403.399921078118496, 8996932.005070880055428 ], [ 782361.938411388196982, 8996953.621870059520006 ], [ 782328.366728615015745, 8996990.109828239306808 ], [ 782298.339449589024298, 8997029.305971909314394 ], [ 782269.776658301125281, 8997070.233387248590589 ], [ 782237.007189768133685, 8997107.613925289362669 ], [ 782224.38125986000523, 8997123.851049849763513 ], [ 782211.971885410021059, 8997148.45613724924624 ], [ 782186.864289144054055, 8997191.007416538894176 ], [ 782177.485439209965989, 8997217.564154639840126 ], [ 782177.240144709125161, 8997237.955673919990659 ], [ 782127.756727416999638, 8997243.416455769911408 ], [ 782105.211289427010342, 8997246.815359449014068 ], [ 782088.626240625046194, 8997265.559550980105996 ], [ 782059.264987012022175, 8997305.214003449305892 ], [ 782048.899640971096233, 8997322.166066899895668 ], [ 782030.925302046118304, 8997346.768965389579535 ], [ 782000.873863772023469, 8997386.512685628607869 ], [ 781988.985759361414239, 8997405.409098176285625 ], [ 781978.786531360005029, 8997414.45934140868485 ], [ 781970.777819095877931, 8997423.972070388495922 ], [ 781973.874324319069274, 8997429.429068129509687 ], [ 781974.252735188114457, 8997456.293259749189019 ], [ 781967.664784659049474, 8997478.124909298494458 ], [ 781948.528014381066896, 8997524.178799320012331 ], [ 781932.42282767908182, 8997544.321100119501352 ], [ 781914.532637134077959, 8997550.488192846998572 ], [ 781932.42282767908182, 8997544.321100119501352 ], [ 781948.528014381066896, 8997524.178799320012331 ], [ 781967.664784659049474, 8997478.124909298494458 ], [ 781974.252735188114457, 8997456.293259749189019 ], [ 781973.874324319069274, 8997429.429068129509687 ], [ 781970.777819095877931, 8997423.972070388495922 ], [ 781978.786531360005029, 8997414.45934140868485 ], [ 781988.985759361414239, 8997405.409098176285625 ], [ 782000.873863772023469, 8997386.512685628607869 ], [ 782030.925302046118304, 8997346.768965389579535 ], [ 782048.899640971096233, 8997322.166066899895668 ], [ 782059.264987012022175, 8997305.214003449305892 ], [ 782088.626240625046194, 8997265.559550980105996 ], [ 782105.211289427010342, 8997246.815359449014068 ], [ 782127.756727416999638, 8997243.416455769911408 ], [ 782177.240144709125161, 8997237.955673919990659 ], [ 782177.485439209965989, 8997217.564154639840126 ], [ 782186.864289144054055, 8997191.007416538894176 ], [ 782211.971885410021059, 8997148.45613724924624 ], [ 782224.38125986000523, 8997123.851049849763513 ], [ 782237.007189768133685, 8997107.613925289362669 ], [ 782269.776658301125281, 8997070.233387248590589 ], [ 782298.339449589024298, 8997029.305971909314394 ], [ 782328.366728615015745, 8996990.109828239306808 ], [ 782361.938411388196982, 8996953.621870059520006 ], [ 782403.399921078118496, 8996932.005070880055428 ], [ 782413.924621419049799, 8996916.643142050132155 ], [ 782423.93972868216224, 8996905.772473141551018 ], [ 782427.189691343111917, 8996888.004497310146689 ], [ 782437.700163146713749, 8996860.52033462934196 ], [ 782444.479877140023746, 8996842.791847668588161 ], [ 782463.717372972052544, 8996796.960432279855013 ], [ 782480.734717923100106, 8996749.255778379738331 ], [ 782468.511090576066636, 8996700.756876958534122 ], [ 782468.235087678185664, 8996654.389639139175415 ], [ 782488.423174757044762, 8996609.605406248942018 ], [ 782523.881790403160267, 8996575.324453389272094 ], [ 782544.804606779129244, 8996565.17639471963048 ], [ 782553.261962386080995, 8996539.876384319737554 ], [ 782548.531380216125399, 8996522.027292069047689 ], [ 782541.580394946155138, 8996498.090766828507185 ], [ 782542.776643337099813, 8996474.053632918745279 ], [ 782567.115805541165173, 8996430.984750378876925 ], [ 782593.296549422084354, 8996388.987729448825121 ], [ 782611.350297681055963, 8996347.19751163944602 ], [ 782624.534275944111869, 8996319.438952449709177 ], [ 782639.536873086122796, 8996308.911859879270196 ], [ 782649.680739129078574, 8996290.578016249462962 ], [ 782649.673156154109165, 8996263.273196639493108 ], [ 782634.134870484122075, 8996218.22527644969523 ], [ 782645.95513615407981, 8996170.515839159488678 ], [ 782654.38324487709906, 8996121.881534589454532 ], [ 782666.276769473101012, 8996074.089022198691964 ], [ 782671.233296840451658, 8996060.52033462934196 ] ] ] } },
{ "type": "Feature", "properties": { "LAYER": "_07.Sal_existing", "GM_TYPE": "Unknown Area Type", "ELEVATION": 0 }, "geometry": { "type": "MultiLineString", "coordinates": [ [ [ 782394.224891204037704, 8994948.652813488617539 ], [ 782404.671842784970067, 8994987.092600958421826 ], [ 782410.193700745003298, 8995037.46799491904676 ], [ 782415.365533891133964, 8995086.977202558889985 ], [ 782424.079868467058986, 8995136.617974098771811 ], [ 782432.99825737811625, 8995185.732623510062695 ], [ 782441.942037552013062, 8995234.758601430803537 ], [ 782448.406966630835086, 8995260.52033462934196 ], [ 782441.942037552013062, 8995234.758601430803537 ], [ 782432.99825737811625, 8995185.732623510062695 ], [ 782424.079868467058986, 8995136.617974098771811 ], [ 782415.365533891133964, 8995086.977202558889985 ], [ 782410.193700745003298, 8995037.46799491904676 ], [ 782404.671842784970067, 8994987.092600958421826 ], [ 782394.224891204037704, 8994948.652813488617539 ] ] ] } }
]
}
