{
"type": "FeatureCollection",
"name": "09_rei_po_crosstersier",
"crs": { "type": "name", "properties": { "name": "urn:ogc:def:crs:EPSG::32751" } },
"features": [
{ "type": "Feature", "properties": { "NAME": "1-1", "LAYER": "point cross tersier", "GM_TYPE": "Text", "ELEVATION": 0 }, "geometry": { "type": "Point", "coordinates": [ 781808.220610042917542, 8997962.119574725627899 ] } },
{ "type": "Feature", "properties": { "NAME": "1-2", "LAYER": "point cross tersier", "GM_TYPE": "Text", "ELEVATION": 0 }, "geometry": { "type": "Point", "coordinates": [ 781765.697549221571535, 8997966.38763359375298 ] } },
{ "type": "Feature", "properties": { "NAME": "1-3", "LAYER": "point cross tersier", "GM_TYPE": "Text", "ELEVATION": 0 }, "geometry": { "type": "Point", "coordinates": [ 781716.721200967091136, 8997975.11563360504806 ] } },
{ "type": "Feature", "properties": { "NAME": "1-4", "LAYER": "point cross tersier", "GM_TYPE": "Text", "ELEVATION": -264 }, "geometry": { "type": "Point", "coordinates": [ 781736.117053428781219, 8997994.381877334788442 ] } },
{ "type": "Feature", "properties": { "NAME": "1-5", "LAYER": "point cross tersier", "GM_TYPE": "Text", "ELEVATION": -264 }, "geometry": { "type": "Point", "coordinates": [ 781739.269231179030612, 8997972.34583992138505 ] } },
{ "type": "Feature", "properties": { "NAME": "1-6", "LAYER": "point cross tersier", "GM_TYPE": "Text", "ELEVATION": -264 }, "geometry": { "type": "Point", "coordinates": [ 781730.034883536514826, 8997951.337353514507413 ] } },
{ "type": "Feature", "properties": { "NAME": "1-7", "LAYER": "point cross tersier", "GM_TYPE": "Text", "ELEVATION": -264 }, "geometry": { "type": "Point", "coordinates": [ 781719.754999453085475, 8997903.783034874126315 ] } },
{ "type": "Feature", "properties": { "NAME": "1-8", "LAYER": "point cross tersier", "GM_TYPE": "Text", "ELEVATION": -264 }, "geometry": { "type": "Point", "coordinates": [ 781708.743342040106654, 8997854.58969097211957 ] } },
{ "type": "Feature", "properties": { "NAME": "1-9", "LAYER": "point cross tersier", "GM_TYPE": "Text", "ELEVATION": -264 }, "geometry": { "type": "Point", "coordinates": [ 781703.535392986959778, 8997835.499011998996139 ] } },
{ "type": "Feature", "properties": { "NAME": "1-10", "LAYER": "point cross tersier", "GM_TYPE": "Text", "ELEVATION": -264 }, "geometry": { "type": "Point", "coordinates": [ 781711.554719729349017, 8997814.563034782186151 ] } },
{ "type": "Feature", "properties": { "NAME": "1-11", "LAYER": "point cross tersier", "GM_TYPE": "Text", "ELEVATION": -264 }, "geometry": { "type": "Point", "coordinates": [ 781704.149329414009117, 8997758.19367896951735 ] } },
{ "type": "Feature", "properties": { "NAME": "1-12", "LAYER": "point cross tersier", "GM_TYPE": "Text", "ELEVATION": -264 }, "geometry": { "type": "Point", "coordinates": [ 781700.877522177179344, 8997715.424747729673982 ] } },
{ "type": "Feature", "properties": { "NAME": "1-14", "LAYER": "point cross tersier", "GM_TYPE": "Text", "ELEVATION": -264 }, "geometry": { "type": "Point", "coordinates": [ 781690.27294715307653, 8997615.569885073229671 ] } },
{ "type": "Feature", "properties": { "NAME": "1-15", "LAYER": "point cross tersier", "GM_TYPE": "Text", "ELEVATION": -264 }, "geometry": { "type": "Point", "coordinates": [ 781688.841334466123953, 8997567.143463928252459 ] } },
{ "type": "Feature", "properties": { "NAME": "1-16", "LAYER": "point cross tersier", "GM_TYPE": "Text", "ELEVATION": -264 }, "geometry": { "type": "Point", "coordinates": [ 781698.284639435703866, 8997536.104529136791825 ] } },
{ "type": "Feature", "properties": { "NAME": "1-17", "LAYER": "point cross tersier", "GM_TYPE": "Text", "ELEVATION": -264 }, "geometry": { "type": "Point", "coordinates": [ 781705.269211816252209, 8997485.106170320883393 ] } },
{ "type": "Feature", "properties": { "NAME": "1-18", "LAYER": "point cross tersier", "GM_TYPE": "Text", "ELEVATION": -264 }, "geometry": { "type": "Point", "coordinates": [ 781713.217401307541877, 8997434.910660987719893 ] } },
{ "type": "Feature", "properties": { "NAME": "1-19", "LAYER": "point cross tersier", "GM_TYPE": "Text", "ELEVATION": -264 }, "geometry": { "type": "Point", "coordinates": [ 781716.719680837471969, 8997397.244635373353958 ] } },
{ "type": "Feature", "properties": { "NAME": "1-20", "LAYER": "point cross tersier", "GM_TYPE": "Text", "ELEVATION": -264 }, "geometry": { "type": "Point", "coordinates": [ 781737.583492942969315, 8997353.809266038239002 ] } },
{ "type": "Feature", "properties": { "NAME": "1-21", "LAYER": "point cross tersier", "GM_TYPE": "Text", "ELEVATION": -264 }, "geometry": { "type": "Point", "coordinates": [ 781761.260030755656771, 8997305.480873366817832 ] } },
{ "type": "Feature", "properties": { "NAME": "1-22", "LAYER": "point cross tersier", "GM_TYPE": "Text", "ELEVATION": -264 }, "geometry": { "type": "Point", "coordinates": [ 781780.183712739381008, 8997262.39014034345746 ] } },
{ "type": "Feature", "properties": { "NAME": "1-23", "LAYER": "point cross tersier", "GM_TYPE": "Text", "ELEVATION": -264 }, "geometry": { "type": "Point", "coordinates": [ 781801.143714796984568, 8997216.626994678750634 ] } },
{ "type": "Feature", "properties": { "NAME": "2-8", "LAYER": "point cross tersier", "GM_TYPE": "Text", "ELEVATION": -516 }, "geometry": { "type": "Point", "coordinates": [ 781900.904210904962383, 8997012.593443989753723 ] } },
{ "type": "Feature", "properties": { "NAME": "2-9", "LAYER": "point cross tersier", "GM_TYPE": "Text", "ELEVATION": -516 }, "geometry": { "type": "Point", "coordinates": [ 781883.18588898901362, 8997025.121488003060222 ] } },
{ "type": "Feature", "properties": { "NAME": "2-10", "LAYER": "point cross tersier", "GM_TYPE": "Text", "ELEVATION": -516 }, "geometry": { "type": "Point", "coordinates": [ 781902.322393784532323, 8996978.877052053809166 ] } },
{ "type": "Feature", "properties": { "NAME": "2-1", "LAYER": "point cross tersier", "GM_TYPE": "Text", "ELEVATION": -516 }, "geometry": { "type": "Point", "coordinates": [ 782224.026531502488069, 8997128.844919074326754 ] } },
{ "type": "Feature", "properties": { "NAME": "2-2", "LAYER": "point cross tersier", "GM_TYPE": "Text", "ELEVATION": -516 }, "geometry": { "type": "Point", "coordinates": [ 782177.520607122336514, 8997111.118215521797538 ] } },
{ "type": "Feature", "properties": { "NAME": "2-3", "LAYER": "point cross tersier", "GM_TYPE": "Text", "ELEVATION": -516 }, "geometry": { "type": "Point", "coordinates": [ 782129.872683226363733, 8997094.603689540177584 ] } },
{ "type": "Feature", "properties": { "NAME": "2-4", "LAYER": "point cross tersier", "GM_TYPE": "Text", "ELEVATION": -516 }, "geometry": { "type": "Point", "coordinates": [ 782082.997951443307102, 8997077.998476173728704 ] } },
{ "type": "Feature", "properties": { "NAME": "2-5", "LAYER": "point cross tersier", "GM_TYPE": "Text", "ELEVATION": -516 }, "geometry": { "type": "Point", "coordinates": [ 782041.535404192865826, 8997062.607906410470605 ] } },
{ "type": "Feature", "properties": { "NAME": "2-6", "LAYER": "point cross tersier", "GM_TYPE": "Text", "ELEVATION": -516 }, "geometry": { "type": "Point", "coordinates": [ 781994.941872028633952, 8997045.613330285996199 ] } },
{ "type": "Feature", "properties": { "NAME": "2-7", "LAYER": "point cross tersier", "GM_TYPE": "Text", "ELEVATION": -516 }, "geometry": { "type": "Point", "coordinates": [ 781947.960087807150558, 8997029.040175380185246 ] } },
{ "type": "Feature", "properties": { "NAME": "2-11", "LAYER": "point cross tersier", "GM_TYPE": "Text", "ELEVATION": -516 }, "geometry": { "type": "Point", "coordinates": [ 781922.648895409074612, 8996932.744827840477228 ] } },
{ "type": "Feature", "properties": { "NAME": "2-12", "LAYER": "point cross tersier", "GM_TYPE": "Text", "ELEVATION": -516 }, "geometry": { "type": "Point", "coordinates": [ 781942.097022160538472, 8996886.65033539570868 ] } },
{ "type": "Feature", "properties": { "NAME": "2-17", "LAYER": "point cross tersier", "GM_TYPE": "Text", "ELEVATION": -516 }, "geometry": { "type": "Point", "coordinates": [ 782067.504738917341456, 8997042.454547820612788 ] } },
{ "type": "Feature", "properties": { "NAME": "2-18", "LAYER": "point cross tersier", "GM_TYPE": "Text", "ELEVATION": -516 }, "geometry": { "type": "Point", "coordinates": [ 782091.305289821815677, 8996997.977518023923039 ] } },
{ "type": "Feature", "properties": { "NAME": "2-19", "LAYER": "point cross tersier", "GM_TYPE": "Text", "ELEVATION": -516 }, "geometry": { "type": "Point", "coordinates": [ 782115.728710702620447, 8996954.165277205407619 ] } },
{ "type": "Feature", "properties": { "NAME": "2-20", "LAYER": "point cross tersier", "GM_TYPE": "Text", "ELEVATION": -516 }, "geometry": { "type": "Point", "coordinates": [ 782139.603461126564071, 8996910.051638396456838 ] } },
{ "type": "Feature", "properties": { "NAME": "2-21", "LAYER": "point cross tersier", "GM_TYPE": "Text", "ELEVATION": -516 }, "geometry": { "type": "Point", "coordinates": [ 782167.109848002786748, 8996868.715810293331742 ] } },
{ "type": "Feature", "properties": { "NAME": "2-13", "LAYER": "point cross tersier", "GM_TYPE": "Text", "ELEVATION": -516 }, "geometry": { "type": "Point", "coordinates": [ 781961.773650311981328, 8996840.953587379306555 ] } },
{ "type": "Feature", "properties": { "NAME": "2-14", "LAYER": "point cross tersier", "GM_TYPE": "Text", "ELEVATION": -516 }, "geometry": { "type": "Point", "coordinates": [ 781981.761286096530966, 8996793.481122812256217 ] } },
{ "type": "Feature", "properties": { "NAME": "2-15", "LAYER": "point cross tersier", "GM_TYPE": "Text", "ELEVATION": -516 }, "geometry": { "type": "Point", "coordinates": [ 782000.153792470460758, 8996748.209915576502681 ] } },
{ "type": "Feature", "properties": { "NAME": "2-16", "LAYER": "point cross tersier", "GM_TYPE": "Text", "ELEVATION": -516 }, "geometry": { "type": "Point", "coordinates": [ 782024.427799344062805, 8996688.165018050000072 ] } },
{ "type": "Feature", "properties": { "NAME": "3-1", "LAYER": "point cross tersier", "GM_TYPE": "Text", "ELEVATION": -516 }, "geometry": { "type": "Point", "coordinates": [ 782476.489365814253688, 8996644.601666659116745 ] } },
{ "type": "Feature", "properties": { "NAME": "3-2", "LAYER": "point cross tersier", "GM_TYPE": "Text", "ELEVATION": -516 }, "geometry": { "type": "Point", "coordinates": [ 782444.698984166141599, 8996607.104176256805658 ] } },
{ "type": "Feature", "properties": { "NAME": "3-3", "LAYER": "point cross tersier", "GM_TYPE": "Text", "ELEVATION": -516 }, "geometry": { "type": "Point", "coordinates": [ 782411.629876943188719, 8996568.91707624681294 ] } },
{ "type": "Feature", "properties": { "NAME": "3-4", "LAYER": "point cross tersier", "GM_TYPE": "Text", "ELEVATION": -516 }, "geometry": { "type": "Point", "coordinates": [ 782379.117960568284616, 8996531.142716443166137 ] } },
{ "type": "Feature", "properties": { "NAME": "3-5", "LAYER": "point cross tersier", "GM_TYPE": "Text", "ELEVATION": -516 }, "geometry": { "type": "Point", "coordinates": [ 782341.763384499354288, 8996485.495834032073617 ] } },
{ "type": "Feature", "properties": { "NAME": "3-6", "LAYER": "point cross tersier", "GM_TYPE": "Text", "ELEVATION": -516 }, "geometry": { "type": "Point", "coordinates": [ 782283.741333249839954, 8996445.635265516117215 ] } },
{ "type": "Feature", "properties": { "NAME": "3-7", "LAYER": "point cross tersier", "GM_TYPE": "Text", "ELEVATION": -516 }, "geometry": { "type": "Point", "coordinates": [ 782242.829539812053554, 8996416.85122979991138 ] } },
{ "type": "Feature", "properties": { "NAME": "3-8", "LAYER": "point cross tersier", "GM_TYPE": "Text", "ELEVATION": -516 }, "geometry": { "type": "Point", "coordinates": [ 782202.444835401256569, 8996387.966956160962582 ] } },
{ "type": "Feature", "properties": { "NAME": "3-9", "LAYER": "point cross tersier", "GM_TYPE": "Text", "ELEVATION": -516 }, "geometry": { "type": "Point", "coordinates": [ 782161.149918166687712, 8996359.60699300840497 ] } },
{ "type": "Feature", "properties": { "NAME": "4-1", "LAYER": "point cross tersier", "GM_TYPE": "Text", "ELEVATION": -516 }, "geometry": { "type": "Point", "coordinates": [ 782654.356391607783735, 8996146.168137012049556 ] } },
{ "type": "Feature", "properties": { "NAME": "4-2", "LAYER": "point cross tersier", "GM_TYPE": "Text", "ELEVATION": -516 }, "geometry": { "type": "Point", "coordinates": [ 782606.219493412645534, 8996132.360733475536108 ] } },
{ "type": "Feature", "properties": { "NAME": "4-3", "LAYER": "point cross tersier", "GM_TYPE": "Text", "ELEVATION": -516 }, "geometry": { "type": "Point", "coordinates": [ 782558.394270592951216, 8996118.252901252359152 ] } },
{ "type": "Feature", "properties": { "NAME": "4-4", "LAYER": "point cross tersier", "GM_TYPE": "Text", "ELEVATION": -516 }, "geometry": { "type": "Point", "coordinates": [ 782510.227190447854809, 8996104.61082186922431 ] } },
{ "type": "Feature", "properties": { "NAME": "4-5", "LAYER": "point cross tersier", "GM_TYPE": "Text", "ELEVATION": -516 }, "geometry": { "type": "Point", "coordinates": [ 782484.236391524667852, 8996097.760645898059011 ] } },
{ "type": "Feature", "properties": { "NAME": "4-6", "LAYER": "point cross tersier", "GM_TYPE": "Text", "ELEVATION": -516 }, "geometry": { "type": "Point", "coordinates": [ 782436.142709608306177, 8996083.456699715927243 ] } },
{ "type": "Feature", "properties": { "NAME": "4-7", "LAYER": "point cross tersier", "GM_TYPE": "Text", "ELEVATION": -516 }, "geometry": { "type": "Point", "coordinates": [ 782387.799879701458849, 8996071.146806871518493 ] } },
{ "type": "Feature", "properties": { "NAME": "4-8", "LAYER": "point cross tersier", "GM_TYPE": "Text", "ELEVATION": -516 }, "geometry": { "type": "Point", "coordinates": [ 782339.528524925699458, 8996057.5957569796592 ] } },
{ "type": "Feature", "properties": { "NAME": "4-9", "LAYER": "point cross tersier", "GM_TYPE": "Text", "ELEVATION": -516 }, "geometry": { "type": "Point", "coordinates": [ 782288.753510626032948, 8996043.325594058260322 ] } },
{ "type": "Feature", "properties": { "NAME": "6-1", "LAYER": "point cross tersier", "GM_TYPE": "Text", "ELEVATION": -763 }, "geometry": { "type": "Point", "coordinates": [ 782707.382174921687692, 8995505.520080545917153 ] } },
{ "type": "Feature", "properties": { "NAME": "6-2", "LAYER": "point cross tersier", "GM_TYPE": "Text", "ELEVATION": -763 }, "geometry": { "type": "Point", "coordinates": [ 782708.530504634021781, 8995457.011453472077847 ] } },
{ "type": "Feature", "properties": { "NAME": "6-3", "LAYER": "point cross tersier", "GM_TYPE": "Text", "ELEVATION": -763 }, "geometry": { "type": "Point", "coordinates": [ 782711.000736174872145, 8995432.888257000595331 ] } },
{ "type": "Feature", "properties": { "NAME": "6-4", "LAYER": "point cross tersier", "GM_TYPE": "Text", "ELEVATION": -763 }, "geometry": { "type": "Point", "coordinates": [ 782699.545376669731922, 8995381.550248630344868 ] } },
{ "type": "Feature", "properties": { "NAME": "6-5", "LAYER": "point cross tersier", "GM_TYPE": "Text", "ELEVATION": -763 }, "geometry": { "type": "Point", "coordinates": [ 782690.602945669088513, 8995331.434821303933859 ] } },
{ "type": "Feature", "properties": { "NAME": "6-6", "LAYER": "point cross tersier", "GM_TYPE": "Text", "ELEVATION": -763 }, "geometry": { "type": "Point", "coordinates": [ 782678.39346548775211, 8995283.638108715415001 ] } },
{ "type": "Feature", "properties": { "NAME": "6-7", "LAYER": "point cross tersier", "GM_TYPE": "Text", "ELEVATION": -763 }, "geometry": { "type": "Point", "coordinates": [ 782669.393185751512647, 8995243.510156627744436 ] } },
{ "type": "Feature", "properties": { "NAME": "6-8", "LAYER": "point cross tersier", "GM_TYPE": "Text", "ELEVATION": -763 }, "geometry": { "type": "Point", "coordinates": [ 782648.853373994817957, 8995196.044288858771324 ] } },
{ "type": "Feature", "properties": { "NAME": "6-9", "LAYER": "point cross tersier", "GM_TYPE": "Text", "ELEVATION": -763 }, "geometry": { "type": "Point", "coordinates": [ 782627.986989401513711, 8995150.489416277036071 ] } },
{ "type": "Feature", "properties": { "NAME": "6-10", "LAYER": "point cross tersier", "GM_TYPE": "Text", "ELEVATION": -763 }, "geometry": { "type": "Point", "coordinates": [ 782615.927991615026258, 8995123.895918479189277 ] } },
{ "type": "Feature", "properties": { "NAME": "6-11", "LAYER": "point cross tersier", "GM_TYPE": "Text", "ELEVATION": -763 }, "geometry": { "type": "Point", "coordinates": [ 782600.444508117972873, 8995078.38859991542995 ] } },
{ "type": "Feature", "properties": { "NAME": "6-12", "LAYER": "point cross tersier", "GM_TYPE": "Text", "ELEVATION": -763 }, "geometry": { "type": "Point", "coordinates": [ 782590.083632307709195, 8995044.18510214984417 ] } },
{ "type": "Feature", "properties": { "NAME": "6-13", "LAYER": "point cross tersier", "GM_TYPE": "Text", "ELEVATION": -763 }, "geometry": { "type": "Point", "coordinates": [ 782579.24985783721786, 8995008.53574931435287 ] } },
{ "type": "Feature", "properties": { "NAME": "6-14", "LAYER": "point cross tersier", "GM_TYPE": "Text", "ELEVATION": -763 }, "geometry": { "type": "Point", "coordinates": [ 782568.777243463788182, 8994944.004026360809803 ] } },
{ "type": "Feature", "properties": { "NAME": "6-15", "LAYER": "point cross tersier", "GM_TYPE": "Text", "ELEVATION": -763 }, "geometry": { "type": "Point", "coordinates": [ 782539.771326639922336, 8994904.548000326380134 ] } },
{ "type": "Feature", "properties": { "NAME": "6-16", "LAYER": "point cross tersier", "GM_TYPE": "Text", "ELEVATION": -763 }, "geometry": { "type": "Point", "coordinates": [ 782513.772301132208668, 8994866.129762953147292 ] } },
{ "type": "Feature", "properties": { "NAME": "8-1", "LAYER": "point cross tersier", "GM_TYPE": "Text", "ELEVATION": 0 }, "geometry": { "type": "Point", "coordinates": [ 782407.135262857540511, 8994938.043367067351937 ] } },
{ "type": "Feature", "properties": { "NAME": "8-15", "LAYER": "point cross tersier", "GM_TYPE": "Text", "ELEVATION": 0 }, "geometry": { "type": "Point", "coordinates": [ 782409.681969496770762, 8994959.584994362667203 ] } },
{ "type": "Feature", "properties": { "NAME": "8-2", "LAYER": "point cross tersier", "GM_TYPE": "Text", "ELEVATION": 0 }, "geometry": { "type": "Point", "coordinates": [ 782368.654291618382558, 8994904.388726107776165 ] } },
{ "type": "Feature", "properties": { "NAME": "8-3", "LAYER": "point cross tersier", "GM_TYPE": "Text", "ELEVATION": 0 }, "geometry": { "type": "Point", "coordinates": [ 782330.028633987298235, 8994872.279305785894394 ] } },
{ "type": "Feature", "properties": { "NAME": "8-4", "LAYER": "point cross tersier", "GM_TYPE": "Text", "ELEVATION": 0 }, "geometry": { "type": "Point", "coordinates": [ 782311.340450573712587, 8994847.65949329175055 ] } },
{ "type": "Feature", "properties": { "NAME": "8-5", "LAYER": "point cross tersier", "GM_TYPE": "Text", "ELEVATION": 0 }, "geometry": { "type": "Point", "coordinates": [ 782305.084237729664892, 8994849.468344131484628 ] } },
{ "type": "Feature", "properties": { "NAME": "8-6", "LAYER": "point cross tersier", "GM_TYPE": "Text", "ELEVATION": 0 }, "geometry": { "type": "Point", "coordinates": [ 782318.340150155010633, 8994802.490141481161118 ] } },
{ "type": "Feature", "properties": { "NAME": "8-7", "LAYER": "point cross tersier", "GM_TYPE": "Text", "ELEVATION": 0 }, "geometry": { "type": "Point", "coordinates": [ 782330.933649727958255, 8994761.639987580478191 ] } },
{ "type": "Feature", "properties": { "NAME": "8-8", "LAYER": "point cross tersier", "GM_TYPE": "Text", "ELEVATION": 0 }, "geometry": { "type": "Point", "coordinates": [ 782327.987735267844982, 8994708.238456405699253 ] } },
{ "type": "Feature", "properties": { "NAME": "8-9", "LAYER": "point cross tersier", "GM_TYPE": "Text", "ELEVATION": 0 }, "geometry": { "type": "Point", "coordinates": [ 782322.361659535905346, 8994658.478366250172257 ] } },
{ "type": "Feature", "properties": { "NAME": "8-10", "LAYER": "point cross tersier", "GM_TYPE": "Text", "ELEVATION": 0 }, "geometry": { "type": "Point", "coordinates": [ 782321.897819055244327, 8994641.265752682462335 ] } },
{ "type": "Feature", "properties": { "NAME": "8-11", "LAYER": "point cross tersier", "GM_TYPE": "Text", "ELEVATION": 0 }, "geometry": { "type": "Point", "coordinates": [ 782322.04579456045758, 8994591.849667621776462 ] } },
{ "type": "Feature", "properties": { "NAME": "8-12", "LAYER": "point cross tersier", "GM_TYPE": "Text", "ELEVATION": 0 }, "geometry": { "type": "Point", "coordinates": [ 782322.273815185995772, 8994541.855988319963217 ] } },
{ "type": "Feature", "properties": { "NAME": "8-13", "LAYER": "point cross tersier", "GM_TYPE": "Text", "ELEVATION": 0 }, "geometry": { "type": "Point", "coordinates": [ 782324.528860913240351, 8994492.149438217282295 ] } },
{ "type": "Feature", "properties": { "NAME": "8-16", "LAYER": "point cross tersier", "GM_TYPE": "Text", "ELEVATION": 0 }, "geometry": { "type": "Point", "coordinates": [ 782375.186187911895104, 8994935.933520833030343 ] } },
{ "type": "Feature", "properties": { "NAME": "8-17", "LAYER": "point cross tersier", "GM_TYPE": "Text", "ELEVATION": 0 }, "geometry": { "type": "Point", "coordinates": [ 782334.597097137593664, 8994950.180491298437119 ] } },
{ "type": "Feature", "properties": { "NAME": "8-18", "LAYER": "point cross tersier", "GM_TYPE": "Text", "ELEVATION": 0 }, "geometry": { "type": "Point", "coordinates": [ 782293.795378077193163, 8994980.847365871071815 ] } },
{ "type": "Feature", "properties": { "NAME": "8-19", "LAYER": "point cross tersier", "GM_TYPE": "Text", "ELEVATION": 0 }, "geometry": { "type": "Point", "coordinates": [ 782269.804714831872843, 8994997.802303308621049 ] } },
{ "type": "Feature", "properties": { "NAME": "8-20", "LAYER": "point cross tersier", "GM_TYPE": "Text", "ELEVATION": 0 }, "geometry": { "type": "Point", "coordinates": [ 782239.451472783577628, 8995016.923224363476038 ] } },
{ "type": "Feature", "properties": { "NAME": "8-21", "LAYER": "point cross tersier", "GM_TYPE": "Text", "ELEVATION": 0 }, "geometry": { "type": "Point", "coordinates": [ 782220.567512246663682, 8995003.721015563234687 ] } },
{ "type": "Feature", "properties": { "NAME": "8-22", "LAYER": "point cross tersier", "GM_TYPE": "Text", "ELEVATION": 0 }, "geometry": { "type": "Point", "coordinates": [ 782198.989928988157772, 8994966.84368097037077 ] } },
{ "type": "Feature", "properties": { "NAME": "8-23", "LAYER": "point cross tersier", "GM_TYPE": "Text", "ELEVATION": 0 }, "geometry": { "type": "Point", "coordinates": [ 782155.942869427264668, 8994919.704392697662115 ] } },
{ "type": "Feature", "properties": { "NAME": "8-24", "LAYER": "point cross tersier", "GM_TYPE": "Text", "ELEVATION": 0 }, "geometry": { "type": "Point", "coordinates": [ 782105.507905964390375, 8994896.489765014499426 ] } },
{ "type": "Feature", "properties": { "NAME": "8-25", "LAYER": "point cross tersier", "GM_TYPE": "Text", "ELEVATION": 0 }, "geometry": { "type": "Point", "coordinates": [ 782057.140676138340496, 8994858.490290319547057 ] } },
{ "type": "Feature", "properties": { "NAME": "8-26", "LAYER": "point cross tersier", "GM_TYPE": "Text", "ELEVATION": 0 }, "geometry": { "type": "Point", "coordinates": [ 782039.817153752199374, 8994829.57760426774621 ] } },
{ "type": "Feature", "properties": { "NAME": "8-27", "LAYER": "point cross tersier", "GM_TYPE": "Text", "ELEVATION": 0 }, "geometry": { "type": "Point", "coordinates": [ 782033.778121250565164, 8994762.239767413586378 ] } },
{ "type": "Feature", "properties": { "NAME": "8-28", "LAYER": "point cross tersier", "GM_TYPE": "Text", "ELEVATION": 0 }, "geometry": { "type": "Point", "coordinates": [ 782020.463145437184721, 8994672.051456494256854 ] } },
{ "type": "Feature", "properties": { "NAME": "8-29", "LAYER": "point cross tersier", "GM_TYPE": "Text", "ELEVATION": 0 }, "geometry": { "type": "Point", "coordinates": [ 781949.299210651428439, 8994611.950618913397193 ] } },
{ "type": "Feature", "properties": { "NAME": "8-30", "LAYER": "point cross tersier", "GM_TYPE": "Text", "ELEVATION": 0 }, "geometry": { "type": "Point", "coordinates": [ 781949.713571366737597, 8994584.96130838803947 ] } },
{ "type": "Feature", "properties": { "NAME": "8-31", "LAYER": "point cross tersier", "GM_TYPE": "Text", "ELEVATION": 0 }, "geometry": { "type": "Point", "coordinates": [ 781926.976723897154443, 8994532.501989593729377 ] } },
{ "type": "Feature", "properties": { "NAME": "8-32", "LAYER": "point cross tersier", "GM_TYPE": "Text", "ELEVATION": 0 }, "geometry": { "type": "Point", "coordinates": [ 781944.337273036246188, 8994513.541472429409623 ] } },
{ "type": "Feature", "properties": { "NAME": "8-14", "LAYER": "point cross tersier", "GM_TYPE": "Text", "ELEVATION": 0 }, "geometry": { "type": "Point", "coordinates": [ 782325.344307756167836, 8994434.462597960606217 ] } },
{ "type": "Feature", "properties": { "NAME": "8-33", "LAYER": "point cross tersier", "GM_TYPE": "Text", "ELEVATION": 0 }, "geometry": { "type": "Point", "coordinates": [ 781976.300307791796513, 8994441.607876714318991 ] } },
{ "type": "Feature", "properties": { "NAME": "8-34", "LAYER": "point cross tersier", "GM_TYPE": "Text", "ELEVATION": 0 }, "geometry": { "type": "Point", "coordinates": [ 781996.362296507111751, 8994368.772915866225958 ] } },
{ "type": "Feature", "properties": { "NAME": "8-35", "LAYER": "point cross tersier", "GM_TYPE": "Text", "ELEVATION": 0 }, "geometry": { "type": "Point", "coordinates": [ 781987.630032837740146, 8994331.283696249127388 ] } },
{ "type": "Feature", "properties": { "NAME": "8-36", "LAYER": "point cross tersier", "GM_TYPE": "Text", "ELEVATION": 0 }, "geometry": { "type": "Point", "coordinates": [ 782016.007029696949758, 8994238.873418873175979 ] } },
{ "type": "Feature", "properties": { "NAME": "8-37", "LAYER": "point cross tersier", "GM_TYPE": "Text", "ELEVATION": 0 }, "geometry": { "type": "Point", "coordinates": [ 782014.794577889144421, 8994168.213028900325298 ] } },
{ "type": "Feature", "properties": { "NAME": "8-38", "LAYER": "point cross tersier", "GM_TYPE": "Text", "ELEVATION": 0 }, "geometry": { "type": "Point", "coordinates": [ 782007.375035293749534, 8994112.806617967784405 ] } },
{ "type": "Feature", "properties": { "NAME": "1-1", "LAYER": "point cross tersier", "GM_TYPE": "Text", "ELEVATION": 0 }, "geometry": { "type": "Point", "coordinates": [ 781808.220610042917542, 8997962.119574725627899 ] } },
{ "type": "Feature", "properties": { "NAME": "1-2", "LAYER": "point cross tersier", "GM_TYPE": "Text", "ELEVATION": 0 }, "geometry": { "type": "Point", "coordinates": [ 781765.697549221571535, 8997966.38763359375298 ] } },
{ "type": "Feature", "properties": { "NAME": "1-3", "LAYER": "point cross tersier", "GM_TYPE": "Text", "ELEVATION": 0 }, "geometry": { "type": "Point", "coordinates": [ 781716.721200967091136, 8997975.11563360504806 ] } },
{ "type": "Feature", "properties": { "NAME": "1-4", "LAYER": "point cross tersier", "GM_TYPE": "Text", "ELEVATION": -264 }, "geometry": { "type": "Point", "coordinates": [ 781736.117053428781219, 8997994.381877334788442 ] } },
{ "type": "Feature", "properties": { "NAME": "1-5", "LAYER": "point cross tersier", "GM_TYPE": "Text", "ELEVATION": -264 }, "geometry": { "type": "Point", "coordinates": [ 781739.269231179030612, 8997972.34583992138505 ] } },
{ "type": "Feature", "properties": { "NAME": "1-6", "LAYER": "point cross tersier", "GM_TYPE": "Text", "ELEVATION": -264 }, "geometry": { "type": "Point", "coordinates": [ 781730.034883536514826, 8997951.337353514507413 ] } },
{ "type": "Feature", "properties": { "NAME": "1-7", "LAYER": "point cross tersier", "GM_TYPE": "Text", "ELEVATION": -264 }, "geometry": { "type": "Point", "coordinates": [ 781719.754999453085475, 8997903.783034874126315 ] } },
{ "type": "Feature", "properties": { "NAME": "1-8", "LAYER": "point cross tersier", "GM_TYPE": "Text", "ELEVATION": -264 }, "geometry": { "type": "Point", "coordinates": [ 781708.743342040106654, 8997854.58969097211957 ] } },
{ "type": "Feature", "properties": { "NAME": "1-9", "LAYER": "point cross tersier", "GM_TYPE": "Text", "ELEVATION": -264 }, "geometry": { "type": "Point", "coordinates": [ 781703.535392986959778, 8997835.499011998996139 ] } },
{ "type": "Feature", "properties": { "NAME": "1-10", "LAYER": "point cross tersier", "GM_TYPE": "Text", "ELEVATION": -264 }, "geometry": { "type": "Point", "coordinates": [ 781711.554719729349017, 8997814.563034782186151 ] } },
{ "type": "Feature", "properties": { "NAME": "1-11", "LAYER": "point cross tersier", "GM_TYPE": "Text", "ELEVATION": -264 }, "geometry": { "type": "Point", "coordinates": [ 781704.149329414009117, 8997758.19367896951735 ] } },
{ "type": "Feature", "properties": { "NAME": "1-12", "LAYER": "point cross tersier", "GM_TYPE": "Text", "ELEVATION": -264 }, "geometry": { "type": "Point", "coordinates": [ 781700.877522177179344, 8997715.424747729673982 ] } },
{ "type": "Feature", "properties": { "NAME": "1-14", "LAYER": "point cross tersier", "GM_TYPE": "Text", "ELEVATION": -264 }, "geometry": { "type": "Point", "coordinates": [ 781690.27294715307653, 8997615.569885073229671 ] } },
{ "type": "Feature", "properties": { "NAME": "1-15", "LAYER": "point cross tersier", "GM_TYPE": "Text", "ELEVATION": -264 }, "geometry": { "type": "Point", "coordinates": [ 781688.841334466123953, 8997567.143463928252459 ] } },
{ "type": "Feature", "properties": { "NAME": "1-16", "LAYER": "point cross tersier", "GM_TYPE": "Text", "ELEVATION": -264 }, "geometry": { "type": "Point", "coordinates": [ 781698.284639435703866, 8997536.104529136791825 ] } },
{ "type": "Feature", "properties": { "NAME": "1-17", "LAYER": "point cross tersier", "GM_TYPE": "Text", "ELEVATION": -264 }, "geometry": { "type": "Point", "coordinates": [ 781705.269211816252209, 8997485.106170320883393 ] } },
{ "type": "Feature", "properties": { "NAME": "1-18", "LAYER": "point cross tersier", "GM_TYPE": "Text", "ELEVATION": -264 }, "geometry": { "type": "Point", "coordinates": [ 781713.217401307541877, 8997434.910660987719893 ] } },
{ "type": "Feature", "properties": { "NAME": "1-19", "LAYER": "point cross tersier", "GM_TYPE": "Text", "ELEVATION": -264 }, "geometry": { "type": "Point", "coordinates": [ 781716.719680837471969, 8997397.244635373353958 ] } },
{ "type": "Feature", "properties": { "NAME": "1-20", "LAYER": "point cross tersier", "GM_TYPE": "Text", "ELEVATION": -264 }, "geometry": { "type": "Point", "coordinates": [ 781737.583492942969315, 8997353.809266038239002 ] } },
{ "type": "Feature", "properties": { "NAME": "1-21", "LAYER": "point cross tersier", "GM_TYPE": "Text", "ELEVATION": -264 }, "geometry": { "type": "Point", "coordinates": [ 781761.260030755656771, 8997305.480873366817832 ] } },
{ "type": "Feature", "properties": { "NAME": "1-22", "LAYER": "point cross tersier", "GM_TYPE": "Text", "ELEVATION": -264 }, "geometry": { "type": "Point", "coordinates": [ 781780.183712739381008, 8997262.39014034345746 ] } },
{ "type": "Feature", "properties": { "NAME": "1-23", "LAYER": "point cross tersier", "GM_TYPE": "Text", "ELEVATION": -264 }, "geometry": { "type": "Point", "coordinates": [ 781801.143714796984568, 8997216.626994678750634 ] } },
{ "type": "Feature", "properties": { "NAME": "2-8", "LAYER": "point cross tersier", "GM_TYPE": "Text", "ELEVATION": -516 }, "geometry": { "type": "Point", "coordinates": [ 781900.904210904962383, 8997012.593443989753723 ] } },
{ "type": "Feature", "properties": { "NAME": "2-9", "LAYER": "point cross tersier", "GM_TYPE": "Text", "ELEVATION": -516 }, "geometry": { "type": "Point", "coordinates": [ 781883.18588898901362, 8997025.121488003060222 ] } },
{ "type": "Feature", "properties": { "NAME": "2-10", "LAYER": "point cross tersier", "GM_TYPE": "Text", "ELEVATION": -516 }, "geometry": { "type": "Point", "coordinates": [ 781902.322393784532323, 8996978.877052053809166 ] } },
{ "type": "Feature", "properties": { "NAME": "2-1", "LAYER": "point cross tersier", "GM_TYPE": "Text", "ELEVATION": -516 }, "geometry": { "type": "Point", "coordinates": [ 782224.026531502488069, 8997128.844919074326754 ] } },
{ "type": "Feature", "properties": { "NAME": "2-2", "LAYER": "point cross tersier", "GM_TYPE": "Text", "ELEVATION": -516 }, "geometry": { "type": "Point", "coordinates": [ 782177.520607122336514, 8997111.118215521797538 ] } },
{ "type": "Feature", "properties": { "NAME": "2-3", "LAYER": "point cross tersier", "GM_TYPE": "Text", "ELEVATION": -516 }, "geometry": { "type": "Point", "coordinates": [ 782129.872683226363733, 8997094.603689540177584 ] } },
{ "type": "Feature", "properties": { "NAME": "2-4", "LAYER": "point cross tersier", "GM_TYPE": "Text", "ELEVATION": -516 }, "geometry": { "type": "Point", "coordinates": [ 782082.997951443307102, 8997077.998476173728704 ] } },
{ "type": "Feature", "properties": { "NAME": "2-5", "LAYER": "point cross tersier", "GM_TYPE": "Text", "ELEVATION": -516 }, "geometry": { "type": "Point", "coordinates": [ 782041.535404192865826, 8997062.607906410470605 ] } },
{ "type": "Feature", "properties": { "NAME": "2-6", "LAYER": "point cross tersier", "GM_TYPE": "Text", "ELEVATION": -516 }, "geometry": { "type": "Point", "coordinates": [ 781994.941872028633952, 8997045.613330285996199 ] } },
{ "type": "Feature", "properties": { "NAME": "2-7", "LAYER": "point cross tersier", "GM_TYPE": "Text", "ELEVATION": -516 }, "geometry": { "type": "Point", "coordinates": [ 781947.960087807150558, 8997029.040175380185246 ] } },
{ "type": "Feature", "properties": { "NAME": "2-11", "LAYER": "point cross tersier", "GM_TYPE": "Text", "ELEVATION": -516 }, "geometry": { "type": "Point", "coordinates": [ 781922.648895409074612, 8996932.744827840477228 ] } },
{ "type": "Feature", "properties": { "NAME": "2-12", "LAYER": "point cross tersier", "GM_TYPE": "Text", "ELEVATION": -516 }, "geometry": { "type": "Point", "coordinates": [ 781942.097022160538472, 8996886.65033539570868 ] } },
{ "type": "Feature", "properties": { "NAME": "2-17", "LAYER": "point cross tersier", "GM_TYPE": "Text", "ELEVATION": -516 }, "geometry": { "type": "Point", "coordinates": [ 782067.504738917341456, 8997042.454547820612788 ] } },
{ "type": "Feature", "properties": { "NAME": "2-18", "LAYER": "point cross tersier", "GM_TYPE": "Text", "ELEVATION": -516 }, "geometry": { "type": "Point", "coordinates": [ 782091.305289821815677, 8996997.977518023923039 ] } },
{ "type": "Feature", "properties": { "NAME": "2-19", "LAYER": "point cross tersier", "GM_TYPE": "Text", "ELEVATION": -516 }, "geometry": { "type": "Point", "coordinates": [ 782115.728710702620447, 8996954.165277205407619 ] } },
{ "type": "Feature", "properties": { "NAME": "2-20", "LAYER": "point cross tersier", "GM_TYPE": "Text", "ELEVATION": -516 }, "geometry": { "type": "Point", "coordinates": [ 782139.603461126564071, 8996910.051638396456838 ] } },
{ "type": "Feature", "properties": { "NAME": "2-21", "LAYER": "point cross tersier", "GM_TYPE": "Text", "ELEVATION": -516 }, "geometry": { "type": "Point", "coordinates": [ 782167.109848002786748, 8996868.715810293331742 ] } },
{ "type": "Feature", "properties": { "NAME": "2-13", "LAYER": "point cross tersier", "GM_TYPE": "Text", "ELEVATION": -516 }, "geometry": { "type": "Point", "coordinates": [ 781961.773650311981328, 8996840.953587379306555 ] } },
{ "type": "Feature", "properties": { "NAME": "2-14", "LAYER": "point cross tersier", "GM_TYPE": "Text", "ELEVATION": -516 }, "geometry": { "type": "Point", "coordinates": [ 781981.761286096530966, 8996793.481122812256217 ] } },
{ "type": "Feature", "properties": { "NAME": "2-15", "LAYER": "point cross tersier", "GM_TYPE": "Text", "ELEVATION": -516 }, "geometry": { "type": "Point", "coordinates": [ 782000.153792470460758, 8996748.209915576502681 ] } },
{ "type": "Feature", "properties": { "NAME": "2-16", "LAYER": "point cross tersier", "GM_TYPE": "Text", "ELEVATION": -516 }, "geometry": { "type": "Point", "coordinates": [ 782024.427799344062805, 8996688.165018050000072 ] } },
{ "type": "Feature", "properties": { "NAME": "3-1", "LAYER": "point cross tersier", "GM_TYPE": "Text", "ELEVATION": -516 }, "geometry": { "type": "Point", "coordinates": [ 782476.489365814253688, 8996644.601666659116745 ] } },
{ "type": "Feature", "properties": { "NAME": "3-2", "LAYER": "point cross tersier", "GM_TYPE": "Text", "ELEVATION": -516 }, "geometry": { "type": "Point", "coordinates": [ 782444.698984166141599, 8996607.104176256805658 ] } },
{ "type": "Feature", "properties": { "NAME": "3-3", "LAYER": "point cross tersier", "GM_TYPE": "Text", "ELEVATION": -516 }, "geometry": { "type": "Point", "coordinates": [ 782411.629876943188719, 8996568.91707624681294 ] } },
{ "type": "Feature", "properties": { "NAME": "3-4", "LAYER": "point cross tersier", "GM_TYPE": "Text", "ELEVATION": -516 }, "geometry": { "type": "Point", "coordinates": [ 782379.117960568284616, 8996531.142716443166137 ] } },
{ "type": "Feature", "properties": { "NAME": "3-5", "LAYER": "point cross tersier", "GM_TYPE": "Text", "ELEVATION": -516 }, "geometry": { "type": "Point", "coordinates": [ 782341.763384499354288, 8996485.495834032073617 ] } },
{ "type": "Feature", "properties": { "NAME": "3-6", "LAYER": "point cross tersier", "GM_TYPE": "Text", "ELEVATION": -516 }, "geometry": { "type": "Point", "coordinates": [ 782283.741333249839954, 8996445.635265516117215 ] } },
{ "type": "Feature", "properties": { "NAME": "3-7", "LAYER": "point cross tersier", "GM_TYPE": "Text", "ELEVATION": -516 }, "geometry": { "type": "Point", "coordinates": [ 782242.829539812053554, 8996416.85122979991138 ] } },
{ "type": "Feature", "properties": { "NAME": "3-8", "LAYER": "point cross tersier", "GM_TYPE": "Text", "ELEVATION": -516 }, "geometry": { "type": "Point", "coordinates": [ 782202.444835401256569, 8996387.966956160962582 ] } },
{ "type": "Feature", "properties": { "NAME": "3-9", "LAYER": "point cross tersier", "GM_TYPE": "Text", "ELEVATION": -516 }, "geometry": { "type": "Point", "coordinates": [ 782161.149918166687712, 8996359.60699300840497 ] } },
{ "type": "Feature", "properties": { "NAME": "4-1", "LAYER": "point cross tersier", "GM_TYPE": "Text", "ELEVATION": -516 }, "geometry": { "type": "Point", "coordinates": [ 782654.356391607783735, 8996146.168137012049556 ] } },
{ "type": "Feature", "properties": { "NAME": "4-2", "LAYER": "point cross tersier", "GM_TYPE": "Text", "ELEVATION": -516 }, "geometry": { "type": "Point", "coordinates": [ 782606.219493412645534, 8996132.360733475536108 ] } },
{ "type": "Feature", "properties": { "NAME": "4-3", "LAYER": "point cross tersier", "GM_TYPE": "Text", "ELEVATION": -516 }, "geometry": { "type": "Point", "coordinates": [ 782558.394270592951216, 8996118.252901252359152 ] } },
{ "type": "Feature", "properties": { "NAME": "4-4", "LAYER": "point cross tersier", "GM_TYPE": "Text", "ELEVATION": -516 }, "geometry": { "type": "Point", "coordinates": [ 782510.227190447854809, 8996104.61082186922431 ] } },
{ "type": "Feature", "properties": { "NAME": "4-5", "LAYER": "point cross tersier", "GM_TYPE": "Text", "ELEVATION": -516 }, "geometry": { "type": "Point", "coordinates": [ 782484.236391524667852, 8996097.760645898059011 ] } },
{ "type": "Feature", "properties": { "NAME": "4-6", "LAYER": "point cross tersier", "GM_TYPE": "Text", "ELEVATION": -516 }, "geometry": { "type": "Point", "coordinates": [ 782436.142709608306177, 8996083.456699715927243 ] } },
{ "type": "Feature", "properties": { "NAME": "4-7", "LAYER": "point cross tersier", "GM_TYPE": "Text", "ELEVATION": -516 }, "geometry": { "type": "Point", "coordinates": [ 782387.799879701458849, 8996071.146806871518493 ] } },
{ "type": "Feature", "properties": { "NAME": "4-8", "LAYER": "point cross tersier", "GM_TYPE": "Text", "ELEVATION": -516 }, "geometry": { "type": "Point", "coordinates": [ 782339.528524925699458, 8996057.5957569796592 ] } },
{ "type": "Feature", "properties": { "NAME": "4-9", "LAYER": "point cross tersier", "GM_TYPE": "Text", "ELEVATION": -516 }, "geometry": { "type": "Point", "coordinates": [ 782288.753510626032948, 8996043.325594058260322 ] } },
{ "type": "Feature", "properties": { "NAME": "6-1", "LAYER": "point cross tersier", "GM_TYPE": "Text", "ELEVATION": -763 }, "geometry": { "type": "Point", "coordinates": [ 782707.382174921687692, 8995505.520080545917153 ] } },
{ "type": "Feature", "properties": { "NAME": "6-2", "LAYER": "point cross tersier", "GM_TYPE": "Text", "ELEVATION": -763 }, "geometry": { "type": "Point", "coordinates": [ 782708.530504634021781, 8995457.011453472077847 ] } },
{ "type": "Feature", "properties": { "NAME": "6-3", "LAYER": "point cross tersier", "GM_TYPE": "Text", "ELEVATION": -763 }, "geometry": { "type": "Point", "coordinates": [ 782711.000736174872145, 8995432.888257000595331 ] } },
{ "type": "Feature", "properties": { "NAME": "6-4", "LAYER": "point cross tersier", "GM_TYPE": "Text", "ELEVATION": -763 }, "geometry": { "type": "Point", "coordinates": [ 782699.545376669731922, 8995381.550248630344868 ] } },
{ "type": "Feature", "properties": { "NAME": "6-5", "LAYER": "point cross tersier", "GM_TYPE": "Text", "ELEVATION": -763 }, "geometry": { "type": "Point", "coordinates": [ 782690.602945669088513, 8995331.434821303933859 ] } },
{ "type": "Feature", "properties": { "NAME": "6-6", "LAYER": "point cross tersier", "GM_TYPE": "Text", "ELEVATION": -763 }, "geometry": { "type": "Point", "coordinates": [ 782678.39346548775211, 8995283.638108715415001 ] } },
{ "type": "Feature", "properties": { "NAME": "6-7", "LAYER": "point cross tersier", "GM_TYPE": "Text", "ELEVATION": -763 }, "geometry": { "type": "Point", "coordinates": [ 782669.393185751512647, 8995243.510156627744436 ] } },
{ "type": "Feature", "properties": { "NAME": "6-8", "LAYER": "point cross tersier", "GM_TYPE": "Text", "ELEVATION": -763 }, "geometry": { "type": "Point", "coordinates": [ 782648.853373994817957, 8995196.044288858771324 ] } },
{ "type": "Feature", "properties": { "NAME": "6-9", "LAYER": "point cross tersier", "GM_TYPE": "Text", "ELEVATION": -763 }, "geometry": { "type": "Point", "coordinates": [ 782627.986989401513711, 8995150.489416277036071 ] } },
{ "type": "Feature", "properties": { "NAME": "6-10", "LAYER": "point cross tersier", "GM_TYPE": "Text", "ELEVATION": -763 }, "geometry": { "type": "Point", "coordinates": [ 782615.927991615026258, 8995123.895918479189277 ] } },
{ "type": "Feature", "properties": { "NAME": "6-11", "LAYER": "point cross tersier", "GM_TYPE": "Text", "ELEVATION": -763 }, "geometry": { "type": "Point", "coordinates": [ 782600.444508117972873, 8995078.38859991542995 ] } },
{ "type": "Feature", "properties": { "NAME": "6-12", "LAYER": "point cross tersier", "GM_TYPE": "Text", "ELEVATION": -763 }, "geometry": { "type": "Point", "coordinates": [ 782590.083632307709195, 8995044.18510214984417 ] } },
{ "type": "Feature", "properties": { "NAME": "6-13", "LAYER": "point cross tersier", "GM_TYPE": "Text", "ELEVATION": -763 }, "geometry": { "type": "Point", "coordinates": [ 782579.24985783721786, 8995008.53574931435287 ] } },
{ "type": "Feature", "properties": { "NAME": "6-14", "LAYER": "point cross tersier", "GM_TYPE": "Text", "ELEVATION": -763 }, "geometry": { "type": "Point", "coordinates": [ 782568.777243463788182, 8994944.004026360809803 ] } },
{ "type": "Feature", "properties": { "NAME": "6-15", "LAYER": "point cross tersier", "GM_TYPE": "Text", "ELEVATION": -763 }, "geometry": { "type": "Point", "coordinates": [ 782539.771326639922336, 8994904.548000326380134 ] } },
{ "type": "Feature", "properties": { "NAME": "6-16", "LAYER": "point cross tersier", "GM_TYPE": "Text", "ELEVATION": -763 }, "geometry": { "type": "Point", "coordinates": [ 782513.772301132208668, 8994866.129762953147292 ] } },
{ "type": "Feature", "properties": { "NAME": "8-1", "LAYER": "point cross tersier", "GM_TYPE": "Text", "ELEVATION": 0 }, "geometry": { "type": "Point", "coordinates": [ 782407.135262857540511, 8994938.043367067351937 ] } },
{ "type": "Feature", "properties": { "NAME": "8-15", "LAYER": "point cross tersier", "GM_TYPE": "Text", "ELEVATION": 0 }, "geometry": { "type": "Point", "coordinates": [ 782409.681969496770762, 8994959.584994362667203 ] } },
{ "type": "Feature", "properties": { "NAME": "8-2", "LAYER": "point cross tersier", "GM_TYPE": "Text", "ELEVATION": 0 }, "geometry": { "type": "Point", "coordinates": [ 782368.654291618382558, 8994904.388726107776165 ] } },
{ "type": "Feature", "properties": { "NAME": "8-3", "LAYER": "point cross tersier", "GM_TYPE": "Text", "ELEVATION": 0 }, "geometry": { "type": "Point", "coordinates": [ 782330.028633987298235, 8994872.279305785894394 ] } },
{ "type": "Feature", "properties": { "NAME": "8-4", "LAYER": "point cross tersier", "GM_TYPE": "Text", "ELEVATION": 0 }, "geometry": { "type": "Point", "coordinates": [ 782311.340450573712587, 8994847.65949329175055 ] } },
{ "type": "Feature", "properties": { "NAME": "8-5", "LAYER": "point cross tersier", "GM_TYPE": "Text", "ELEVATION": 0 }, "geometry": { "type": "Point", "coordinates": [ 782305.084237729664892, 8994849.468344131484628 ] } },
{ "type": "Feature", "properties": { "NAME": "8-6", "LAYER": "point cross tersier", "GM_TYPE": "Text", "ELEVATION": 0 }, "geometry": { "type": "Point", "coordinates": [ 782318.340150155010633, 8994802.490141481161118 ] } },
{ "type": "Feature", "properties": { "NAME": "8-7", "LAYER": "point cross tersier", "GM_TYPE": "Text", "ELEVATION": 0 }, "geometry": { "type": "Point", "coordinates": [ 782330.933649727958255, 8994761.639987580478191 ] } },
{ "type": "Feature", "properties": { "NAME": "8-8", "LAYER": "point cross tersier", "GM_TYPE": "Text", "ELEVATION": 0 }, "geometry": { "type": "Point", "coordinates": [ 782327.987735267844982, 8994708.238456405699253 ] } },
{ "type": "Feature", "properties": { "NAME": "8-9", "LAYER": "point cross tersier", "GM_TYPE": "Text", "ELEVATION": 0 }, "geometry": { "type": "Point", "coordinates": [ 782322.361659535905346, 8994658.478366250172257 ] } },
{ "type": "Feature", "properties": { "NAME": "8-10", "LAYER": "point cross tersier", "GM_TYPE": "Text", "ELEVATION": 0 }, "geometry": { "type": "Point", "coordinates": [ 782321.897819055244327, 8994641.265752682462335 ] } },
{ "type": "Feature", "properties": { "NAME": "8-11", "LAYER": "point cross tersier", "GM_TYPE": "Text", "ELEVATION": 0 }, "geometry": { "type": "Point", "coordinates": [ 782322.04579456045758, 8994591.849667621776462 ] } },
{ "type": "Feature", "properties": { "NAME": "8-12", "LAYER": "point cross tersier", "GM_TYPE": "Text", "ELEVATION": 0 }, "geometry": { "type": "Point", "coordinates": [ 782322.273815185995772, 8994541.855988319963217 ] } },
{ "type": "Feature", "properties": { "NAME": "8-13", "LAYER": "point cross tersier", "GM_TYPE": "Text", "ELEVATION": 0 }, "geometry": { "type": "Point", "coordinates": [ 782324.528860913240351, 8994492.149438217282295 ] } },
{ "type": "Feature", "properties": { "NAME": "8-16", "LAYER": "point cross tersier", "GM_TYPE": "Text", "ELEVATION": 0 }, "geometry": { "type": "Point", "coordinates": [ 782375.186187911895104, 8994935.933520833030343 ] } },
{ "type": "Feature", "properties": { "NAME": "8-17", "LAYER": "point cross tersier", "GM_TYPE": "Text", "ELEVATION": 0 }, "geometry": { "type": "Point", "coordinates": [ 782334.597097137593664, 8994950.180491298437119 ] } },
{ "type": "Feature", "properties": { "NAME": "8-18", "LAYER": "point cross tersier", "GM_TYPE": "Text", "ELEVATION": 0 }, "geometry": { "type": "Point", "coordinates": [ 782293.795378077193163, 8994980.847365871071815 ] } },
{ "type": "Feature", "properties": { "NAME": "8-19", "LAYER": "point cross tersier", "GM_TYPE": "Text", "ELEVATION": 0 }, "geometry": { "type": "Point", "coordinates": [ 782269.804714831872843, 8994997.802303308621049 ] } },
{ "type": "Feature", "properties": { "NAME": "8-20", "LAYER": "point cross tersier", "GM_TYPE": "Text", "ELEVATION": 0 }, "geometry": { "type": "Point", "coordinates": [ 782239.451472783577628, 8995016.923224363476038 ] } },
{ "type": "Feature", "properties": { "NAME": "8-21", "LAYER": "point cross tersier", "GM_TYPE": "Text", "ELEVATION": 0 }, "geometry": { "type": "Point", "coordinates": [ 782220.567512246663682, 8995003.721015563234687 ] } },
{ "type": "Feature", "properties": { "NAME": "8-22", "LAYER": "point cross tersier", "GM_TYPE": "Text", "ELEVATION": 0 }, "geometry": { "type": "Point", "coordinates": [ 782198.989928988157772, 8994966.84368097037077 ] } },
{ "type": "Feature", "properties": { "NAME": "8-23", "LAYER": "point cross tersier", "GM_TYPE": "Text", "ELEVATION": 0 }, "geometry": { "type": "Point", "coordinates": [ 782155.942869427264668, 8994919.704392697662115 ] } },
{ "type": "Feature", "properties": { "NAME": "8-24", "LAYER": "point cross tersier", "GM_TYPE": "Text", "ELEVATION": 0 }, "geometry": { "type": "Point", "coordinates": [ 782105.507905964390375, 8994896.489765014499426 ] } },
{ "type": "Feature", "properties": { "NAME": "8-25", "LAYER": "point cross tersier", "GM_TYPE": "Text", "ELEVATION": 0 }, "geometry": { "type": "Point", "coordinates": [ 782057.140676138340496, 8994858.490290319547057 ] } },
{ "type": "Feature", "properties": { "NAME": "8-26", "LAYER": "point cross tersier", "GM_TYPE": "Text", "ELEVATION": 0 }, "geometry": { "type": "Point", "coordinates": [ 782039.817153752199374, 8994829.57760426774621 ] } },
{ "type": "Feature", "properties": { "NAME": "8-27", "LAYER": "point cross tersier", "GM_TYPE": "Text", "ELEVATION": 0 }, "geometry": { "type": "Point", "coordinates": [ 782033.778121250565164, 8994762.239767413586378 ] } },
{ "type": "Feature", "properties": { "NAME": "8-28", "LAYER": "point cross tersier", "GM_TYPE": "Text", "ELEVATION": 0 }, "geometry": { "type": "Point", "coordinates": [ 782020.463145437184721, 8994672.051456494256854 ] } },
{ "type": "Feature", "properties": { "NAME": "8-29", "LAYER": "point cross tersier", "GM_TYPE": "Text", "ELEVATION": 0 }, "geometry": { "type": "Point", "coordinates": [ 781949.299210651428439, 8994611.950618913397193 ] } },
{ "type": "Feature", "properties": { "NAME": "8-30", "LAYER": "point cross tersier", "GM_TYPE": "Text", "ELEVATION": 0 }, "geometry": { "type": "Point", "coordinates": [ 781949.713571366737597, 8994584.96130838803947 ] } },
{ "type": "Feature", "properties": { "NAME": "8-31", "LAYER": "point cross tersier", "GM_TYPE": "Text", "ELEVATION": 0 }, "geometry": { "type": "Point", "coordinates": [ 781926.976723897154443, 8994532.501989593729377 ] } },
{ "type": "Feature", "properties": { "NAME": "8-32", "LAYER": "point cross tersier", "GM_TYPE": "Text", "ELEVATION": 0 }, "geometry": { "type": "Point", "coordinates": [ 781944.337273036246188, 8994513.541472429409623 ] } },
{ "type": "Feature", "properties": { "NAME": "8-14", "LAYER": "point cross tersier", "GM_TYPE": "Text", "ELEVATION": 0 }, "geometry": { "type": "Point", "coordinates": [ 782325.344307756167836, 8994434.462597960606217 ] } },
{ "type": "Feature", "properties": { "NAME": "8-33", "LAYER": "point cross tersier", "GM_TYPE": "Text", "ELEVATION": 0 }, "geometry": { "type": "Point", "coordinates": [ 781976.300307791796513, 8994441.607876714318991 ] } },
{ "type": "Feature", "properties": { "NAME": "8-34", "LAYER": "point cross tersier", "GM_TYPE": "Text", "ELEVATION": 0 }, "geometry": { "type": "Point", "coordinates": [ 781996.362296507111751, 8994368.772915866225958 ] } },
{ "type": "Feature", "properties": { "NAME": "8-35", "LAYER": "point cross tersier", "GM_TYPE": "Text", "ELEVATION": 0 }, "geometry": { "type": "Point", "coordinates": [ 781987.630032837740146, 8994331.283696249127388 ] } },
{ "type": "Feature", "properties": { "NAME": "8-36", "LAYER": "point cross tersier", "GM_TYPE": "Text", "ELEVATION": 0 }, "geometry": { "type": "Point", "coordinates": [ 782016.007029696949758, 8994238.873418873175979 ] } },
{ "type": "Feature", "properties": { "NAME": "8-37", "LAYER": "point cross tersier", "GM_TYPE": "Text", "ELEVATION": 0 }, "geometry": { "type": "Point", "coordinates": [ 782014.794577889144421, 8994168.213028900325298 ] } },
{ "type": "Feature", "properties": { "NAME": "8-38", "LAYER": "point cross tersier", "GM_TYPE": "Text", "ELEVATION": 0 }, "geometry": { "type": "Point", "coordinates": [ 782007.375035293749534, 8994112.806617967784405 ] } }
]
}
