{
"type": "FeatureCollection",
"name": "09_rei_ar_0",
"crs": { "type": "name", "properties": { "name": "urn:ogc:def:crs:EPSG::32751" } },
"features": [
{ "type": "Feature", "properties": { "LAYER": "0", "GM_TYPE": "Unknown Area Type", "ELEVATION": 0 }, "geometry": { "type": "MultiPolygon", "coordinates": [ [ [ [ 781442.656111135380343, 8998460.52033462934196 ], [ 781464.880742051871493, 8998442.012002261355519 ], [ 781503.060194542282261, 8998421.672764845192432 ], [ 781560.740655642584898, 8998405.414623402059078 ], [ 781554.331723839626648, 8998397.531883887946606 ], [ 781527.709957203827798, 8998379.303050523623824 ], [ 781498.623216797597706, 8998370.43497209250927 ], [ 781472.515534399310127, 8998357.873728834092617 ], [ 781559.775730659952387, 8998116.46487700752914 ], [ 781490.505213219788857, 8998151.402968291193247 ], [ 781370.16253073560074, 8998259.906011467799544 ], [ 781284.646122784237377, 8998344.671362295746803 ], [ 781276.998302377178334, 8998385.664439484477043 ], [ 781267.93089767312631, 8998444.916709991171956 ], [ 781268.488535877782851, 8998460.52033462934196 ], [ 781270.016660068300553, 8998503.279736813157797 ], [ 781274.779738630866632, 8998512.333694223314524 ], [ 781316.675282900338061, 8998552.319116873666644 ], [ 781358.797794936457649, 8998591.154975106939673 ], [ 781374.016265711630695, 8998600.660260315984488 ], [ 781417.568320274003781, 8998481.413062764331698 ], [ 781442.656111135380343, 8998460.52033462934196 ] ] ] ] } },
{ "type": "Feature", "properties": { "LAYER": "0", "GM_TYPE": "Unknown Area Type", "ELEVATION": 0 }, "geometry": { "type": "MultiPolygon", "coordinates": [ [ [ [ 781177.281484148465097, 8998873.33834064938128 ], [ 781193.147963620722294, 8998844.086689410731196 ], [ 781201.64969596604351, 8998829.218427956104279 ], [ 781213.605261756223626, 8998807.978070549666882 ], [ 781221.309961373801343, 8998784.879176940768957 ], [ 781225.609620375093073, 8998767.746302602812648 ], [ 781251.911875096615404, 8998723.141546415165067 ], [ 781272.679800109588541, 8998694.36542640812695 ], [ 781281.181532454793341, 8998680.55919972807169 ], [ 781289.683264800114557, 8998677.107632493600249 ], [ 781296.590931689948775, 8998662.504876211285591 ], [ 781322.361831259680912, 8998643.919556435197592 ], [ 781341.490741515532136, 8998631.175336357206106 ], [ 781363.292799958027899, 8998610.151894113048911 ], [ 781346.276157460059039, 8998593.300190964713693 ], [ 781279.324959085439332, 8998525.065516734495759 ], [ 781268.697806132840924, 8998518.958911867812276 ], [ 781269.751232072128914, 8998572.166269490495324 ], [ 781245.036004658904858, 8998716.983547996729612 ], [ 781242.322449521045201, 8998725.532304544001818 ], [ 781221.956447634845972, 8998758.185101550072432 ], [ 781212.16019537334796, 8998773.999395998194814 ], [ 781197.06766250776127, 8998787.637114379554987 ], [ 781182.938457314972766, 8998798.933045024052262 ], [ 781176.533219291362911, 8998810.982029257342219 ], [ 781164.659390848362818, 8998839.450562806800008 ], [ 781161.456784315523691, 8998849.805151807144284 ], [ 781162.587105756159872, 8998862.418943844735622 ], [ 781167.108466392732225, 8998869.949564274400473 ], [ 781177.281484148465097, 8998873.33834064938128 ] ] ] ] } },
{ "type": "Feature", "properties": { "LAYER": "0", "GM_TYPE": "Unknown Area Type", "ELEVATION": 0 }, "geometry": { "type": "MultiPolygon", "coordinates": [ [ [ [ 781035.56674406293314, 8998996.457974666729569 ], [ 781043.139840311952867, 8998988.598776441067457 ], [ 781042.26601191482041, 8998979.866324577480555 ], [ 781066.73295745626092, 8998948.429531680420041 ], [ 781075.471141596208327, 8998943.481141353026032 ], [ 781090.034790148842148, 8998942.316826647147536 ], [ 781097.8991708495887, 8998930.091402489691973 ], [ 781109.841359168640338, 8998926.307340955361724 ], [ 781126.73520846106112, 8998906.222718574106693 ], [ 781138.386112328269519, 8998902.729746282100677 ], [ 781147.132008480606601, 8998893.332798905670643 ], [ 781164.899661212228239, 8998878.196566853672266 ], [ 781157.035280511481687, 8998864.806813903152943 ], [ 781155.886365384212695, 8998851.88518182002008 ], [ 781156.760168823413551, 8998838.495442958548665 ], [ 781166.372181360609829, 8998821.030553320422769 ], [ 781178.605654131271876, 8998793.377821957692504 ], [ 781201.324967836379074, 8998775.039692766964436 ], [ 781215.643079893663526, 8998754.517788467928767 ], [ 781236.906021256116219, 8998721.916666775941849 ], [ 781257.881646483787335, 8998600.429595125839114 ], [ 781264.560523675289005, 8998570.274273943156004 ], [ 781260.474255305714905, 8998462.452603878453374 ], [ 781203.372319917893037, 8998536.237105414271355 ], [ 781175.410110703553073, 8998575.824185779318213 ], [ 781155.565480781719089, 8998609.457066824659705 ], [ 781148.866187971900217, 8998657.776584964245558 ], [ 781144.205836408189498, 8998690.086617412045598 ], [ 781138.365696709952317, 8998735.365843519568443 ], [ 781134.28786413371563, 8998777.863731781020761 ], [ 781132.540232297382317, 8998800.276997659355402 ], [ 781128.449221913702786, 8998833.32860186137259 ], [ 781112.137941524735652, 8998865.347559155896306 ], [ 781094.952832738519646, 8998875.535414967685938 ], [ 781078.058983446098864, 8998895.037872951477766 ], [ 781051.806120544439182, 8998930.105462457984686 ], [ 781040.446476170793176, 8998947.279262855648994 ], [ 781031.708292030845769, 8998964.161988098174334 ], [ 781029.086831797263585, 8998979.007144995033741 ], [ 781035.56674406293314, 8998996.457974666729569 ] ] ] ] } },
{ "type": "Feature", "properties": { "LAYER": "0", "GM_TYPE": "Unknown Area Type", "ELEVATION": 0 }, "geometry": { "type": "MultiPolygon", "coordinates": [ [ [ [ 781793.219968582503498, 8997660.52033462934196 ], [ 781804.284074944327585, 8997639.747285107150674 ], [ 781804.572414887370542, 8997599.463839385658503 ], [ 781800.133699462981895, 8997591.852621784433722 ], [ 781693.449695348506793, 8997538.243846535682678 ], [ 781685.328227387391962, 8997555.162123769521713 ], [ 781685.165529363788664, 8997598.782627124339342 ], [ 781692.025590398348868, 8997621.941279770806432 ], [ 781692.751604631310329, 8997660.52033462934196 ], [ 781693.258570305188186, 8997687.459553806111217 ], [ 781709.589327052584849, 8997811.468780502676964 ], [ 781702.707234312663786, 8997831.546743055805564 ], [ 781724.882604678277858, 8997946.486585484817624 ], [ 781734.900788267492317, 8997971.587350038811564 ], [ 781735.35510039026849, 8997984.766006985679269 ], [ 781775.033528421772644, 8997978.546286696568131 ], [ 781803.556171881384216, 8997977.056553769856691 ], [ 781808.9233400861267, 8997967.636386128142476 ], [ 781814.71119146340061, 8997937.637068616226315 ], [ 781827.343069689930417, 8997883.313056744635105 ], [ 781830.713400405831635, 8997827.740860151126981 ], [ 781789.364448920474388, 8997788.069357760250568 ], [ 781769.895795947872102, 8997747.176939649507403 ], [ 781771.026695620152168, 8997704.28734109736979 ], [ 781776.652399766491726, 8997691.626229332759976 ], [ 781793.219968582503498, 8997660.52033462934196 ] ] ] ] } },
{ "type": "Feature", "properties": { "LAYER": "0", "GM_TYPE": "Unknown Area Type", "ELEVATION": 0 }, "geometry": { "type": "MultiPolygon", "coordinates": [ [ [ [ 781710.472033444908448, 8998034.886241922155023 ], [ 781721.696544697391801, 8997994.125889262184501 ], [ 781721.20851182565093, 8997985.339221965521574 ], [ 781722.804617075016722, 8997970.079685354605317 ], [ 781711.037636279012077, 8997949.900445509701967 ], [ 781687.616617776104249, 8997832.596511291339993 ], [ 781688.266063488670625, 8997825.45067054592073 ], [ 781694.327628204599023, 8997810.509396106004715 ], [ 781686.743427856592461, 8997768.990321427583694 ], [ 781640.712035207194276, 8997743.822321625426412 ], [ 781610.984991858480498, 8997739.165705919265747 ], [ 781552.405625060200691, 8997735.063825225457549 ], [ 781558.690995182376355, 8997768.412367088720202 ], [ 781559.507759456639178, 8997790.682584263384342 ], [ 781559.781013801461086, 8997832.231580572202802 ], [ 781563.620528041152284, 8997845.706341413781047 ], [ 781574.065178125747479, 8997858.613546213135123 ], [ 781604.399011357454583, 8997885.128373090177774 ], [ 781629.352793956873938, 8997905.975314484909177 ], [ 781641.923595400410704, 8997927.023165836930275 ], [ 781647.945686644408852, 8997949.006616363301873 ], [ 781649.885272299055941, 8997984.413437508046627 ], [ 781660.590416698949412, 8998003.644946832209826 ], [ 781670.530846728244796, 8998016.013084802776575 ], [ 781673.197815252933651, 8998021.348366247490048 ], [ 781683.138245282229036, 8998030.563839517533779 ], [ 781693.806027581915259, 8998031.533887473866343 ], [ 781706.240232452633791, 8998034.475686023011804 ], [ 781710.472033444908448, 8998034.886241922155023 ] ] ] ] } },
{ "type": "Feature", "properties": { "LAYER": "0", "GM_TYPE": "Unknown Area Type", "ELEVATION": 0 }, "geometry": { "type": "MultiPolygon", "coordinates": [ [ [ [ 781569.957334136241116, 8997660.52033462934196 ], [ 781565.02820101112593, 8997675.418095676228404 ], [ 781552.901919821393676, 8997716.769630441442132 ], [ 781552.213398431544192, 8997731.237287199124694 ], [ 781608.752812917809933, 8997734.984812313690782 ], [ 781643.11208350234665, 8997741.378880923613906 ], [ 781683.961557868984528, 8997761.406903356313705 ], [ 781684.494266143068671, 8997747.020240139216185 ], [ 781676.510955333826132, 8997692.784012533724308 ], [ 781674.96648945636116, 8997660.52033462934196 ], [ 781673.852891290094703, 8997637.257423436269164 ], [ 781673.867946288664825, 8997628.707388140261173 ], [ 781669.340002457960509, 8997603.663938010111451 ], [ 781670.408999158185907, 8997581.477278580889106 ], [ 781668.009409856866114, 8997553.960607593879104 ], [ 781675.733572732657194, 8997535.577638231217861 ], [ 781681.085961335105821, 8997525.360621482133865 ], [ 781694.380045303492807, 8997429.542929414659739 ], [ 781698.590946775279008, 8997387.469225829467177 ], [ 781634.353532063309103, 8997360.71674126945436 ], [ 781606.021156858419999, 8997337.289253735914826 ], [ 781517.80835085932631, 8997297.165991308167577 ], [ 781522.341527220210992, 8997315.303398160263896 ], [ 781534.054805734544061, 8997369.014529436826706 ], [ 781547.668900222168304, 8997414.487804230302572 ], [ 781552.579828529851511, 8997452.274084715172648 ], [ 781564.297390986932442, 8997513.345937198027968 ], [ 781573.770626465789974, 8997562.609974924474955 ], [ 781585.646725402213633, 8997589.028405342251062 ], [ 781585.352051344001666, 8997603.766453195363283 ], [ 781579.153645258513279, 8997632.725498877465725 ], [ 781569.957334136241116, 8997660.52033462934196 ] ] ] ] } },
{ "type": "Feature", "properties": { "LAYER": "0", "GM_TYPE": "Unknown Area Type", "ELEVATION": 0 }, "geometry": { "type": "MultiPolygon", "coordinates": [ [ [ [ 781579.574063550098799, 8998407.238700004294515 ], [ 781587.588890885584988, 8998388.888412745669484 ], [ 781606.700580143136904, 8998366.12494376860559 ], [ 781642.853445581858978, 8998333.08739953674376 ], [ 781654.583366377861239, 8998316.03691266849637 ], [ 781662.776668146951124, 8998287.536680795252323 ], [ 781688.19149237847887, 8998259.296826008707285 ], [ 781700.987792299478315, 8998242.24633914232254 ], [ 781738.352741484064609, 8998221.397026363760233 ], [ 781750.793590015964583, 8998216.779186170548201 ], [ 781767.016718859784305, 8998217.637943109497428 ], [ 781782.478879240574315, 8998218.348380060866475 ], [ 781797.407887495704927, 8998208.047058334574103 ], [ 781804.244124679360539, 8998204.550606269389391 ], [ 781821.291764974361286, 8998170.338096695020795 ], [ 781807.155122306779958, 8998120.435845956206322 ], [ 781778.204552577459253, 8998086.167448710650206 ], [ 781737.167836965993047, 8998073.808356240391731 ], [ 781701.471527647227049, 8998076.898139923810959 ], [ 781641.788464103126898, 8998092.945734046399593 ], [ 781592.319549046922475, 8998097.43995077162981 ], [ 781577.422661697375588, 8998104.181268814951181 ], [ 781568.299426017561927, 8998112.777657378464937 ], [ 781486.790668834699318, 8998349.713452873751521 ], [ 781498.553459275281057, 8998358.475348958745599 ], [ 781529.407323691411875, 8998368.441753227263689 ], [ 781549.664908161968924, 8998381.211219260469079 ], [ 781579.574063550098799, 8998407.238700004294515 ] ] ] ] } },
{ "type": "Feature", "properties": { "LAYER": "0", "GM_TYPE": "Unknown Area Type", "ELEVATION": 0 }, "geometry": { "type": "MultiPolygon", "coordinates": [ [ [ [ 781914.532637134310789, 8997278.926760084927082 ], [ 781898.132132162107155, 8997263.743635680526495 ], [ 781868.491593856248073, 8997227.541627742350101 ], [ 781855.586185888736509, 8997188.977685485035181 ], [ 781838.737898264080286, 8997117.19785039126873 ], [ 781811.212801460525952, 8997184.379091570153832 ], [ 781768.040695763076656, 8997284.102529102936387 ], [ 781742.768249026383273, 8997339.02971295081079 ], [ 781719.256074342993088, 8997379.756324198096991 ], [ 781712.703967588837259, 8997393.176034189760685 ], [ 781697.871795195154846, 8997505.505391163751483 ], [ 781694.822760181385092, 8997530.99575586616993 ], [ 781803.310487767797895, 8997586.128677453845739 ], [ 781807.044311021338217, 8997562.363758098334074 ], [ 781835.520259505719878, 8997506.991021359339356 ], [ 781849.924160028225742, 8997469.771925548091531 ], [ 781850.236153454752639, 8997446.989627601578832 ], [ 781870.577353755594231, 8997379.116510601714253 ], [ 781888.985669712070376, 8997368.505578765645623 ], [ 781912.463878849870525, 8997343.442180881276727 ], [ 781914.532637133961543, 8997337.587590876966715 ], [ 781925.256098931538872, 8997307.240172943100333 ], [ 781927.460646441788413, 8997290.895146055147052 ], [ 781914.532637134310789, 8997278.926760084927082 ] ] ] ] } },
{ "type": "Feature", "properties": { "LAYER": "0", "GM_TYPE": "Unknown Area Type", "ELEVATION": 0 }, "geometry": { "type": "MultiPolygon", "coordinates": [ [ [ [ 781914.53263713454362, 8997136.66408471390605 ], [ 781920.115944691933692, 8997140.09954435005784 ], [ 781993.588357578031719, 8997155.189482759684324 ], [ 782035.820729427388869, 8997159.527729636058211 ], [ 782043.701939507038333, 8997157.754130855202675 ], [ 782051.977183275623247, 8997153.41864525526762 ], [ 782056.641621669055894, 8997153.787543319165707 ], [ 782058.955216655274853, 8997154.713148504495621 ], [ 782062.1171151768649, 8997159.572600375860929 ], [ 782065.454944231198169, 8997165.459120249375701 ], [ 782068.385502755874768, 8997168.390215072780848 ], [ 782072.661904261098243, 8997170.667944017797709 ], [ 782096.705979402759112, 8997173.791144780814648 ], [ 782119.8469022216741, 8997184.255114138126373 ], [ 782134.915034240810201, 8997193.197944262996316 ], [ 782151.364624386420473, 8997206.986743906512856 ], [ 782162.137633180827834, 8997220.260340105742216 ], [ 782174.315794778056443, 8997229.629928305745125 ], [ 782174.058102985960431, 8997219.078725159168243 ], [ 782178.520892859552987, 8997198.526658141985536 ], [ 782209.720199530129321, 8997140.631738098338246 ], [ 782022.145195932942443, 8997073.435120621696115 ], [ 781914.532637133612297, 8997035.657180042937398 ], [ 781877.963359545334242, 8997022.819347627460957 ], [ 781861.164492321317084, 8997065.62358259037137 ], [ 781872.772616564878263, 8997076.059741949662566 ], [ 781901.655671130283736, 8997124.645272435620427 ], [ 781910.358199141686782, 8997134.095515262335539 ], [ 781914.53263713454362, 8997136.66408471390605 ] ] ] ] } },
{ "type": "Feature", "properties": { "LAYER": "0", "GM_TYPE": "Unknown Area Type", "ELEVATION": 0 }, "geometry": { "type": "MultiPolygon", "coordinates": [ [ [ [ 782145.991687088622712, 8996860.52033462934196 ], [ 782153.378769370377995, 8996846.871806072071195 ], [ 781984.736616487498395, 8996781.010406583547592 ], [ 781949.907137726433575, 8996860.52033462934196 ], [ 781914.532637134427205, 8996941.274457193911076 ], [ 781881.632645916659385, 8997016.379684934392571 ], [ 781914.53263713454362, 8997028.59841949865222 ], [ 782031.508395872195251, 8997072.042070802301168 ], [ 782145.991687088622712, 8996860.52033462934196 ] ] ] ] } },
{ "type": "Feature", "properties": { "LAYER": "0", "GM_TYPE": "Unknown Area Type", "ELEVATION": 0 }, "geometry": { "type": "MultiPolygon", "coordinates": [ [ [ [ 781914.532637134077959, 8996664.973948832601309 ], [ 781845.005551994661801, 8996654.330149004235864 ], [ 781834.011758547858335, 8996670.066972745582461 ], [ 781812.264506852021441, 8996687.573225177824497 ], [ 781786.27388480969239, 8996720.994248704984784 ], [ 781774.60462245112285, 8996753.354294067248702 ], [ 781779.79833945480641, 8996772.811698164790869 ], [ 781784.263396411552094, 8996790.302115520462394 ], [ 781785.379654556396417, 8996808.90893380343914 ], [ 781791.705109251663089, 8996819.700903341174126 ], [ 781803.239784874487668, 8996829.376443777233362 ], [ 781811.947334597120062, 8996844.223601190373302 ], [ 781812.679748738883063, 8996854.112379781901836 ], [ 781811.415190784144215, 8996860.52033462934196 ], [ 781809.93323836766649, 8996868.029902802780271 ], [ 781809.934871642617509, 8996882.948557550087571 ], [ 781813.963088478893042, 8996892.471072560176253 ], [ 781819.63920666242484, 8996896.499831076711416 ], [ 781843.327300984994508, 8996911.551153883337975 ], [ 781857.365543416584842, 8996917.635203629732132 ], [ 781860.641113002900966, 8996926.995282333344221 ], [ 781860.173167525557801, 8996938.227379593998194 ], [ 781843.327300984994508, 8996975.199686244130135 ], [ 781836.308191957883537, 8996987.835793901234865 ], [ 781836.776137435110286, 8996999.535899324342608 ], [ 781841.658045176533051, 8997034.83471754938364 ], [ 781848.796432033414021, 8997050.495183547958732 ], [ 781851.559665190521628, 8997055.79211457259953 ], [ 781914.532637134077959, 8996907.062322894111276 ], [ 781934.238758470746689, 8996860.52033462934196 ], [ 782010.794568463577889, 8996679.710547182708979 ], [ 781914.532637134077959, 8996664.973948832601309 ] ] ] ] } },
{ "type": "Feature", "properties": { "LAYER": "0", "GM_TYPE": "Unknown Area Type", "ELEVATION": 0 }, "geometry": { "type": "MultiPolygon", "coordinates": [ [ [ [ 781700.224903718219139, 8997381.728180896490812 ], [ 781729.351307701552287, 8997334.617545651271939 ], [ 781754.226204556180164, 8997277.796209387481213 ], [ 781785.569334686850198, 8997205.105815915390849 ], [ 781719.51528347551357, 8997135.745176512748003 ], [ 781693.730324194650166, 8997058.844657486304641 ], [ 781660.98597760766279, 8997008.311726862564683 ], [ 781644.282426046906039, 8997049.631766106933355 ], [ 781627.374408021336421, 8997127.423178704455495 ], [ 781611.029483663267456, 8997154.320178374648094 ], [ 781567.139358570682816, 8997193.491218497976661 ], [ 781552.376218853518367, 8997218.806032354012132 ], [ 781536.240106102311984, 8997242.454589812085032 ], [ 781530.463423575623892, 8997247.613683780655265 ], [ 781520.320944449049421, 8997257.067380625754595 ], [ 781516.863251901697367, 8997262.892354670912027 ], [ 781515.043402445386164, 8997271.629842266440392 ], [ 781515.954015664407052, 8997292.188142489641905 ], [ 781609.68056190747302, 8997333.141305755823851 ], [ 781636.269709031097591, 8997357.083332162350416 ], [ 781700.224903718219139, 8997381.728180896490812 ] ] ] ] } },
{ "type": "Feature", "properties": { "LAYER": "0", "GM_TYPE": "Unknown Area Type", "ELEVATION": 0 }, "geometry": { "type": "MultiPolygon", "coordinates": [ [ [ [ 781806.602688207756728, 8996860.52033462934196 ], [ 781807.553518809843808, 8996849.936304537579417 ], [ 781802.705778656876646, 8996838.442401641979814 ], [ 781794.626232134993188, 8996829.82196562923491 ], [ 781780.621625671163201, 8996814.915794285014272 ], [ 781775.786002956097946, 8996823.91491930745542 ], [ 781759.235571747063659, 8996851.85098828561604 ], [ 781758.029407765250653, 8996860.52033462934196 ], [ 781750.051471800543368, 8996917.86203197017312 ], [ 781739.030233628931455, 8996952.675036067143083 ], [ 781729.483406134415418, 8996961.603495111688972 ], [ 781714.112527946941555, 8996970.677830949425697 ], [ 781707.241420460049994, 8996979.412117706611753 ], [ 781700.799778228276409, 8996983.42128024995327 ], [ 781692.696547623141669, 8996986.756976203992963 ], [ 781674.438781652832404, 8996991.105179827660322 ], [ 781663.426172565785237, 8997000.091483820229769 ], [ 781699.44617473508697, 8997055.018614616245031 ], [ 781723.881845065159723, 8997130.829381478950381 ], [ 781789.667721463716589, 8997199.820987433195114 ], [ 781848.77661417867057, 8997060.878797862678766 ], [ 781840.855573536478914, 8997046.846136542037129 ], [ 781836.461717111989856, 8997035.895668467506766 ], [ 781833.288631357601844, 8997007.55719599686563 ], [ 781830.124786679516546, 8996994.064468029886484 ], [ 781830.578089015907608, 8996987.716661231592298 ], [ 781848.483347701607272, 8996950.536594402045012 ], [ 781854.604428621474653, 8996932.089519891887903 ], [ 781852.337916939985007, 8996920.074004452675581 ], [ 781835.792565263109282, 8996914.859735844656825 ], [ 781822.193617572891526, 8996906.924968503415585 ], [ 781807.183936953661032, 8996892.371066005900502 ], [ 781805.111212479998358, 8996877.122475903481245 ], [ 781806.602688207756728, 8996860.52033462934196 ] ] ] ] } },
{ "type": "Feature", "properties": { "LAYER": "0", "GM_TYPE": "Unknown Area Type", "ELEVATION": 0 }, "geometry": { "type": "MultiPolygon", "coordinates": [ [ [ [ 781914.532637133845128, 8997544.275296116247773 ], [ 781923.890479839174077, 8997541.512285940349102 ], [ 781944.514522162964568, 8997521.704833716154099 ], [ 781969.17017490521539, 8997455.505304669961333 ], [ 781968.114253168925643, 8997423.203556049615145 ], [ 781955.716931334231049, 8997407.454715119674802 ], [ 781934.696531510911882, 8997308.398420913144946 ], [ 781931.374001938849688, 8997296.928107215091586 ], [ 781917.257001192658208, 8997346.307758232578635 ], [ 781914.532637134194374, 8997349.341479009017348 ], [ 781891.312668698956259, 8997375.198119003325701 ], [ 781876.240276914089918, 8997381.865122085437179 ], [ 781853.397945381700993, 8997454.839766632765532 ], [ 781853.397945381700993, 8997470.27759768255055 ], [ 781865.149754316080362, 8997481.429279815405607 ], [ 781903.546965082641691, 8997540.314328745007515 ], [ 781912.105327058699913, 8997544.991987200453877 ], [ 781914.532637133845128, 8997544.275296116247773 ] ] ] ] } },
{ "type": "Feature", "properties": { "LAYER": "0", "GM_TYPE": "Unknown Area Type", "ELEVATION": 0 }, "geometry": { "type": "MultiPolygon", "coordinates": [ [ [ [ 781914.532637134427205, 8997260.754405507817864 ], [ 781939.09135524649173, 8997285.672849044203758 ], [ 781964.782913433969952, 8997400.520065469667315 ], [ 781974.998384694335982, 8997414.673114091157913 ], [ 781983.178284034365788, 8997402.096247080713511 ], [ 782095.138732927036472, 8997248.817854374647141 ], [ 782102.498962661717087, 8997242.362962398678064 ], [ 782165.553248774609528, 8997234.574852950870991 ], [ 782165.317096475511789, 8997227.730775982141495 ], [ 782149.022163555957377, 8997210.266548484563828 ], [ 782120.683163889567368, 8997190.206298593431711 ], [ 782088.093298050458543, 8997177.698139464482665 ], [ 782071.485991195659153, 8997174.56227346137166 ], [ 782061.095015500090085, 8997169.134195897728205 ], [ 782054.246424122015014, 8997160.874091345816851 ], [ 782045.744741692673415, 8997163.470127826556563 ], [ 782023.309674292220734, 8997164.178141620010138 ], [ 781914.617171894176863, 8997146.897792585194111 ], [ 781914.532637134077959, 8997146.827137457206845 ], [ 781901.628446035087109, 8997136.041665637865663 ], [ 781859.119934056419879, 8997074.680878890678287 ], [ 781846.839715010486543, 8997107.013297401368618 ], [ 781875.485647774999961, 8997218.011548209935427 ], [ 781891.246754703810439, 8997237.127441596239805 ], [ 781914.532637134427205, 8997260.754405507817864 ] ] ] ] } },
{ "type": "Feature", "properties": { "LAYER": "0", "GM_TYPE": "Unknown Area Type", "ELEVATION": 0 }, "geometry": { "type": "MultiPolygon", "coordinates": [ [ [ [ 782156.085243379697204, 8996860.52033462934196 ], [ 782036.144605422974564, 8997073.59895165450871 ], [ 782212.370566071360372, 8997136.50489791855216 ], [ 782224.943419542978518, 8997116.088048912584782 ], [ 782254.518470788025297, 8997080.503579469397664 ], [ 782268.016537983552553, 8997063.984877794981003 ], [ 782312.888745406875387, 8997001.478288164362311 ], [ 782166.871337257325649, 8996860.52033462934196 ], [ 782159.882762963068672, 8996853.773912109434605 ], [ 782156.085243379697204, 8996860.52033462934196 ] ] ] ] } },
{ "type": "Feature", "properties": { "LAYER": "0", "GM_TYPE": "Unknown Area Type", "ELEVATION": 0 }, "geometry": { "type": "MultiPolygon", "coordinates": [ [ [ [ 782178.336706078378484, 8996860.52033462934196 ], [ 782319.059014599421062, 8996992.687962202355266 ], [ 782357.714197286055423, 8996947.840284138917923 ], [ 782398.973600400495343, 8996929.087104123085737 ], [ 782414.917850384488702, 8996911.524499112740159 ], [ 782411.746347230859101, 8996895.010009791702032 ], [ 782413.745597721892409, 8996873.389047073200345 ], [ 782412.368698139092885, 8996865.891590137034655 ], [ 782409.979345318977721, 8996860.52033462934196 ], [ 782404.356070364709012, 8996847.879235200583935 ], [ 782400.378363167401403, 8996835.179463217034936 ], [ 782399.919388514012098, 8996822.326679896563292 ], [ 782400.841481951298192, 8996810.326046174392104 ], [ 782400.382507298025303, 8996802.063546637073159 ], [ 782398.240674336790107, 8996795.943177651613951 ], [ 782393.65100093500223, 8996787.527652688324451 ], [ 782384.747141307685524, 8996778.140595188364387 ], [ 782379.392534527578391, 8996766.66488573141396 ], [ 782376.02676915738266, 8996762.380624625831842 ], [ 782364.399630667525344, 8996756.260255640372634 ], [ 782361.033889674698003, 8996756.719289654865861 ], [ 782358.739065162371844, 8996758.555397532880306 ], [ 782353.791046349215321, 8996759.318481881171465 ], [ 782347.518514639581554, 8996756.105286050587893 ], [ 782348.589431120199151, 8996752.433070294559002 ], [ 782348.589431120199151, 8996749.831905728206038 ], [ 782347.518514639581554, 8996748.607829114422202 ], [ 782338.374124796479009, 8996744.501177245751023 ], [ 782325.078071779338643, 8996737.173778301104903 ], [ 782321.007852960494347, 8996730.660547317937016 ], [ 782323.449989127344452, 8996722.790388517081738 ], [ 782327.43666714860592, 8996710.194375718012452 ], [ 782323.969321824028157, 8996703.258725808933377 ], [ 782276.119873463641852, 8996674.129049725830555 ], [ 782257.708768792799674, 8996662.074557026848197 ], [ 782250.186562309972942, 8996641.174667811021209 ], [ 782249.504072753479704, 8996621.720743484795094 ], [ 782260.082843708689325, 8996600.219022821635008 ], [ 782266.907861159997992, 8996592.710492601618171 ], [ 782267.586304094758816, 8996589.149798598140478 ], [ 782266.389381666551344, 8996582.924937846139073 ], [ 782258.960296236095019, 8996570.161811476573348 ], [ 782259.439065207494423, 8996567.767629930749536 ], [ 782265.663086211774498, 8996551.966085251420736 ], [ 782266.284340144251473, 8996544.110338622704148 ], [ 782269.87452237540856, 8996533.549569625407457 ], [ 782271.986371332779527, 8996529.53647712431848 ], [ 782271.141626874334179, 8996526.579460114240646 ], [ 782242.420193402678706, 8996506.936416536569595 ], [ 782234.40120316890534, 8996590.607555266469717 ], [ 782224.504994901944883, 8996618.899761598557234 ], [ 782190.567588007543236, 8996773.986860740929842 ], [ 782183.326182939112186, 8996808.214670041576028 ], [ 782163.685587848885916, 8996846.759875765070319 ], [ 782178.336706078378484, 8996860.52033462934196 ] ] ] ] } },
{ "type": "Feature", "properties": { "LAYER": "0", "GM_TYPE": "Unknown Area Type", "ELEVATION": 0 }, "geometry": { "type": "MultiPolygon", "coordinates": [ [ [ [ 782432.849458562559448, 8996860.52033462934196 ], [ 782471.617552823852748, 8996749.036996260285378 ], [ 782459.910188840935007, 8996701.98439678363502 ], [ 782461.690848631085828, 8996653.322804406285286 ], [ 782327.147163059795275, 8996495.95117174461484 ], [ 782158.188398598576896, 8996377.689947078004479 ], [ 782149.033477788208984, 8996398.863583030179143 ], [ 782154.755303294630721, 8996401.724885186180472 ], [ 782173.065169292502105, 8996405.730708204209805 ], [ 782184.375744958524592, 8996413.67864765226841 ], [ 782234.547100943513215, 8996488.141197497025132 ], [ 782248.32319054834079, 8996505.773693792521954 ], [ 782272.260322743095458, 8996519.18029616214335 ], [ 782277.047744306619279, 8996523.968377495184541 ], [ 782276.692275409470312, 8996530.190138855949044 ], [ 782270.715659002424218, 8996542.998938988894224 ], [ 782269.270064360462129, 8996552.767123062163591 ], [ 782264.716444894904271, 8996564.722012579441071 ], [ 782263.862632103613578, 8996569.276258887723088 ], [ 782272.68529114825651, 8996585.216106880456209 ], [ 782272.415532622952014, 8996593.83178211376071 ], [ 782265.869683311204426, 8996602.086335938423872 ], [ 782260.177646790631115, 8996610.910191684961319 ], [ 782254.201006006333046, 8996627.134676549583673 ], [ 782254.485610270057805, 8996637.097079783678055 ], [ 782257.364562180009671, 8996642.865146538242698 ], [ 782263.625782850780524, 8996657.097159208729863 ], [ 782294.14786544861272, 8996679.384660221636295 ], [ 782312.362392065231688, 8996685.077454021200538 ], [ 782324.597888928255998, 8996692.017471253871918 ], [ 782334.102623116225004, 8996700.391816571354866 ], [ 782333.701325010042638, 8996706.356596088036895 ], [ 782334.606549398042262, 8996715.862613881006837 ], [ 782329.854182304115966, 8996723.105286723002791 ], [ 782326.459627414820716, 8996729.668967353180051 ], [ 782329.175276201684028, 8996734.195629073306918 ], [ 782334.832843306474388, 8996737.36430636793375 ], [ 782341.848246993264183, 8996740.759309703484178 ], [ 782349.80887811712455, 8996744.864200552925467 ], [ 782351.619302515988238, 8996747.806537717580795 ], [ 782351.845596424303949, 8996750.522548837587237 ], [ 782352.524502526735887, 8996755.049224648624659 ], [ 782355.919057415914722, 8996755.275550689548254 ], [ 782364.971179410000332, 8996752.559553656727076 ], [ 782370.855064800474793, 8996755.049224648624659 ], [ 782379.907186794443987, 8996760.254892671480775 ], [ 782388.105910410289653, 8996775.481979168951511 ], [ 782393.537183606647886, 8996780.008654978126287 ], [ 782399.873681191122159, 8996790.646331157535315 ], [ 782403.985121920937672, 8996797.976829493418336 ], [ 782403.079897532938048, 8996816.988850988447666 ], [ 782405.342934125685133, 8996834.642888056114316 ], [ 782410.122993763070554, 8996850.832730174064636 ], [ 782413.997516373638064, 8996860.52033462934196 ], [ 782418.269915746292099, 8996871.202764274552464 ], [ 782415.780585245112889, 8996895.646793926134706 ], [ 782417.817303552292287, 8996908.774155182763934 ], [ 782421.553676084964536, 8996904.815682418644428 ], [ 782422.903565687127411, 8996889.121207639575005 ], [ 782432.849458562559448, 8996860.52033462934196 ] ] ] ] } },
{ "type": "Feature", "properties": { "LAYER": "0", "GM_TYPE": "Unknown Area Type", "ELEVATION": 0 }, "geometry": { "type": "MultiPolygon", "coordinates": [ [ [ [ 782158.262456650147215, 8996840.739011345431209 ], [ 782174.978465639404021, 8996799.483767872676253 ], [ 782209.451269831042737, 8996649.929956557229161 ], [ 782228.713773946510628, 8996589.035233806818724 ], [ 782237.317330368212424, 8996507.543333804234862 ], [ 782177.037245347746648, 8996417.636655507609248 ], [ 782145.153401432442479, 8996403.9703100156039 ], [ 782082.907487115473486, 8996534.870783997699618 ], [ 782054.862278249813244, 8996609.352634601294994 ], [ 782039.515416881535202, 8996635.038590544834733 ], [ 782014.397548745037057, 8996704.109072124585509 ], [ 781987.660398139734752, 8996771.322144554927945 ], [ 782158.262456650147215, 8996840.739011345431209 ] ] ] ] } },
{ "type": "Feature", "properties": { "LAYER": "0", "GM_TYPE": "Unknown Area Type", "ELEVATION": 0 }, "geometry": { "type": "MultiPolygon", "coordinates": [ [ [ [ 782014.427240221993998, 8996671.880990413948894 ], [ 782032.943459546891972, 8996621.789409101009369 ], [ 782045.978822371573187, 8996599.270721636712551 ], [ 782069.257622853503563, 8996534.17401254363358 ], [ 782075.72558688709978, 8996516.731199027970433 ], [ 782135.953870275057852, 8996395.801341669633985 ], [ 782132.105118671315722, 8996393.001872379332781 ], [ 782128.722874287632294, 8996384.253500912338495 ], [ 782125.457250614766963, 8996378.187962986528873 ], [ 782118.342875338159502, 8996377.021506883203983 ], [ 782113.860973709379323, 8996375.482250299304724 ], [ 782109.429069797508419, 8996374.08250861056149 ], [ 782095.550205753650516, 8996375.598900135606527 ], [ 782088.271844791132025, 8996374.289435276761651 ], [ 782079.874544187565334, 8996371.25666631385684 ], [ 782063.062757026869804, 8996364.689942646771669 ], [ 782051.76883101509884, 8996357.208546193316579 ], [ 782045.16849857440684, 8996347.673422295600176 ], [ 782032.507594516035169, 8996334.878513071686029 ], [ 782018.138772348174825, 8996312.700195178389549 ], [ 781969.408574347617105, 8996335.568987123668194 ], [ 781980.744234192301519, 8996520.218831913545728 ], [ 781982.122084487462416, 8996560.701580155640841 ], [ 782014.427240221993998, 8996671.880990413948894 ] ] ] ] } },
{ "type": "Feature", "properties": { "LAYER": "0", "GM_TYPE": "Unknown Area Type", "ELEVATION": 0 }, "geometry": { "type": "MultiPolygon", "coordinates": [ [ [ [ 782045.762730258516967, 8996060.52033462934196 ], [ 782045.004122852697037, 8996062.892879130318761 ], [ 781979.377085505053401, 8996216.562964519485831 ], [ 781961.009250433184206, 8996239.744541449472308 ], [ 781941.766784408013336, 8996278.23467661626637 ], [ 781930.797880121972412, 8996310.749663392081857 ], [ 781962.925496425828896, 8996330.370729463174939 ], [ 781971.772142673493363, 8996329.123111559078097 ], [ 782015.609316911897622, 8996305.669295324012637 ], [ 782015.257821504608728, 8996285.98300114274025 ], [ 782021.936209864215925, 8996279.655254671350121 ], [ 782029.31756466079969, 8996277.54600584693253 ], [ 782033.886980577139184, 8996268.75748316757381 ], [ 782034.589971391600557, 8996254.344296958297491 ], [ 782059.29254888673313, 8996243.690137650817633 ], [ 782068.079885312239639, 8996235.604697912931442 ], [ 782076.867221737629734, 8996229.980034381151199 ], [ 782080.420399320195429, 8996225.280327981337905 ], [ 782082.880842793383636, 8996204.890950856730342 ], [ 782080.771894727367908, 8996194.696262296289206 ], [ 782083.232338200556114, 8996179.931534614413977 ], [ 782091.009823128813878, 8996160.455872282385826 ], [ 782100.500150368665345, 8996124.598684536293149 ], [ 782104.769872510340065, 8996094.237986383959651 ], [ 782113.557208935846575, 8996075.254761055111885 ], [ 782132.889358822838403, 8996062.599296286702156 ], [ 782137.03241058147978, 8996060.52033462934196 ], [ 782144.246324374340475, 8996056.90043049864471 ], [ 782158.306067530531436, 8996049.51807370223105 ], [ 782179.044174668961205, 8996036.511053375899792 ], [ 782190.994969759252854, 8996017.176286576315761 ], [ 782194.204598914482631, 8995999.811366410925984 ], [ 782205.977854574099183, 8995985.943870391696692 ], [ 782209.675784201011993, 8995981.592761037871242 ], [ 782211.851038356660865, 8995967.451687339693308 ], [ 782209.901688073528931, 8995954.10104308091104 ], [ 782205.986240344238468, 8995942.353066142648458 ], [ 782202.505828819703311, 8995936.696633845567703 ], [ 782192.702375946682878, 8995890.050787277519703 ], [ 782191.614736680174246, 8995878.085247123613954 ], [ 782189.438507434912026, 8995862.80399171076715 ], [ 782189.220989332534373, 8995850.620902428403497 ], [ 782198.792102742008865, 8995830.823382345959544 ], [ 782187.915831963764504, 8995833.216493194922805 ], [ 782168.338520185556263, 8995842.571359284222126 ], [ 782159.41996108321473, 8995844.529357789084315 ], [ 782144.334253074950539, 8995857.835004515945911 ], [ 782133.240439816960134, 8995867.842546164989471 ], [ 782114.750742928008549, 8995878.720298415049911 ], [ 782092.669181778328493, 8995913.820417448878288 ], [ 782045.762730258516967, 8996060.52033462934196 ] ] ] ] } },
{ "type": "Feature", "properties": { "LAYER": "0", "GM_TYPE": "Unknown Area Type", "ELEVATION": 0 }, "geometry": { "type": "MultiPolygon", "coordinates": [ [ [ [ 782464.655194008722901, 8996643.657083407044411 ], [ 782480.462931454996578, 8996604.885255791246891 ], [ 782520.122212610440329, 8996569.029321890324354 ], [ 782539.317313660518266, 8996560.747958326712251 ], [ 782545.339296109043062, 8996550.20805387198925 ], [ 782531.789817316806875, 8996521.22328844293952 ], [ 782511.465586939826608, 8996509.177671276032925 ], [ 782502.364320432185195, 8996493.972984928637743 ], [ 782485.051093468093313, 8996474.398860553279519 ], [ 782476.770852365414612, 8996455.953999580815434 ], [ 782464.350478522945195, 8996451.813324842602015 ], [ 782452.973913671448827, 8996443.442881941795349 ], [ 782445.446417327737436, 8996439.678614249452949 ], [ 782429.638679881463759, 8996437.796494491398335 ], [ 782423.993057623738423, 8996427.256575947627425 ], [ 782420.229309451882727, 8996414.081681290641427 ], [ 782414.960071762208827, 8996407.306030439212918 ], [ 782407.056190850446001, 8996408.058886794373393 ], [ 782394.635841385112144, 8996407.306030439212918 ], [ 782388.613834559335373, 8996405.423896592110395 ], [ 782367.798037160537206, 8996380.083818685263395 ], [ 782210.548879388137721, 8996244.26476489007473 ], [ 782181.702171285985969, 8996310.159778691828251 ], [ 782160.678216644446366, 8996372.583051035180688 ], [ 782333.123730712337419, 8996492.601926703006029 ], [ 782464.655194008722901, 8996643.657083407044411 ] ] ] ] } },
{ "type": "Feature", "properties": { "LAYER": "0", "GM_TYPE": "Unknown Area Type", "ELEVATION": 0 }, "geometry": { "type": "MultiPolygon", "coordinates": [ [ [ [ 782244.534945489838719, 8996060.52033462934196 ], [ 782243.995767482207157, 8996056.146390737965703 ], [ 782235.860644082538784, 8996048.397615391761065 ], [ 782225.013845385983586, 8996042.198606383055449 ], [ 782208.743647341267206, 8996004.229662124067545 ], [ 782209.905783449648879, 8995993.768834425136447 ], [ 782207.19408377551008, 8995992.219082172960043 ], [ 782202.158087507355958, 8995997.643215054646134 ], [ 782199.446363455965184, 8996011.97842338308692 ], [ 782193.248206702060997, 8996027.475959990173578 ], [ 782183.176165411132388, 8996038.711663816124201 ], [ 782163.032107206527144, 8996054.984076550230384 ], [ 782150.113096943008713, 8996060.460251037031412 ], [ 782149.980931023834273, 8996060.52033462934196 ], [ 782137.32938035519328, 8996066.271821981295943 ], [ 782116.410540367825888, 8996079.832168273627758 ], [ 782109.437577453791164, 8996099.59150948561728 ], [ 782105.51896068349015, 8996123.350813046097755 ], [ 782095.834298095433041, 8996160.932319242507219 ], [ 782085.737416398013011, 8996186.421393366530538 ], [ 782085.119770296965726, 8996195.869452532380819 ], [ 782086.48399371560663, 8996203.904301742091775 ], [ 782084.950007205479778, 8996224.878210071474314 ], [ 782081.918405025731772, 8996230.335844559594989 ], [ 782078.378805565298535, 8996234.785909039899707 ], [ 782071.55768847221043, 8996238.575929859653115 ], [ 782067.313440544996411, 8996242.669155728071928 ], [ 782059.383524742210284, 8996249.527067255228758 ], [ 782042.254930985276587, 8996255.136304266750813 ], [ 782038.010683058062568, 8996256.803903847932816 ], [ 782037.503051435924135, 8996269.1068409755826 ], [ 782035.98725034610834, 8996275.777281563729048 ], [ 782032.02039101999253, 8996280.666952505707741 ], [ 782026.563497345545329, 8996283.244167227298021 ], [ 782022.470827089739032, 8996284.608575848862529 ], [ 782019.742380252457224, 8996286.88258552365005 ], [ 782018.226579162641428, 8996290.217812862247229 ], [ 782018.984491896117106, 8996297.949442937970161 ], [ 782024.15400230162777, 8996316.784785013645887 ], [ 782030.368808709667064, 8996329.216051049530506 ], [ 782037.18992580275517, 8996334.218877969309688 ], [ 782044.359198621357791, 8996341.392279405146837 ], [ 782049.361359281931072, 8996345.182286137714982 ], [ 782052.241383790504187, 8996350.639920625835657 ], [ 782058.652451348607428, 8996358.096155652776361 ], [ 782064.412500365637243, 8996361.886176472529769 ], [ 782078.557246953714639, 8996367.680292205885053 ], [ 782089.016276911599562, 8996371.470298938453197 ], [ 782095.382660990930162, 8996372.531516602262855 ], [ 782109.328050519572571, 8996371.470298938453197 ], [ 782113.778846791596152, 8996372.84247012808919 ], [ 782123.397837098222226, 8996374.060122549533844 ], [ 782127.64208502531983, 8996376.03094126470387 ], [ 782133.098978699767031, 8996388.917000781744719 ], [ 782137.040071284398437, 8996392.555419079959393 ], [ 782142.939801880042069, 8996381.003577290102839 ], [ 782154.700966429198161, 8996346.272299967706203 ], [ 782216.772827260778286, 8996199.204891191795468 ], [ 782260.11609426245559, 8996098.451074184849858 ], [ 782252.518245207378641, 8996091.015830494463444 ], [ 782247.482224561972544, 8996084.429383423179388 ], [ 782244.534945489838719, 8996060.52033462934196 ] ] ] ] } },
{ "type": "Feature", "properties": { "LAYER": "0", "GM_TYPE": "Unknown Area Type", "ELEVATION": 0 }, "geometry": { "type": "MultiPolygon", "coordinates": [ [ [ [ 782642.491198152420111, 8996269.23166193626821 ], [ 782644.347329874173738, 8996264.485901391133666 ], [ 782629.420610217726789, 8996216.469644650816917 ], [ 782642.09411730861757, 8996163.781801445409656 ], [ 782288.54585407115519, 8996061.707009565085173 ], [ 782276.638255448197015, 8996088.50273091904819 ], [ 782286.881546842050739, 8996089.552480831742287 ], [ 782300.997016366338357, 8996092.913757149130106 ], [ 782318.697353883646429, 8996102.101256081834435 ], [ 782325.461696387385018, 8996109.335053393617272 ], [ 782331.959278766298667, 8996120.539312481880188 ], [ 782335.096044354490004, 8996134.656675832346082 ], [ 782340.722823006566614, 8996170.803191801533103 ], [ 782346.338436883292161, 8996182.726058965548873 ], [ 782359.333626018255018, 8996191.913557898253202 ], [ 782382.688702880754136, 8996214.374145854264498 ], [ 782411.004450343200006, 8996228.765284119173884 ], [ 782436.770777410711162, 8996239.521385239437222 ], [ 782454.021842415793799, 8996250.947828454896808 ], [ 782468.013719338923693, 8996259.915355099365115 ], [ 782471.695901269558817, 8996261.230596097186208 ], [ 782480.375270904041827, 8996262.019729424268007 ], [ 782484.151573353912681, 8996263.200203232467175 ], [ 782487.199215756845661, 8996267.772299220785499 ], [ 782505.290466676582582, 8996268.293842330574989 ], [ 782515.449315315112472, 8996270.833892526105046 ], [ 782521.290662423707545, 8996276.168002163991332 ], [ 782530.665709701017477, 8996286.297082237899303 ], [ 782536.067193911527283, 8996293.605955271050334 ], [ 782547.50562819535844, 8996297.41927788220346 ], [ 782557.865125886979513, 8996299.167391208931804 ], [ 782564.219808891532011, 8996299.961821680888534 ], [ 782571.845447998959571, 8996300.120721861720085 ], [ 782579.153329797671176, 8996299.008491028100252 ], [ 782596.701455835485831, 8996292.947714895009995 ], [ 782605.598026668303646, 8996288.975492101162672 ], [ 782618.78399207466282, 8996287.70438925921917 ], [ 782627.045072667533532, 8996284.844397300854325 ], [ 782628.66976688336581, 8996282.260518888011575 ], [ 782633.594651696854271, 8996278.923868646845222 ], [ 782636.136515147867613, 8996271.773881707340479 ], [ 782642.491198152420111, 8996269.23166193626821 ] ] ] ] } },
{ "type": "Feature", "properties": { "LAYER": "0", "GM_TYPE": "Unknown Area Type", "ELEVATION": 0 }, "geometry": { "type": "MultiPolygon", "coordinates": [ [ [ [ 782665.33175939891953, 8996060.52033462934196 ], [ 782678.035357614979148, 8996027.063036473467946 ], [ 782654.146809257334098, 8995998.392929753288627 ], [ 782606.369736919063143, 8995978.596888925880194 ], [ 782526.513778377440758, 8995923.30452817492187 ], [ 782494.382064303266816, 8996060.52033462934196 ], [ 782483.51440108451061, 8996106.92978447675705 ], [ 782642.543804233893752, 8996149.934958646073937 ], [ 782657.559452057816088, 8996080.990157403051853 ], [ 782665.33175939891953, 8996060.52033462934196 ] ] ] ] } },
{ "type": "Feature", "properties": { "LAYER": "0", "GM_TYPE": "Unknown Area Type", "ELEVATION": 0 }, "geometry": { "type": "MultiPolygon", "coordinates": [ [ [ [ 782484.994809346855618, 8996060.52033462934196 ], [ 782519.901696107699536, 8995919.388319844380021 ], [ 782393.802164193126373, 8995828.892461255192757 ], [ 782293.692620512796566, 8996054.169387327507138 ], [ 782317.568957845913246, 8996060.52033462934196 ], [ 782474.659880988649093, 8996102.305477825924754 ], [ 782484.994809346855618, 8996060.52033462934196 ] ] ] ] } },
{ "type": "Feature", "properties": { "LAYER": "0", "GM_TYPE": "Unknown Area Type", "ELEVATION": 0 }, "geometry": { "type": "MultiPolygon", "coordinates": [ [ [ [ 782277.296119927312247, 8996060.52033462934196 ], [ 782309.761340678320266, 8995975.748406982049346 ], [ 782393.177375561092049, 8995801.082449847832322 ], [ 782446.133538559661247, 8995684.007940035313368 ], [ 782465.219307693303563, 8995573.562169903889298 ], [ 782452.467866569757462, 8995476.170573119074106 ], [ 782446.361002575489692, 8995497.038510423153639 ], [ 782447.818444555508904, 8995509.945603542029858 ], [ 782439.165621734107845, 8995532.44599050655961 ], [ 782429.359072951716371, 8995548.023181483149529 ], [ 782427.6049599746475, 8995564.347058208659291 ], [ 782429.335524538881145, 8995597.23225324600935 ], [ 782439.756867285585031, 8995620.40429250150919 ], [ 782441.487431849818677, 8995631.94294778816402 ], [ 782429.888863483909518, 8995651.643555525690317 ], [ 782406.814661167678423, 8995670.682344496250153 ], [ 782392.970144653460011, 8995687.413396773859859 ], [ 782375.605627978802659, 8995708.28632128238678 ], [ 782360.030546900234185, 8995727.325110252946615 ], [ 782335.00080248224549, 8995751.734666213393211 ], [ 782296.351519087562338, 8995769.619593882933259 ], [ 782286.544970305054449, 8995780.004387866705656 ], [ 782261.740203424589708, 8995799.620114533230662 ], [ 782237.514761625789106, 8995821.407951323315501 ], [ 782227.583181985188276, 8995826.374416740611196 ], [ 782207.430933028343134, 8995830.862378330901265 ], [ 782194.128907587844878, 8995857.011270703747869 ], [ 782197.339755604974926, 8995870.315085971727967 ], [ 782197.339755604974926, 8995886.371414743363857 ], [ 782208.606842276756652, 8995938.728102022781968 ], [ 782212.375953441136517, 8995946.267330309376121 ], [ 782215.803173830383457, 8995969.141053104773164 ], [ 782223.879816233995371, 8995980.270377350971103 ], [ 782231.268240429926664, 8995987.130627511069179 ], [ 782238.985927991336212, 8995995.926391495391726 ], [ 782247.450607283157296, 8996012.977258743718266 ], [ 782250.594198498292826, 8996015.222993511706591 ], [ 782267.996231743600219, 8996027.911354098469019 ], [ 782268.782129547325894, 8996029.820213153958321 ], [ 782267.547154249157757, 8996030.606218913570046 ], [ 782261.70904931332916, 8996026.002480953931808 ], [ 782248.461043834104203, 8996017.581010792404413 ], [ 782244.643812000169419, 8996014.549270262941718 ], [ 782236.075846347259358, 8995998.430573275312781 ], [ 782231.023639215156436, 8995991.805679658427835 ], [ 782222.699811609461904, 8995984.033982900902629 ], [ 782214.391731700161472, 8995972.468489699065685 ], [ 782212.03252689994406, 8995983.410061243921518 ], [ 782214.390220311353914, 8995988.238364227116108 ], [ 782214.277938749059103, 8995994.189548684284091 ], [ 782213.042963451007381, 8996003.172445494681597 ], [ 782213.643984275171533, 8996006.233362570405006 ], [ 782226.420412068604492, 8996036.125150920823216 ], [ 782230.983441148302518, 8996040.232422666624188 ], [ 782245.420568339410238, 8996048.962197784334421 ], [ 782248.842840149183758, 8996053.75401247292757 ], [ 782249.717680206522346, 8996060.52033462934196 ], [ 782252.265111959073693, 8996080.223072020336986 ], [ 782257.512580774375238, 8996087.981244159862399 ], [ 782266.866761135170236, 8996087.753072571009398 ], [ 782277.296119927312247, 8996060.52033462934196 ] ] ] ] } },
{ "type": "Feature", "properties": { "LAYER": "0", "GM_TYPE": "Unknown Area Type", "ELEVATION": 0 }, "geometry": { "type": "MultiPolygon", "coordinates": [ [ [ [ 782543.326171405031346, 8996528.809120310470462 ], [ 782548.108467603451572, 8996530.892601918429136 ], [ 782545.025334866368212, 8996518.79646466486156 ], [ 782541.828044380876236, 8996507.613253265619278 ], [ 782536.232742354855873, 8996501.793412579223514 ], [ 782535.889595244312659, 8996489.408820565789938 ], [ 782537.104898568126373, 8996471.512481501325965 ], [ 782587.542507260222919, 8996387.36402234621346 ], [ 782616.596378021757118, 8996321.565244659781456 ], [ 782624.494651643792167, 8996310.886346569284797 ], [ 782630.766813778784126, 8996300.903909994289279 ], [ 782634.483654296956956, 8996292.778671247884631 ], [ 782638.897396172746085, 8996280.939036842435598 ], [ 782626.585380674805492, 8996289.06428967602551 ], [ 782603.355127436225303, 8996295.332330591976643 ], [ 782590.346185622620396, 8996301.136068526655436 ], [ 782574.084995876648463, 8996304.386161208152771 ], [ 782555.733102057711221, 8996303.225410804152489 ], [ 782536.589092230773531, 8996298.501303736120462 ], [ 782523.580150417168625, 8996283.87586553953588 ], [ 782506.389775499585085, 8996272.732678558677435 ], [ 782483.856423618737608, 8996272.500534113496542 ], [ 782477.816570255672559, 8996266.696796176955104 ], [ 782465.272221027873456, 8996263.910992387682199 ], [ 782412.73043095972389, 8996235.954351572319865 ], [ 782392.752400695579126, 8996230.614902528002858 ], [ 782351.867154995794408, 8996194.863854862749577 ], [ 782337.696719238650985, 8996180.470575202256441 ], [ 782333.914813296403736, 8996162.975424228236079 ], [ 782329.036478834692389, 8996129.778021819889545 ], [ 782319.744377539260313, 8996111.20604351721704 ], [ 782306.967744497582316, 8996101.687909921631217 ], [ 782292.100382424890995, 8996097.044922389090061 ], [ 782278.859131839475594, 8996095.187724560499191 ], [ 782275.107574786874466, 8996098.561961969360709 ], [ 782212.718094084062614, 8996236.227788370102644 ], [ 782389.938040322624147, 8996394.912393836304545 ], [ 782399.862351921037771, 8996398.690594704821706 ], [ 782418.293237710720859, 8996401.52425592020154 ], [ 782428.269811295438558, 8996414.32863237708807 ], [ 782435.843431661836803, 8996425.958494309335947 ], [ 782456.347625820315443, 8996437.403745198622346 ], [ 782478.144867374794558, 8996446.264596411958337 ], [ 782486.510703581036068, 8996459.175606032833457 ], [ 782499.37458968104329, 8996480.06566172465682 ], [ 782518.134421497001313, 8996501.491348672658205 ], [ 782543.326171405031346, 8996528.809120310470462 ] ] ] ] } },
{ "type": "Feature", "properties": { "LAYER": "0", "GM_TYPE": "Unknown Area Type", "ELEVATION": 0 }, "geometry": { "type": "MultiPolygon", "coordinates": [ [ [ [ 782678.342340184026398, 8996015.444515496492386 ], [ 782677.950792973395437, 8995976.053063107654452 ], [ 782693.361254557850771, 8995930.648565217852592 ], [ 782697.942737207515165, 8995883.994406644254923 ], [ 782680.835132253123447, 8995832.139975806698203 ], [ 782694.562345494050533, 8995754.078341763466597 ], [ 782466.764410224393941, 8995639.390250930562615 ], [ 782457.250022649765015, 8995691.674327913671732 ], [ 782399.821806426858529, 8995818.094053436070681 ], [ 782607.987849280470982, 8995971.972446130588651 ], [ 782660.327828812296502, 8995993.883230159059167 ], [ 782678.342340184026398, 8996015.444515496492386 ] ] ] ] } },
{ "type": "Feature", "properties": { "LAYER": "0", "GM_TYPE": "Unknown Area Type", "ELEVATION": 0 }, "geometry": { "type": "MultiPolygon", "coordinates": [ [ [ [ 782696.575295993359759, 8995746.058566866442561 ], [ 782699.536057916935533, 8995735.290364028885961 ], [ 782695.227039666147903, 8995658.753489870578051 ], [ 782688.634776091552339, 8995593.126503018662333 ], [ 782686.318475231761113, 8995558.474062953144312 ], [ 782687.677018753718585, 8995507.633668582886457 ], [ 782637.631863734335639, 8995482.750722788274288 ], [ 782477.369898633332923, 8995386.264641493558884 ], [ 782473.007664870121516, 8995376.811862800270319 ], [ 782462.810178308049217, 8995462.382985055446625 ], [ 782480.991064335103147, 8995570.869770511984825 ], [ 782468.251421795110218, 8995630.988785935565829 ], [ 782696.575295993359759, 8995746.058566866442561 ] ] ] ] } },
{ "type": "Feature", "properties": { "LAYER": "0", "GM_TYPE": "Unknown Area Type", "ELEVATION": 0 }, "geometry": { "type": "MultiPolygon", "coordinates": [ [ [ [ 782648.801000062027015, 8995260.52033462934196 ], [ 782646.574848829885013, 8995251.269363773986697 ], [ 782565.329728954355232, 8995238.287617579102516 ], [ 782488.801556044723839, 8995220.011898867785931 ], [ 782485.104671793407761, 8995260.52033462934196 ], [ 782476.056111721904017, 8995359.669507142156363 ], [ 782482.371791144367307, 8995378.395553393289447 ], [ 782684.459881408954971, 8995497.109373791143298 ], [ 782689.514672528370284, 8995429.709647536277771 ], [ 782648.801000062027015, 8995260.52033462934196 ] ] ] ] } },
{ "type": "Feature", "properties": { "LAYER": "0", "GM_TYPE": "Unknown Area Type", "ELEVATION": 0 }, "geometry": { "type": "MultiPolygon", "coordinates": [ [ [ [ 782402.837246618815698, 8995260.52033462934196 ], [ 782412.222910668002442, 8995271.686395924538374 ], [ 782441.237921872409061, 8995308.876815227791667 ], [ 782459.953053966513835, 8995349.131236910820007 ], [ 782462.801731546409428, 8995378.024992926046252 ], [ 782469.562686662189662, 8995260.52033462934196 ], [ 782470.889785561943427, 8995237.455501321703196 ], [ 782473.41216266003903, 8995166.908765338361263 ], [ 782481.004975704359822, 8994927.752016121521592 ], [ 782482.897263926803134, 8994885.518830008804798 ], [ 782481.635738445213065, 8994871.651207195594907 ], [ 782445.682337091653608, 8994910.732678141444921 ], [ 782416.036563146393746, 8994939.098255528137088 ], [ 782394.590704831993207, 8994957.378285210579634 ], [ 782372.514058818807825, 8994960.530014466494322 ], [ 782331.514580496586859, 8994982.592133343219757 ], [ 782299.976543286815286, 8995009.066673178225756 ], [ 782270.330769341671839, 8995028.607394563034177 ], [ 782234.377367988112383, 8995039.953633971512318 ], [ 782221.131400346523151, 8995043.735709076747298 ], [ 782290.462865145993419, 8995115.810684716328979 ], [ 782325.154741017962806, 8995158.674216678366065 ], [ 782362.392803890048526, 8995209.282128488644958 ], [ 782385.730950426892377, 8995240.16908928193152 ], [ 782402.837246618815698, 8995260.52033462934196 ] ] ] ] } },
{ "type": "Feature", "properties": { "LAYER": "0", "GM_TYPE": "Unknown Area Type", "ELEVATION": 0 }, "geometry": { "type": "MultiPolygon", "coordinates": [ [ [ [ 781914.532637134427205, 8994521.34390102699399 ], [ 781911.153189655509777, 8994524.241408927366138 ], [ 781914.532637133845128, 8994533.284942926838994 ], [ 781932.903049715911038, 8994582.444887513294816 ], [ 781934.666572307120077, 8994611.84059002995491 ], [ 782007.612704983446747, 8994674.86520073376596 ], [ 782022.126864249352366, 8994755.881132774055004 ], [ 782027.275922151398845, 8994828.441797195002437 ], [ 782046.125378331518732, 8994861.828516090288758 ], [ 782092.400032684090547, 8994902.967081548646092 ], [ 782146.820097630959935, 8994925.98143220320344 ], [ 782187.166524395463057, 8994971.0478146225214 ], [ 782207.377668761415407, 8995009.146736104041338 ], [ 782227.844725381000899, 8995025.815025698393583 ], [ 782231.645746351103298, 8995026.399880930781364 ], [ 782273.281314638443291, 8995009.944209612905979 ], [ 782328.542369949049316, 8994965.203037921339273 ], [ 782373.091871484182775, 8994945.546906458213925 ], [ 782383.325387605349533, 8994943.792340761050582 ], [ 782291.342532799928449, 8994861.506418842822313 ], [ 782210.912758432677947, 8994859.799851452931762 ], [ 782180.345358547871001, 8994768.085283832624555 ], [ 782142.016172676696442, 8994717.907018166035414 ], [ 782070.710920702898875, 8994674.257240945473313 ], [ 781941.819195471587591, 8994488.794848330318928 ], [ 781935.353010976337828, 8994503.492699589580297 ], [ 781914.532637134427205, 8994521.34390102699399 ] ] ] ] } },
{ "type": "Feature", "properties": { "LAYER": "0", "GM_TYPE": "Unknown Area Type", "ELEVATION": 0 }, "geometry": { "type": "MultiPolygon", "coordinates": [ [ [ [ 781914.532637134077959, 8994690.012331137433648 ], [ 781918.331335789058357, 8994713.527014030143619 ], [ 781920.105779383331537, 8994733.403399545699358 ], [ 781934.656163226114586, 8994750.085368728265166 ], [ 781955.545945544843562, 8994777.631481012329459 ], [ 781972.836696694721468, 8994820.355610786005855 ], [ 781988.154671035008505, 8994846.624576415866613 ], [ 782029.602924618986435, 8994895.926925783976912 ], [ 782062.122331905877218, 8994943.228969948366284 ], [ 782135.579509017756209, 8994979.971442608162761 ], [ 782208.435787191614509, 8995039.590399339795113 ], [ 782225.724124994827434, 8995033.143030432984233 ], [ 782202.428845499409363, 8995013.800923710688949 ], [ 782180.804650105419569, 8994973.896451536566019 ], [ 782141.050785263185389, 8994933.94554484076798 ], [ 782090.077101215370931, 8994912.576140029355884 ], [ 782038.143807159503922, 8994868.274856563657522 ], [ 782017.59291721554473, 8994832.330096911638975 ], [ 782013.224613519851118, 8994759.811513779684901 ], [ 781998.188488815329038, 8994677.782517353072762 ], [ 781925.548656145459972, 8994619.293049432337284 ], [ 781927.810595762450248, 8994584.739888522773981 ], [ 781914.532637134077959, 8994561.570942776277661 ], [ 781906.379321836866438, 8994547.344078160822392 ], [ 781902.275438051088713, 8994521.805470120161772 ], [ 781859.311968430993147, 8994511.74004028365016 ], [ 781858.105148843722418, 8994521.798214724287391 ], [ 781858.909695235197432, 8994541.512248463928699 ], [ 781850.864255697350018, 8994559.616965275257826 ], [ 781846.876163796288893, 8994587.549726687371731 ], [ 781848.403665960766375, 8994616.715116215869784 ], [ 781854.097091984003782, 8994624.492546850815415 ], [ 781861.873479936504737, 8994627.409088620916009 ], [ 781879.603557685157284, 8994634.178132131695747 ], [ 781886.701307684881613, 8994643.051521794870496 ], [ 781896.993036652449518, 8994662.572970597073436 ], [ 781905.865230246447027, 8994668.961803263053298 ], [ 781912.296628421754576, 8994676.171002674847841 ], [ 781914.532637134077959, 8994690.012331137433648 ] ] ] ] } },
{ "type": "Feature", "properties": { "LAYER": "0", "GM_TYPE": "Unknown Area Type", "ELEVATION": 0 }, "geometry": { "type": "MultiPolygon", "coordinates": [ [ [ [ 781914.532637133845128, 8994087.645853342488408 ], [ 781839.712570874369703, 8994062.312943853437901 ], [ 781843.964863290311769, 8994114.198072759434581 ], [ 781833.759332239395007, 8994162.680900670588017 ], [ 781819.63740274682641, 8994200.414262976497412 ], [ 781807.30342183879111, 8994221.289991024881601 ], [ 781800.187657059519552, 8994272.530418260022998 ], [ 781791.616473611094989, 8994317.313685327768326 ], [ 781774.538657642668113, 8994350.999509619548917 ], [ 781771.177109534968622, 8994409.992966821417212 ], [ 781779.716017519123852, 8994429.445355540141463 ], [ 781835.142903942381963, 8994460.52033462934196 ], [ 781842.536990900989622, 8994464.665815504267812 ], [ 781850.127136748516932, 8994479.373711610212922 ], [ 781850.6015178168891, 8994504.993932271376252 ], [ 781897.091179416165687, 8994512.110657103359699 ], [ 781907.302414741017856, 8994513.157575299963355 ], [ 781914.532637134077959, 8994508.939377097412944 ], [ 781927.390649068518542, 8994501.437859179452062 ], [ 781940.782797161256894, 8994477.579854076728225 ], [ 781947.568804059992544, 8994460.52033462934196 ], [ 781962.156906461692415, 8994423.846924133598804 ], [ 781975.562364526791498, 8994364.267526911571622 ], [ 781967.610777358524501, 8994326.178424868732691 ], [ 781996.938375251833349, 8994231.341699007898569 ], [ 781996.90709925442934, 8994174.643144197762012 ], [ 781987.281478338874876, 8994112.277478277683258 ], [ 781914.532637133845128, 8994087.645853342488408 ] ] ] ] } },
{ "type": "Feature", "properties": { "LAYER": "0", "GM_TYPE": "Unknown Area Type", "ELEVATION": 0 }, "geometry": { "type": "MultiPolygon", "coordinates": [ [ [ [ 782191.692517032381147, 8994460.52033462934196 ], [ 782102.915105914114974, 8994339.477816458791494 ], [ 782000.641741003026254, 8994264.952898398041725 ], [ 781981.505267212516628, 8994320.243526306003332 ], [ 781990.114844812196679, 8994360.976198231801391 ], [ 781970.978346644318663, 8994436.11476769298315 ], [ 781961.055737827671692, 8994458.798103304579854 ], [ 781960.026891003595665, 8994460.52033462934196 ], [ 781946.154151104507037, 8994483.742515671998262 ], [ 782072.939999802038074, 8994664.166170686483383 ], [ 782145.871774284634739, 8994709.932987475767732 ], [ 782185.847764527308755, 8994762.82464386895299 ], [ 782216.496316240285523, 8994850.311810133978724 ], [ 782279.008820041664876, 8994852.528875527903438 ], [ 782260.626504889805801, 8994756.792692078277469 ], [ 782264.506727508967742, 8994676.238146772608161 ], [ 782245.549523932975717, 8994607.648465387523174 ], [ 782249.98730275942944, 8994540.001675341278315 ], [ 782191.692517032381147, 8994460.52033462934196 ] ] ] ] } },
{ "type": "Feature", "properties": { "LAYER": "0", "GM_TYPE": "Unknown Area Type", "ELEVATION": 0 }, "geometry": { "type": "MultiPolygon", "coordinates": [ [ [ [ 782202.815941849257797, 8994460.52033462934196 ], [ 782259.150584962684661, 8994538.608724137768149 ], [ 782251.323565485072322, 8994611.996968433260918 ], [ 782269.118047898868099, 8994675.107361851260066 ], [ 782265.253329203696921, 8994758.082236301153898 ], [ 782286.150985370506532, 8994848.519967205822468 ], [ 782309.120779972639866, 8994757.01131190545857 ], [ 782300.339123443816788, 8994645.709574287757277 ], [ 782300.386854077572934, 8994567.703827915713191 ], [ 782301.102039792691357, 8994460.52033462934196 ], [ 782301.220848173601553, 8994442.714753471314907 ], [ 782147.615526935085654, 8994384.004158034920692 ], [ 782202.815941849257797, 8994460.52033462934196 ] ] ] ] } },
{ "type": "Feature", "properties": { "LAYER": "0", "GM_TYPE": "Unknown Area Type", "ELEVATION": 0 }, "geometry": { "type": "MultiPolygon", "coordinates": [ [ [ [ 782372.098997879307717, 8994460.52033462934196 ], [ 782372.439512194949202, 8994437.170293746516109 ], [ 782367.140875555225648, 8994434.053038181737065 ], [ 782363.712363172206096, 8994430.312325866892934 ], [ 782360.127982723992318, 8994419.090188924223185 ], [ 782355.248439574730583, 8994420.472024580463767 ], [ 782311.457216431736015, 8994432.662975046783686 ], [ 782311.78303746401798, 8994460.52033462934196 ], [ 782312.268271545995958, 8994502.007344245910645 ], [ 782316.855385337723419, 8994668.083097511902452 ], [ 782322.376561791053973, 8994763.78563847206533 ], [ 782297.575427119270898, 8994849.499755393713713 ], [ 782299.729302436346188, 8994859.552491812035441 ], [ 782388.718619396910071, 8994935.7349554002285 ], [ 782405.684507996658795, 8994865.254781018942595 ], [ 782373.990197113598697, 8994786.36963857524097 ], [ 782381.362459200201556, 8994723.936335474252701 ], [ 782370.77698450430762, 8994551.174574218690395 ], [ 782372.098997879307717, 8994460.52033462934196 ] ] ] ] } },
{ "type": "Feature", "properties": { "LAYER": "0", "GM_TYPE": "Unknown Area Type", "ELEVATION": 0 }, "geometry": { "type": "MultiPolygon", "coordinates": [ [ [ [ 782376.133486044942401, 8994460.52033462934196 ], [ 782374.932718677097, 8994544.673923948779702 ], [ 782385.504078951780684, 8994726.850623140111566 ], [ 782379.016588749713264, 8994783.433965103700757 ], [ 782411.103080651606433, 8994864.604866735637188 ], [ 782392.401326161809266, 8994936.281232411041856 ], [ 782403.131528524798341, 8994940.165347948670387 ], [ 782480.554370478028432, 8994858.35911326482892 ], [ 782492.679974748170935, 8994812.760720241814852 ], [ 782540.800693022669293, 8994753.876685658469796 ], [ 782619.550485596293584, 8994699.450492210686207 ], [ 782641.448022969649173, 8994667.802827965468168 ], [ 782651.686292652389966, 8994607.995146449655294 ], [ 782672.057302950881422, 8994578.404703510925174 ], [ 782665.858244239119813, 8994571.680333504453301 ], [ 782658.697966621723026, 8994556.641704117879272 ], [ 782654.6404727215413, 8994551.628818264231086 ], [ 782645.809452284011059, 8994550.912689700722694 ], [ 782633.636970583582297, 8994553.538494432345033 ], [ 782621.941819597268477, 8994565.951319087296724 ], [ 782618.361680788570084, 8994581.467367516830564 ], [ 782615.497574617038481, 8994608.441416602581739 ], [ 782607.782007875503041, 8994642.727381763979793 ], [ 782601.099060972337611, 8994652.7531393840909 ], [ 782593.461428263457492, 8994657.049882587045431 ], [ 782571.439640103490092, 8994662.769274802878499 ], [ 782524.889693592558615, 8994665.058922316879034 ], [ 782496.654464150080457, 8994661.242838429287076 ], [ 782468.305880546802655, 8994648.96871155872941 ], [ 782457.240734921651892, 8994634.467587150633335 ], [ 782448.799165252246894, 8994628.770764142274857 ], [ 782443.923522461322136, 8994612.191384829580784 ], [ 782444.898660770384595, 8994568.304799985140562 ], [ 782451.724531425046735, 8994524.418229229748249 ], [ 782453.577835387084633, 8994511.450444385409355 ], [ 782450.698737213620916, 8994492.253797754645348 ], [ 782435.777648699353449, 8994471.541689416393638 ], [ 782424.10956732404884, 8994460.52033462934196 ], [ 782418.503010904416442, 8994455.224532736465335 ], [ 782384.913418454001658, 8994442.746719470247626 ], [ 782376.459782051388174, 8994437.652474582195282 ], [ 782376.133486044942401, 8994460.52033462934196 ] ] ] ] } },
{ "type": "Feature", "properties": { "LAYER": "0", "GM_TYPE": "Unknown Area Type", "ELEVATION": 0 }, "geometry": { "type": "MultiPolygon", "coordinates": [ [ [ [ 782645.423706856206991, 8995240.731276689097285 ], [ 782594.632145159994252, 8995129.169161984696984 ], [ 782558.16096805781126, 8995010.403483126312494 ], [ 782547.502824812894687, 8994948.67310799472034 ], [ 782495.020945373689756, 8994870.951054587960243 ], [ 782495.319517795229331, 8994899.317928085103631 ], [ 782490.505939454422332, 8995151.596656890586019 ], [ 782489.309650834416971, 8995212.016764137893915 ], [ 782645.423706856206991, 8995240.731276689097285 ] ] ] ] } },
{ "type": "Feature", "properties": { "LAYER": "0", "GM_TYPE": "Unknown Area Type", "ELEVATION": 0 }, "geometry": { "type": "MultiPolygon", "coordinates": [ [ [ [ 782537.202320039272308, 8994779.712948016822338 ], [ 782574.010951259057038, 8994772.94274927675724 ], [ 782609.286473549320363, 8994781.762815311551094 ], [ 782710.053666379884817, 8994768.487274948507547 ], [ 782770.316004770458676, 8994725.856929954141378 ], [ 782768.846179153071716, 8994711.89181718043983 ], [ 782751.208418007940054, 8994652.356360882520676 ], [ 782722.547074430040084, 8994634.716214725747705 ], [ 782697.56025832972955, 8994607.52100994437933 ], [ 782694.620631472091191, 8994588.410850433632731 ], [ 782682.862124042003416, 8994586.205830402672291 ], [ 782665.959263516939245, 8994611.196029240265489 ], [ 782661.549835419282317, 8994637.656241431832314 ], [ 782652.730954846716486, 8994681.756585692986846 ], [ 782629.800553862587549, 8994712.827424949035048 ], [ 782559.249533659312874, 8994755.457755854353309 ], [ 782537.202320039272308, 8994779.712948016822338 ] ] ] ] } },
{ "type": "Feature", "properties": { "LAYER": "0", "GM_TYPE": "Unknown Area Type", "ELEVATION": 0 }, "geometry": { "type": "MultiPolygon", "coordinates": [ [ [ [ 781914.532637134427205, 8993699.344857571646571 ], [ 781903.542640059022233, 8993677.34061611816287 ], [ 781902.257928253733553, 8993660.52033462934196 ], [ 781903.542640059022233, 8993677.34061611816287 ], [ 781914.532637134427205, 8993699.344857571646571 ], [ 781923.46866823930759, 8993717.236635405570269 ], [ 781947.750592100550421, 8993785.046523900702596 ], [ 781956.4051457059104, 8993845.154015220701694 ], [ 781936.367685848730616, 8993866.851414676755667 ], [ 781930.229476043372415, 8993884.608202118426561 ], [ 781922.899289071094245, 8993899.881483640521765 ], [ 781920.761307713692077, 8993937.759221250191331 ], [ 781914.532637134427205, 8993943.385704873129725 ], [ 781920.761307713692077, 8993937.759221250191331 ], [ 781922.899289071094245, 8993899.881483640521765 ], [ 781930.229476043372415, 8993884.608202118426561 ], [ 781936.367685848847032, 8993866.851414676755667 ], [ 781956.4051457059104, 8993845.154015220701694 ], [ 781947.750592100550421, 8993785.046523900702596 ], [ 781923.46866823930759, 8993717.236635405570269 ], [ 781914.532637134427205, 8993699.344857571646571 ] ] ] ] } },
{ "type": "Feature", "properties": { "LAYER": "0", "GM_TYPE": "Unknown Area Type", "ELEVATION": 0 }, "geometry": { "type": "MultiPolygon", "coordinates": [ [ [ [ 781914.532637134310789, 8994052.125520877540112 ], [ 781916.699401533231139, 8994053.157453184947371 ], [ 781927.727908168220893, 8994079.86450375802815 ], [ 781964.073396226856858, 8994083.530098084360361 ], [ 781979.365116280736402, 8994100.992916766554117 ], [ 781933.404196992516518, 8994089.297601312398911 ], [ 781914.532637134310789, 8994081.590671896934509 ], [ 781840.225175453233533, 8994051.244353597983718 ], [ 781837.885131162824109, 8993987.069150039926171 ], [ 781829.702910937718116, 8993940.322657767683268 ], [ 781831.25588731688913, 8993911.588576782494783 ], [ 781842.544962258078158, 8993865.234523862600327 ], [ 781841.380217785132118, 8993846.207907048985362 ], [ 781839.060406603035517, 8993801.032003393396735 ], [ 781839.060406603035517, 8993793.266026422381401 ], [ 781842.166383738513105, 8993787.829848175868392 ], [ 781847.21356915938668, 8993785.500063538551331 ], [ 781853.813755336683244, 8993785.888360977172852 ], [ 781858.860940757440403, 8993787.053253296762705 ], [ 781865.849383218097501, 8993784.723468657582998 ], [ 781869.343592259800062, 8993776.569208335131407 ], [ 781874.322106998879462, 8993737.86165083386004 ], [ 781876.854024536325596, 8993662.442628679797053 ], [ 781877.094278634758666, 8993660.52033462934196 ], [ 781876.854024536325596, 8993662.442628679797053 ], [ 781874.322106998879462, 8993737.86165083386004 ], [ 781869.343592259800062, 8993776.569208335131407 ], [ 781865.849383218097501, 8993784.723468657582998 ], [ 781858.860940757440403, 8993787.053253296762705 ], [ 781853.813755336683244, 8993785.888360977172852 ], [ 781847.21356915938668, 8993785.500063538551331 ], [ 781842.166383738513105, 8993787.829848175868392 ], [ 781839.060406603035517, 8993793.266026422381401 ], [ 781839.060406603035517, 8993801.032003393396735 ], [ 781841.380217785132118, 8993846.207907048985362 ], [ 781842.544962258078158, 8993865.234523862600327 ], [ 781831.25588731688913, 8993911.588576782494783 ], [ 781829.702910937718116, 8993940.322657767683268 ], [ 781837.885131162824109, 8993987.069150039926171 ], [ 781840.225175453233533, 8994051.244353597983718 ], [ 781914.532637134310789, 8994081.590671896934509 ], [ 781933.404196992516518, 8994089.297601312398911 ], [ 781979.365116280736402, 8994100.992916766554117 ], [ 781964.073396226856858, 8994083.530098084360361 ], [ 781927.727908168220893, 8994079.86450375802815 ], [ 781916.699401533231139, 8994053.157453184947371 ], [ 781914.532637134310789, 8994052.125520877540112 ], [ 781897.45766682527028, 8994043.993481453508139 ], [ 781881.881025603390299, 8994019.25076905079186 ], [ 781880.975118652684614, 8993990.115612680092454 ], [ 781895.940915023093112, 8993960.179982023313642 ], [ 781914.532637134427205, 8993943.385704873129725 ], [ 781895.940915023093112, 8993960.179982023313642 ], [ 781880.975118652684614, 8993990.115612680092454 ], [ 781881.881025603390299, 8994019.25076905079186 ], [ 781897.45766682527028, 8994043.993481453508139 ], [ 781914.532637134310789, 8994052.125520877540112 ] ] ] ] } },
{ "type": "Feature", "properties": { "LAYER": "0", "GM_TYPE": "Unknown Area Type", "ELEVATION": 0 }, "geometry": { "type": "MultiPolygon", "coordinates": [ [ [ [ 781914.532637133379467, 8993956.826816791668534 ], [ 781913.319838645868003, 8993957.953139455989003 ], [ 781895.063383178319782, 8993986.952612908557057 ], [ 781893.98946829745546, 8994013.803982432931662 ], [ 781902.580738590680994, 8994033.136960038915277 ], [ 781914.532637134077959, 8994039.428282488137484 ], [ 781922.98502382019069, 8994043.877507848665118 ], [ 781933.7241238753777, 8994071.802929336205125 ], [ 781969.16314430674538, 8994071.802929336205125 ], [ 782004.743382082786411, 8994100.98102637194097 ], [ 782012.260761872399598, 8994223.423260135576129 ], [ 782002.605303216376342, 8994251.59599900059402 ], [ 782116.43971992272418, 8994336.446329517289996 ], [ 782133.741611470817588, 8994367.818331038579345 ], [ 782293.754124286468141, 8994427.965395955368876 ], [ 782219.751750227296725, 8994078.565576830878854 ], [ 782154.111768565839157, 8993954.730969479307532 ], [ 782115.451027868781239, 8993974.063961172476411 ], [ 782073.332375838770531, 8993980.508287040516734 ], [ 782014.267349912319332, 8993976.212065098807216 ], [ 781965.941399663803168, 8993939.694199727848172 ], [ 781950.906664461945184, 8993860.21415720321238 ], [ 781943.389309049583972, 8993873.102823028340936 ], [ 781928.354573847725987, 8993943.990421669557691 ], [ 781914.532637133379467, 8993956.826816791668534 ] ] ] ] } },
{ "type": "Feature", "properties": { "LAYER": "0", "GM_TYPE": "Unknown Area Type", "ELEVATION": 0 }, "geometry": { "type": "MultiPolygon", "coordinates": [ [ [ [ 782305.176957137300633, 8994425.934237716719508 ], [ 782359.674249176983722, 8994406.658204391598701 ], [ 782378.283077632309869, 8994350.824168572202325 ], [ 782396.962721966556273, 8994231.514306955039501 ], [ 782389.005601165117696, 8994176.727626064792275 ], [ 782376.378191432915628, 8994130.199260532855988 ], [ 782375.06172302516643, 8994112.928280115127563 ], [ 782377.05938899575267, 8994073.12742624618113 ], [ 782397.680119729135185, 8994060.003361612558365 ], [ 782482.975030297297053, 8994017.818878216668963 ], [ 782515.780748254735954, 8993994.383052542805672 ], [ 782525.15382097568363, 8993981.258987909182906 ], [ 782497.034627190092579, 8993958.760601460933685 ], [ 782419.238179674022831, 8993927.825304245576262 ], [ 782370.285710009513423, 8993920.165946351364255 ], [ 782333.730772714596242, 8993930.477707393467426 ], [ 782291.551982036326081, 8993958.600701021030545 ], [ 782264.3700930851046, 8993956.725836656987667 ], [ 782249.373166980687529, 8993943.601772025227547 ], [ 782257.808934867265634, 8993905.167017355561256 ], [ 782266.24470275384374, 8993838.609254969283938 ], [ 782258.746239701635204, 8993818.923172110691667 ], [ 782234.376265253638849, 8993822.672900836914778 ], [ 782218.442058692104183, 8993864.857384234666824 ], [ 782209.069010348408483, 8993915.478778397664428 ], [ 782196.884023124352098, 8993930.477707393467426 ], [ 782176.263268013717607, 8993939.852029209956527 ], [ 782162.167544052936137, 8993949.28832477517426 ], [ 782228.716309179319069, 8994067.40489237383008 ], [ 782280.329798238468356, 8994332.464569048956037 ], [ 782299.692200278863311, 8994426.792135279625654 ], [ 782305.176957137300633, 8994425.934237716719508 ] ] ] ] } },
{ "type": "Feature", "properties": { "LAYER": "0", "GM_TYPE": "Unknown Area Type", "ELEVATION": 0 }, "geometry": { "type": "MultiPolygon", "coordinates": [ [ [ [ 781177.281484148465097, 8998873.33834064938128 ], [ 781193.147963620722294, 8998844.086689410731196 ], [ 781201.64969596604351, 8998829.218427956104279 ], [ 781213.605261756223626, 8998807.978070549666882 ], [ 781221.309961373801343, 8998784.879176940768957 ], [ 781225.609620375093073, 8998767.746302602812648 ], [ 781251.911875096615404, 8998723.141546415165067 ], [ 781272.679800109588541, 8998694.36542640812695 ], [ 781281.181532454793341, 8998680.55919972807169 ], [ 781289.683264800114557, 8998677.107632493600249 ], [ 781296.590931689948775, 8998662.504876211285591 ], [ 781322.361831259680912, 8998643.919556435197592 ], [ 781341.490741515532136, 8998631.175336357206106 ], [ 781363.292799958027899, 8998610.151894113048911 ], [ 781346.276157460059039, 8998593.300190964713693 ], [ 781279.324959085439332, 8998525.065516734495759 ], [ 781268.697806132840924, 8998518.958911867812276 ], [ 781269.751232072128914, 8998572.166269490495324 ], [ 781245.036004658904858, 8998716.983547996729612 ], [ 781242.322449521045201, 8998725.532304544001818 ], [ 781221.956447634845972, 8998758.185101550072432 ], [ 781212.16019537334796, 8998773.999395998194814 ], [ 781197.06766250776127, 8998787.637114379554987 ], [ 781182.938457314972766, 8998798.933045024052262 ], [ 781176.533219291362911, 8998810.982029257342219 ], [ 781164.659390848362818, 8998839.450562806800008 ], [ 781161.456784315523691, 8998849.805151807144284 ], [ 781162.587105756159872, 8998862.418943844735622 ], [ 781167.108466392732225, 8998869.949564274400473 ], [ 781177.281484148465097, 8998873.33834064938128 ] ] ] ] } },
{ "type": "Feature", "properties": { "LAYER": "0", "GM_TYPE": "Unknown Area Type", "ELEVATION": 0 }, "geometry": { "type": "MultiPolygon", "coordinates": [ [ [ [ 781035.56674406293314, 8998996.457974666729569 ], [ 781043.139840311952867, 8998988.598776441067457 ], [ 781042.26601191482041, 8998979.866324577480555 ], [ 781066.73295745626092, 8998948.429531680420041 ], [ 781075.471141596208327, 8998943.481141353026032 ], [ 781090.034790148842148, 8998942.316826647147536 ], [ 781097.8991708495887, 8998930.091402489691973 ], [ 781109.841359168640338, 8998926.307340955361724 ], [ 781126.73520846106112, 8998906.222718574106693 ], [ 781138.386112328269519, 8998902.729746282100677 ], [ 781147.132008480606601, 8998893.332798905670643 ], [ 781164.899661212228239, 8998878.196566853672266 ], [ 781157.035280511481687, 8998864.806813903152943 ], [ 781155.886365384212695, 8998851.88518182002008 ], [ 781156.760168823413551, 8998838.495442958548665 ], [ 781166.372181360609829, 8998821.030553320422769 ], [ 781178.605654131271876, 8998793.377821957692504 ], [ 781201.324967836379074, 8998775.039692766964436 ], [ 781215.643079893663526, 8998754.517788467928767 ], [ 781236.906021256116219, 8998721.916666775941849 ], [ 781257.881646483787335, 8998600.429595125839114 ], [ 781264.560523675289005, 8998570.274273943156004 ], [ 781260.474255305714905, 8998462.452603878453374 ], [ 781203.372319917893037, 8998536.237105414271355 ], [ 781175.410110703553073, 8998575.824185779318213 ], [ 781155.565480781719089, 8998609.457066824659705 ], [ 781148.866187971900217, 8998657.776584964245558 ], [ 781144.205836408189498, 8998690.086617412045598 ], [ 781138.365696709952317, 8998735.365843519568443 ], [ 781134.28786413371563, 8998777.863731781020761 ], [ 781132.540232297382317, 8998800.276997659355402 ], [ 781128.449221913702786, 8998833.32860186137259 ], [ 781112.137941524735652, 8998865.347559155896306 ], [ 781094.952832738519646, 8998875.535414967685938 ], [ 781078.058983446098864, 8998895.037872951477766 ], [ 781051.806120544439182, 8998930.105462457984686 ], [ 781040.446476170793176, 8998947.279262855648994 ], [ 781031.708292030845769, 8998964.161988098174334 ], [ 781029.086831797263585, 8998979.007144995033741 ], [ 781035.56674406293314, 8998996.457974666729569 ] ] ] ] } },
{ "type": "Feature", "properties": { "LAYER": "0", "GM_TYPE": "Unknown Area Type", "ELEVATION": 0 }, "geometry": { "type": "MultiPolygon", "coordinates": [ [ [ [ 781710.472033444908448, 8998034.886241922155023 ], [ 781721.696544697391801, 8997994.125889262184501 ], [ 781721.20851182565093, 8997985.339221965521574 ], [ 781722.804617075016722, 8997970.079685354605317 ], [ 781711.037636279012077, 8997949.900445509701967 ], [ 781687.616617776104249, 8997832.596511291339993 ], [ 781688.266063488670625, 8997825.45067054592073 ], [ 781694.327628204599023, 8997810.509396106004715 ], [ 781686.743427856592461, 8997768.990321427583694 ], [ 781640.712035207194276, 8997743.822321625426412 ], [ 781610.984991858480498, 8997739.165705919265747 ], [ 781552.405625060200691, 8997735.063825225457549 ], [ 781558.690995182376355, 8997768.412367088720202 ], [ 781559.507759456639178, 8997790.682584263384342 ], [ 781559.781013801461086, 8997832.231580572202802 ], [ 781563.620528041152284, 8997845.706341413781047 ], [ 781574.065178125747479, 8997858.613546213135123 ], [ 781604.399011357454583, 8997885.128373090177774 ], [ 781629.352793956873938, 8997905.975314484909177 ], [ 781641.923595400410704, 8997927.023165836930275 ], [ 781647.945686644408852, 8997949.006616363301873 ], [ 781649.885272299055941, 8997984.413437508046627 ], [ 781660.590416698949412, 8998003.644946832209826 ], [ 781670.530846728244796, 8998016.013084802776575 ], [ 781673.197815252933651, 8998021.348366247490048 ], [ 781683.138245282229036, 8998030.563839517533779 ], [ 781693.806027581915259, 8998031.533887473866343 ], [ 781706.240232452633791, 8998034.475686023011804 ], [ 781710.472033444908448, 8998034.886241922155023 ] ] ] ] } },
{ "type": "Feature", "properties": { "LAYER": "0", "GM_TYPE": "Unknown Area Type", "ELEVATION": 0 }, "geometry": { "type": "MultiPolygon", "coordinates": [ [ [ [ 781579.574063550098799, 8998407.238700004294515 ], [ 781587.588890885584988, 8998388.888412745669484 ], [ 781606.700580143136904, 8998366.12494376860559 ], [ 781642.853445581858978, 8998333.08739953674376 ], [ 781654.583366377861239, 8998316.03691266849637 ], [ 781662.776668146951124, 8998287.536680795252323 ], [ 781688.19149237847887, 8998259.296826008707285 ], [ 781700.987792299478315, 8998242.24633914232254 ], [ 781738.352741484064609, 8998221.397026363760233 ], [ 781750.793590015964583, 8998216.779186170548201 ], [ 781767.016718859784305, 8998217.637943109497428 ], [ 781782.478879240574315, 8998218.348380060866475 ], [ 781797.407887495704927, 8998208.047058334574103 ], [ 781804.244124679360539, 8998204.550606269389391 ], [ 781821.291764974361286, 8998170.338096695020795 ], [ 781807.155122306779958, 8998120.435845956206322 ], [ 781778.204552577459253, 8998086.167448710650206 ], [ 781737.167836965993047, 8998073.808356240391731 ], [ 781701.471527647227049, 8998076.898139923810959 ], [ 781641.788464103126898, 8998092.945734046399593 ], [ 781592.319549046922475, 8998097.43995077162981 ], [ 781577.422661697375588, 8998104.181268814951181 ], [ 781568.299426017561927, 8998112.777657378464937 ], [ 781486.790668834699318, 8998349.713452873751521 ], [ 781498.553459275281057, 8998358.475348958745599 ], [ 781529.407323691411875, 8998368.441753227263689 ], [ 781549.664908161968924, 8998381.211219260469079 ], [ 781579.574063550098799, 8998407.238700004294515 ] ] ] ] } },
{ "type": "Feature", "properties": { "LAYER": "0", "GM_TYPE": "Unknown Area Type", "ELEVATION": 0 }, "geometry": { "type": "MultiPolygon", "coordinates": [ [ [ [ 781700.224903718219139, 8997381.728180896490812 ], [ 781729.351307701552287, 8997334.617545651271939 ], [ 781754.226204556180164, 8997277.796209387481213 ], [ 781785.569334686850198, 8997205.105815915390849 ], [ 781719.51528347551357, 8997135.745176512748003 ], [ 781693.730324194650166, 8997058.844657486304641 ], [ 781660.98597760766279, 8997008.311726862564683 ], [ 781644.282426046906039, 8997049.631766106933355 ], [ 781627.374408021336421, 8997127.423178704455495 ], [ 781611.029483663267456, 8997154.320178374648094 ], [ 781567.139358570682816, 8997193.491218497976661 ], [ 781552.376218853518367, 8997218.806032354012132 ], [ 781536.240106102311984, 8997242.454589812085032 ], [ 781530.463423575623892, 8997247.613683780655265 ], [ 781520.320944449049421, 8997257.067380625754595 ], [ 781516.863251901697367, 8997262.892354670912027 ], [ 781515.043402445386164, 8997271.629842266440392 ], [ 781515.954015664407052, 8997292.188142489641905 ], [ 781609.68056190747302, 8997333.141305755823851 ], [ 781636.269709031097591, 8997357.083332162350416 ], [ 781700.224903718219139, 8997381.728180896490812 ] ] ] ] } },
{ "type": "Feature", "properties": { "LAYER": "0", "GM_TYPE": "Unknown Area Type", "ELEVATION": 0 }, "geometry": { "type": "MultiPolygon", "coordinates": [ [ [ [ 782158.262456650147215, 8996840.739011345431209 ], [ 782174.978465639404021, 8996799.483767872676253 ], [ 782209.451269831042737, 8996649.929956557229161 ], [ 782228.713773946510628, 8996589.035233806818724 ], [ 782237.317330368212424, 8996507.543333804234862 ], [ 782177.037245347746648, 8996417.636655507609248 ], [ 782145.153401432442479, 8996403.9703100156039 ], [ 782082.907487115473486, 8996534.870783997699618 ], [ 782054.862278249813244, 8996609.352634601294994 ], [ 782039.515416881535202, 8996635.038590544834733 ], [ 782014.397548745037057, 8996704.109072124585509 ], [ 781987.660398139734752, 8996771.322144554927945 ], [ 782158.262456650147215, 8996840.739011345431209 ] ] ] ] } },
{ "type": "Feature", "properties": { "LAYER": "0", "GM_TYPE": "Unknown Area Type", "ELEVATION": 0 }, "geometry": { "type": "MultiPolygon", "coordinates": [ [ [ [ 782014.427240221993998, 8996671.880990413948894 ], [ 782032.943459546891972, 8996621.789409101009369 ], [ 782045.978822371573187, 8996599.270721636712551 ], [ 782069.257622853503563, 8996534.17401254363358 ], [ 782075.72558688709978, 8996516.731199027970433 ], [ 782135.953870275057852, 8996395.801341669633985 ], [ 782132.105118671315722, 8996393.001872379332781 ], [ 782128.722874287632294, 8996384.253500912338495 ], [ 782125.457250614766963, 8996378.187962986528873 ], [ 782118.342875338159502, 8996377.021506883203983 ], [ 782113.860973709379323, 8996375.482250299304724 ], [ 782109.429069797508419, 8996374.08250861056149 ], [ 782095.550205753650516, 8996375.598900135606527 ], [ 782088.271844791132025, 8996374.289435276761651 ], [ 782079.874544187565334, 8996371.25666631385684 ], [ 782063.062757026869804, 8996364.689942646771669 ], [ 782051.76883101509884, 8996357.208546193316579 ], [ 782045.16849857440684, 8996347.673422295600176 ], [ 782032.507594516035169, 8996334.878513071686029 ], [ 782018.138772348174825, 8996312.700195178389549 ], [ 781969.408574347617105, 8996335.568987123668194 ], [ 781980.744234192301519, 8996520.218831913545728 ], [ 781982.122084487462416, 8996560.701580155640841 ], [ 782014.427240221993998, 8996671.880990413948894 ] ] ] ] } },
{ "type": "Feature", "properties": { "LAYER": "0", "GM_TYPE": "Unknown Area Type", "ELEVATION": 0 }, "geometry": { "type": "MultiPolygon", "coordinates": [ [ [ [ 782464.655194008722901, 8996643.657083407044411 ], [ 782480.462931454996578, 8996604.885255791246891 ], [ 782520.122212610440329, 8996569.029321890324354 ], [ 782539.317313660518266, 8996560.747958326712251 ], [ 782545.339296109043062, 8996550.20805387198925 ], [ 782531.789817316806875, 8996521.22328844293952 ], [ 782511.465586939826608, 8996509.177671276032925 ], [ 782502.364320432185195, 8996493.972984928637743 ], [ 782485.051093468093313, 8996474.398860553279519 ], [ 782476.770852365414612, 8996455.953999580815434 ], [ 782464.350478522945195, 8996451.813324842602015 ], [ 782452.973913671448827, 8996443.442881941795349 ], [ 782445.446417327737436, 8996439.678614249452949 ], [ 782429.638679881463759, 8996437.796494491398335 ], [ 782423.993057623738423, 8996427.256575947627425 ], [ 782420.229309451882727, 8996414.081681290641427 ], [ 782414.960071762208827, 8996407.306030439212918 ], [ 782407.056190850446001, 8996408.058886794373393 ], [ 782394.635841385112144, 8996407.306030439212918 ], [ 782388.613834559335373, 8996405.423896592110395 ], [ 782367.798037160537206, 8996380.083818685263395 ], [ 782210.548879388137721, 8996244.26476489007473 ], [ 782181.702171285985969, 8996310.159778691828251 ], [ 782160.678216644446366, 8996372.583051035180688 ], [ 782333.123730712337419, 8996492.601926703006029 ], [ 782464.655194008722901, 8996643.657083407044411 ] ] ] ] } },
{ "type": "Feature", "properties": { "LAYER": "0", "GM_TYPE": "Unknown Area Type", "ELEVATION": 0 }, "geometry": { "type": "MultiPolygon", "coordinates": [ [ [ [ 782642.491198152420111, 8996269.23166193626821 ], [ 782644.347329874173738, 8996264.485901391133666 ], [ 782629.420610217726789, 8996216.469644650816917 ], [ 782642.09411730861757, 8996163.781801445409656 ], [ 782288.54585407115519, 8996061.707009565085173 ], [ 782276.638255448197015, 8996088.50273091904819 ], [ 782286.881546842050739, 8996089.552480831742287 ], [ 782300.997016366338357, 8996092.913757149130106 ], [ 782318.697353883646429, 8996102.101256081834435 ], [ 782325.461696387385018, 8996109.335053393617272 ], [ 782331.959278766298667, 8996120.539312481880188 ], [ 782335.096044354490004, 8996134.656675832346082 ], [ 782340.722823006566614, 8996170.803191801533103 ], [ 782346.338436883292161, 8996182.726058965548873 ], [ 782359.333626018255018, 8996191.913557898253202 ], [ 782382.688702880754136, 8996214.374145854264498 ], [ 782411.004450343200006, 8996228.765284119173884 ], [ 782436.770777410711162, 8996239.521385239437222 ], [ 782454.021842415793799, 8996250.947828454896808 ], [ 782468.013719338923693, 8996259.915355099365115 ], [ 782471.695901269558817, 8996261.230596097186208 ], [ 782480.375270904041827, 8996262.019729424268007 ], [ 782484.151573353912681, 8996263.200203232467175 ], [ 782487.199215756845661, 8996267.772299220785499 ], [ 782505.290466676582582, 8996268.293842330574989 ], [ 782515.449315315112472, 8996270.833892526105046 ], [ 782521.290662423707545, 8996276.168002163991332 ], [ 782530.665709701017477, 8996286.297082237899303 ], [ 782536.067193911527283, 8996293.605955271050334 ], [ 782547.50562819535844, 8996297.41927788220346 ], [ 782557.865125886979513, 8996299.167391208931804 ], [ 782564.219808891532011, 8996299.961821680888534 ], [ 782571.845447998959571, 8996300.120721861720085 ], [ 782579.153329797671176, 8996299.008491028100252 ], [ 782596.701455835485831, 8996292.947714895009995 ], [ 782605.598026668303646, 8996288.975492101162672 ], [ 782618.78399207466282, 8996287.70438925921917 ], [ 782627.045072667533532, 8996284.844397300854325 ], [ 782628.66976688336581, 8996282.260518888011575 ], [ 782633.594651696854271, 8996278.923868646845222 ], [ 782636.136515147867613, 8996271.773881707340479 ], [ 782642.491198152420111, 8996269.23166193626821 ] ] ] ] } },
{ "type": "Feature", "properties": { "LAYER": "0", "GM_TYPE": "Unknown Area Type", "ELEVATION": 0 }, "geometry": { "type": "MultiPolygon", "coordinates": [ [ [ [ 782543.326171405031346, 8996528.809120310470462 ], [ 782548.108467603451572, 8996530.892601918429136 ], [ 782545.025334866368212, 8996518.79646466486156 ], [ 782541.828044380876236, 8996507.613253265619278 ], [ 782536.232742354855873, 8996501.793412579223514 ], [ 782535.889595244312659, 8996489.408820565789938 ], [ 782537.104898568126373, 8996471.512481501325965 ], [ 782587.542507260222919, 8996387.36402234621346 ], [ 782616.596378021757118, 8996321.565244659781456 ], [ 782624.494651643792167, 8996310.886346569284797 ], [ 782630.766813778784126, 8996300.903909994289279 ], [ 782634.483654296956956, 8996292.778671247884631 ], [ 782638.897396172746085, 8996280.939036842435598 ], [ 782626.585380674805492, 8996289.06428967602551 ], [ 782603.355127436225303, 8996295.332330591976643 ], [ 782590.346185622620396, 8996301.136068526655436 ], [ 782574.084995876648463, 8996304.386161208152771 ], [ 782555.733102057711221, 8996303.225410804152489 ], [ 782536.589092230773531, 8996298.501303736120462 ], [ 782523.580150417168625, 8996283.87586553953588 ], [ 782506.389775499585085, 8996272.732678558677435 ], [ 782483.856423618737608, 8996272.500534113496542 ], [ 782477.816570255672559, 8996266.696796176955104 ], [ 782465.272221027873456, 8996263.910992387682199 ], [ 782412.73043095972389, 8996235.954351572319865 ], [ 782392.752400695579126, 8996230.614902528002858 ], [ 782351.867154995794408, 8996194.863854862749577 ], [ 782337.696719238650985, 8996180.470575202256441 ], [ 782333.914813296403736, 8996162.975424228236079 ], [ 782329.036478834692389, 8996129.778021819889545 ], [ 782319.744377539260313, 8996111.20604351721704 ], [ 782306.967744497582316, 8996101.687909921631217 ], [ 782292.100382424890995, 8996097.044922389090061 ], [ 782278.859131839475594, 8996095.187724560499191 ], [ 782275.107574786874466, 8996098.561961969360709 ], [ 782212.718094084062614, 8996236.227788370102644 ], [ 782389.938040322624147, 8996394.912393836304545 ], [ 782399.862351921037771, 8996398.690594704821706 ], [ 782418.293237710720859, 8996401.52425592020154 ], [ 782428.269811295438558, 8996414.32863237708807 ], [ 782435.843431661836803, 8996425.958494309335947 ], [ 782456.347625820315443, 8996437.403745198622346 ], [ 782478.144867374794558, 8996446.264596411958337 ], [ 782486.510703581036068, 8996459.175606032833457 ], [ 782499.37458968104329, 8996480.06566172465682 ], [ 782518.134421497001313, 8996501.491348672658205 ], [ 782543.326171405031346, 8996528.809120310470462 ] ] ] ] } },
{ "type": "Feature", "properties": { "LAYER": "0", "GM_TYPE": "Unknown Area Type", "ELEVATION": 0 }, "geometry": { "type": "MultiPolygon", "coordinates": [ [ [ [ 782678.342340184026398, 8996015.444515496492386 ], [ 782677.950792973395437, 8995976.053063107654452 ], [ 782693.361254557850771, 8995930.648565217852592 ], [ 782697.942737207515165, 8995883.994406644254923 ], [ 782680.835132253123447, 8995832.139975806698203 ], [ 782694.562345494050533, 8995754.078341763466597 ], [ 782466.764410224393941, 8995639.390250930562615 ], [ 782457.250022649765015, 8995691.674327913671732 ], [ 782399.821806426858529, 8995818.094053436070681 ], [ 782607.987849280470982, 8995971.972446130588651 ], [ 782660.327828812296502, 8995993.883230159059167 ], [ 782678.342340184026398, 8996015.444515496492386 ] ] ] ] } },
{ "type": "Feature", "properties": { "LAYER": "0", "GM_TYPE": "Unknown Area Type", "ELEVATION": 0 }, "geometry": { "type": "MultiPolygon", "coordinates": [ [ [ [ 782696.575295993359759, 8995746.058566866442561 ], [ 782699.536057916935533, 8995735.290364028885961 ], [ 782695.227039666147903, 8995658.753489870578051 ], [ 782688.634776091552339, 8995593.126503018662333 ], [ 782686.318475231761113, 8995558.474062953144312 ], [ 782687.677018753718585, 8995507.633668582886457 ], [ 782637.631863734335639, 8995482.750722788274288 ], [ 782477.369898633332923, 8995386.264641493558884 ], [ 782473.007664870121516, 8995376.811862800270319 ], [ 782462.810178308049217, 8995462.382985055446625 ], [ 782480.991064335103147, 8995570.869770511984825 ], [ 782468.251421795110218, 8995630.988785935565829 ], [ 782696.575295993359759, 8995746.058566866442561 ] ] ] ] } },
{ "type": "Feature", "properties": { "LAYER": "0", "GM_TYPE": "Unknown Area Type", "ELEVATION": 0 }, "geometry": { "type": "MultiPolygon", "coordinates": [ [ [ [ 782645.423706856206991, 8995240.731276689097285 ], [ 782594.632145159994252, 8995129.169161984696984 ], [ 782558.16096805781126, 8995010.403483126312494 ], [ 782547.502824812894687, 8994948.67310799472034 ], [ 782495.020945373689756, 8994870.951054587960243 ], [ 782495.319517795229331, 8994899.317928085103631 ], [ 782490.505939454422332, 8995151.596656890586019 ], [ 782489.309650834416971, 8995212.016764137893915 ], [ 782645.423706856206991, 8995240.731276689097285 ] ] ] ] } },
{ "type": "Feature", "properties": { "LAYER": "0", "GM_TYPE": "Unknown Area Type", "ELEVATION": 0 }, "geometry": { "type": "MultiPolygon", "coordinates": [ [ [ [ 782537.202320039272308, 8994779.712948016822338 ], [ 782574.010951259057038, 8994772.94274927675724 ], [ 782609.286473549320363, 8994781.762815311551094 ], [ 782710.053666379884817, 8994768.487274948507547 ], [ 782770.316004770458676, 8994725.856929954141378 ], [ 782768.846179153071716, 8994711.89181718043983 ], [ 782751.208418007940054, 8994652.356360882520676 ], [ 782722.547074430040084, 8994634.716214725747705 ], [ 782697.56025832972955, 8994607.52100994437933 ], [ 782694.620631472091191, 8994588.410850433632731 ], [ 782682.862124042003416, 8994586.205830402672291 ], [ 782665.959263516939245, 8994611.196029240265489 ], [ 782661.549835419282317, 8994637.656241431832314 ], [ 782652.730954846716486, 8994681.756585692986846 ], [ 782629.800553862587549, 8994712.827424949035048 ], [ 782559.249533659312874, 8994755.457755854353309 ], [ 782537.202320039272308, 8994779.712948016822338 ] ] ] ] } },
{ "type": "Feature", "properties": { "LAYER": "0", "GM_TYPE": "Unknown Area Type", "ELEVATION": 0 }, "geometry": { "type": "MultiPolygon", "coordinates": [ [ [ [ 782305.176957137300633, 8994425.934237716719508 ], [ 782359.674249176983722, 8994406.658204391598701 ], [ 782378.283077632309869, 8994350.824168572202325 ], [ 782396.962721966556273, 8994231.514306955039501 ], [ 782389.005601165117696, 8994176.727626064792275 ], [ 782376.378191432915628, 8994130.199260532855988 ], [ 782375.06172302516643, 8994112.928280115127563 ], [ 782377.05938899575267, 8994073.12742624618113 ], [ 782397.680119729135185, 8994060.003361612558365 ], [ 782482.975030297297053, 8994017.818878216668963 ], [ 782515.780748254735954, 8993994.383052542805672 ], [ 782525.15382097568363, 8993981.258987909182906 ], [ 782497.034627190092579, 8993958.760601460933685 ], [ 782419.238179674022831, 8993927.825304245576262 ], [ 782370.285710009513423, 8993920.165946351364255 ], [ 782333.730772714596242, 8993930.477707393467426 ], [ 782291.551982036326081, 8993958.600701021030545 ], [ 782264.3700930851046, 8993956.725836656987667 ], [ 782249.373166980687529, 8993943.601772025227547 ], [ 782257.808934867265634, 8993905.167017355561256 ], [ 782266.24470275384374, 8993838.609254969283938 ], [ 782258.746239701635204, 8993818.923172110691667 ], [ 782234.376265253638849, 8993822.672900836914778 ], [ 782218.442058692104183, 8993864.857384234666824 ], [ 782209.069010348408483, 8993915.478778397664428 ], [ 782196.884023124352098, 8993930.477707393467426 ], [ 782176.263268013717607, 8993939.852029209956527 ], [ 782162.167544052936137, 8993949.28832477517426 ], [ 782228.716309179319069, 8994067.40489237383008 ], [ 782280.329798238468356, 8994332.464569048956037 ], [ 782299.692200278863311, 8994426.792135279625654 ], [ 782305.176957137300633, 8994425.934237716719508 ] ] ] ] } },
{ "type": "Feature", "properties": { "LAYER": null, "GM_TYPE": null, "ELEVATION": null }, "geometry": { "type": "MultiPolygon", "coordinates": [ [ [ [ 782006.16069912770763, 8996673.605956919491291 ], [ 781974.12052397953812, 8996560.848547678440809 ], [ 781961.934391025337391, 8996338.826433816924691 ], [ 781935.629278224427253, 8996325.431256931275129 ], [ 781932.762612442835234, 8996333.315644757822156 ], [ 781919.145974357496016, 8996367.720232095569372 ], [ 781913.412642794311978, 8996399.974531844258308 ], [ 781918.429307912127115, 8996428.831461450085044 ], [ 781909.829310567234643, 8996446.750524692237377 ], [ 781910.545977012719959, 8996472.553961673751473 ], [ 781915.562642130418681, 8996504.80826142244041 ], [ 781914.532637134077959, 8996509.443967442959547 ], [ 781903.927434774581343, 8996557.174415934830904 ], [ 781901.964457614929415, 8996571.197515511885285 ], [ 781885.389568461570889, 8996603.850115282461047 ], [ 781876.976837065769359, 8996624.32383812777698 ], [ 781865.199022862478159, 8996636.944631971418858 ], [ 781846.410607288358733, 8996649.56542581692338 ], [ 781914.532637134310789, 8996659.816999124363065 ], [ 782006.16069912770763, 8996673.605956919491291 ] ] ] ] } }
]
}
