{
"type": "FeatureCollection",
"name": "09_rei_po_patoksaluran",
"crs": { "type": "name", "properties": { "name": "urn:ogc:def:crs:EPSG::32751" } },
"xy_coordinate_resolution": 1e-15,
"features": [
{ "type": "Feature", "properties": { "LAYER": "Patok Saluran", "GM_TYPE": "Unknown Line Type", "ELEVATION": 0, "NAME": null, "path": "Point?crs=EPSG:32751&field=LAYER:string(13,0)&field=GM_TYPE:string(17,0)&field=ELEVATION:integer(1,0)&uid={05571c6f-941d-49f4-8dc7-ce0838cbf7c3}" }, "geometry": { "type": "Point", "coordinates": [ 782649.045202094712295, 8996278.088377490639687 ] } },
{ "type": "Feature", "properties": { "LAYER": "Patok Saluran", "GM_TYPE": "Unknown Line Type", "ELEVATION": 0, "NAME": null, "path": "Point?crs=EPSG:32751&field=LAYER:string(13,0)&field=GM_TYPE:string(17,0)&field=ELEVATION:integer(1,0)&uid={05571c6f-941d-49f4-8dc7-ce0838cbf7c3}" }, "geometry": { "type": "Point", "coordinates": [ 782649.045202094712295, 8996278.088377490639687 ] } },
{ "type": "Feature", "properties": { "LAYER": "Patok Saluran", "GM_TYPE": "Text", "ELEVATION": 0, "NAME": "S.2", "path": "D:/TGS GEOJSON/add data baru/REIBERE/POINT/REIBERE__Patok Saluran.shx|layername=REIBERE__Patok Saluran" }, "geometry": { "type": "Point", "coordinates": [ 781106.953211160725914, 8998955.407864393666387 ] } },
{ "type": "Feature", "properties": { "LAYER": "Patok Saluran", "GM_TYPE": "Text", "ELEVATION": 0, "NAME": "S.3", "path": "D:/TGS GEOJSON/add data baru/REIBERE/POINT/REIBERE__Patok Saluran.shx|layername=REIBERE__Patok Saluran" }, "geometry": { "type": "Point", "coordinates": [ 781148.01669633842539, 8998930.075583888217807 ] } },
{ "type": "Feature", "properties": { "LAYER": "Patok Saluran", "GM_TYPE": "Text", "ELEVATION": 0, "NAME": "S.4", "path": "D:/TGS GEOJSON/add data baru/REIBERE/POINT/REIBERE__Patok Saluran.shx|layername=REIBERE__Patok Saluran" }, "geometry": { "type": "Point", "coordinates": [ 781186.728080768254586, 8998901.366905840113759 ] } },
{ "type": "Feature", "properties": { "LAYER": "Patok Saluran", "GM_TYPE": "Text", "ELEVATION": 0, "NAME": "S.5", "path": "D:/TGS GEOJSON/add data baru/REIBERE/POINT/REIBERE__Patok Saluran.shx|layername=REIBERE__Patok Saluran" }, "geometry": { "type": "Point", "coordinates": [ 781222.342386051663198, 8998855.570152351632714 ] } },
{ "type": "Feature", "properties": { "LAYER": "Patok Saluran", "GM_TYPE": "Text", "ELEVATION": 0, "NAME": "S.6", "path": "D:/TGS GEOJSON/add data baru/REIBERE/POINT/REIBERE__Patok Saluran.shx|layername=REIBERE__Patok Saluran" }, "geometry": { "type": "Point", "coordinates": [ 781237.047607573564164, 8998807.037655441090465 ] } },
{ "type": "Feature", "properties": { "LAYER": "Patok Saluran", "GM_TYPE": "Text", "ELEVATION": 0, "NAME": "S.7", "path": "D:/TGS GEOJSON/add data baru/REIBERE/POINT/REIBERE__Patok Saluran.shx|layername=REIBERE__Patok Saluran" }, "geometry": { "type": "Point", "coordinates": [ 781251.109215568401851, 8998776.106528988108039 ] } },
{ "type": "Feature", "properties": { "LAYER": "Patok Saluran", "GM_TYPE": "Text", "ELEVATION": 0, "NAME": "S.8", "path": "D:/TGS GEOJSON/add data baru/REIBERE/POINT/REIBERE__Patok Saluran.shx|layername=REIBERE__Patok Saluran" }, "geometry": { "type": "Point", "coordinates": [ 781276.827513327007182, 8998738.283103818073869 ] } },
{ "type": "Feature", "properties": { "LAYER": "Patok Saluran", "GM_TYPE": "Text", "ELEVATION": 0, "NAME": "S.9", "path": "D:/TGS GEOJSON/add data baru/REIBERE/POINT/REIBERE__Patok Saluran.shx|layername=REIBERE__Patok Saluran" }, "geometry": { "type": "Point", "coordinates": [ 781306.765274620498531, 8998704.390612242743373 ] } },
{ "type": "Feature", "properties": { "LAYER": "Patok Saluran", "GM_TYPE": "Text", "ELEVATION": 0, "NAME": "S.10", "path": "D:/TGS GEOJSON/add data baru/REIBERE/POINT/REIBERE__Patok Saluran.shx|layername=REIBERE__Patok Saluran" }, "geometry": { "type": "Point", "coordinates": [ 781343.544369207345881, 8998671.074994882568717 ] } },
{ "type": "Feature", "properties": { "LAYER": "Patok Saluran", "GM_TYPE": "Text", "ELEVATION": 0, "NAME": "S.11", "path": "D:/TGS GEOJSON/add data baru/REIBERE/POINT/REIBERE__Patok Saluran.shx|layername=REIBERE__Patok Saluran" }, "geometry": { "type": "Point", "coordinates": [ 781380.304089220822789, 8998639.119832323864102 ] } },
{ "type": "Feature", "properties": { "LAYER": "Patok Saluran", "GM_TYPE": "Text", "ELEVATION": 0, "NAME": "S.12", "path": "D:/TGS GEOJSON/add data baru/REIBERE/POINT/REIBERE__Patok Saluran.shx|layername=REIBERE__Patok Saluran" }, "geometry": { "type": "Point", "coordinates": [ 781410.180815114988945, 8998609.635449217632413 ] } },
{ "type": "Feature", "properties": { "LAYER": "Patok Saluran", "GM_TYPE": "Text", "ELEVATION": 0, "NAME": "S.13", "path": "D:/TGS GEOJSON/add data baru/REIBERE/POINT/REIBERE__Patok Saluran.shx|layername=REIBERE__Patok Saluran" }, "geometry": { "type": "Point", "coordinates": [ 781415.08488698292058, 8998572.535400049760938 ] } },
{ "type": "Feature", "properties": { "LAYER": "Patok Saluran", "GM_TYPE": "Text", "ELEVATION": 0, "NAME": "S.14", "path": "D:/TGS GEOJSON/add data baru/REIBERE/POINT/REIBERE__Patok Saluran.shx|layername=REIBERE__Patok Saluran" }, "geometry": { "type": "Point", "coordinates": [ 781432.078338571940549, 8998525.993132518604398 ] } },
{ "type": "Feature", "properties": { "LAYER": "Patok Saluran", "GM_TYPE": "Text", "ELEVATION": 0, "NAME": "S.15", "path": "D:/TGS GEOJSON/add data baru/REIBERE/POINT/REIBERE__Patok Saluran.shx|layername=REIBERE__Patok Saluran" }, "geometry": { "type": "Point", "coordinates": [ 781437.441609492641874, 8998501.412051083520055 ] } },
{ "type": "Feature", "properties": { "LAYER": "Patok Saluran", "GM_TYPE": "Text", "ELEVATION": 0, "NAME": "S.1", "path": "D:/TGS GEOJSON/add data baru/REIBERE/POINT/REIBERE__Patok Saluran.shx|layername=REIBERE__Patok Saluran" }, "geometry": { "type": "Point", "coordinates": [ 781081.92465463699773, 8998996.562582779675722 ] } },
{ "type": "Feature", "properties": { "LAYER": "Patok Saluran", "GM_TYPE": "Text", "ELEVATION": 0, "NAME": "S.17", "path": "D:/TGS GEOJSON/add data baru/REIBERE/POINT/REIBERE__Patok Saluran.shx|layername=REIBERE__Patok Saluran" }, "geometry": { "type": "Point", "coordinates": [ 781511.495063938200474, 8998458.88278509862721 ] } },
{ "type": "Feature", "properties": { "LAYER": "Patok Saluran", "GM_TYPE": "Text", "ELEVATION": 0, "NAME": "S.18", "path": "D:/TGS GEOJSON/add data baru/REIBERE/POINT/REIBERE__Patok Saluran.shx|layername=REIBERE__Patok Saluran" }, "geometry": { "type": "Point", "coordinates": [ 781544.333377471892163, 8998437.722102781757712 ] } },
{ "type": "Feature", "properties": { "LAYER": "Patok Saluran", "GM_TYPE": "Text", "ELEVATION": 0, "NAME": "S.19", "path": "D:/TGS GEOJSON/add data baru/REIBERE/POINT/REIBERE__Patok Saluran.shx|layername=REIBERE__Patok Saluran" }, "geometry": { "type": "Point", "coordinates": [ 781586.785614796448499, 8998452.457907794043422 ] } },
{ "type": "Feature", "properties": { "LAYER": "Patok Saluran", "GM_TYPE": "Text", "ELEVATION": -274, "NAME": "S.20", "path": "D:/TGS GEOJSON/add data baru/REIBERE/POINT/REIBERE__Patok Saluran.shx|layername=REIBERE__Patok Saluran" }, "geometry": { "type": "Point", "coordinates": [ 781609.018275214824826, 8998422.560959486290812 ] } },
{ "type": "Feature", "properties": { "LAYER": "Patok Saluran", "GM_TYPE": "Text", "ELEVATION": 0, "NAME": "S.21", "path": "D:/TGS GEOJSON/add data baru/REIBERE/POINT/REIBERE__Patok Saluran.shx|layername=REIBERE__Patok Saluran" }, "geometry": { "type": "Point", "coordinates": [ 781632.557530977530405, 8998394.324216740205884 ] } },
{ "type": "Feature", "properties": { "LAYER": "Patok Saluran", "GM_TYPE": "Text", "ELEVATION": 0, "NAME": "S.22", "path": "D:/TGS GEOJSON/add data baru/REIBERE/POINT/REIBERE__Patok Saluran.shx|layername=REIBERE__Patok Saluran" }, "geometry": { "type": "Point", "coordinates": [ 781665.505173783749342, 8998357.884654546156526 ] } },
{ "type": "Feature", "properties": { "LAYER": "Patok Saluran", "GM_TYPE": "Text", "ELEVATION": 0, "NAME": "S.23", "path": "D:/TGS GEOJSON/add data baru/REIBERE/POINT/REIBERE__Patok Saluran.shx|layername=REIBERE__Patok Saluran" }, "geometry": { "type": "Point", "coordinates": [ 781693.196285475511104, 8998313.990236112847924 ] } },
{ "type": "Feature", "properties": { "LAYER": "Patok Saluran", "GM_TYPE": "Text", "ELEVATION": 0, "NAME": "S.24", "path": "D:/TGS GEOJSON/add data baru/REIBERE/POINT/REIBERE__Patok Saluran.shx|layername=REIBERE__Patok Saluran" }, "geometry": { "type": "Point", "coordinates": [ 781726.678004269953817, 8998284.273969063535333 ] } },
{ "type": "Feature", "properties": { "LAYER": "Patok Saluran", "GM_TYPE": "Text", "ELEVATION": 0, "NAME": "S.25", "path": "D:/TGS GEOJSON/add data baru/REIBERE/POINT/REIBERE__Patok Saluran.shx|layername=REIBERE__Patok Saluran" }, "geometry": { "type": "Point", "coordinates": [ 781761.913783361436799, 8998253.260016726329923 ] } },
{ "type": "Feature", "properties": { "LAYER": "Patok Saluran", "GM_TYPE": "Text", "ELEVATION": 0, "NAME": "S.26", "path": "D:/TGS GEOJSON/add data baru/REIBERE/POINT/REIBERE__Patok Saluran.shx|layername=REIBERE__Patok Saluran" }, "geometry": { "type": "Point", "coordinates": [ 781748.161825868999586, 8998195.07488108985126 ] } },
{ "type": "Feature", "properties": { "LAYER": "Patok Saluran", "GM_TYPE": "Text", "ELEVATION": 0, "NAME": "S.27", "path": "D:/TGS GEOJSON/add data baru/REIBERE/POINT/REIBERE__Patok Saluran.shx|layername=REIBERE__Patok Saluran" }, "geometry": { "type": "Point", "coordinates": [ 781782.616522883996367, 8998251.259978508576751 ] } },
{ "type": "Feature", "properties": { "LAYER": "Patok Saluran", "GM_TYPE": "Text", "ELEVATION": 0, "NAME": "S.28", "path": "D:/TGS GEOJSON/add data baru/REIBERE/POINT/REIBERE__Patok Saluran.shx|layername=REIBERE__Patok Saluran" }, "geometry": { "type": "Point", "coordinates": [ 781801.68061718903482, 8998230.922881001606584 ] } },
{ "type": "Feature", "properties": { "LAYER": "Patok Saluran", "GM_TYPE": "Text", "ELEVATION": 0, "NAME": "S.29", "path": "D:/TGS GEOJSON/add data baru/REIBERE/POINT/REIBERE__Patok Saluran.shx|layername=REIBERE__Patok Saluran" }, "geometry": { "type": "Point", "coordinates": [ 781814.657478435663506, 8998234.547810623422265 ] } },
{ "type": "Feature", "properties": { "LAYER": "Patok Saluran", "GM_TYPE": "Text", "ELEVATION": 0, "NAME": "S.30", "path": "D:/TGS GEOJSON/add data baru/REIBERE/POINT/REIBERE__Patok Saluran.shx|layername=REIBERE__Patok Saluran" }, "geometry": { "type": "Point", "coordinates": [ 781846.133433415554464, 8998271.154320936650038 ] } },
{ "type": "Feature", "properties": { "LAYER": "Patok Saluran", "GM_TYPE": "Text", "ELEVATION": 0, "NAME": "S.31", "path": "D:/TGS GEOJSON/add data baru/REIBERE/POINT/REIBERE__Patok Saluran.shx|layername=REIBERE__Patok Saluran" }, "geometry": { "type": "Point", "coordinates": [ 781869.937069268431515, 8998298.4949537999928 ] } },
{ "type": "Feature", "properties": { "LAYER": "Patok Saluran", "GM_TYPE": "Text", "ELEVATION": 0, "NAME": "S.39", "path": "D:/TGS GEOJSON/add data baru/REIBERE/POINT/REIBERE__Patok Saluran.shx|layername=REIBERE__Patok Saluran" }, "geometry": { "type": "Point", "coordinates": [ 781902.450864376267418, 8998031.549819130450487 ] } },
{ "type": "Feature", "properties": { "LAYER": "Patok Saluran", "GM_TYPE": "Text", "ELEVATION": 0, "NAME": "S.40", "path": "D:/TGS GEOJSON/add data baru/REIBERE/POINT/REIBERE__Patok Saluran.shx|layername=REIBERE__Patok Saluran" }, "geometry": { "type": "Point", "coordinates": [ 781870.047559828497469, 8998022.116276673972607 ] } },
{ "type": "Feature", "properties": { "LAYER": "Patok Saluran", "GM_TYPE": "Text", "ELEVATION": 0, "NAME": "S.41", "path": "D:/TGS GEOJSON/add data baru/REIBERE/POINT/REIBERE__Patok Saluran.shx|layername=REIBERE__Patok Saluran" }, "geometry": { "type": "Point", "coordinates": [ 781843.577599749900401, 8997999.162700075656176 ] } },
{ "type": "Feature", "properties": { "LAYER": "Patok Saluran", "GM_TYPE": "Text", "ELEVATION": 0, "NAME": "S.42", "path": "D:/TGS GEOJSON/add data baru/REIBERE/POINT/REIBERE__Patok Saluran.shx|layername=REIBERE__Patok Saluran" }, "geometry": { "type": "Point", "coordinates": [ 781808.084877823479474, 8998003.663224458694458 ] } },
{ "type": "Feature", "properties": { "LAYER": "Patok Saluran", "GM_TYPE": "Text", "ELEVATION": 3, "NAME": "P.0", "path": "D:/TGS GEOJSON/add data baru/REIBERE/POINT/REIBERE__Patok Saluran.shx|layername=REIBERE__Patok Saluran" }, "geometry": { "type": "Point", "coordinates": [ 781850.022430337499827, 8997974.749839786440134 ] } },
{ "type": "Feature", "properties": { "LAYER": "Patok Saluran", "GM_TYPE": "Text", "ELEVATION": 0, "NAME": "S.44", "path": "D:/TGS GEOJSON/add data baru/REIBERE/POINT/REIBERE__Patok Saluran.shx|layername=REIBERE__Patok Saluran" }, "geometry": { "type": "Point", "coordinates": [ 781854.885046176845208, 8997944.721437094733119 ] } },
{ "type": "Feature", "properties": { "LAYER": "Patok Saluran", "GM_TYPE": "Text", "ELEVATION": 0, "NAME": "S.45", "path": "D:/TGS GEOJSON/add data baru/REIBERE/POINT/REIBERE__Patok Saluran.shx|layername=REIBERE__Patok Saluran" }, "geometry": { "type": "Point", "coordinates": [ 781868.083180834772065, 8997894.975531047210097 ] } },
{ "type": "Feature", "properties": { "LAYER": "Patok Saluran", "GM_TYPE": "Text", "ELEVATION": 0, "NAME": "S.46", "path": "D:/TGS GEOJSON/add data baru/REIBERE/POINT/REIBERE__Patok Saluran.shx|layername=REIBERE__Patok Saluran" }, "geometry": { "type": "Point", "coordinates": [ 781814.612348353490233, 8997840.289135904982686 ] } },
{ "type": "Feature", "properties": { "LAYER": "Patok Saluran", "GM_TYPE": "Text", "ELEVATION": -264, "NAME": "S.47", "path": "D:/TGS GEOJSON/add data baru/REIBERE/POINT/REIBERE__Patok Saluran.shx|layername=REIBERE__Patok Saluran" }, "geometry": { "type": "Point", "coordinates": [ 781824.538371950155124, 8997779.325846506282687 ] } },
{ "type": "Feature", "properties": { "LAYER": "Patok Saluran", "GM_TYPE": "Text", "ELEVATION": -264, "NAME": "S.47A", "path": "D:/TGS GEOJSON/add data baru/REIBERE/POINT/REIBERE__Patok Saluran.shx|layername=REIBERE__Patok Saluran" }, "geometry": { "type": "Point", "coordinates": [ 781810.11358158220537, 8997760.968387996777892 ] } },
{ "type": "Feature", "properties": { "LAYER": "Patok Saluran", "GM_TYPE": "Text", "ELEVATION": 0, "NAME": "S.48", "path": "D:/TGS GEOJSON/add data baru/REIBERE/POINT/REIBERE__Patok Saluran.shx|layername=REIBERE__Patok Saluran" }, "geometry": { "type": "Point", "coordinates": [ 781756.723610340151936, 8997765.795423464849591 ] } },
{ "type": "Feature", "properties": { "LAYER": "Patok Saluran", "GM_TYPE": "Text", "ELEVATION": 0, "NAME": "S.48A", "path": "D:/TGS GEOJSON/add data baru/REIBERE/POINT/REIBERE__Patok Saluran.shx|layername=REIBERE__Patok Saluran" }, "geometry": { "type": "Point", "coordinates": [ 781794.801144527504221, 8997738.911001754924655 ] } },
{ "type": "Feature", "properties": { "LAYER": "Patok Saluran", "GM_TYPE": "Text", "ELEVATION": 0, "NAME": "S.49", "path": "D:/TGS GEOJSON/add data baru/REIBERE/POINT/REIBERE__Patok Saluran.shx|layername=REIBERE__Patok Saluran" }, "geometry": { "type": "Point", "coordinates": [ 781801.810972085688263, 8997711.13884306512773 ] } },
{ "type": "Feature", "properties": { "LAYER": "Patok Saluran", "GM_TYPE": "Text", "ELEVATION": 0, "NAME": "S.50", "path": "D:/TGS GEOJSON/add data baru/REIBERE/POINT/REIBERE__Patok Saluran.shx|layername=REIBERE__Patok Saluran" }, "geometry": { "type": "Point", "coordinates": [ 781827.983794841915369, 8997672.82072071172297 ] } },
{ "type": "Feature", "properties": { "LAYER": "Patok Saluran", "GM_TYPE": "Text", "ELEVATION": 273, "NAME": "S.51", "path": "D:/TGS GEOJSON/add data baru/REIBERE/POINT/REIBERE__Patok Saluran.shx|layername=REIBERE__Patok Saluran" }, "geometry": { "type": "Point", "coordinates": [ 781836.290478715091012, 8997616.633070522919297 ] } },
{ "type": "Feature", "properties": { "LAYER": "Patok Saluran", "GM_TYPE": "Text", "ELEVATION": 1, "NAME": "S.52", "path": "D:/TGS GEOJSON/add data baru/REIBERE/POINT/REIBERE__Patok Saluran.shx|layername=REIBERE__Patok Saluran" }, "geometry": { "type": "Point", "coordinates": [ 781832.551626975298859, 8997592.91124832443893 ] } },
{ "type": "Feature", "properties": { "LAYER": "Patok Saluran", "GM_TYPE": "Text", "ELEVATION": 265, "NAME": "S.53", "path": "D:/TGS GEOJSON/add data baru/REIBERE/POINT/REIBERE__Patok Saluran.shx|layername=REIBERE__Patok Saluran" }, "geometry": { "type": "Point", "coordinates": [ 781835.849673942080699, 8997574.660421149805188 ] } },
{ "type": "Feature", "properties": { "LAYER": "Patok Saluran", "GM_TYPE": "Text", "ELEVATION": 265, "NAME": "S.55", "path": "D:/TGS GEOJSON/add data baru/REIBERE/POINT/REIBERE__Patok Saluran.shx|layername=REIBERE__Patok Saluran" }, "geometry": { "type": "Point", "coordinates": [ 781856.405078974436037, 8997505.866674011573195 ] } },
{ "type": "Feature", "properties": { "LAYER": "Patok Saluran", "GM_TYPE": "Text", "ELEVATION": 265, "NAME": "S.56", "path": "D:/TGS GEOJSON/add data baru/REIBERE/POINT/REIBERE__Patok Saluran.shx|layername=REIBERE__Patok Saluran" }, "geometry": { "type": "Point", "coordinates": [ 781868.64870543370489, 8997525.404168283566833 ] } },
{ "type": "Feature", "properties": { "LAYER": "Patok Saluran", "GM_TYPE": "Text", "ELEVATION": 265, "NAME": "S.57", "path": "D:/TGS GEOJSON/add data baru/REIBERE/POINT/REIBERE__Patok Saluran.shx|layername=REIBERE__Patok Saluran" }, "geometry": { "type": "Point", "coordinates": [ 781891.436735015246086, 8997577.147037057206035 ] } },
{ "type": "Feature", "properties": { "LAYER": "Patok Saluran", "GM_TYPE": "Text", "ELEVATION": 265, "NAME": "S.54", "path": "D:/TGS GEOJSON/add data baru/REIBERE/POINT/REIBERE__Patok Saluran.shx|layername=REIBERE__Patok Saluran" }, "geometry": { "type": "Point", "coordinates": [ 781851.923693467979319, 8997535.700212085619569 ] } },
{ "type": "Feature", "properties": { "LAYER": "Patok Saluran", "GM_TYPE": "Text", "ELEVATION": 0, "NAME": "S.64", "path": "D:/TGS GEOJSON/add data baru/REIBERE/POINT/REIBERE__Patok Saluran.shx|layername=REIBERE__Patok Saluran" }, "geometry": { "type": "Point", "coordinates": [ 782029.351680726162158, 8997345.703579099848866 ] } },
{ "type": "Feature", "properties": { "LAYER": "Patok Saluran", "GM_TYPE": "Text", "ELEVATION": 0, "NAME": "S.84", "path": "D:/TGS GEOJSON/add data baru/REIBERE/POINT/REIBERE__Patok Saluran.shx|layername=REIBERE__Patok Saluran" }, "geometry": { "type": "Point", "coordinates": [ 782468.309886365197599, 8996858.483669539913535 ] } },
{ "type": "Feature", "properties": { "LAYER": "Patok Saluran", "GM_TYPE": "Text", "ELEVATION": 0, "NAME": "S.85", "path": "D:/TGS GEOJSON/add data baru/REIBERE/POINT/REIBERE__Patok Saluran.shx|layername=REIBERE__Patok Saluran" }, "geometry": { "type": "Point", "coordinates": [ 782486.00944804912433, 8996810.642074583098292 ] } },
{ "type": "Feature", "properties": { "LAYER": "Patok Saluran", "GM_TYPE": "Text", "ELEVATION": 0, "NAME": "S.86", "path": "D:/TGS GEOJSON/add data baru/REIBERE/POINT/REIBERE__Patok Saluran.shx|layername=REIBERE__Patok Saluran" }, "geometry": { "type": "Point", "coordinates": [ 782503.991217417875305, 8996754.557325812056661 ] } },
{ "type": "Feature", "properties": { "LAYER": "Patok Saluran", "GM_TYPE": "Text", "ELEVATION": 0, "NAME": "S.87", "path": "D:/TGS GEOJSON/add data baru/REIBERE/POINT/REIBERE__Patok Saluran.shx|layername=REIBERE__Patok Saluran" }, "geometry": { "type": "Point", "coordinates": [ 782491.266360096866265, 8996699.178203804418445 ] } },
{ "type": "Feature", "properties": { "LAYER": "Patok Saluran", "GM_TYPE": "Text", "ELEVATION": 0, "NAME": "S.88", "path": "D:/TGS GEOJSON/add data baru/REIBERE/POINT/REIBERE__Patok Saluran.shx|layername=REIBERE__Patok Saluran" }, "geometry": { "type": "Point", "coordinates": [ 782491.750405831029639, 8996663.142504272982478 ] } },
{ "type": "Feature", "properties": { "LAYER": "Patok Saluran", "GM_TYPE": "Text", "ELEVATION": 0, "NAME": "S.89", "path": "D:/TGS GEOJSON/add data baru/REIBERE/POINT/REIBERE__Patok Saluran.shx|layername=REIBERE__Patok Saluran" }, "geometry": { "type": "Point", "coordinates": [ 782507.154484885977581, 8996626.124540017917752 ] } },
{ "type": "Feature", "properties": { "LAYER": "Patok Saluran", "GM_TYPE": "Text", "ELEVATION": 0, "NAME": "S.90", "path": "D:/TGS GEOJSON/add data baru/REIBERE/POINT/REIBERE__Patok Saluran.shx|layername=REIBERE__Patok Saluran" }, "geometry": { "type": "Point", "coordinates": [ 782534.242552356328815, 8996595.632894629612565 ] } },
{ "type": "Feature", "properties": { "LAYER": "Patok Saluran", "GM_TYPE": "Text", "ELEVATION": 0, "NAME": "S.91", "path": "D:/TGS GEOJSON/add data baru/REIBERE/POINT/REIBERE__Patok Saluran.shx|layername=REIBERE__Patok Saluran" }, "geometry": { "type": "Point", "coordinates": [ 782562.834751756628975, 8996587.957319965586066 ] } },
{ "type": "Feature", "properties": { "LAYER": "Patok Saluran", "GM_TYPE": "Text", "ELEVATION": 0, "NAME": "S.93", "path": "D:/TGS GEOJSON/add data baru/REIBERE/POINT/REIBERE__Patok Saluran.shx|layername=REIBERE__Patok Saluran" }, "geometry": { "type": "Point", "coordinates": [ 782577.274398082634434, 8996544.018823394551873 ] } },
{ "type": "Feature", "properties": { "LAYER": "Patok Saluran", "GM_TYPE": "Text", "ELEVATION": 0, "NAME": "S.94", "path": "D:/TGS GEOJSON/add data baru/REIBERE/POINT/REIBERE__Patok Saluran.shx|layername=REIBERE__Patok Saluran" }, "geometry": { "type": "Point", "coordinates": [ 782569.122571023413911, 8996522.668786594644189 ] } },
{ "type": "Feature", "properties": { "LAYER": "Patok Saluran", "GM_TYPE": "Text", "ELEVATION": 0, "NAME": "S.95", "path": "D:/TGS GEOJSON/add data baru/REIBERE/POINT/REIBERE__Patok Saluran.shx|layername=REIBERE__Patok Saluran" }, "geometry": { "type": "Point", "coordinates": [ 782564.394363169325516, 8996503.68714421056211 ] } },
{ "type": "Feature", "properties": { "LAYER": "Patok Saluran", "GM_TYPE": "Text", "ELEVATION": 0, "NAME": "S.96", "path": "D:/TGS GEOJSON/add data baru/REIBERE/POINT/REIBERE__Patok Saluran.shx|layername=REIBERE__Patok Saluran" }, "geometry": { "type": "Point", "coordinates": [ 782561.794676231686026, 8996483.664090035483241 ] } },
{ "type": "Feature", "properties": { "LAYER": "Patok Saluran", "GM_TYPE": "Text", "ELEVATION": 0, "NAME": "S.97", "path": "D:/TGS GEOJSON/add data baru/REIBERE/POINT/REIBERE__Patok Saluran.shx|layername=REIBERE__Patok Saluran" }, "geometry": { "type": "Point", "coordinates": [ 782587.491154339397326, 8996449.739365307614207 ] } },
{ "type": "Feature", "properties": { "LAYER": "Patok Saluran", "GM_TYPE": "Text", "ELEVATION": 0, "NAME": "S.98", "path": "D:/TGS GEOJSON/add data baru/REIBERE/POINT/REIBERE__Patok Saluran.shx|layername=REIBERE__Patok Saluran" }, "geometry": { "type": "Point", "coordinates": [ 782613.236284433864057, 8996403.134801818057895 ] } },
{ "type": "Feature", "properties": { "LAYER": "Patok Saluran", "GM_TYPE": "Text", "ELEVATION": 0, "NAME": "S.99", "path": "D:/TGS GEOJSON/add data baru/REIBERE/POINT/REIBERE__Patok Saluran.shx|layername=REIBERE__Patok Saluran" }, "geometry": { "type": "Point", "coordinates": [ 782629.638801196822897, 8996361.252770556136966 ] } },
{ "type": "Feature", "properties": { "LAYER": "Patok Saluran", "GM_TYPE": "Text", "ELEVATION": 0, "NAME": "S.100", "path": "D:/TGS GEOJSON/add data baru/REIBERE/POINT/REIBERE__Patok Saluran.shx|layername=REIBERE__Patok Saluran" }, "geometry": { "type": "Point", "coordinates": [ 782638.195795424282551, 8996341.826547237113118 ] } },
{ "type": "Feature", "properties": { "LAYER": "Patok Saluran", "GM_TYPE": "Text", "ELEVATION": 0, "NAME": "S.101", "path": "D:/TGS GEOJSON/add data baru/REIBERE/POINT/REIBERE__Patok Saluran.shx|layername=REIBERE__Patok Saluran" }, "geometry": { "type": "Point", "coordinates": [ 782652.167744182981551, 8996326.192135302349925 ] } },
{ "type": "Feature", "properties": { "LAYER": "Patok Saluran", "GM_TYPE": "Text", "ELEVATION": 0, "NAME": "S.102", "path": "D:/TGS GEOJSON/add data baru/REIBERE/POINT/REIBERE__Patok Saluran.shx|layername=REIBERE__Patok Saluran" }, "geometry": { "type": "Point", "coordinates": [ 782669.896662399871275, 8996303.356677090749145 ] } },
{ "type": "Feature", "properties": { "LAYER": "Patok Saluran", "GM_TYPE": "Text", "ELEVATION": 0, "NAME": "S.103", "path": "D:/TGS GEOJSON/add data baru/REIBERE/POINT/REIBERE__Patok Saluran.shx|layername=REIBERE__Patok Saluran" }, "geometry": { "type": "Point", "coordinates": [ 782674.143735900521278, 8996263.28999769128859 ] } },
{ "type": "Feature", "properties": { "LAYER": "Patok Saluran", "GM_TYPE": "Text", "ELEVATION": 0, "NAME": "S.104", "path": "D:/TGS GEOJSON/add data baru/REIBERE/POINT/REIBERE__Patok Saluran.shx|layername=REIBERE__Patok Saluran" }, "geometry": { "type": "Point", "coordinates": [ 782657.842827247921377, 8996232.040206892415881 ] } },
{ "type": "Feature", "properties": { "LAYER": "Patok Saluran", "GM_TYPE": "Text", "ELEVATION": 0, "NAME": "S.105", "path": "D:/TGS GEOJSON/add data baru/REIBERE/POINT/REIBERE__Patok Saluran.shx|layername=REIBERE__Patok Saluran" }, "geometry": { "type": "Point", "coordinates": [ 782669.00541130034253, 8996184.365988867357373 ] } },
{ "type": "Feature", "properties": { "LAYER": "Patok Saluran", "GM_TYPE": "Text", "ELEVATION": 0, "NAME": "S.106", "path": "D:/TGS GEOJSON/add data baru/REIBERE/POINT/REIBERE__Patok Saluran.shx|layername=REIBERE__Patok Saluran" }, "geometry": { "type": "Point", "coordinates": [ 782675.70683777355589, 8996136.679545117542148 ] } },
{ "type": "Feature", "properties": { "LAYER": "Patok Saluran", "GM_TYPE": "Text", "ELEVATION": 0, "NAME": "S.107", "path": "D:/TGS GEOJSON/add data baru/REIBERE/POINT/REIBERE__Patok Saluran.shx|layername=REIBERE__Patok Saluran" }, "geometry": { "type": "Point", "coordinates": [ 782684.658682628534734, 8996093.369348967447877 ] } },
{ "type": "Feature", "properties": { "LAYER": "Patok Saluran", "GM_TYPE": "Text", "ELEVATION": 0, "NAME": "S.120", "path": "D:/TGS GEOJSON/add data baru/REIBERE/POINT/REIBERE__Patok Saluran.shx|layername=REIBERE__Patok Saluran" }, "geometry": { "type": "Point", "coordinates": [ 782667.523790328064933, 8995460.063393067568541 ] } },
{ "type": "Feature", "properties": { "LAYER": "Patok Saluran", "GM_TYPE": "Text", "ELEVATION": 0, "NAME": "S.121", "path": "D:/TGS GEOJSON/add data baru/REIBERE/POINT/REIBERE__Patok Saluran.shx|layername=REIBERE__Patok Saluran" }, "geometry": { "type": "Point", "coordinates": [ 782619.105562519049272, 8995441.904395174235106 ] } },
{ "type": "Feature", "properties": { "LAYER": "Patok Saluran", "GM_TYPE": "Text", "ELEVATION": 0, "NAME": "S.122", "path": "D:/TGS GEOJSON/add data baru/REIBERE/POINT/REIBERE__Patok Saluran.shx|layername=REIBERE__Patok Saluran" }, "geometry": { "type": "Point", "coordinates": [ 782576.607195884920657, 8995415.698382813483477 ] } },
{ "type": "Feature", "properties": { "LAYER": "Patok Saluran", "GM_TYPE": "Text", "ELEVATION": 0, "NAME": "S.123", "path": "D:/TGS GEOJSON/add data baru/REIBERE/POINT/REIBERE__Patok Saluran.shx|layername=REIBERE__Patok Saluran" }, "geometry": { "type": "Point", "coordinates": [ 782537.878572577144951, 8995391.289021577686071 ] } },
{ "type": "Feature", "properties": { "LAYER": "Patok Saluran", "GM_TYPE": "Text", "ELEVATION": 0, "NAME": "S.124", "path": "D:/TGS GEOJSON/add data baru/REIBERE/POINT/REIBERE__Patok Saluran.shx|layername=REIBERE__Patok Saluran" }, "geometry": { "type": "Point", "coordinates": [ 782501.297756954561919, 8995362.268508676439524 ] } },
{ "type": "Feature", "properties": { "LAYER": "Patok Saluran", "GM_TYPE": "Text", "ELEVATION": 0, "NAME": "S.125", "path": "D:/TGS GEOJSON/add data baru/REIBERE/POINT/REIBERE__Patok Saluran.shx|layername=REIBERE__Patok Saluran" }, "geometry": { "type": "Point", "coordinates": [ 782484.96247598901391, 8995331.565718520432711 ] } },
{ "type": "Feature", "properties": { "LAYER": "Patok Saluran", "GM_TYPE": "Text", "ELEVATION": 0, "NAME": "S.126", "path": "D:/TGS GEOJSON/add data baru/REIBERE/POINT/REIBERE__Patok Saluran.shx|layername=REIBERE__Patok Saluran" }, "geometry": { "type": "Point", "coordinates": [ 782477.947849426651374, 8995280.284115131944418 ] } },
{ "type": "Feature", "properties": { "LAYER": "Patok Saluran", "GM_TYPE": "Text", "ELEVATION": 0, "NAME": "S.108", "path": "D:/TGS GEOJSON/add data baru/REIBERE/POINT/REIBERE__Patok Saluran.shx|layername=REIBERE__Patok Saluran" }, "geometry": { "type": "Point", "coordinates": [ 782705.059054213808849, 8996039.742523498833179 ] } },
{ "type": "Feature", "properties": { "LAYER": "Patok Saluran", "GM_TYPE": "Text", "ELEVATION": 0, "NAME": "S.109", "path": "D:/TGS GEOJSON/add data baru/REIBERE/POINT/REIBERE__Patok Saluran.shx|layername=REIBERE__Patok Saluran" }, "geometry": { "type": "Point", "coordinates": [ 782704.77942677680403, 8995987.173925925046206 ] } },
{ "type": "Feature", "properties": { "LAYER": "Patok Saluran", "GM_TYPE": "Text", "ELEVATION": 0, "NAME": "S.110", "path": "D:/TGS GEOJSON/add data baru/REIBERE/POINT/REIBERE__Patok Saluran.shx|layername=REIBERE__Patok Saluran" }, "geometry": { "type": "Point", "coordinates": [ 782721.906591205159202, 8995936.949502196162939 ] } },
{ "type": "Feature", "properties": { "LAYER": "Patok Saluran", "GM_TYPE": "Text", "ELEVATION": 0, "NAME": "S.111", "path": "D:/TGS GEOJSON/add data baru/REIBERE/POINT/REIBERE__Patok Saluran.shx|layername=REIBERE__Patok Saluran" }, "geometry": { "type": "Point", "coordinates": [ 782728.139242802048102, 8995880.775004308670759 ] } },
{ "type": "Feature", "properties": { "LAYER": "Patok Saluran", "GM_TYPE": "Text", "ELEVATION": 0, "NAME": "Y.112", "path": "D:/TGS GEOJSON/add data baru/REIBERE/POINT/REIBERE__Patok Saluran.shx|layername=REIBERE__Patok Saluran" }, "geometry": { "type": "Point", "coordinates": [ 782717.884481325047091, 8995837.084438655525446 ] } },
{ "type": "Feature", "properties": { "LAYER": "Patok Saluran", "GM_TYPE": "Text", "ELEVATION": 0, "NAME": "S.113", "path": "D:/TGS GEOJSON/add data baru/REIBERE/POINT/REIBERE__Patok Saluran.shx|layername=REIBERE__Patok Saluran" }, "geometry": { "type": "Point", "coordinates": [ 782721.619761577108875, 8995789.494977079331875 ] } },
{ "type": "Feature", "properties": { "LAYER": "Patok Saluran", "GM_TYPE": "Text", "ELEVATION": 0, "NAME": "S.114", "path": "D:/TGS GEOJSON/add data baru/REIBERE/POINT/REIBERE__Patok Saluran.shx|layername=REIBERE__Patok Saluran" }, "geometry": { "type": "Point", "coordinates": [ 782727.270637419773266, 8995737.725195281207561 ] } },
{ "type": "Feature", "properties": { "LAYER": "Patok Saluran", "GM_TYPE": "Text", "ELEVATION": 0, "NAME": "S.115", "path": "D:/TGS GEOJSON/add data baru/REIBERE/POINT/REIBERE__Patok Saluran.shx|layername=REIBERE__Patok Saluran" }, "geometry": { "type": "Point", "coordinates": [ 782723.873340891906992, 8995687.918364964425564 ] } },
{ "type": "Feature", "properties": { "LAYER": "Patok Saluran", "GM_TYPE": "Text", "ELEVATION": 0, "NAME": "S.116", "path": "D:/TGS GEOJSON/add data baru/REIBERE/POINT/REIBERE__Patok Saluran.shx|layername=REIBERE__Patok Saluran" }, "geometry": { "type": "Point", "coordinates": [ 782724.688365872018039, 8995643.898333754390478 ] } },
{ "type": "Feature", "properties": { "LAYER": "Patok Saluran", "GM_TYPE": "Text", "ELEVATION": 0, "NAME": "S.117", "path": "D:/TGS GEOJSON/add data baru/REIBERE/POINT/REIBERE__Patok Saluran.shx|layername=REIBERE__Patok Saluran" }, "geometry": { "type": "Point", "coordinates": [ 782715.024843339109793, 8995596.545209776610136 ] } },
{ "type": "Feature", "properties": { "LAYER": "Patok Saluran", "GM_TYPE": "Text", "ELEVATION": 0, "NAME": "S.118", "path": "D:/TGS GEOJSON/add data baru/REIBERE/POINT/REIBERE__Patok Saluran.shx|layername=REIBERE__Patok Saluran" }, "geometry": { "type": "Point", "coordinates": [ 782713.482652995036915, 8995539.833639301359653 ] } },
{ "type": "Feature", "properties": { "LAYER": "Patok Saluran", "GM_TYPE": "Text", "ELEVATION": 0, "NAME": "S.130", "path": "D:/TGS GEOJSON/add data baru/REIBERE/POINT/REIBERE__Patok Saluran.shx|layername=REIBERE__Patok Saluran" }, "geometry": { "type": "Point", "coordinates": [ 782469.131100418628193, 8995229.245951512828469 ] } },
{ "type": "Feature", "properties": { "LAYER": "Patok Saluran", "GM_TYPE": "Text", "ELEVATION": 0, "NAME": "S.131", "path": "D:/TGS GEOJSON/add data baru/REIBERE/POINT/REIBERE__Patok Saluran.shx|layername=REIBERE__Patok Saluran" }, "geometry": { "type": "Point", "coordinates": [ 782471.288208061829209, 8995129.137332046404481 ] } },
{ "type": "Feature", "properties": { "LAYER": "Patok Saluran", "GM_TYPE": "Text", "ELEVATION": 0, "NAME": "S.132", "path": "D:/TGS GEOJSON/add data baru/REIBERE/POINT/REIBERE__Patok Saluran.shx|layername=REIBERE__Patok Saluran" }, "geometry": { "type": "Point", "coordinates": [ 782457.303446138626896, 8995021.704463632777333 ] } },
{ "type": "Feature", "properties": { "LAYER": "Patok Saluran", "GM_TYPE": "Text", "ELEVATION": 0, "NAME": "S.133", "path": "D:/TGS GEOJSON/add data baru/REIBERE/POINT/REIBERE__Patok Saluran.shx|layername=REIBERE__Patok Saluran" }, "geometry": { "type": "Point", "coordinates": [ 782457.340236333548091, 8994938.506819961592555 ] } },
{ "type": "Feature", "properties": { "LAYER": "Patok Saluran", "GM_TYPE": "Text", "ELEVATION": 0, "NAME": "S.2", "path": "D:/TGS GEOJSON/add data baru/REIBERE/POINT/REIBERE__Patok Saluran.shx|layername=REIBERE__Patok Saluran" }, "geometry": { "type": "Point", "coordinates": [ 781106.953211160725914, 8998955.407864393666387 ] } },
{ "type": "Feature", "properties": { "LAYER": "Patok Saluran", "GM_TYPE": "Text", "ELEVATION": 0, "NAME": "S.3", "path": "D:/TGS GEOJSON/add data baru/REIBERE/POINT/REIBERE__Patok Saluran.shx|layername=REIBERE__Patok Saluran" }, "geometry": { "type": "Point", "coordinates": [ 781148.01669633842539, 8998930.075583888217807 ] } },
{ "type": "Feature", "properties": { "LAYER": "Patok Saluran", "GM_TYPE": "Text", "ELEVATION": 0, "NAME": "S.4", "path": "D:/TGS GEOJSON/add data baru/REIBERE/POINT/REIBERE__Patok Saluran.shx|layername=REIBERE__Patok Saluran" }, "geometry": { "type": "Point", "coordinates": [ 781186.728080768254586, 8998901.366905840113759 ] } },
{ "type": "Feature", "properties": { "LAYER": "Patok Saluran", "GM_TYPE": "Text", "ELEVATION": 0, "NAME": "S.5", "path": "D:/TGS GEOJSON/add data baru/REIBERE/POINT/REIBERE__Patok Saluran.shx|layername=REIBERE__Patok Saluran" }, "geometry": { "type": "Point", "coordinates": [ 781222.342386051663198, 8998855.570152351632714 ] } },
{ "type": "Feature", "properties": { "LAYER": "Patok Saluran", "GM_TYPE": "Text", "ELEVATION": 0, "NAME": "S.6", "path": "D:/TGS GEOJSON/add data baru/REIBERE/POINT/REIBERE__Patok Saluran.shx|layername=REIBERE__Patok Saluran" }, "geometry": { "type": "Point", "coordinates": [ 781237.047607573564164, 8998807.037655441090465 ] } },
{ "type": "Feature", "properties": { "LAYER": "Patok Saluran", "GM_TYPE": "Text", "ELEVATION": 0, "NAME": "S.7", "path": "D:/TGS GEOJSON/add data baru/REIBERE/POINT/REIBERE__Patok Saluran.shx|layername=REIBERE__Patok Saluran" }, "geometry": { "type": "Point", "coordinates": [ 781251.109215568401851, 8998776.106528988108039 ] } },
{ "type": "Feature", "properties": { "LAYER": "Patok Saluran", "GM_TYPE": "Text", "ELEVATION": 0, "NAME": "S.8", "path": "D:/TGS GEOJSON/add data baru/REIBERE/POINT/REIBERE__Patok Saluran.shx|layername=REIBERE__Patok Saluran" }, "geometry": { "type": "Point", "coordinates": [ 781276.827513327007182, 8998738.283103818073869 ] } },
{ "type": "Feature", "properties": { "LAYER": "Patok Saluran", "GM_TYPE": "Text", "ELEVATION": 0, "NAME": "S.9", "path": "D:/TGS GEOJSON/add data baru/REIBERE/POINT/REIBERE__Patok Saluran.shx|layername=REIBERE__Patok Saluran" }, "geometry": { "type": "Point", "coordinates": [ 781306.765274620498531, 8998704.390612242743373 ] } },
{ "type": "Feature", "properties": { "LAYER": "Patok Saluran", "GM_TYPE": "Text", "ELEVATION": 0, "NAME": "S.10", "path": "D:/TGS GEOJSON/add data baru/REIBERE/POINT/REIBERE__Patok Saluran.shx|layername=REIBERE__Patok Saluran" }, "geometry": { "type": "Point", "coordinates": [ 781343.544369207345881, 8998671.074994882568717 ] } },
{ "type": "Feature", "properties": { "LAYER": "Patok Saluran", "GM_TYPE": "Text", "ELEVATION": 0, "NAME": "S.11", "path": "D:/TGS GEOJSON/add data baru/REIBERE/POINT/REIBERE__Patok Saluran.shx|layername=REIBERE__Patok Saluran" }, "geometry": { "type": "Point", "coordinates": [ 781380.304089220822789, 8998639.119832323864102 ] } },
{ "type": "Feature", "properties": { "LAYER": "Patok Saluran", "GM_TYPE": "Text", "ELEVATION": 0, "NAME": "S.12", "path": "D:/TGS GEOJSON/add data baru/REIBERE/POINT/REIBERE__Patok Saluran.shx|layername=REIBERE__Patok Saluran" }, "geometry": { "type": "Point", "coordinates": [ 781410.180815114988945, 8998609.635449217632413 ] } },
{ "type": "Feature", "properties": { "LAYER": "Patok Saluran", "GM_TYPE": "Text", "ELEVATION": 0, "NAME": "S.13", "path": "D:/TGS GEOJSON/add data baru/REIBERE/POINT/REIBERE__Patok Saluran.shx|layername=REIBERE__Patok Saluran" }, "geometry": { "type": "Point", "coordinates": [ 781415.08488698292058, 8998572.535400049760938 ] } },
{ "type": "Feature", "properties": { "LAYER": "Patok Saluran", "GM_TYPE": "Text", "ELEVATION": 0, "NAME": "S.14", "path": "D:/TGS GEOJSON/add data baru/REIBERE/POINT/REIBERE__Patok Saluran.shx|layername=REIBERE__Patok Saluran" }, "geometry": { "type": "Point", "coordinates": [ 781432.078338571940549, 8998525.993132518604398 ] } },
{ "type": "Feature", "properties": { "LAYER": "Patok Saluran", "GM_TYPE": "Text", "ELEVATION": 0, "NAME": "S.15", "path": "D:/TGS GEOJSON/add data baru/REIBERE/POINT/REIBERE__Patok Saluran.shx|layername=REIBERE__Patok Saluran" }, "geometry": { "type": "Point", "coordinates": [ 781437.441609492641874, 8998501.412051083520055 ] } },
{ "type": "Feature", "properties": { "LAYER": "Patok Saluran", "GM_TYPE": "Text", "ELEVATION": 0, "NAME": "S.1", "path": "D:/TGS GEOJSON/add data baru/REIBERE/POINT/REIBERE__Patok Saluran.shx|layername=REIBERE__Patok Saluran" }, "geometry": { "type": "Point", "coordinates": [ 781081.92465463699773, 8998996.562582779675722 ] } },
{ "type": "Feature", "properties": { "LAYER": "Patok Saluran", "GM_TYPE": "Text", "ELEVATION": 0, "NAME": "S.17", "path": "D:/TGS GEOJSON/add data baru/REIBERE/POINT/REIBERE__Patok Saluran.shx|layername=REIBERE__Patok Saluran" }, "geometry": { "type": "Point", "coordinates": [ 781511.495063938200474, 8998458.88278509862721 ] } },
{ "type": "Feature", "properties": { "LAYER": "Patok Saluran", "GM_TYPE": "Text", "ELEVATION": 0, "NAME": "S.18", "path": "D:/TGS GEOJSON/add data baru/REIBERE/POINT/REIBERE__Patok Saluran.shx|layername=REIBERE__Patok Saluran" }, "geometry": { "type": "Point", "coordinates": [ 781544.333377471892163, 8998437.722102781757712 ] } },
{ "type": "Feature", "properties": { "LAYER": "Patok Saluran", "GM_TYPE": "Text", "ELEVATION": 0, "NAME": "S.19", "path": "D:/TGS GEOJSON/add data baru/REIBERE/POINT/REIBERE__Patok Saluran.shx|layername=REIBERE__Patok Saluran" }, "geometry": { "type": "Point", "coordinates": [ 781586.785614796448499, 8998452.457907794043422 ] } },
{ "type": "Feature", "properties": { "LAYER": "Patok Saluran", "GM_TYPE": "Text", "ELEVATION": -274, "NAME": "S.20", "path": "D:/TGS GEOJSON/add data baru/REIBERE/POINT/REIBERE__Patok Saluran.shx|layername=REIBERE__Patok Saluran" }, "geometry": { "type": "Point", "coordinates": [ 781609.018275214824826, 8998422.560959486290812 ] } },
{ "type": "Feature", "properties": { "LAYER": "Patok Saluran", "GM_TYPE": "Text", "ELEVATION": 0, "NAME": "S.21", "path": "D:/TGS GEOJSON/add data baru/REIBERE/POINT/REIBERE__Patok Saluran.shx|layername=REIBERE__Patok Saluran" }, "geometry": { "type": "Point", "coordinates": [ 781632.557530977530405, 8998394.324216740205884 ] } },
{ "type": "Feature", "properties": { "LAYER": "Patok Saluran", "GM_TYPE": "Text", "ELEVATION": 0, "NAME": "S.22", "path": "D:/TGS GEOJSON/add data baru/REIBERE/POINT/REIBERE__Patok Saluran.shx|layername=REIBERE__Patok Saluran" }, "geometry": { "type": "Point", "coordinates": [ 781665.505173783749342, 8998357.884654546156526 ] } },
{ "type": "Feature", "properties": { "LAYER": "Patok Saluran", "GM_TYPE": "Text", "ELEVATION": 0, "NAME": "S.23", "path": "D:/TGS GEOJSON/add data baru/REIBERE/POINT/REIBERE__Patok Saluran.shx|layername=REIBERE__Patok Saluran" }, "geometry": { "type": "Point", "coordinates": [ 781693.196285475511104, 8998313.990236112847924 ] } },
{ "type": "Feature", "properties": { "LAYER": "Patok Saluran", "GM_TYPE": "Text", "ELEVATION": 0, "NAME": "S.24", "path": "D:/TGS GEOJSON/add data baru/REIBERE/POINT/REIBERE__Patok Saluran.shx|layername=REIBERE__Patok Saluran" }, "geometry": { "type": "Point", "coordinates": [ 781726.678004269953817, 8998284.273969063535333 ] } },
{ "type": "Feature", "properties": { "LAYER": "Patok Saluran", "GM_TYPE": "Text", "ELEVATION": 0, "NAME": "S.25", "path": "D:/TGS GEOJSON/add data baru/REIBERE/POINT/REIBERE__Patok Saluran.shx|layername=REIBERE__Patok Saluran" }, "geometry": { "type": "Point", "coordinates": [ 781761.913783361436799, 8998253.260016726329923 ] } },
{ "type": "Feature", "properties": { "LAYER": "Patok Saluran", "GM_TYPE": "Text", "ELEVATION": 0, "NAME": "S.26", "path": "D:/TGS GEOJSON/add data baru/REIBERE/POINT/REIBERE__Patok Saluran.shx|layername=REIBERE__Patok Saluran" }, "geometry": { "type": "Point", "coordinates": [ 781748.161825868999586, 8998195.07488108985126 ] } },
{ "type": "Feature", "properties": { "LAYER": "Patok Saluran", "GM_TYPE": "Text", "ELEVATION": 0, "NAME": "S.27", "path": "D:/TGS GEOJSON/add data baru/REIBERE/POINT/REIBERE__Patok Saluran.shx|layername=REIBERE__Patok Saluran" }, "geometry": { "type": "Point", "coordinates": [ 781782.616522883996367, 8998251.259978508576751 ] } },
{ "type": "Feature", "properties": { "LAYER": "Patok Saluran", "GM_TYPE": "Text", "ELEVATION": 0, "NAME": "S.28", "path": "D:/TGS GEOJSON/add data baru/REIBERE/POINT/REIBERE__Patok Saluran.shx|layername=REIBERE__Patok Saluran" }, "geometry": { "type": "Point", "coordinates": [ 781801.68061718903482, 8998230.922881001606584 ] } },
{ "type": "Feature", "properties": { "LAYER": "Patok Saluran", "GM_TYPE": "Text", "ELEVATION": 0, "NAME": "S.29", "path": "D:/TGS GEOJSON/add data baru/REIBERE/POINT/REIBERE__Patok Saluran.shx|layername=REIBERE__Patok Saluran" }, "geometry": { "type": "Point", "coordinates": [ 781814.657478435663506, 8998234.547810623422265 ] } },
{ "type": "Feature", "properties": { "LAYER": "Patok Saluran", "GM_TYPE": "Text", "ELEVATION": 0, "NAME": "S.30", "path": "D:/TGS GEOJSON/add data baru/REIBERE/POINT/REIBERE__Patok Saluran.shx|layername=REIBERE__Patok Saluran" }, "geometry": { "type": "Point", "coordinates": [ 781846.133433415554464, 8998271.154320936650038 ] } },
{ "type": "Feature", "properties": { "LAYER": "Patok Saluran", "GM_TYPE": "Text", "ELEVATION": 0, "NAME": "S.31", "path": "D:/TGS GEOJSON/add data baru/REIBERE/POINT/REIBERE__Patok Saluran.shx|layername=REIBERE__Patok Saluran" }, "geometry": { "type": "Point", "coordinates": [ 781869.937069268431515, 8998298.4949537999928 ] } },
{ "type": "Feature", "properties": { "LAYER": "Patok Saluran", "GM_TYPE": "Text", "ELEVATION": 0, "NAME": "S.39", "path": "D:/TGS GEOJSON/add data baru/REIBERE/POINT/REIBERE__Patok Saluran.shx|layername=REIBERE__Patok Saluran" }, "geometry": { "type": "Point", "coordinates": [ 781902.450864376267418, 8998031.549819130450487 ] } },
{ "type": "Feature", "properties": { "LAYER": "Patok Saluran", "GM_TYPE": "Text", "ELEVATION": 0, "NAME": "S.40", "path": "D:/TGS GEOJSON/add data baru/REIBERE/POINT/REIBERE__Patok Saluran.shx|layername=REIBERE__Patok Saluran" }, "geometry": { "type": "Point", "coordinates": [ 781870.047559828497469, 8998022.116276673972607 ] } },
{ "type": "Feature", "properties": { "LAYER": "Patok Saluran", "GM_TYPE": "Text", "ELEVATION": 0, "NAME": "S.41", "path": "D:/TGS GEOJSON/add data baru/REIBERE/POINT/REIBERE__Patok Saluran.shx|layername=REIBERE__Patok Saluran" }, "geometry": { "type": "Point", "coordinates": [ 781843.577599749900401, 8997999.162700075656176 ] } },
{ "type": "Feature", "properties": { "LAYER": "Patok Saluran", "GM_TYPE": "Text", "ELEVATION": 0, "NAME": "S.42", "path": "D:/TGS GEOJSON/add data baru/REIBERE/POINT/REIBERE__Patok Saluran.shx|layername=REIBERE__Patok Saluran" }, "geometry": { "type": "Point", "coordinates": [ 781808.084877823479474, 8998003.663224458694458 ] } },
{ "type": "Feature", "properties": { "LAYER": "Patok Saluran", "GM_TYPE": "Text", "ELEVATION": 3, "NAME": "P.0", "path": "D:/TGS GEOJSON/add data baru/REIBERE/POINT/REIBERE__Patok Saluran.shx|layername=REIBERE__Patok Saluran" }, "geometry": { "type": "Point", "coordinates": [ 781850.022430337499827, 8997974.749839786440134 ] } },
{ "type": "Feature", "properties": { "LAYER": "Patok Saluran", "GM_TYPE": "Text", "ELEVATION": 0, "NAME": "S.44", "path": "D:/TGS GEOJSON/add data baru/REIBERE/POINT/REIBERE__Patok Saluran.shx|layername=REIBERE__Patok Saluran" }, "geometry": { "type": "Point", "coordinates": [ 781854.885046176845208, 8997944.721437094733119 ] } },
{ "type": "Feature", "properties": { "LAYER": "Patok Saluran", "GM_TYPE": "Text", "ELEVATION": 0, "NAME": "S.45", "path": "D:/TGS GEOJSON/add data baru/REIBERE/POINT/REIBERE__Patok Saluran.shx|layername=REIBERE__Patok Saluran" }, "geometry": { "type": "Point", "coordinates": [ 781868.083180834772065, 8997894.975531047210097 ] } },
{ "type": "Feature", "properties": { "LAYER": "Patok Saluran", "GM_TYPE": "Text", "ELEVATION": 0, "NAME": "S.46", "path": "D:/TGS GEOJSON/add data baru/REIBERE/POINT/REIBERE__Patok Saluran.shx|layername=REIBERE__Patok Saluran" }, "geometry": { "type": "Point", "coordinates": [ 781814.612348353490233, 8997840.289135904982686 ] } },
{ "type": "Feature", "properties": { "LAYER": "Patok Saluran", "GM_TYPE": "Text", "ELEVATION": -264, "NAME": "S.47", "path": "D:/TGS GEOJSON/add data baru/REIBERE/POINT/REIBERE__Patok Saluran.shx|layername=REIBERE__Patok Saluran" }, "geometry": { "type": "Point", "coordinates": [ 781824.538371950155124, 8997779.325846506282687 ] } },
{ "type": "Feature", "properties": { "LAYER": "Patok Saluran", "GM_TYPE": "Text", "ELEVATION": -264, "NAME": "S.47A", "path": "D:/TGS GEOJSON/add data baru/REIBERE/POINT/REIBERE__Patok Saluran.shx|layername=REIBERE__Patok Saluran" }, "geometry": { "type": "Point", "coordinates": [ 781810.11358158220537, 8997760.968387996777892 ] } },
{ "type": "Feature", "properties": { "LAYER": "Patok Saluran", "GM_TYPE": "Text", "ELEVATION": 0, "NAME": "S.48", "path": "D:/TGS GEOJSON/add data baru/REIBERE/POINT/REIBERE__Patok Saluran.shx|layername=REIBERE__Patok Saluran" }, "geometry": { "type": "Point", "coordinates": [ 781756.723610340151936, 8997765.795423464849591 ] } },
{ "type": "Feature", "properties": { "LAYER": "Patok Saluran", "GM_TYPE": "Text", "ELEVATION": 0, "NAME": "S.48A", "path": "D:/TGS GEOJSON/add data baru/REIBERE/POINT/REIBERE__Patok Saluran.shx|layername=REIBERE__Patok Saluran" }, "geometry": { "type": "Point", "coordinates": [ 781794.801144527504221, 8997738.911001754924655 ] } },
{ "type": "Feature", "properties": { "LAYER": "Patok Saluran", "GM_TYPE": "Text", "ELEVATION": 0, "NAME": "S.49", "path": "D:/TGS GEOJSON/add data baru/REIBERE/POINT/REIBERE__Patok Saluran.shx|layername=REIBERE__Patok Saluran" }, "geometry": { "type": "Point", "coordinates": [ 781801.810972085688263, 8997711.13884306512773 ] } },
{ "type": "Feature", "properties": { "LAYER": "Patok Saluran", "GM_TYPE": "Text", "ELEVATION": 0, "NAME": "S.50", "path": "D:/TGS GEOJSON/add data baru/REIBERE/POINT/REIBERE__Patok Saluran.shx|layername=REIBERE__Patok Saluran" }, "geometry": { "type": "Point", "coordinates": [ 781827.983794841915369, 8997672.82072071172297 ] } },
{ "type": "Feature", "properties": { "LAYER": "Patok Saluran", "GM_TYPE": "Text", "ELEVATION": 273, "NAME": "S.51", "path": "D:/TGS GEOJSON/add data baru/REIBERE/POINT/REIBERE__Patok Saluran.shx|layername=REIBERE__Patok Saluran" }, "geometry": { "type": "Point", "coordinates": [ 781836.290478715091012, 8997616.633070522919297 ] } },
{ "type": "Feature", "properties": { "LAYER": "Patok Saluran", "GM_TYPE": "Text", "ELEVATION": 1, "NAME": "S.52", "path": "D:/TGS GEOJSON/add data baru/REIBERE/POINT/REIBERE__Patok Saluran.shx|layername=REIBERE__Patok Saluran" }, "geometry": { "type": "Point", "coordinates": [ 781832.551626975298859, 8997592.91124832443893 ] } },
{ "type": "Feature", "properties": { "LAYER": "Patok Saluran", "GM_TYPE": "Text", "ELEVATION": 265, "NAME": "S.53", "path": "D:/TGS GEOJSON/add data baru/REIBERE/POINT/REIBERE__Patok Saluran.shx|layername=REIBERE__Patok Saluran" }, "geometry": { "type": "Point", "coordinates": [ 781835.849673942080699, 8997574.660421149805188 ] } },
{ "type": "Feature", "properties": { "LAYER": "Patok Saluran", "GM_TYPE": "Text", "ELEVATION": 265, "NAME": "S.55", "path": "D:/TGS GEOJSON/add data baru/REIBERE/POINT/REIBERE__Patok Saluran.shx|layername=REIBERE__Patok Saluran" }, "geometry": { "type": "Point", "coordinates": [ 781856.405078974436037, 8997505.866674011573195 ] } },
{ "type": "Feature", "properties": { "LAYER": "Patok Saluran", "GM_TYPE": "Text", "ELEVATION": 265, "NAME": "S.56", "path": "D:/TGS GEOJSON/add data baru/REIBERE/POINT/REIBERE__Patok Saluran.shx|layername=REIBERE__Patok Saluran" }, "geometry": { "type": "Point", "coordinates": [ 781868.64870543370489, 8997525.404168283566833 ] } },
{ "type": "Feature", "properties": { "LAYER": "Patok Saluran", "GM_TYPE": "Text", "ELEVATION": 265, "NAME": "S.57", "path": "D:/TGS GEOJSON/add data baru/REIBERE/POINT/REIBERE__Patok Saluran.shx|layername=REIBERE__Patok Saluran" }, "geometry": { "type": "Point", "coordinates": [ 781891.436735015246086, 8997577.147037057206035 ] } },
{ "type": "Feature", "properties": { "LAYER": "Patok Saluran", "GM_TYPE": "Text", "ELEVATION": 265, "NAME": "S.54", "path": "D:/TGS GEOJSON/add data baru/REIBERE/POINT/REIBERE__Patok Saluran.shx|layername=REIBERE__Patok Saluran" }, "geometry": { "type": "Point", "coordinates": [ 781851.923693467979319, 8997535.700212085619569 ] } },
{ "type": "Feature", "properties": { "LAYER": "Patok Saluran", "GM_TYPE": "Text", "ELEVATION": 0, "NAME": "S.64", "path": "D:/TGS GEOJSON/add data baru/REIBERE/POINT/REIBERE__Patok Saluran.shx|layername=REIBERE__Patok Saluran" }, "geometry": { "type": "Point", "coordinates": [ 782029.351680726162158, 8997345.703579099848866 ] } },
{ "type": "Feature", "properties": { "LAYER": "Patok Saluran", "GM_TYPE": "Text", "ELEVATION": 0, "NAME": "S.84", "path": "D:/TGS GEOJSON/add data baru/REIBERE/POINT/REIBERE__Patok Saluran.shx|layername=REIBERE__Patok Saluran" }, "geometry": { "type": "Point", "coordinates": [ 782468.309886365197599, 8996858.483669539913535 ] } },
{ "type": "Feature", "properties": { "LAYER": "Patok Saluran", "GM_TYPE": "Text", "ELEVATION": 0, "NAME": "S.85", "path": "D:/TGS GEOJSON/add data baru/REIBERE/POINT/REIBERE__Patok Saluran.shx|layername=REIBERE__Patok Saluran" }, "geometry": { "type": "Point", "coordinates": [ 782486.00944804912433, 8996810.642074583098292 ] } },
{ "type": "Feature", "properties": { "LAYER": "Patok Saluran", "GM_TYPE": "Text", "ELEVATION": 0, "NAME": "S.86", "path": "D:/TGS GEOJSON/add data baru/REIBERE/POINT/REIBERE__Patok Saluran.shx|layername=REIBERE__Patok Saluran" }, "geometry": { "type": "Point", "coordinates": [ 782503.991217417875305, 8996754.557325812056661 ] } },
{ "type": "Feature", "properties": { "LAYER": "Patok Saluran", "GM_TYPE": "Text", "ELEVATION": 0, "NAME": "S.87", "path": "D:/TGS GEOJSON/add data baru/REIBERE/POINT/REIBERE__Patok Saluran.shx|layername=REIBERE__Patok Saluran" }, "geometry": { "type": "Point", "coordinates": [ 782491.266360096866265, 8996699.178203804418445 ] } },
{ "type": "Feature", "properties": { "LAYER": "Patok Saluran", "GM_TYPE": "Text", "ELEVATION": 0, "NAME": "S.88", "path": "D:/TGS GEOJSON/add data baru/REIBERE/POINT/REIBERE__Patok Saluran.shx|layername=REIBERE__Patok Saluran" }, "geometry": { "type": "Point", "coordinates": [ 782491.750405831029639, 8996663.142504272982478 ] } },
{ "type": "Feature", "properties": { "LAYER": "Patok Saluran", "GM_TYPE": "Text", "ELEVATION": 0, "NAME": "S.89", "path": "D:/TGS GEOJSON/add data baru/REIBERE/POINT/REIBERE__Patok Saluran.shx|layername=REIBERE__Patok Saluran" }, "geometry": { "type": "Point", "coordinates": [ 782507.154484885977581, 8996626.124540017917752 ] } },
{ "type": "Feature", "properties": { "LAYER": "Patok Saluran", "GM_TYPE": "Text", "ELEVATION": 0, "NAME": "S.90", "path": "D:/TGS GEOJSON/add data baru/REIBERE/POINT/REIBERE__Patok Saluran.shx|layername=REIBERE__Patok Saluran" }, "geometry": { "type": "Point", "coordinates": [ 782534.242552356328815, 8996595.632894629612565 ] } },
{ "type": "Feature", "properties": { "LAYER": "Patok Saluran", "GM_TYPE": "Text", "ELEVATION": 0, "NAME": "S.91", "path": "D:/TGS GEOJSON/add data baru/REIBERE/POINT/REIBERE__Patok Saluran.shx|layername=REIBERE__Patok Saluran" }, "geometry": { "type": "Point", "coordinates": [ 782562.834751756628975, 8996587.957319965586066 ] } },
{ "type": "Feature", "properties": { "LAYER": "Patok Saluran", "GM_TYPE": "Text", "ELEVATION": 0, "NAME": "S.93", "path": "D:/TGS GEOJSON/add data baru/REIBERE/POINT/REIBERE__Patok Saluran.shx|layername=REIBERE__Patok Saluran" }, "geometry": { "type": "Point", "coordinates": [ 782577.274398082634434, 8996544.018823394551873 ] } },
{ "type": "Feature", "properties": { "LAYER": "Patok Saluran", "GM_TYPE": "Text", "ELEVATION": 0, "NAME": "S.94", "path": "D:/TGS GEOJSON/add data baru/REIBERE/POINT/REIBERE__Patok Saluran.shx|layername=REIBERE__Patok Saluran" }, "geometry": { "type": "Point", "coordinates": [ 782569.122571023413911, 8996522.668786594644189 ] } },
{ "type": "Feature", "properties": { "LAYER": "Patok Saluran", "GM_TYPE": "Text", "ELEVATION": 0, "NAME": "S.95", "path": "D:/TGS GEOJSON/add data baru/REIBERE/POINT/REIBERE__Patok Saluran.shx|layername=REIBERE__Patok Saluran" }, "geometry": { "type": "Point", "coordinates": [ 782564.394363169325516, 8996503.68714421056211 ] } },
{ "type": "Feature", "properties": { "LAYER": "Patok Saluran", "GM_TYPE": "Text", "ELEVATION": 0, "NAME": "S.96", "path": "D:/TGS GEOJSON/add data baru/REIBERE/POINT/REIBERE__Patok Saluran.shx|layername=REIBERE__Patok Saluran" }, "geometry": { "type": "Point", "coordinates": [ 782561.794676231686026, 8996483.664090035483241 ] } },
{ "type": "Feature", "properties": { "LAYER": "Patok Saluran", "GM_TYPE": "Text", "ELEVATION": 0, "NAME": "S.97", "path": "D:/TGS GEOJSON/add data baru/REIBERE/POINT/REIBERE__Patok Saluran.shx|layername=REIBERE__Patok Saluran" }, "geometry": { "type": "Point", "coordinates": [ 782587.491154339397326, 8996449.739365307614207 ] } },
{ "type": "Feature", "properties": { "LAYER": "Patok Saluran", "GM_TYPE": "Text", "ELEVATION": 0, "NAME": "S.98", "path": "D:/TGS GEOJSON/add data baru/REIBERE/POINT/REIBERE__Patok Saluran.shx|layername=REIBERE__Patok Saluran" }, "geometry": { "type": "Point", "coordinates": [ 782613.236284433864057, 8996403.134801818057895 ] } },
{ "type": "Feature", "properties": { "LAYER": "Patok Saluran", "GM_TYPE": "Text", "ELEVATION": 0, "NAME": "S.99", "path": "D:/TGS GEOJSON/add data baru/REIBERE/POINT/REIBERE__Patok Saluran.shx|layername=REIBERE__Patok Saluran" }, "geometry": { "type": "Point", "coordinates": [ 782629.638801196822897, 8996361.252770556136966 ] } },
{ "type": "Feature", "properties": { "LAYER": "Patok Saluran", "GM_TYPE": "Text", "ELEVATION": 0, "NAME": "S.100", "path": "D:/TGS GEOJSON/add data baru/REIBERE/POINT/REIBERE__Patok Saluran.shx|layername=REIBERE__Patok Saluran" }, "geometry": { "type": "Point", "coordinates": [ 782638.195795424282551, 8996341.826547237113118 ] } },
{ "type": "Feature", "properties": { "LAYER": "Patok Saluran", "GM_TYPE": "Text", "ELEVATION": 0, "NAME": "S.101", "path": "D:/TGS GEOJSON/add data baru/REIBERE/POINT/REIBERE__Patok Saluran.shx|layername=REIBERE__Patok Saluran" }, "geometry": { "type": "Point", "coordinates": [ 782652.167744182981551, 8996326.192135302349925 ] } },
{ "type": "Feature", "properties": { "LAYER": "Patok Saluran", "GM_TYPE": "Text", "ELEVATION": 0, "NAME": "S.102", "path": "D:/TGS GEOJSON/add data baru/REIBERE/POINT/REIBERE__Patok Saluran.shx|layername=REIBERE__Patok Saluran" }, "geometry": { "type": "Point", "coordinates": [ 782669.896662399871275, 8996303.356677090749145 ] } },
{ "type": "Feature", "properties": { "LAYER": "Patok Saluran", "GM_TYPE": "Text", "ELEVATION": 0, "NAME": "S.103", "path": "D:/TGS GEOJSON/add data baru/REIBERE/POINT/REIBERE__Patok Saluran.shx|layername=REIBERE__Patok Saluran" }, "geometry": { "type": "Point", "coordinates": [ 782674.143735900521278, 8996263.28999769128859 ] } },
{ "type": "Feature", "properties": { "LAYER": "Patok Saluran", "GM_TYPE": "Text", "ELEVATION": 0, "NAME": "S.104", "path": "D:/TGS GEOJSON/add data baru/REIBERE/POINT/REIBERE__Patok Saluran.shx|layername=REIBERE__Patok Saluran" }, "geometry": { "type": "Point", "coordinates": [ 782657.842827247921377, 8996232.040206892415881 ] } },
{ "type": "Feature", "properties": { "LAYER": "Patok Saluran", "GM_TYPE": "Text", "ELEVATION": 0, "NAME": "S.105", "path": "D:/TGS GEOJSON/add data baru/REIBERE/POINT/REIBERE__Patok Saluran.shx|layername=REIBERE__Patok Saluran" }, "geometry": { "type": "Point", "coordinates": [ 782669.00541130034253, 8996184.365988867357373 ] } },
{ "type": "Feature", "properties": { "LAYER": "Patok Saluran", "GM_TYPE": "Text", "ELEVATION": 0, "NAME": "S.106", "path": "D:/TGS GEOJSON/add data baru/REIBERE/POINT/REIBERE__Patok Saluran.shx|layername=REIBERE__Patok Saluran" }, "geometry": { "type": "Point", "coordinates": [ 782675.70683777355589, 8996136.679545117542148 ] } },
{ "type": "Feature", "properties": { "LAYER": "Patok Saluran", "GM_TYPE": "Text", "ELEVATION": 0, "NAME": "S.107", "path": "D:/TGS GEOJSON/add data baru/REIBERE/POINT/REIBERE__Patok Saluran.shx|layername=REIBERE__Patok Saluran" }, "geometry": { "type": "Point", "coordinates": [ 782684.658682628534734, 8996093.369348967447877 ] } },
{ "type": "Feature", "properties": { "LAYER": "Patok Saluran", "GM_TYPE": "Text", "ELEVATION": 0, "NAME": "S.120", "path": "D:/TGS GEOJSON/add data baru/REIBERE/POINT/REIBERE__Patok Saluran.shx|layername=REIBERE__Patok Saluran" }, "geometry": { "type": "Point", "coordinates": [ 782667.523790328064933, 8995460.063393067568541 ] } },
{ "type": "Feature", "properties": { "LAYER": "Patok Saluran", "GM_TYPE": "Text", "ELEVATION": 0, "NAME": "S.121", "path": "D:/TGS GEOJSON/add data baru/REIBERE/POINT/REIBERE__Patok Saluran.shx|layername=REIBERE__Patok Saluran" }, "geometry": { "type": "Point", "coordinates": [ 782619.105562519049272, 8995441.904395174235106 ] } },
{ "type": "Feature", "properties": { "LAYER": "Patok Saluran", "GM_TYPE": "Text", "ELEVATION": 0, "NAME": "S.122", "path": "D:/TGS GEOJSON/add data baru/REIBERE/POINT/REIBERE__Patok Saluran.shx|layername=REIBERE__Patok Saluran" }, "geometry": { "type": "Point", "coordinates": [ 782576.607195884920657, 8995415.698382813483477 ] } },
{ "type": "Feature", "properties": { "LAYER": "Patok Saluran", "GM_TYPE": "Text", "ELEVATION": 0, "NAME": "S.123", "path": "D:/TGS GEOJSON/add data baru/REIBERE/POINT/REIBERE__Patok Saluran.shx|layername=REIBERE__Patok Saluran" }, "geometry": { "type": "Point", "coordinates": [ 782537.878572577144951, 8995391.289021577686071 ] } },
{ "type": "Feature", "properties": { "LAYER": "Patok Saluran", "GM_TYPE": "Text", "ELEVATION": 0, "NAME": "S.124", "path": "D:/TGS GEOJSON/add data baru/REIBERE/POINT/REIBERE__Patok Saluran.shx|layername=REIBERE__Patok Saluran" }, "geometry": { "type": "Point", "coordinates": [ 782501.297756954561919, 8995362.268508676439524 ] } },
{ "type": "Feature", "properties": { "LAYER": "Patok Saluran", "GM_TYPE": "Text", "ELEVATION": 0, "NAME": "S.125", "path": "D:/TGS GEOJSON/add data baru/REIBERE/POINT/REIBERE__Patok Saluran.shx|layername=REIBERE__Patok Saluran" }, "geometry": { "type": "Point", "coordinates": [ 782484.96247598901391, 8995331.565718520432711 ] } },
{ "type": "Feature", "properties": { "LAYER": "Patok Saluran", "GM_TYPE": "Text", "ELEVATION": 0, "NAME": "S.126", "path": "D:/TGS GEOJSON/add data baru/REIBERE/POINT/REIBERE__Patok Saluran.shx|layername=REIBERE__Patok Saluran" }, "geometry": { "type": "Point", "coordinates": [ 782477.947849426651374, 8995280.284115131944418 ] } },
{ "type": "Feature", "properties": { "LAYER": "Patok Saluran", "GM_TYPE": "Text", "ELEVATION": 0, "NAME": "S.108", "path": "D:/TGS GEOJSON/add data baru/REIBERE/POINT/REIBERE__Patok Saluran.shx|layername=REIBERE__Patok Saluran" }, "geometry": { "type": "Point", "coordinates": [ 782705.059054213808849, 8996039.742523498833179 ] } },
{ "type": "Feature", "properties": { "LAYER": "Patok Saluran", "GM_TYPE": "Text", "ELEVATION": 0, "NAME": "S.109", "path": "D:/TGS GEOJSON/add data baru/REIBERE/POINT/REIBERE__Patok Saluran.shx|layername=REIBERE__Patok Saluran" }, "geometry": { "type": "Point", "coordinates": [ 782704.77942677680403, 8995987.173925925046206 ] } },
{ "type": "Feature", "properties": { "LAYER": "Patok Saluran", "GM_TYPE": "Text", "ELEVATION": 0, "NAME": "S.110", "path": "D:/TGS GEOJSON/add data baru/REIBERE/POINT/REIBERE__Patok Saluran.shx|layername=REIBERE__Patok Saluran" }, "geometry": { "type": "Point", "coordinates": [ 782721.906591205159202, 8995936.949502196162939 ] } },
{ "type": "Feature", "properties": { "LAYER": "Patok Saluran", "GM_TYPE": "Text", "ELEVATION": 0, "NAME": "S.111", "path": "D:/TGS GEOJSON/add data baru/REIBERE/POINT/REIBERE__Patok Saluran.shx|layername=REIBERE__Patok Saluran" }, "geometry": { "type": "Point", "coordinates": [ 782728.139242802048102, 8995880.775004308670759 ] } },
{ "type": "Feature", "properties": { "LAYER": "Patok Saluran", "GM_TYPE": "Text", "ELEVATION": 0, "NAME": "Y.112", "path": "D:/TGS GEOJSON/add data baru/REIBERE/POINT/REIBERE__Patok Saluran.shx|layername=REIBERE__Patok Saluran" }, "geometry": { "type": "Point", "coordinates": [ 782717.884481325047091, 8995837.084438655525446 ] } },
{ "type": "Feature", "properties": { "LAYER": "Patok Saluran", "GM_TYPE": "Text", "ELEVATION": 0, "NAME": "S.113", "path": "D:/TGS GEOJSON/add data baru/REIBERE/POINT/REIBERE__Patok Saluran.shx|layername=REIBERE__Patok Saluran" }, "geometry": { "type": "Point", "coordinates": [ 782721.619761577108875, 8995789.494977079331875 ] } },
{ "type": "Feature", "properties": { "LAYER": "Patok Saluran", "GM_TYPE": "Text", "ELEVATION": 0, "NAME": "S.114", "path": "D:/TGS GEOJSON/add data baru/REIBERE/POINT/REIBERE__Patok Saluran.shx|layername=REIBERE__Patok Saluran" }, "geometry": { "type": "Point", "coordinates": [ 782727.270637419773266, 8995737.725195281207561 ] } },
{ "type": "Feature", "properties": { "LAYER": "Patok Saluran", "GM_TYPE": "Text", "ELEVATION": 0, "NAME": "S.115", "path": "D:/TGS GEOJSON/add data baru/REIBERE/POINT/REIBERE__Patok Saluran.shx|layername=REIBERE__Patok Saluran" }, "geometry": { "type": "Point", "coordinates": [ 782723.873340891906992, 8995687.918364964425564 ] } },
{ "type": "Feature", "properties": { "LAYER": "Patok Saluran", "GM_TYPE": "Text", "ELEVATION": 0, "NAME": "S.116", "path": "D:/TGS GEOJSON/add data baru/REIBERE/POINT/REIBERE__Patok Saluran.shx|layername=REIBERE__Patok Saluran" }, "geometry": { "type": "Point", "coordinates": [ 782724.688365872018039, 8995643.898333754390478 ] } },
{ "type": "Feature", "properties": { "LAYER": "Patok Saluran", "GM_TYPE": "Text", "ELEVATION": 0, "NAME": "S.117", "path": "D:/TGS GEOJSON/add data baru/REIBERE/POINT/REIBERE__Patok Saluran.shx|layername=REIBERE__Patok Saluran" }, "geometry": { "type": "Point", "coordinates": [ 782715.024843339109793, 8995596.545209776610136 ] } },
{ "type": "Feature", "properties": { "LAYER": "Patok Saluran", "GM_TYPE": "Text", "ELEVATION": 0, "NAME": "S.118", "path": "D:/TGS GEOJSON/add data baru/REIBERE/POINT/REIBERE__Patok Saluran.shx|layername=REIBERE__Patok Saluran" }, "geometry": { "type": "Point", "coordinates": [ 782713.482652995036915, 8995539.833639301359653 ] } },
{ "type": "Feature", "properties": { "LAYER": "Patok Saluran", "GM_TYPE": "Text", "ELEVATION": 0, "NAME": "S.130", "path": "D:/TGS GEOJSON/add data baru/REIBERE/POINT/REIBERE__Patok Saluran.shx|layername=REIBERE__Patok Saluran" }, "geometry": { "type": "Point", "coordinates": [ 782469.131100418628193, 8995229.245951512828469 ] } },
{ "type": "Feature", "properties": { "LAYER": "Patok Saluran", "GM_TYPE": "Text", "ELEVATION": 0, "NAME": "S.131", "path": "D:/TGS GEOJSON/add data baru/REIBERE/POINT/REIBERE__Patok Saluran.shx|layername=REIBERE__Patok Saluran" }, "geometry": { "type": "Point", "coordinates": [ 782471.288208061829209, 8995129.137332046404481 ] } },
{ "type": "Feature", "properties": { "LAYER": "Patok Saluran", "GM_TYPE": "Text", "ELEVATION": 0, "NAME": "S.132", "path": "D:/TGS GEOJSON/add data baru/REIBERE/POINT/REIBERE__Patok Saluran.shx|layername=REIBERE__Patok Saluran" }, "geometry": { "type": "Point", "coordinates": [ 782457.303446138626896, 8995021.704463632777333 ] } },
{ "type": "Feature", "properties": { "LAYER": "Patok Saluran", "GM_TYPE": "Text", "ELEVATION": 0, "NAME": "S.133", "path": "D:/TGS GEOJSON/add data baru/REIBERE/POINT/REIBERE__Patok Saluran.shx|layername=REIBERE__Patok Saluran" }, "geometry": { "type": "Point", "coordinates": [ 782457.340236333548091, 8994938.506819961592555 ] } }
]
}
