{
"type": "FeatureCollection",
"name": "26_rei_ar_irrigation",
"crs": { "type": "name", "properties": { "name": "urn:ogc:def:crs:EPSG::32751" } },
"features": [
{ "type": "Feature", "properties": { "LAYER": "Unknown Area Type", "Id": 0, "Name": "Irrigation Canal" }, "geometry": { "type": "MultiPolygon", "coordinates": [ [ [ [ 781149.891697937855497, 8998919.274636030197144 ], [ 781149.938526562415063, 8998919.208361610770226 ], [ 781167.500000689993612, 8998902.254652408882976 ], [ 781170.619851764291525, 8998898.761298036202788 ], [ 781186.441966741345823, 8998883.256683697924018 ], [ 781198.242407009936869, 8998872.355828559026122 ], [ 781205.915339021012187, 8998864.471229458227754 ], [ 781210.042847275733948, 8998859.126635435968637 ], [ 781214.011605214327574, 8998854.205375591292977 ], [ 781216.181192887015641, 8998849.866200245916843 ], [ 781218.509530875831842, 8998843.992438498884439 ], [ 781230.442263074219227, 8998815.946549070999026 ], [ 781243.459789110347629, 8998787.371491923928261 ], [ 781263.885663295164704, 8998741.968901120126247 ], [ 781279.443194409832358, 8998719.955523757264018 ], [ 781284.62903811596334, 8998710.642171796411276 ], [ 781321.564945320598781, 8998674.552932957187295 ], [ 781338.286645432002842, 8998659.312902476638556 ], [ 781383.795069781132042, 8998615.180314211174846 ], [ 781396.918429359793663, 8998590.203597586601973 ], [ 781412.899294655770063, 8998557.606865728273988 ], [ 781424.785834917798638, 8998533.054254960268736 ], [ 781435.759340376593173, 8998489.767563382163644 ], [ 781442.321020166389644, 8998466.272516392171383 ], [ 781444.861025244928896, 8998462.250841682776809 ], [ 781446.090766528737731, 8998460.823463406413794 ], [ 781445.438506532111205, 8998460.823078660294414 ], [ 781444.371545099653304, 8998462.052403789013624 ], [ 781441.857998407445848, 8998466.087307691574097 ], [ 781435.111109912395477, 8998489.701417418196797 ], [ 781424.111146069131792, 8998532.789671095088124 ], [ 781412.356897736899555, 8998557.43488621711731 ], [ 781396.481865986250341, 8998589.912555336952209 ], [ 781383.31881882622838, 8998614.717292446643114 ], [ 781352.29636094905436, 8998644.879852773621678 ], [ 781333.775490574538708, 8998662.73926349170506 ], [ 781319.355670066550374, 8998675.836164684966207 ], [ 781306.192622907459736, 8998688.734627980738878 ], [ 781292.897283817641437, 8998701.566945312544703 ], [ 781284.099870390258729, 8998710.165920844301581 ], [ 781278.808193138800561, 8998719.955523757264018 ], [ 781263.263891217298806, 8998741.651400482282043 ], [ 781242.890933804214001, 8998787.093678863719106 ], [ 781229.794032610952854, 8998815.734881980344653 ], [ 781215.308066138997674, 8998849.53547041490674 ], [ 781213.323687169700861, 8998853.834958184510469 ], [ 781205.386171295307577, 8998864.087582852691412 ], [ 781197.58094735071063, 8998871.760514864698052 ], [ 781180.647580150514841, 8998887.635546615347266 ], [ 781167.749116853810847, 8998900.732447808608413 ], [ 781155.049091454595327, 8998912.17569986358285 ], [ 781150.281099961604923, 8998916.323704846203327 ], [ 781148.493859502021223, 8998917.87854871340096 ], [ 781149.891697937855497, 8998919.274636030197144 ] ] ] ] } }
]
}
