{
"type": "FeatureCollection",
"name": "26_rei_ar_wing",
"crs": { "type": "name", "properties": { "name": "urn:ogc:def:crs:EPSG::32751" } },
"features": [
{ "type": "Feature", "properties": { "LAYER": "Unknown Area Type", "Id": 0, "Name": "Wing Wall" }, "geometry": { "type": "MultiPolygon", "coordinates": [ [ [ [ 781096.430165193974972, 8998953.112562669441104 ], [ 781096.390973801724613, 8998953.094481820240617 ], [ 781096.26281544752419, 8998953.422066491097212 ], [ 781096.115010807290673, 8998953.795071745291352 ], [ 781095.032147213816643, 8998956.517855148762465 ], [ 781093.004450090229511, 8998961.616355186328292 ], [ 781092.820810268633068, 8998962.252031497657299 ], [ 781092.798074676655233, 8998962.330731615424156 ], [ 781092.829351988621056, 8998962.825411206111312 ], [ 781092.896012281998992, 8998963.384420473128557 ], [ 781093.93181652855128, 8998965.267612485215068 ], [ 781095.095985523425043, 8998966.696365343406796 ], [ 781096.197178142145276, 8998967.838342871516943 ], [ 781096.524738380685449, 8998968.178034972399473 ], [ 781096.745665905997157, 8998968.093368140980601 ], [ 781095.263996274210513, 8998966.484698258340359 ], [ 781094.142160696908832, 8998965.06652875803411 ], [ 781093.953673638403416, 8998964.721637543290854 ], [ 781093.147325375117362, 8998963.246191781014204 ], [ 781093.041573549620807, 8998962.315575713291764 ], [ 781093.878989996388555, 8998960.033929834142327 ], [ 781093.95819788146764, 8998959.832429487258196 ], [ 781094.567895107902586, 8998958.281394507735968 ], [ 781096.337841918691993, 8998953.778750715777278 ], [ 781096.573686394840479, 8998953.178775809705257 ], [ 781096.430165193974972, 8998953.112562669441104 ] ] ] ] } },
{ "type": "Feature", "properties": { "LAYER": "Unknown Area Type", "Id": 0, "Name": "Wing Wall" }, "geometry": { "type": "MultiPolygon", "coordinates": [ [ [ [ 781103.09417062625289, 8998936.29094797000289 ], [ 781104.873340883292258, 8998931.70263946801424 ], [ 781107.123303764499724, 8998925.946396257728338 ], [ 781108.030106378719211, 8998923.626457367092371 ], [ 781108.108540060929954, 8998923.425794787704945 ], [ 781108.227602802217007, 8998923.319961246103048 ], [ 781108.445884489454329, 8998923.273659069091082 ], [ 781109.027968985959888, 8998923.498555351048708 ], [ 781110.084981516934931, 8998923.874705407768488 ], [ 781110.111276646144688, 8998923.78905688598752 ], [ 781110.105557846836746, 8998923.78709371574223 ], [ 781110.156387467868626, 8998923.655534697696567 ], [ 781108.448297922499478, 8998923.013089077547193 ], [ 781108.321297667920589, 8998923.002505723387003 ], [ 781108.247214187867939, 8998923.007797403261065 ], [ 781108.146672319620848, 8998923.044839145615697 ], [ 781108.099047224037349, 8998923.087172562256455 ], [ 781108.031052182428539, 8998923.220774814486504 ], [ 781107.006823851726949, 8998925.750822285190225 ], [ 781106.859300867654383, 8998926.115233369171619 ], [ 781106.069870289415121, 8998928.065283736214042 ], [ 781105.965675609186292, 8998928.32266529276967 ], [ 781105.052321895956993, 8998930.578830430284142 ], [ 781104.730768137611449, 8998931.373132096603513 ], [ 781104.074939884245396, 8998932.993158174678683 ], [ 781103.782252759672701, 8998933.716153530403972 ], [ 781103.155231719836593, 8998935.265020063146949 ], [ 781102.764607501216233, 8998935.07057155109942 ], [ 781102.683089624159038, 8998935.354569146409631 ], [ 781102.544185216538608, 8998935.838493902236223 ], [ 781102.178812087513506, 8998937.111405994743109 ], [ 781101.944520490244031, 8998937.927647210657597 ], [ 781101.873837794177234, 8998938.1738964561373 ], [ 781101.81651718635112, 8998938.373593943193555 ], [ 781101.532677095383406, 8998939.362455613911152 ], [ 781101.394242259673774, 8998939.922167833894491 ], [ 781101.365769238211215, 8998939.997897429391742 ], [ 781100.925084521062672, 8998941.168799528852105 ], [ 781100.790594707243145, 8998941.527687067165971 ], [ 781100.207307367585599, 8998943.076055195182562 ], [ 781100.161159524694085, 8998943.193637356162071 ], [ 781099.958056678064167, 8998943.716951141133904 ], [ 781099.838036485016346, 8998944.02619456872344 ], [ 781099.514913441613317, 8998944.858751783147454 ], [ 781098.983822621405125, 8998946.327061705291271 ], [ 781098.892793114297092, 8998946.568942548707128 ], [ 781098.308182823471725, 8998948.122351255267859 ], [ 781097.659789435565472, 8998949.845242476090789 ], [ 781097.562828373163939, 8998950.119483286514878 ], [ 781097.944882937707007, 8998950.282326627522707 ], [ 781097.946527040563524, 8998950.277861040085554 ], [ 781098.297015693038702, 8998949.296492813155055 ], [ 781098.894604929722846, 8998947.623242950066924 ], [ 781100.650367896072567, 8998942.707106644287705 ], [ 781101.16519805137068, 8998941.265582207590342 ], [ 781103.019269469194114, 8998936.484110841527581 ], [ 781103.09417062625289, 8998936.29094797000289 ] ] ] ] } },
{ "type": "Feature", "properties": { "LAYER": "Unknown Area Type", "Id": 0, "Name": "Wing Wall" }, "geometry": { "type": "MultiPolygon", "coordinates": [ [ [ [ 781036.546492445282638, 8998888.863074315711856 ], [ 781035.663951709866524, 8998888.507712541148067 ], [ 781035.522192529402673, 8998888.766789652407169 ], [ 781038.660717181861401, 8998890.039357738569379 ], [ 781039.669220866635442, 8998890.439799167215824 ], [ 781042.859513085335493, 8998891.612046077847481 ], [ 781048.025513003580272, 8998893.976764341816306 ], [ 781048.422388794831932, 8998896.119893629103899 ], [ 781048.463427877053618, 8998897.938160127028823 ], [ 781048.106239662505686, 8998899.724101195111871 ], [ 781047.907463897019625, 8998900.132739424705505 ], [ 781046.596760143525898, 8998904.692410772666335 ], [ 781041.834250618703663, 8998915.090556571260095 ], [ 781039.92924680840224, 8998921.519944431260228 ], [ 781039.135495222173631, 8998924.377450143918395 ], [ 781038.897369744256139, 8998927.949332285672426 ], [ 781038.839150020852685, 8998928.642882451415062 ], [ 781037.014356400817633, 8998933.516924023628235 ], [ 781036.06593142170459, 8998936.321175560355186 ], [ 781034.849236649461091, 8998939.299979992210865 ], [ 781033.65859685651958, 8998940.061989458277822 ], [ 781023.964751726016402, 8998944.059683196246624 ], [ 781018.8833531672135, 8998946.108173463493586 ], [ 781015.770315037108958, 8998947.43405426107347 ], [ 781015.084822121076286, 8998947.793121982365847 ], [ 781015.222614945843816, 8998947.955409798771143 ], [ 781015.712507502175868, 8998947.760676378384233 ], [ 781016.724833569489419, 8998947.358274430036545 ], [ 781025.934065115638077, 8998943.697583654895425 ], [ 781029.696514180861413, 8998942.202001476660371 ], [ 781030.792855156585574, 8998941.766203410923481 ], [ 781033.866516813635826, 8998940.54441580735147 ], [ 781034.428757523186505, 8998940.312904927879572 ], [ 781034.957925249822438, 8998939.783737203106284 ], [ 781036.876819706521928, 8998935.240611795336008 ], [ 781038.2995426338166, 8998931.349559035152197 ], [ 781038.36286735534668, 8998931.189728643745184 ], [ 781038.635640936903656, 8998930.501253355294466 ], [ 781038.916761289350688, 8998929.69096527993679 ], [ 781039.197881642729044, 8998928.880677197128534 ], [ 781039.330173576250672, 8998928.252290526404977 ], [ 781039.429392525926232, 8998927.392392970621586 ], [ 781039.363261627964675, 8998926.43939913623035 ], [ 781039.436508997343481, 8998925.075590897351503 ], [ 781039.436877749860287, 8998925.068724995478988 ], [ 781040.032714164815843, 8998922.829465873539448 ], [ 781042.094827479682863, 8998915.519968938082457 ], [ 781042.685073261149228, 8998914.119679654017091 ], [ 781046.984055961482227, 8998904.680553818121552 ], [ 781048.230639441870153, 8998900.110446717590094 ], [ 781048.332110742107034, 8998899.9127526152879 ], [ 781048.781903316266835, 8998897.915144452825189 ], [ 781048.702528157271445, 8998896.274724505841732 ], [ 781048.30565236415714, 8998894.078678447753191 ], [ 781048.267287698574364, 8998893.80439318343997 ], [ 781042.509942846372724, 8998891.116221141070127 ], [ 781039.356103206053376, 8998889.994385564699769 ], [ 781036.546492445282638, 8998888.863074315711856 ] ] ] ] } }
]
}
