{
"type": "FeatureCollection",
"name": "26_rei_ar_access",
"crs": { "type": "name", "properties": { "name": "urn:ogc:def:crs:EPSG::32751" } },
"features": [
{ "type": "Feature", "properties": { "LAYER": "Unknown Area Type", "Id": 0, "Name": "Access Stair" }, "geometry": { "type": "MultiPolygon", "coordinates": [ [ [ [ 781101.038407142274082, 8998941.620596759021282 ], [ 781100.650367897003889, 8998942.707106644287705 ], [ 781100.14827998355031, 8998944.11295280046761 ], [ 781100.862788825295866, 8998944.334116602316499 ], [ 781101.656540414318442, 8998944.704534014686942 ], [ 781102.318000069819391, 8998945.207243353128433 ], [ 781102.741334249265492, 8998945.868703005835414 ], [ 781102.953001338988543, 8998946.874121682718396 ], [ 781102.820709408260882, 8998948.0647490657866 ], [ 781102.503208774141967, 8998949.20245967246592 ], [ 781102.053416207432747, 8998950.181419964879751 ], [ 781101.479223882779479, 8998950.968672208487988 ], [ 781101.36237991694361, 8998951.22966013289988 ], [ 781101.170901696197689, 8998951.657354481518269 ], [ 781101.219504627399147, 8998951.678070534020662 ], [ 781101.36237991694361, 8998951.735681537538767 ], [ 781103.076459997333586, 8998952.426842859014869 ], [ 781104.286153990775347, 8998952.914622697979212 ], [ 781104.884463536553085, 8998951.319130573421717 ], [ 781104.03779517672956, 8998951.028088325634599 ], [ 781104.725713218562305, 8998949.387668378651142 ], [ 781105.016755467280746, 8998948.197040995582938 ], [ 781105.175505785271525, 8998946.953496841713786 ], [ 781105.096130626276135, 8998945.948078168556094 ], [ 781104.646338059566915, 8998944.783909171819687 ], [ 781103.984878403134644, 8998943.857865650206804 ], [ 781103.058834886178374, 8998942.905363749712706 ], [ 781102.053416207432747, 8998942.349737634882331 ], [ 781102.185708137229085, 8998942.058695387095213 ], [ 781101.038407142274082, 8998941.620596759021282 ] ] ] ] } }
]
}
