{
"type": "FeatureCollection",
"name": "26_rei_ar_downstream",
"crs": { "type": "name", "properties": { "name": "urn:ogc:def:crs:EPSG::32751" } },
"features": [
{ "type": "Feature", "properties": { "LAYER": "Unknown Area Type", "Id": 0, "Name": "Downstream Flow" }, "geometry": { "type": "MultiPolygon", "coordinates": [ [ [ [ 781102.683089624159038, 8998935.354569146409631 ], [ 781102.764607503078878, 8998935.07057155109942 ], [ 781103.155231719836593, 8998935.265020063146949 ], [ 781103.782252759672701, 8998933.716153530403972 ], [ 781104.074939886108041, 8998932.993158176541328 ], [ 781104.730768137611449, 8998931.373132096603513 ], [ 781104.890778657048941, 8998930.977874325588346 ], [ 781105.052321900613606, 8998930.578830430284142 ], [ 781105.965675613842905, 8998928.322665294632316 ], [ 781106.069870294071734, 8998928.065283736214042 ], [ 781106.859300872310996, 8998926.115233369171619 ], [ 781107.006823851726949, 8998925.750822285190225 ], [ 781108.031052182428539, 8998923.220774814486504 ], [ 781108.099047224037349, 8998923.087172565981746 ], [ 781108.146672319620848, 8998923.044839149340987 ], [ 781108.247214187867939, 8998923.007797412574291 ], [ 781108.321297672577202, 8998923.002505723387003 ], [ 781108.448297927156091, 8998923.013089077547193 ], [ 781110.156387467868626, 8998923.655534697696567 ], [ 781111.768299240618944, 8998919.483527753502131 ], [ 781112.165175036527216, 8998919.152797926217318 ], [ 781115.186681390739977, 8998920.29357073828578 ], [ 781115.406327350065112, 8998920.3764982894063 ], [ 781115.772109085693955, 8998920.544429218396544 ], [ 781116.672956441529095, 8998920.958009550347924 ], [ 781121.461924347095191, 8998922.863013360649347 ], [ 781122.381353276781738, 8998922.446293780580163 ], [ 781129.802930612117052, 8998915.778780445456505 ], [ 781138.573885656893253, 8998907.603139093145728 ], [ 781138.712430762127042, 8998907.466793119907379 ], [ 781138.818519222550094, 8998907.362388608977199 ], [ 781138.766877543181181, 8998907.309914002195001 ], [ 781139.618952807970345, 8998906.430644849315286 ], [ 781144.984598315320909, 8998900.893755337223411 ], [ 781151.929924702271819, 8998894.742180529981852 ], [ 781157.421477132476866, 8998889.369447438046336 ], [ 781162.183986662887037, 8998879.791511615738273 ], [ 781163.030655018985271, 8998877.145672986283898 ], [ 781163.732360985130072, 8998873.173139834776521 ], [ 781166.801533787511289, 8998865.870625233277678 ], [ 781171.1407091319561, 8998860.049780255183578 ], [ 781176.644053472205997, 8998856.028105542063713 ], [ 781180.69747824408114, 8998853.040071789175272 ], [ 781183.978318141773343, 8998852.775487931445241 ], [ 781186.094989039935172, 8998853.410489197820425 ], [ 781188.370410262607038, 8998853.516322739422321 ], [ 781191.492499835789204, 8998854.78632528334856 ], [ 781194.085421687923372, 8998855.050909142941236 ], [ 781196.255009360611439, 8998854.362991100177169 ], [ 781196.784177090041339, 8998853.304655650630593 ], [ 781196.413759676739573, 8998851.505485387519002 ], [ 781195.990425502881408, 8998849.970898985862732 ], [ 781192.974169472232461, 8998847.007559726014733 ], [ 781191.492499835789204, 8998846.107974596321583 ], [ 781190.539997930638492, 8998844.785055285319686 ], [ 781190.645831476897001, 8998843.144635334610939 ], [ 781190.857498564757407, 8998841.71588247269392 ], [ 781193.60917074047029, 8998836.371288456022739 ], [ 781198.107096398249269, 8998830.81502733938396 ], [ 781201.5996033847332, 8998826.68751909211278 ], [ 781203.398773647844791, 8998822.295426966622472 ], [ 781209.484202493913472, 8998814.516661409288645 ], [ 781210.542537936009467, 8998813.511242737993598 ], [ 781210.542537936009467, 8998811.817906010895967 ], [ 781211.389206301420927, 8998810.283319611102343 ], [ 781212.324409129098058, 8998809.404795741662383 ], [ 781213.13545979373157, 8998808.642899664118886 ], [ 781214.670046189799905, 8998806.261644903570414 ], [ 781217.633385448716581, 8998799.594131568446755 ], [ 781219.644222812727094, 8998793.667453048750758 ], [ 781222.607562064193189, 8998785.571186853572726 ], [ 781224.14214847330004, 8998784.883268810808659 ], [ 781225.306317463517189, 8998783.877850135788321 ], [ 781225.676734874024987, 8998782.660764373838902 ], [ 781225.517984558828175, 8998779.803258653730154 ], [ 781224.406732330098748, 8998777.051586484536529 ], [ 781224.830066511407495, 8998773.664913043379784 ], [ 781226.417569684796035, 8998769.00823706202209 ], [ 781228.428407040424645, 8998765.145312676206231 ], [ 781229.116325084120035, 8998759.536134783178568 ], [ 781232.50299852527678, 8998748.423612557351589 ], [ 781234.831336511299014, 8998744.71943848207593 ], [ 781236.630506777204573, 8998740.750680545344949 ], [ 781237.741759000346065, 8998737.099423246458173 ], [ 781238.694260905496776, 8998732.601497584953904 ], [ 781239.435095720924437, 8998727.203986784443259 ], [ 781241.49884984921664, 8998720.853974089026451 ], [ 781243.721354292705655, 8998718.896053502336144 ], [ 781245.626358105801046, 8998714.451044613495469 ], [ 781245.890941970050335, 8998711.752289218828082 ], [ 781246.314276145771146, 8998709.05353382229805 ], [ 781247.108027734793723, 8998706.936862917616963 ], [ 781248.060529639944434, 8998704.978942334651947 ], [ 781248.854281228967011, 8998703.49727270565927 ], [ 781249.806783131323755, 8998701.433518577367067 ], [ 781250.441784402355552, 8998699.846015408635139 ], [ 781251.394286307506263, 8998696.565175509080291 ], [ 781252.082204353064299, 8998692.808084663003683 ], [ 781253.669707528315485, 8998688.098491907119751 ], [ 781255.257210706360638, 8998684.658901700749993 ], [ 781256.156795832328498, 8998681.642645662650466 ], [ 781256.738880331628025, 8998678.30888899974525 ], [ 781257.003464195877314, 8998673.810963336378336 ], [ 781259.067218324169517, 8998668.254702219739556 ], [ 781260.072636999189854, 8998666.6142822727561 ], [ 781260.707638265565038, 8998665.344279732555151 ], [ 781261.078055673278868, 8998662.804274652153254 ], [ 781260.996019160374999, 8998662.004418633878231 ], [ 781260.866388583555818, 8998660.740520525723696 ], [ 781261.078055673278868, 8998659.153017353266478 ], [ 781261.501389854587615, 8998658.200515445321798 ], [ 781261.818890488706529, 8998656.877596132457256 ], [ 781262.877225944772363, 8998655.448843281716108 ], [ 781263.72389429807663, 8998653.54383946955204 ], [ 781264.782229754142463, 8998651.268418248742819 ], [ 781265.205563928000629, 8998649.363414442166686 ], [ 781265.893481975421309, 8998646.876326134428382 ], [ 781266.475566467270255, 8998645.659240366891026 ], [ 781267.004734198562801, 8998644.600904913619161 ], [ 781267.216401284560561, 8998644.124653963372111 ], [ 781267.375151600688696, 8998642.695901107043028 ], [ 781268.182132388465106, 8998641.575829420238733 ], [ 781269.042029933072627, 8998640.385202035307884 ], [ 781269.70348959043622, 8998638.632333945482969 ], [ 781270.265730304643512, 8998635.424254614859819 ], [ 781270.65929879900068, 8998631.706851350143552 ], [ 781271.38690441660583, 8998628.333407105877995 ], [ 781272.114510037004948, 8998625.422984616830945 ], [ 781272.908261626027524, 8998622.578708095476031 ], [ 781273.503575322218239, 8998620.197453333064914 ], [ 781275.6202462175861, 8998617.816198572516441 ], [ 781277.406187288463116, 8998616.691717153415084 ], [ 781277.897258004173636, 8998616.411105327308178 ], [ 781279.2582743242383, 8998615.633381702005863 ], [ 781280.052025913260877, 8998612.855251148343086 ], [ 781280.991298633627594, 8998609.905141081660986 ], [ 781281.652758284471929, 8998606.267112972214818 ], [ 781281.71890424657613, 8998602.099917139858007 ], [ 781280.726714768446982, 8998596.080634268000722 ], [ 781280.468194923363626, 8998593.59884381480515 ], [ 781279.66923183016479, 8998593.199194407090545 ], [ 781280.46298342011869, 8998589.865437740460038 ], [ 781281.045067921280861, 8998587.801683612167835 ], [ 781282.20923691149801, 8998585.36751208268106 ], [ 781282.950071735307574, 8998582.880423771217465 ], [ 781282.632571096532047, 8998581.134170277044177 ], [ 781282.844238182529807, 8998579.493750331923366 ], [ 781284.220074272714555, 8998577.482912974432111 ], [ 781285.172576177865267, 8998575.630825938656926 ], [ 781286.654245804995298, 8998573.567071810364723 ], [ 781287.659664479084313, 8998571.397484136745334 ], [ 781288.717999928630888, 8998569.598313875496387 ], [ 781289.511751517653465, 8998566.211640432476997 ], [ 781289.723418607376516, 8998563.036634083837271 ], [ 781290.14675278775394, 8998562.401632817462087 ], [ 781290.993421146646142, 8998561.819548321887851 ], [ 781292.470677891746163, 8998561.619661271572113 ], [ 781293.162156301550567, 8998559.766499139368534 ], [ 781294.881951405666769, 8998558.443579828366637 ], [ 781296.469454581849277, 8998554.805551713332534 ], [ 781297.593935997225344, 8998549.580020435154438 ], [ 781297.263206168077886, 8998545.545116532593966 ], [ 781297.924665826372802, 8998539.19234774261713 ], [ 781299.512169001623988, 8998535.818903494626284 ], [ 781300.835088313557208, 8998533.206137856468558 ], [ 781303.745510807260871, 8998531.12253993935883 ], [ 781306.32520345877856, 8998529.931912554427981 ], [ 781307.085882064886391, 8998528.50977429561317 ], [ 781307.581976807676256, 8998526.16159251332283 ], [ 781308.144217514432967, 8998522.358199490234256 ], [ 781308.406596511602402, 8998519.926232827827334 ], [ 781309.478161157108843, 8998516.592476161196828 ], [ 781310.827538858167827, 8998513.774658020585775 ], [ 781312.335666875354946, 8998511.472778417170048 ], [ 781313.248481195420027, 8998509.528087032958865 ], [ 781314.121607941575348, 8998507.940583854913712 ], [ 781315.07410984672606, 8998506.869019210338593 ], [ 781316.502862703986466, 8998505.400578772649169 ], [ 781316.701300607062876, 8998503.535262545570731 ], [ 781317.137863972224295, 8998502.424010319635272 ], [ 781318.090365880168974, 8998500.241193456575274 ], [ 781319.241305687464774, 8998498.217126905918121 ], [ 781320.550995798781514, 8998496.272435516119003 ], [ 781321.503497706726193, 8998492.263990003615618 ], [ 781322.932250562123954, 8998488.493669968098402 ], [ 781324.79756679944694, 8998485.1996008772403 ], [ 781326.464445131830871, 8998482.223032426089048 ], [ 781327.734447673894465, 8998479.444901863113046 ], [ 781328.250386198051274, 8998477.619273217394948 ], [ 781328.171011041849852, 8998474.960205394774675 ], [ 781327.734447673894465, 8998472.499575473368168 ], [ 781327.53600976895541, 8998470.63425925001502 ], [ 781328.290073783136904, 8998467.856128687039018 ], [ 781329.36163841933012, 8998466.348000675439835 ], [ 781330.504640706814826, 8998465.750041142106056 ], [ 781331.933393565937877, 8998464.956289557740092 ], [ 781332.621311606839299, 8998463.47461992315948 ], [ 781333.203396108001471, 8998462.151700610294938 ], [ 781333.879481930285692, 8998460.757273592054844 ], [ 781322.577973552979529, 8998460.750615460798144 ], [ 781314.45983558986336, 8998460.745832769200206 ], [ 781295.422896929085255, 8998460.734617413952947 ], [ 781275.075714546255767, 8998460.722630146890879 ], [ 781141.616205226629972, 8998460.644004283472896 ], [ 781141.910671260207891, 8998464.341188928112388 ], [ 781141.116919671185315, 8998472.543288664892316 ], [ 781138.867956839501858, 8998479.290177159011364 ], [ 781137.148161737248302, 8998484.71414634399116 ], [ 781133.311695727519691, 8998495.429792776703835 ], [ 781133.311695727519691, 8998513.024619629606605 ], [ 781133.840863456949592, 8998531.148614212870598 ], [ 781133.576279594562948, 8998552.579907072708011 ], [ 781133.04711186978966, 8998559.062211707234383 ], [ 781128.0200184751302, 8998570.836193589493632 ], [ 781124.977304060012102, 8998577.450790148228407 ], [ 781122.728341232985258, 8998582.477883534505963 ], [ 781118.759583294391632, 8998589.886231685057282 ], [ 781113.997073769569397, 8998601.13104584440589 ], [ 781113.203322177752852, 8998607.613350473344326 ], [ 781113.997073769569397, 8998615.550866352394223 ], [ 781115.716868869960308, 8998622.430046776309609 ], [ 781121.670005775056779, 8998640.289457494392991 ], [ 781121.670005775056779, 8998649.682184610515833 ], [ 781120.347086470574141, 8998661.985334221273661 ], [ 781118.494999427348375, 8998672.039520991966128 ], [ 781120.082502601668239, 8998679.580161074176431 ], [ 781122.992925090715289, 8998683.019751286134124 ], [ 781128.681478138081729, 8998684.871838321909308 ], [ 781133.443987658247352, 8998688.311428537592292 ], [ 781142.3893475625664, 8998693.679504372179508 ], [ 781142.653931431472301, 8998706.114945909008384 ], [ 781139.611217008903623, 8998720.534766415134072 ], [ 781138.288297699764371, 8998734.69000305980444 ], [ 781137.494546112604439, 8998747.91919619217515 ], [ 781136.965378381311893, 8998755.195252407342196 ], [ 781136.303918730467558, 8998760.486929656937718 ], [ 781134.319539761170745, 8998764.058811796829104 ], [ 781131.541409205645323, 8998767.233818151056767 ], [ 781129.424738302826881, 8998770.011948704719543 ], [ 781124.133061051368713, 8998775.0390420909971 ], [ 781120.032011185772717, 8998777.420296853408217 ], [ 781115.004917796701193, 8998781.389054797589779 ], [ 781110.24240826908499, 8998785.093228869140148 ], [ 781106.405942264012992, 8998789.061986807733774 ], [ 781105.479898744262755, 8998791.707825433462858 ], [ 781103.363227843306959, 8998793.956788260489702 ], [ 781101.114265012554824, 8998793.956788260489702 ], [ 781097.939258662983775, 8998793.692204399034381 ], [ 781095.822587767615914, 8998794.750539852306247 ], [ 781095.690295831300318, 8998798.587005855515599 ], [ 781097.013215147890151, 8998805.333894349634647 ], [ 781095.558003900572658, 8998809.56723615154624 ], [ 781088.017363819293678, 8998817.240168161690235 ], [ 781078.756928631104529, 8998825.045392109081149 ], [ 781072.010040139779449, 8998830.204777425155044 ], [ 781066.718362887389958, 8998832.718324117362499 ], [ 781062.220437224954367, 8998834.305827293545008 ], [ 781059.177722811698914, 8998836.687082055956125 ], [ 781057.854803493246436, 8998839.862088410183787 ], [ 781060.359123463742435, 8998841.262969417497516 ], [ 781061.099958281032741, 8998843.062139686197042 ], [ 781060.835374418646097, 8998844.861309947445989 ], [ 781059.459538337774575, 8998846.660480212420225 ], [ 781057.819118382409215, 8998848.142149843275547 ], [ 781056.8136997083202, 8998849.094651749357581 ], [ 781056.231615209020674, 8998850.52340461499989 ], [ 781055.543697169050574, 8998853.169243237003684 ], [ 781055.173279765062034, 8998854.650912865996361 ], [ 781054.009110767394304, 8998855.391747675836086 ], [ 781052.051190183497965, 8998856.873417306691408 ], [ 781049.617018651217222, 8998860.313007522374392 ], [ 781046.653679387643933, 8998864.969683507457376 ], [ 781044.589925258420408, 8998870.949278796091676 ], [ 781044.642842031084001, 8998873.595117418095469 ], [ 781045.542427166365087, 8998876.18803927116096 ], [ 781045.277843301184475, 8998878.145959855988622 ], [ 781044.325341396965086, 8998879.204295309260488 ], [ 781043.53158980794251, 8998879.945130119100213 ], [ 781042.208670498803258, 8998881.162215890362859 ], [ 781041.914885857142508, 8998881.731423635035753 ], [ 781040.066859011538327, 8998883.194444879889488 ], [ 781036.891852660104632, 8998886.263617685064673 ], [ 781035.663951709866524, 8998888.507712541148067 ], [ 781036.546492445282638, 8998888.863074315711856 ], [ 781039.356103206053376, 8998889.994385564699769 ], [ 781042.509942846372724, 8998891.116221141070127 ], [ 781048.267287698574364, 8998893.80439318343997 ], [ 781048.305652361363173, 8998894.078678447753191 ], [ 781048.7025281554088, 8998896.274724505841732 ], [ 781048.78190331440419, 8998897.915144452825189 ], [ 781048.557007028721273, 8998898.913948537781835 ], [ 781048.332110742107034, 8998899.9127526152879 ], [ 781048.230639434419572, 8998900.110446717590094 ], [ 781046.984055961482227, 8998904.680553818121552 ], [ 781042.685073261149228, 8998914.119679654017091 ], [ 781042.389950370416045, 8998914.819824296981096 ], [ 781101.81651718635112, 8998938.373593943193555 ], [ 781101.873837798833847, 8998938.1738964561373 ], [ 781101.944520490244031, 8998937.927647210657597 ], [ 781102.178812087513506, 8998937.111405994743109 ], [ 781102.544185216538608, 8998935.838493905961514 ], [ 781102.683089624159038, 8998935.354569146409631 ] ] ] ] } }
]
}
