{
"type": "FeatureCollection",
"name": "26_rei_ar_weirbody",
"crs": { "type": "name", "properties": { "name": "urn:ogc:def:crs:EPSG::32751" } },
"features": [
{ "type": "Feature", "properties": { "LAYER": "Unknown Area Type", "Id": 0, "Name": "Weir Body" }, "geometry": { "type": "MultiPolygon", "coordinates": [ [ [ [ 781051.846069022081792, 8998926.939614411443472 ], [ 781040.129409491084516, 8998922.486713532358408 ], [ 781040.113161563873291, 8998922.54430696181953 ], [ 781040.032714164815843, 8998922.829465873539448 ], [ 781039.57525924500078, 8998924.548662759363651 ], [ 781039.48302607703954, 8998924.895291395485401 ], [ 781093.796141127124429, 8998945.658390499651432 ], [ 781094.100321747362614, 8998944.948183065280318 ], [ 781094.818549885414541, 8998943.271248621866107 ], [ 781059.099184336140752, 8998929.696151241660118 ], [ 781054.522427623160183, 8998927.918769992887974 ], [ 781051.846069022081792, 8998926.939614411443472 ] ] ] ] } }
]
}
