{
"type": "FeatureCollection",
"name": "4schema",
"crs": { "type": "name", "properties": { "name": "urn:ogc:def:crs:EPSG::32751" } },
"features": [
{ "type": "Feature", "properties": { "LUAS": "1354.682721174378", "PERIMETER": "2.6014635247799127", "kelas": "PAULATA & LIAS" }, "geometry": { "type": "MultiPolygon", "coordinates": [ [ [ [ 780444.135645875358023, 8990143.380493884906173 ], [ 780414.35367791983299, 8989391.385803017765284 ], [ 780040.625753110507503, 8988956.054714510217309 ], [ 778895.473312206333503, 8988981.88374363258481 ], [ 777822.934291073470376, 8991700.331702856346965 ], [ 778099.195290443487465, 8992155.649131378158927 ], [ 777821.888743028510362, 8992691.469103269279003 ], [ 777780.047313187271357, 8992951.883327998220921 ], [ 777738.811811129562557, 8993274.878142312169075 ], [ 777752.215260244905949, 8993637.601975960657001 ], [ 777889.823540146811865, 8994544.286266390234232 ], [ 778019.057511723367497, 8994742.425325505435467 ], [ 778154.429883681237698, 8995184.520043840631843 ], [ 778100.437667019665241, 8995627.513343339785933 ], [ 778107.860730494139716, 8995719.565012184903026 ], [ 778114.935361410840414, 8995807.296324122697115 ], [ 778159.674944901838899, 8996512.002118868753314 ], [ 777853.559429093496874, 8997100.029189636930823 ], [ 777577.797456464963034, 8997217.757397688925266 ], [ 777284.586090949829668, 8997216.267635757103562 ], [ 776255.358054376440123, 8998078.346855418756604 ], [ 776402.376561998389661, 8998287.281886437907815 ], [ 777368.401491199154407, 8998940.967606849968433 ], [ 778029.989866527961567, 8998023.883926069363952 ], [ 778389.600623645586893, 8997724.431055227294564 ], [ 778768.004653771524318, 8997411.84829018637538 ], [ 779096.454917699098587, 8996953.751866219565272 ], [ 779223.106630646856502, 8996664.798295866698027 ], [ 779277.704143805895001, 8996179.440119761973619 ], [ 779211.447395376861095, 8995516.25180141068995 ], [ 779007.511256703175604, 8994927.145437639206648 ], [ 778955.689720093505457, 8994635.627663776278496 ], [ 778871.97324659395963, 8994395.525579415261745 ], [ 778678.058239951496944, 8993357.650112457573414 ], [ 778678.834104003850371, 8993078.185665825381875 ], [ 779038.349139828118496, 8993052.162469271570444 ], [ 779045.3063235047739, 8992640.723193565383554 ], [ 779572.087674696696922, 8992487.407576257362962 ], [ 779945.539608768420294, 8992373.629407610744238 ], [ 780346.535388102056459, 8992380.495855761691928 ], [ 779855.94177876051981, 8991863.289143294095993 ], [ 779623.096561489161104, 8991288.233349377289414 ], [ 779934.119444643030874, 8990426.309189459308982 ], [ 780444.135645875358023, 8990143.380493884906173 ] ] ] ] } },
{ "type": "Feature", "properties": { "LUAS": "1088.6955458545551", "PERIMETER": "2.05456697973931", "kelas": "RAIBERE & BUIHA" }, "geometry": { "type": "MultiPolygon", "coordinates": [ [ [ [ 781749.816528195980936, 8992534.424142697826028 ], [ 781665.196332036866806, 8991051.730516513809562 ], [ 780444.135645875358023, 8990143.380493884906173 ], [ 779934.119444643030874, 8990426.309189459308982 ], [ 779623.096561489161104, 8991288.233349377289414 ], [ 779855.94177876051981, 8991863.289143294095993 ], [ 780346.535388102056459, 8992380.495855761691928 ], [ 780609.355451743933372, 8992572.673890043050051 ], [ 780727.316462702816352, 8993002.260677516460419 ], [ 781375.622329408302903, 8994239.515995409339666 ], [ 781564.89171156892553, 8994642.713507167994976 ], [ 781595.240870800800622, 8994771.769197694957256 ], [ 781837.971646763733588, 8995189.740113686770201 ], [ 781746.646390288020484, 8995601.206261426210403 ], [ 781285.677875894587487, 8996552.503688290715218 ], [ 780649.125948961358517, 8997568.828727696090937 ], [ 780359.446600702940486, 8998459.943634415045381 ], [ 781638.04101336072199, 8998461.011796783655882 ], [ 781792.267500375746749, 8998461.031325684860349 ], [ 781862.730222135549411, 8998278.165415737777948 ], [ 781939.393666720134206, 8998185.910328453406692 ], [ 782040.044689996750094, 8997981.545848870649934 ], [ 782035.878094099927694, 8997907.864519270136952 ], [ 782093.544375089462847, 8997679.135337643325329 ], [ 782266.720390358241275, 8997229.675188135355711 ], [ 782273.827932995161973, 8997209.584575686603785 ], [ 782503.440391667885706, 8996878.35897183790803 ], [ 782595.17846802843269, 8996648.597256107255816 ], [ 782735.168437300482765, 8996209.570265855640173 ], [ 782778.910856468020938, 8995856.373403804376721 ], [ 782705.222801929572597, 8995720.053212907165289 ], [ 782700.755001366138458, 8995693.041496280580759 ], [ 782616.811570186284371, 8995637.187059296295047 ], [ 782602.637713421951048, 8994868.310413518920541 ], [ 782633.555510623729788, 8994750.212172631174326 ], [ 782308.257576697971672, 8993989.130624406039715 ], [ 782180.845547249657102, 8993077.509213039651513 ], [ 781850.094699523993768, 8992694.784763302654028 ], [ 781749.816528195980936, 8992534.424142697826028 ] ] ] ] } },
{ "type": "Feature", "properties": { "LUAS": "1951.3929615973625", "PERIMETER": "2.96427604337778", "kelas": "LUAN KADOE, AKADIRU KEDE, & KAKEULAKU" }, "geometry": { "type": "MultiPolygon", "coordinates": [ [ [ [ 780628.006873883190565, 8983009.947673235088587 ], [ 780624.688826596364379, 8982752.799008507281542 ], [ 780592.753631170489825, 8982703.01994507946074 ], [ 780567.728566420497373, 8982691.612000474706292 ], [ 780557.432073975098319, 8982660.305937483906746 ], [ 780546.80725846637506, 8982650.243668772280216 ], [ 780522.918164192000404, 8982637.371122881770134 ], [ 780511.02475908503402, 8982637.475450996309519 ], [ 780490.38190587842837, 8982620.995862301439047 ], [ 780470.77986879972741, 8982590.985663941130042 ], [ 780454.820688169333152, 8982527.148941420018673 ], [ 780427.75946883962024, 8982502.169354345649481 ], [ 780369.473765667760745, 8982473.026502760127187 ], [ 780320.90234635793604, 8982373.802031883969903 ], [ 780288.290107678389177, 8982372.414277046918869 ], [ 779944.126907997415401, 8982165.638806272298098 ], [ 779658.769819551962428, 8982080.118414415046573 ], [ 779532.484129346325062, 8981938.567420998588204 ], [ 779374.280077879899181, 8981856.689885590225458 ], [ 779229.953574787825346, 8981874.730698477476835 ], [ 779189.708684502518736, 8981921.914362950250506 ], [ 779017.627084661857225, 8981955.220479046925902 ], [ 778803.912839698488824, 8982044.036788642406464 ], [ 778685.953678517020307, 8982138.404117589816451 ], [ 778586.035330222453922, 8982092.608207954093814 ], [ 778547.178194774547592, 8982235.546956209465861 ], [ 778564.52513024257496, 8982355.240810938179493 ], [ 778434.423114233883098, 8982368.424481892958283 ], [ 778391.402714273775928, 8982400.342843152582645 ], [ 778373.361901387223043, 8982472.506094699725509 ], [ 778410.831281997729093, 8982543.281591407954693 ], [ 777994.504830770427361, 8982848.587655641138554 ], [ 777945.933411460486241, 8982941.567229749634862 ], [ 777976.464017883874476, 8983022.057010319083929 ], [ 777867.699461312382482, 8983115.353320859372616 ], [ 777586.494776293518953, 8982725.61639248020947 ], [ 777573.079849451663904, 8982741.139626540243626 ], [ 777562.397872813045979, 8982766.064238697290421 ], [ 777608.870634951861575, 8982811.398339936509728 ], [ 777645.313383426982909, 8982906.435311401262879 ], [ 777643.88425602670759, 8982937.161550296470523 ], [ 777665.927129935007542, 8983025.641513742506504 ], [ 777684.135235887719318, 8983054.774483351036906 ], [ 777756.057254603831097, 8983073.892994657158852 ], [ 777789.742250739131123, 8983102.11555896513164 ], [ 777887.744692836073227, 8983170.853586036711931 ], [ 777768.573034717934206, 8983216.857376078143716 ], [ 777701.432936603087001, 8983222.289058605208993 ], [ 777670.113349527819082, 8983237.945694323629141 ], [ 777657.733482204843313, 8983297.852698529139161 ], [ 777634.973349669831805, 8983337.910531740635633 ], [ 777587.290872039040551, 8983383.999800067394972 ], [ 777212.910733942175284, 8983518.536622747778893 ], [ 778225.784109989181161, 8986380.324535036459565 ], [ 778086.51550060743466, 8986435.773487284779549 ], [ 777839.596508926711977, 8986575.371428448706865 ], [ 777811.170193064026535, 8986942.741137448698282 ], [ 777771.334441949846223, 8987598.96081511862576 ], [ 777572.978971449425444, 8988774.450142111629248 ], [ 777539.126640506321564, 8990287.816966705024242 ], [ 777615.131393675808795, 8991357.84296540170908 ], [ 777822.934291073470376, 8991700.331702856346965 ], [ 778895.473312206333503, 8988981.88374363258481 ], [ 780040.625753110507503, 8988956.054714510217309 ], [ 780414.35367791983299, 8989391.385803017765284 ], [ 781181.239352765493095, 8989115.902599429711699 ], [ 781769.433219879982062, 8988780.855459934100509 ], [ 781836.099869807250798, 8987897.522348398342729 ], [ 781567.511399299837649, 8987995.397819466888905 ], [ 781443.881512703839689, 8987955.326418239623308 ], [ 781373.611986816278659, 8987867.275828620418906 ], [ 781355.401863179169595, 8987784.34337168559432 ], [ 781241.550381876528263, 8987703.251641618087888 ], [ 781134.217358051682822, 8987712.879772342741489 ], [ 781042.277681526727974, 8987763.348663974553347 ], [ 780946.463294400833547, 8987740.809617917984724 ], [ 780840.846094533568248, 8987637.494722437113523 ], [ 780846.122353558894247, 8987553.340259619057178 ], [ 780777.588375946856104, 8987473.086952297016978 ], [ 780600.851583875482902, 8987397.928362106904387 ], [ 780542.609841344412416, 8987270.774132827296853 ], [ 780516.478180865989998, 8987213.722915090620518 ], [ 780377.251859894953668, 8986985.153855089098215 ], [ 780358.332623661612161, 8986841.212192267179489 ], [ 780252.414815202355385, 8986655.590570587664843 ], [ 780248.078201227122918, 8986398.943963708356023 ], [ 780215.457894342020154, 8986176.693407272920012 ], [ 780176.204286050517112, 8985965.571814846247435 ], [ 780178.854429471539333, 8985866.027246979996562 ], [ 780092.481920685851946, 8985678.017473628744483 ], [ 779876.670006650965661, 8985449.077244631946087 ], [ 779780.214917952078395, 8985286.30513389967382 ], [ 779761.404229635372758, 8985066.649792158976197 ], [ 779753.864649116061628, 8984737.949100581929088 ], [ 779663.027263677679002, 8984674.248463299125433 ], [ 779508.221723715774715, 8984604.937009645625949 ], [ 779462.036010699230246, 8984318.114395236596465 ], [ 779298.94425261253491, 8984071.999290466308594 ], [ 779257.546040259883739, 8984009.526489561423659 ], [ 779161.716372516471893, 8983815.918147061020136 ], [ 779163.990819711354561, 8983548.987827094271779 ], [ 779253.066144512267783, 8983328.304544111713767 ], [ 779513.755424433154985, 8983186.860784433782101 ], [ 779647.663987239473499, 8983013.414532400667667 ], [ 779714.724586742231622, 8982812.560898987576365 ], [ 779737.878049164544791, 8982743.211159009486437 ], [ 780628.006873883190565, 8983009.947673235088587 ] ] ] ] } },
{ "type": "Feature", "properties": { "LUAS": "9309.406124735213", "PERIMETER": "6.051334029111733", "kelas": "OEBABA" }, "geometry": { "type": "MultiPolygon", "coordinates": [ [ [ [ 780792.828086959198117, 8983059.338092492893338 ], [ 780794.306440942455083, 8982952.89660569652915 ], [ 781048.383855058811605, 8982687.650953596457839 ], [ 781260.580376738565974, 8982609.473287714645267 ], [ 781285.708912200643681, 8982497.790907882153988 ], [ 781249.412138755433261, 8982366.564111581072211 ], [ 781109.809163966099732, 8982319.099100152030587 ], [ 780939.493534723296762, 8982238.129374774172902 ], [ 780878.068225816008635, 8982157.159649396315217 ], [ 780651.911406657309271, 8982070.605805028229952 ], [ 780506.724312876467593, 8982129.239054439589381 ], [ 780372.705457078875042, 8982104.110518977046013 ], [ 780288.943672205205075, 8982076.189924018457532 ], [ 780241.478660776861943, 8981889.121937802061439 ], [ 780257.26397396530956, 8981593.189122729003429 ], [ 779757.685911387437955, 8980601.637370068579912 ], [ 779802.671297346241772, 8980483.183633059263229 ], [ 779929.854889062698931, 8980217.458770701661706 ], [ 778690.965052129235119, 8979871.136715516448021 ], [ 776829.021645127329975, 8979350.565729176625609 ], [ 776810.031260507530533, 8979434.0385777130723 ], [ 776771.013600809499621, 8979526.140124408528209 ], [ 776380.295978962443769, 8980569.632461750879884 ], [ 773910.447933102725074, 8979421.319677317515016 ], [ 773354.806521215941757, 8979158.05716317333281 ], [ 772727.904692260781303, 8980382.72324220277369 ], [ 772549.65856059640646, 8980309.424023184925318 ], [ 770870.684193732915446, 8979542.142387129366398 ], [ 770967.658208403503522, 8979311.736844228580594 ], [ 771060.206228148890659, 8979104.801686832681298 ], [ 770727.178321605781093, 8978925.480726504698396 ], [ 769789.179000735748559, 8978420.387808818370104 ], [ 769876.717083815252408, 8978233.888357765972614 ], [ 770019.069701089290902, 8977930.601237783208489 ], [ 769705.280979009461589, 8977789.90736585482955 ], [ 769617.955555911525153, 8977750.75258625112474 ], [ 769667.641469596652314, 8977639.648174569010735 ], [ 770161.253252719296142, 8976535.815221678465605 ], [ 769973.658852244610898, 8976460.929704930633307 ], [ 769942.24224609544035, 8976443.372937129810452 ], [ 769696.438735333736986, 8976335.029081791639328 ], [ 769696.438724264502525, 8976335.029070802032948 ], [ 769696.43870220228564, 8976335.029059888795018 ], [ 769444.155490118078887, 8976223.827101740986109 ], [ 768397.794184624566697, 8975804.703137520700693 ], [ 767737.730527699692175, 8975563.546511048451066 ], [ 767737.854654173133895, 8975565.728132082149386 ], [ 767612.492584621533751, 8975524.617976242676377 ], [ 767229.065495994407684, 8975383.399459965527058 ], [ 767123.994985474040732, 8975349.819476772099733 ], [ 767024.848286910331808, 8975323.902649540454149 ], [ 766941.455865958123468, 8975298.429066861048341 ], [ 766713.717630979139358, 8976119.035677468404174 ], [ 766573.06298182788305, 8976625.827943736687303 ], [ 766414.380333661101758, 8977072.053125273436308 ], [ 766094.649397294037044, 8977876.514644578099251 ], [ 765213.355837817885913, 8977509.848476693034172 ], [ 761497.66252405999694, 8977623.18525549210608 ], [ 760375.31392801750917, 8977009.885283354669809 ], [ 760316.320500266854651, 8977117.728787893429399 ], [ 759737.861502084415406, 8977899.734706604853272 ], [ 761998.156957436003722, 8980126.20644829981029 ], [ 762558.779054139740765, 8980725.901569256559014 ], [ 763117.789412201032974, 8982373.032386187463999 ], [ 763114.09959613182582, 8982638.156224718317389 ], [ 763910.534378056530841, 8982961.135908097028732 ], [ 764116.507261402672157, 8983045.515085343271494 ], [ 764568.764225010760128, 8982569.201639793813229 ], [ 764988.240424607647583, 8982103.697431687265635 ], [ 765653.394922172417864, 8982337.534786259755492 ], [ 768102.055465487064794, 8984035.044122276827693 ], [ 769185.406386056449264, 8984740.535000951960683 ], [ 769543.841186500620097, 8984879.160403594374657 ], [ 771050.945512690348551, 8984684.178450968116522 ], [ 772189.224572687875479, 8984514.277484571561217 ], [ 774158.272286180639639, 8984121.602633176371455 ], [ 776439.594431955716573, 8983600.896327340975404 ], [ 777009.368477698182687, 8983541.694369772449136 ], [ 777212.910733942175284, 8983518.536622747778893 ], [ 777587.290872039040551, 8983383.999800067394972 ], [ 777634.973349669831805, 8983337.910531740635633 ], [ 777657.733482204843313, 8983297.852698529139161 ], [ 777670.113349527819082, 8983237.945694323629141 ], [ 777701.432936603087001, 8983222.289058605208993 ], [ 777768.573034717934206, 8983216.857376078143716 ], [ 777887.744692836073227, 8983170.853586036711931 ], [ 777789.742250739131123, 8983102.11555896513164 ], [ 777756.057254603831097, 8983073.892994657158852 ], [ 777684.135235887719318, 8983054.774483351036906 ], [ 777665.927129935007542, 8983025.641513742506504 ], [ 777643.88425602670759, 8982937.161550296470523 ], [ 777645.313383426982909, 8982906.435311401262879 ], [ 777608.870634951861575, 8982811.398339936509728 ], [ 777562.397872813045979, 8982766.064238697290421 ], [ 777573.079849451663904, 8982741.139626540243626 ], [ 777586.494776293518953, 8982725.61639248020947 ], [ 777867.699461312382482, 8983115.353320859372616 ], [ 777976.464017883874476, 8983022.057010319083929 ], [ 777945.933411460486241, 8982941.567229749634862 ], [ 777994.504830770427361, 8982848.587655641138554 ], [ 778410.831281997729093, 8982543.281591407954693 ], [ 778373.361901387223043, 8982472.506094699725509 ], [ 778391.402714273775928, 8982400.342843152582645 ], [ 778434.423114233883098, 8982368.424481892958283 ], [ 778564.52513024257496, 8982355.240810938179493 ], [ 778547.178194774547592, 8982235.546956209465861 ], [ 778586.035330222453922, 8982092.608207954093814 ], [ 778685.953678517020307, 8982138.404117589816451 ], [ 778803.912839698488824, 8982044.036788642406464 ], [ 779017.627084661857225, 8981955.220479046925902 ], [ 779189.708684502518736, 8981921.914362950250506 ], [ 779229.953574787825346, 8981874.730698477476835 ], [ 779374.280077879899181, 8981856.689885590225458 ], [ 779532.484129346325062, 8981938.567420998588204 ], [ 779658.769819551962428, 8982080.118414415046573 ], [ 779944.126907997415401, 8982165.638806272298098 ], [ 780288.290107678389177, 8982372.414277046918869 ], [ 780320.90234635793604, 8982373.802031883969903 ], [ 780369.473765667760745, 8982473.026502760127187 ], [ 780427.75946883962024, 8982502.169354345649481 ], [ 780454.820688169333152, 8982527.148941420018673 ], [ 780470.77986879972741, 8982590.985663941130042 ], [ 780490.38190587842837, 8982620.995862301439047 ], [ 780511.02475908503402, 8982637.475450996309519 ], [ 780522.918164192000404, 8982637.371122881770134 ], [ 780546.80725846637506, 8982650.243668772280216 ], [ 780557.432073975098319, 8982660.305937483906746 ], [ 780567.728566420497373, 8982691.612000474706292 ], [ 780592.753631170489825, 8982703.01994507946074 ], [ 780624.688826596364379, 8982752.799008507281542 ], [ 780628.006873883190565, 8983009.947673235088587 ], [ 780792.828086959198117, 8983059.338092492893338 ] ] ] ] } },
{ "type": "Feature", "properties": { "LUAS": "460.3124029562983", "PERIMETER": "1.3799767088267314", "kelas": "OEBABA" }, "geometry": { "type": "MultiPolygon", "coordinates": [ [ [ [ 783952.931729678064585, 8983014.959209680557251 ], [ 783978.65029588539619, 8982936.144248722121119 ], [ 783488.643854374880902, 8982666.710507379844785 ], [ 782577.03642900090199, 8982067.813745534047484 ], [ 782549.115834043012001, 8982127.84302469342947 ], [ 781914.352959464071319, 8981771.116781128570437 ], [ 781587.932845071190968, 8981991.132543489336967 ], [ 781360.012292488012463, 8982059.072367712855339 ], [ 780686.145605439203791, 8981803.067958399653435 ], [ 780257.26397396530956, 8981593.189122729003429 ], [ 780241.478660776861943, 8981889.121937802061439 ], [ 780288.943672205205075, 8982076.189924018457532 ], [ 780372.705457078875042, 8982104.110518977046013 ], [ 780506.724312876467593, 8982129.239054439589381 ], [ 780651.911406657309271, 8982070.605805028229952 ], [ 780878.068225816008635, 8982157.159649396315217 ], [ 780939.493534723296762, 8982238.129374774172902 ], [ 781109.809163966099732, 8982319.099100152030587 ], [ 781249.412138755433261, 8982366.564111581072211 ], [ 781285.708912200643681, 8982497.790907882153988 ], [ 781260.580376738565974, 8982609.473287714645267 ], [ 781048.383855058811605, 8982687.650953596457839 ], [ 780794.306440942455083, 8982952.89660569652915 ], [ 780792.828086959198117, 8983059.338092492893338 ], [ 780871.536714043235406, 8983082.923964835703373 ], [ 782313.918630899395794, 8983333.928018968552351 ], [ 784509.180978773161769, 8983850.038269529119134 ], [ 785495.449520427267998, 8984017.715090891346335 ], [ 785582.634125762735493, 8983615.753455115482211 ], [ 783952.931729678064585, 8983014.959209680557251 ] ] ] ] } }
]
}
