{
"type": "FeatureCollection",
"name": "aoi_lidar",
"crs": { "type": "name", "properties": { "name": "urn:ogc:def:crs:EPSG::32751" } },
"features": [
{ "type": "Feature", "properties": { "GM_LAYER": "Unknown Area Type", "GM_TYPE": "Unknown Area Type", "KML_STYLE": "area1", "CLOSED": "YES", "BORDER_STY": "Solid", "BORDER_COL": "RGB(255,0,0)", "BORDER_WID": 1, "FILL_STYLE": "No Fill", "LAYER": null, "PERIMETER": null, "ENCLOSED_A": null, "Luas": null }, "geometry": { "type": "MultiPolygon", "coordinates": [ [ [ [ 781387.774717258755118, 8998528.067979427054524 ], [ 781364.435638952534646, 8998565.830197410658002 ], [ 781344.811258959118277, 8998592.685533162206411 ], [ 781342.075305075151846, 8998597.222505237907171 ], [ 781337.268232455477118, 8998607.067372757941484 ], [ 781279.056394736515358, 8998660.274328168481588 ], [ 781277.871693318011239, 8998661.418402256444097 ], [ 781254.479523765272461, 8998685.283907160162926 ], [ 781252.392292899778113, 8998687.650448428466916 ], [ 781228.607005742844194, 8998717.663405740633607 ], [ 781224.375597083475441, 8998724.881103752180934 ], [ 781200.208178652217612, 8998783.615773290395737 ], [ 781184.105770759517327, 8998817.812988568097353 ], [ 781168.97461004613433, 8998838.649624092504382 ], [ 781096.222560453810729, 8998905.154369652271271 ], [ 781090.37080237432383, 8998912.492969816550612 ], [ 781087.073196121491492, 8998921.280697125941515 ], [ 781086.652543554781005, 8998930.657329201698303 ], [ 781089.150024645146914, 8998939.705025983974338 ], [ 781094.321151831769384, 8998947.538143072277308 ], [ 781101.659765797434375, 8998953.389904715120792 ], [ 781110.447483664262109, 8998956.687510598450899 ], [ 781119.824124705744907, 8998957.108160154893994 ], [ 781128.871815631864592, 8998954.610689079388976 ], [ 781136.704930641921237, 8998949.439552901312709 ], [ 781211.70266756019555, 8998880.881953865289688 ], [ 781215.73616431793198, 8998876.367170950397849 ], [ 781234.317131926305592, 8998850.779934218153358 ], [ 781237.184083321597427, 8998845.93227481469512 ], [ 781254.80920595349744, 8998808.501196641474962 ], [ 781255.410829802392982, 8998807.136498667299747 ], [ 781278.254568936768919, 8998751.61877515912056 ], [ 781298.43465268635191, 8998726.154956743121147 ], [ 781320.144260993576609, 8998704.006070043891668 ], [ 781381.961475384188816, 8998647.50371552631259 ], [ 781388.67953403131105, 8998638.523083357140422 ], [ 781394.824367279652506, 8998625.938516357913613 ], [ 781413.565672516589984, 8998600.291644230484962 ], [ 781414.862952115014195, 8998598.363836260512471 ], [ 781440.74606113799382, 8998556.485427398234606 ], [ 781443.799298555124551, 8998549.856998335570097 ], [ 781462.156937341671437, 8998492.493461130186915 ], [ 781462.568274592747912, 8998489.819700129330158 ], [ 781463.333053572685458, 8998487.224838521331549 ], [ 781464.999288648134097, 8998474.433891804888844 ], [ 781468.652797693852335, 8998470.287075327709317 ], [ 781478.738191703800112, 8998463.488882590085268 ], [ 781530.035856156027876, 8998444.13995554856956 ], [ 781531.441458194633015, 8998443.568774979561567 ], [ 781605.335003353189677, 8998411.340873589739203 ], [ 781613.127866676659323, 8998406.392676813527942 ], [ 781613.92977756075561, 8998405.662992425262928 ], [ 781630.87994925014209, 8998389.670322638005018 ], [ 781661.232866026926786, 8998361.031950388103724 ], [ 781661.606308157322928, 8998360.673465415835381 ], [ 781690.773344026179984, 8998332.186834147199988 ], [ 781695.537505838321522, 8998326.158364150673151 ], [ 781726.395285379840061, 8998274.722910555079579 ], [ 781751.272143043461256, 8998246.391452031210065 ], [ 781756.283877895679325, 8998238.46040852367878 ], [ 781758.600777149898931, 8998229.36915722861886 ], [ 781760.847573551698588, 8998205.156803516671062 ], [ 781776.505455998936668, 8998183.04527005366981 ], [ 781781.220393181312829, 8998172.598380900919437 ], [ 781786.304122078930959, 8998151.055965078994632 ], [ 781787.093729922664352, 8998143.303440790623426 ], [ 781785.860012648161501, 8998135.609095748513937 ], [ 781776.475769613403827, 8998104.073650468140841 ], [ 781774.637047786265612, 8998099.379742573946714 ], [ 781769.532745799981058, 8998089.011514194309711 ], [ 781769.191352599533275, 8998078.310105182230473 ], [ 781769.064132077153772, 8998060.249471416696906 ], [ 781768.65011143265292, 8998055.489494655281305 ], [ 781763.915584046626464, 8998027.313419599086046 ], [ 781762.521816977765411, 8998002.492144109681249 ], [ 781771.93746437842492, 8998001.974573411047459 ], [ 781774.157915058080107, 8998001.769507369026542 ], [ 781830.38762493385002, 8997994.460437709465623 ], [ 781840.499348957790062, 8997991.254895690828562 ], [ 781848.863374264561571, 8997984.730685129761696 ], [ 781855.789512556511909, 8997977.000929120928049 ], [ 781862.197902327519841, 8997965.546535033732653 ], [ 781902.63877579011023, 8997829.802743699401617 ], [ 781907.373824345413595, 8997821.117404857650399 ], [ 781910.019184587989002, 8997814.493922302499413 ], [ 781911.026287381537259, 8997807.433160616084933 ], [ 781911.65488746506162, 8997779.531339414417744 ], [ 781912.181566248880699, 8997778.767893526703119 ], [ 781974.989663949934766, 8997708.508832583203912 ], [ 781976.368947301758453, 8997706.849492147564888 ], [ 782010.955867337528616, 8997662.056051567196846 ], [ 782014.927433262928389, 8997655.200764134526253 ], [ 782025.866401764564216, 8997628.788918243721128 ], [ 782026.968886972405016, 8997625.642993429675698 ], [ 782036.125623150262982, 8997593.976777685806155 ], [ 782037.296886194497347, 8997586.395541604608297 ], [ 782039.510216318885796, 8997498.158731799572706 ], [ 782039.180944580002688, 8997492.911128809675574 ], [ 782029.114050238393247, 8997426.487074004486203 ], [ 782027.377774601918645, 8997420.019112154841423 ], [ 782018.270290529122576, 8997396.821063933894038 ], [ 782014.201131522189826, 8997389.593728518113494 ], [ 782008.30850627925247, 8997383.756814710795879 ], [ 782000.997858958900906, 8997378.291285336017609 ], [ 781992.198297429131344, 8997366.205582730472088 ], [ 781989.288469606079161, 8997362.780938021838665 ], [ 781985.756914189085364, 8997359.205853831022978 ], [ 781980.757496249047108, 8997343.359879579395056 ], [ 781978.697076240088791, 8997336.466701727360487 ], [ 781978.93271824833937, 8997332.244348961859941 ], [ 781981.606790355173871, 8997319.490745060145855 ], [ 781982.103415388148278, 8997316.248219486325979 ], [ 781983.47811154590454, 8997302.161410296335816 ], [ 781983.590145968599245, 8997297.910579949617386 ], [ 781983.06744971324224, 8997286.194401379674673 ], [ 781981.08236005762592, 8997276.72245473600924 ], [ 781974.023022939218208, 8997258.445439290255308 ], [ 781969.267056209850125, 8997250.270045490935445 ], [ 781957.36062962806318, 8997235.701448287814856 ], [ 781949.942586831981316, 8997229.190565342083573 ], [ 781927.579199985135347, 8997215.321745118126273 ], [ 781916.904787468723953, 8997206.212048238143325 ], [ 781913.434439928969368, 8997196.707852898165584 ], [ 781888.921879452187568, 8997106.08466269262135 ], [ 781887.077973881270736, 8997101.082136079668999 ], [ 781882.044791344786063, 8997090.449541144073009 ], [ 781984.974768482614309, 8996847.499241378158331 ], [ 781985.085034472751431, 8996847.235479708760977 ], [ 782106.09022369957529, 8996553.869253985583782 ], [ 782206.159233170095831, 8996315.520368916913867 ], [ 782299.096924292854965, 8996105.540122739970684 ], [ 782301.090970846358687, 8996099.232986098155379 ], [ 782302.237915979931131, 8996093.44846792332828 ], [ 782342.771918524755165, 8995999.961811630055308 ], [ 782343.008956790901721, 8995999.399504916742444 ], [ 782358.624788538087159, 8995961.277055028825998 ], [ 782395.407997509930283, 8995873.343630947172642 ], [ 782418.910066118231043, 8995824.649521315470338 ], [ 782419.189004856394604, 8995824.055033018812537 ], [ 782443.593696153489873, 8995770.528497979044914 ], [ 782443.694547435967252, 8995770.304884366691113 ], [ 782476.058050485909916, 8995697.756661254912615 ], [ 782493.909961800789461, 8995660.477279487997293 ], [ 782495.237993862014264, 8995657.228707104921341 ], [ 782504.484739965992048, 8995630.193038096651435 ], [ 782505.720582995098084, 8995625.234994042664766 ], [ 782508.543976894463412, 8995607.629596173763275 ], [ 782508.834149081259966, 8995605.179638169705868 ], [ 782513.165439955424517, 8995548.862363282591105 ], [ 782513.244432371808216, 8995547.310668263584375 ], [ 782518.43826949223876, 8995339.281974989920855 ], [ 782518.447483879048377, 8995338.621465986594558 ], [ 782518.790588939096779, 8995222.000972224399447 ], [ 782523.632616905728355, 8994937.84800080768764 ], [ 782523.601833116495982, 8994935.885169899091125 ], [ 782521.610003051348031, 8994894.77141591720283 ], [ 782520.772226698230952, 8994851.351016180589795 ], [ 782534.54434636188671, 8994806.500678462907672 ], [ 782534.717035825713538, 8994805.917265068739653 ], [ 782539.781543441000395, 8994788.147632358595729 ], [ 782549.829675950808451, 8994777.621678121387959 ], [ 782572.574617754667997, 8994759.606496535241604 ], [ 782588.738218982238322, 8994747.387817230075598 ], [ 782589.618624839698896, 8994746.696086650714278 ], [ 782600.062396232271567, 8994738.170619890093803 ], [ 782630.0932042991044, 8994718.248642046004534 ], [ 782635.906371680554003, 8994713.208286905661225 ], [ 782656.401194222038612, 8994690.209634536877275 ], [ 782656.608013043995015, 8994689.975097084417939 ], [ 782669.483301885193214, 8994675.220038490369916 ], [ 782675.096638082293794, 8994665.682581776753068 ], [ 782681.461560911731794, 8994648.052003439515829 ], [ 782683.243346061557531, 8994637.652276404201984 ], [ 782683.12156143435277, 8994620.480535946786404 ], [ 782689.721542276674882, 8994601.21313763409853 ], [ 782696.15925195638556, 8994590.365802152082324 ], [ 782718.039429990807548, 8994560.349641419947147 ], [ 782718.51573976315558, 8994559.677008112892509 ], [ 782732.597836227039807, 8994539.199613781645894 ], [ 782735.746727912686765, 8994533.308080723509192 ], [ 782750.213572184089571, 8994497.011790854856372 ], [ 782750.939921106677502, 8994494.97981633245945 ], [ 782767.068267665803432, 8994444.1641606669873 ], [ 782767.511498340871185, 8994442.62659827619791 ], [ 782773.325525457272306, 8994420.230014324188232 ], [ 782774.287218328565359, 8994412.479168010875583 ], [ 782774.145798382349312, 8994392.548507008701563 ], [ 782774.054303361801431, 8994379.656102770939469 ], [ 782772.691251965938136, 8994370.926454987376928 ], [ 782768.84432453638874, 8994362.972458068281412 ], [ 782760.496517781866714, 8994350.725198704749346 ], [ 782751.709755669813603, 8994342.246135078370571 ], [ 782725.036716911941767, 8994325.425430547446012 ], [ 782721.780610763817094, 8994323.643519997596741 ], [ 782705.799586946959607, 8994316.142814615741372 ], [ 782703.435831991489977, 8994315.154238987714052 ], [ 782694.796254010405391, 8994311.967245418578386 ], [ 782693.744943514815532, 8994297.890716889873147 ], [ 782692.250754167558625, 8994290.524924593046308 ], [ 782688.972650850890204, 8994283.761671802029014 ], [ 782687.945139568531886, 8994282.182785702869296 ], [ 782683.310761674540117, 8994263.881424836814404 ], [ 782680.927463709027506, 8994257.564540727064013 ], [ 782668.057211382547393, 8994232.448373202234507 ], [ 782668.108046741923317, 8994232.036718849092722 ], [ 782669.847000834997743, 8994230.06199261918664 ], [ 782680.022606076207012, 8994225.043256061151624 ], [ 782690.708243615692481, 8994222.060643464326859 ], [ 782694.728441964136437, 8994223.070344181731343 ], [ 782700.063644745154306, 8994223.909079698845744 ], [ 782720.821127808070742, 8994225.276859370991588 ], [ 782731.28619120712392, 8994224.114616991952062 ], [ 782748.818140506511554, 8994218.939910000190139 ], [ 782750.62338510970585, 8994218.34428720548749 ], [ 782793.41986337734852, 8994202.703658390790224 ], [ 782824.248859503306448, 8994196.091306569054723 ], [ 782829.899969358695671, 8994194.278883196413517 ], [ 782844.133882299996912, 8994188.10203966870904 ], [ 782847.901719022891484, 8994186.139037741348147 ], [ 782861.416519827907905, 8994177.831359857693315 ], [ 782868.44996940321289, 8994171.83707394823432 ], [ 782883.669072257704102, 8994154.143527476117015 ], [ 782886.459507416933775, 8994150.328391766175628 ], [ 782899.759156316285953, 8994128.763955648988485 ], [ 782902.25885265506804, 8994123.697488337755203 ], [ 782908.101259637041949, 8994108.363953951746225 ], [ 782913.837365129496902, 8994093.838245186954737 ], [ 782915.836264364421368, 8994085.241702206432819 ], [ 782915.247091294266284, 8994076.435516187921166 ], [ 782912.188403665088117, 8994062.391068844124675 ], [ 782910.828075857833028, 8994057.882147327065468 ], [ 782907.349064611829817, 8994048.954519309103489 ], [ 782908.185238226782531, 8994048.047282902523875 ], [ 782909.109009539010003, 8994046.996914384886622 ], [ 782921.979795877472498, 8994031.655152460560203 ], [ 782936.552381957764737, 8994014.255413271486759 ], [ 782954.821773637784645, 8993997.433241005986929 ], [ 782974.524917543283664, 8993984.669071685522795 ], [ 782999.382269236491993, 8993978.311861203983426 ], [ 783001.783122449880466, 8993977.992451163008809 ], [ 783022.391154371201992, 8993972.567047424614429 ], [ 783027.289023394230753, 8993970.811011122539639 ], [ 783050.115951875923201, 8993960.312193443998694 ], [ 783057.546197436982766, 8993955.447932517156005 ], [ 783077.013422142481431, 8993938.08929337002337 ], [ 783084.770385699579492, 8993927.163052413612604 ], [ 783087.20893386262469, 8993921.266516540199518 ], [ 783087.464933407492936, 8993921.175463460385799 ], [ 783087.818357834825292, 8993921.047252027317882 ], [ 783100.544428953086026, 8993916.340171238407493 ], [ 783118.74353989190422, 8993917.092776823788881 ], [ 783125.933251041453332, 8993916.522389693185687 ], [ 783155.974401222774759, 8993910.443288652226329 ], [ 783159.045108238235116, 8993909.650892155244946 ], [ 783183.069742038613185, 8993902.076226618140936 ], [ 783194.695484541822225, 8993895.229664379730821 ], [ 783212.985715407179669, 8993877.879302509129047 ], [ 783218.854265309404582, 8993870.148013565689325 ], [ 783225.541282755322754, 8993857.513660535216331 ], [ 783238.095061648869887, 8993833.875101612880826 ], [ 783249.496724083903246, 8993814.097209936007857 ], [ 783255.167069550836459, 8993808.071157762780786 ], [ 783256.787790448637679, 8993807.080694422125816 ], [ 783268.847574700368568, 8993804.753679579123855 ], [ 783270.066170702222735, 8993804.492184638977051 ], [ 783281.552588330348954, 8993801.776519047096372 ], [ 783293.082604474155232, 8993796.250860659405589 ], [ 783299.536704680649564, 8993791.224775422364473 ], [ 783306.290313167963177, 8993783.854428090155125 ], [ 783310.247346352203749, 8993774.674272099509835 ], [ 783312.256773895234801, 8993766.448239184916019 ], [ 783312.87927557178773, 8993755.586330467835069 ], [ 783309.586993500473909, 8993745.216703414916992 ], [ 783305.6961540565826, 8993737.918002232909203 ], [ 783296.667597097111866, 8993727.623971147462726 ], [ 783281.436898852232844, 8993716.737742140889168 ], [ 783251.936273514758795, 8993694.941340396180749 ], [ 783254.616402884246781, 8993692.398059505969286 ], [ 783260.280115764006041, 8993687.936972161754966 ], [ 783265.653808592818677, 8993682.453847097232938 ], [ 783269.459885429823771, 8993675.786378316581249 ], [ 783273.817438662284985, 8993665.197429236024618 ], [ 783275.836743196472526, 8993657.551794370636344 ], [ 783276.513420985196717, 8993652.211292976513505 ], [ 783277.812975978245959, 8993648.728677654638886 ], [ 783280.309829025878571, 8993643.981611307710409 ], [ 783285.436402635648847, 8993637.983529973775148 ], [ 783288.825267147272825, 8993633.116247085854411 ], [ 783295.233428711770102, 8993621.638394456356764 ], [ 783298.717697505373508, 8993611.395499315112829 ], [ 783300.407228202675469, 8993599.951219594106078 ], [ 783300.476615694817156, 8993591.687361512333155 ], [ 783298.603552001994103, 8993577.335664913058281 ], [ 783298.497238319832832, 8993576.593446398153901 ], [ 783296.234651617938653, 8993562.091564144939184 ], [ 783296.168070804560557, 8993561.094565138220787 ], [ 783299.019079411751591, 8993554.928171910345554 ], [ 783310.593829574529082, 8993532.967626374214888 ], [ 783311.165207333862782, 8993531.825237009674311 ], [ 783321.341083995765075, 8993510.349161207675934 ], [ 783323.286171260173433, 8993504.970943219959736 ], [ 783327.588900267612189, 8993488.229078203439713 ], [ 783328.432144592516124, 8993478.302043437957764 ], [ 783327.300257496186532, 8993464.542691336944699 ], [ 783325.482090515084565, 8993456.444525757804513 ], [ 783320.961247375234962, 8993444.420259859412909 ], [ 783319.228781901532784, 8993437.568043632432818 ], [ 783319.184934738790616, 8993431.405869342386723 ], [ 783324.558094284846447, 8993401.904078120365739 ], [ 783340.713812332833186, 8993405.398192252963781 ], [ 783351.732741400366649, 8993405.709295282140374 ], [ 783371.191256087273359, 8993402.638009333983064 ], [ 783371.729851164622232, 8993402.547962814569473 ], [ 783396.473319942480884, 8993398.179509934037924 ], [ 783430.662000202457421, 8993399.0146504342556 ], [ 783439.223616286879405, 8993397.984025245532393 ], [ 783459.23745780903846, 8993392.573589615523815 ], [ 783460.427527854801156, 8993392.225323026999831 ], [ 783517.541492921300232, 8993374.221943432465196 ], [ 783519.159537662053481, 8993373.660639964044094 ], [ 783534.937542467145249, 8993367.677485382184386 ], [ 783544.581643004436046, 8993365.908764136955142 ], [ 783549.397182646091096, 8993364.60380632802844 ], [ 783634.234785823151469, 8993333.839013297110796 ], [ 783636.490198910003528, 8993332.915839651599526 ], [ 783687.481358421500772, 8993309.583287868648767 ], [ 783739.478496670722961, 8993286.745307795703411 ], [ 783745.537278049625456, 8993283.185250403359532 ], [ 783772.663527521421202, 8993262.622243681922555 ], [ 783779.314772060140967, 8993255.633588448166847 ], [ 783794.217803345178254, 8993233.810955941677094 ], [ 783795.547556770034134, 8993231.676958395168185 ], [ 783819.672241497784853, 8993189.08224905282259 ], [ 783821.00191924138926, 8993186.43837845697999 ], [ 783841.136876104166731, 8993140.941052377223969 ], [ 783855.185360575793311, 8993110.804007541388273 ], [ 783857.835978996939957, 8993101.209121335297823 ], [ 783860.847373464959674, 8993072.034471407532692 ], [ 783866.187259731581435, 8993058.716397805139422 ], [ 783866.936260863440111, 8993056.627862367779016 ], [ 783872.827291029156186, 8993038.067998290061951 ], [ 783873.934436439070851, 8993033.214748840779066 ], [ 783880.177514521405101, 8992989.303100122138858 ], [ 783882.579478737083264, 8992977.616485623642802 ], [ 783894.625584246823564, 8992953.826842619106174 ], [ 783894.750214662402868, 8992953.577840115875006 ], [ 783907.120588930440135, 8992928.574647637084126 ], [ 783909.923934265505522, 8992919.556462243199348 ], [ 783918.533371047582477, 8992859.901199785992503 ], [ 783918.827398832887411, 8992856.519408624619246 ], [ 783919.639049340272322, 8992829.57855455763638 ], [ 783919.651157981017604, 8992828.376116342842579 ], [ 783919.078466656152159, 8992770.922833720222116 ], [ 783923.179352385457605, 8992729.502212403342128 ], [ 783933.116102657048032, 8992672.265316255390644 ], [ 783933.531714599579573, 8992665.872979916632175 ], [ 783931.495661683613434, 8992617.471767542883754 ], [ 783929.992321499623358, 8992555.694915553554893 ], [ 783929.495699915336445, 8992550.940736029297113 ], [ 783917.235373094445094, 8992485.001360855996609 ], [ 783916.803207960911095, 8992483.043543975800276 ], [ 783905.787967579439282, 8992440.026063211262226 ], [ 783904.241490309592336, 8992435.514721356332302 ], [ 783891.895155275939032, 8992407.093814780935645 ], [ 783872.306958390399814, 8992351.879966521635652 ], [ 783867.121780099812895, 8992342.755075013265014 ], [ 783836.178235299186781, 8992305.45849035680294 ], [ 783830.989253295119852, 8992300.538756214082241 ], [ 783818.488101591123268, 8992291.244467804208398 ], [ 783815.304749062401243, 8992286.985475825145841 ], [ 783814.268593043205328, 8992285.676773088052869 ], [ 783799.308741251588799, 8992267.82580104470253 ], [ 783795.172434168518521, 8992260.128048254176974 ], [ 783794.847794182831421, 8992258.270496234297752 ], [ 783800.083965135156177, 8992227.376582521945238 ], [ 783808.223663781420328, 8992199.046370638534427 ], [ 783818.66675598314032, 8992177.364978320896626 ], [ 783848.037630915408954, 8992134.407852366566658 ], [ 783861.03415340022184, 8992118.832948071882129 ], [ 783879.105755982571281, 8992102.476559488102794 ], [ 783913.72519455186557, 8992079.420537618920207 ], [ 783973.947061482234858, 8992054.778576152399182 ], [ 784035.661883063265122, 8992030.718710623681545 ], [ 784116.524191067554057, 8992005.395672401413321 ], [ 784205.047089911065996, 8991978.539044113829732 ], [ 784205.566996403853409, 8991978.376137198880315 ], [ 784244.97611638228409, 8991965.633935533463955 ], [ 784248.458169308258221, 8991964.262773618102074 ], [ 784335.237774546490982, 8991923.668447876349092 ], [ 784337.701180629199371, 8991922.671693466603756 ], [ 784345.510093783726916, 8991918.027924967929721 ], [ 784351.570784504525363, 8991911.259486308321357 ], [ 784355.327387939905748, 8991902.987148931249976 ], [ 784356.435378331923857, 8991893.969607381150126 ], [ 784354.793133960338309, 8991885.033906333148479 ], [ 784352.469507520087063, 8991878.332511318847537 ], [ 784351.873630123911425, 8991876.75813559256494 ], [ 784318.033633240615018, 8991794.406173618510365 ], [ 784316.655718707945198, 8991791.054421769455075 ], [ 784290.604868673719466, 8991721.530317455530167 ], [ 784290.301418111659586, 8991720.753494819626212 ], [ 784272.235149338608608, 8991676.337146174162626 ], [ 784270.887984107714146, 8991673.017811806872487 ], [ 784264.053954375209287, 8991648.509937662631273 ], [ 784255.767708363477141, 8991618.794167252257466 ], [ 784245.467608107835986, 8991503.930962217971683 ], [ 784245.313062962377444, 8991502.561801873147488 ], [ 784232.548931800760329, 8991408.845095289871097 ], [ 784231.156791824381799, 8991397.157494951039553 ], [ 784232.350293665775098, 8991395.557689990848303 ], [ 784271.466570630320348, 8991360.759531686082482 ], [ 784271.70535475993529, 8991360.54480266943574 ], [ 784411.337684792233631, 8991233.623393997550011 ], [ 784411.821529194712639, 8991233.173768365755677 ], [ 784483.735692478716373, 8991164.854992577806115 ], [ 784557.647438494022936, 8991095.174782672896981 ], [ 784561.236059884075075, 8991091.120046954602003 ], [ 784649.967599220341071, 8990970.470448441803455 ], [ 784653.394907185458578, 8990964.465447075664997 ], [ 784661.410508383065462, 8990945.671266928315163 ], [ 784662.705471069784835, 8990941.98706317320466 ], [ 784665.247152862371877, 8990932.90484038181603 ], [ 784666.331542280153371, 8990923.581618662923574 ], [ 784664.48183956486173, 8990914.379612168297172 ], [ 784659.879092921037227, 8990906.199585983529687 ], [ 784652.973835806478746, 8990899.842239897698164 ], [ 784644.442034311708994, 8990895.929881159216166 ], [ 784635.118820662610233, 8990894.845488330349326 ], [ 784625.916820553364232, 8990896.69519305229187 ], [ 784617.736778476508334, 8990901.297942496836185 ], [ 784611.379439985612407, 8990908.203185632824898 ], [ 784607.467082397546619, 8990916.734995817765594 ], [ 784605.452741695102304, 8990923.932887861505151 ], [ 784599.570110004162416, 8990937.725883236154914 ], [ 784514.511156550375745, 8991053.381830956786871 ], [ 784442.535657956497744, 8991121.23665720783174 ], [ 784442.452255960786715, 8991121.315576780587435 ], [ 784370.735905109671876, 8991189.446428490802646 ], [ 784231.466768456622958, 8991316.037707474082708 ], [ 784190.189851551549509, 8991352.757988102734089 ], [ 784186.084030344849452, 8991357.233414920046926 ], [ 784178.129395017167553, 8991367.89603996090591 ], [ 784172.755478350678459, 8991379.962592475116253 ], [ 784171.14026042574551, 8991388.054699847474694 ], [ 784170.770498946774751, 8991397.475293733179569 ], [ 784172.999926541466266, 8991416.192120037972927 ], [ 784173.063780705095269, 8991416.692406542599201 ], [ 784185.768944802344777, 8991509.976180681958795 ], [ 784196.252691687783226, 8991626.887316336855292 ], [ 784197.235269878292456, 8991632.265962850302458 ], [ 784206.258896572515368, 8991664.626107262447476 ], [ 784213.551121741882525, 8991690.77713924460113 ], [ 784214.650819121394306, 8991694.000919952988625 ], [ 784216.643808615859598, 8991698.911527054384351 ], [ 784234.565949132898822, 8991742.973572915419936 ], [ 784260.636438252171502, 8991812.550084171816707 ], [ 784260.982239395845681, 8991813.430469149723649 ], [ 784262.537328344536945, 8991817.213203493505716 ], [ 784288.119618803495541, 8991879.469459984451532 ], [ 784224.743967510177754, 8991909.11573195643723 ], [ 784187.366700754733756, 8991921.202514300122857 ], [ 784098.976886212592945, 8991948.018753964453936 ], [ 784098.720935174496844, 8991948.097654815763235 ], [ 784016.753595254151151, 8991973.766761468723416 ], [ 784014.82226341497153, 8991974.444743117317557 ], [ 783951.920385842677206, 8991998.967394143342972 ], [ 783951.455978132784367, 8991999.152920501306653 ], [ 783888.22904918435961, 8992025.024514844641089 ], [ 783882.961085118819028, 8992027.820634074509144 ], [ 783843.995090301614255, 8992053.771385446190834 ], [ 783840.492919369600713, 8992056.498280311003327 ], [ 783819.214326161658391, 8992075.757286032661796 ], [ 783816.311762145720422, 8992078.779007118195295 ], [ 783801.04950658895541, 8992097.069147324189544 ], [ 783799.318654848495498, 8992099.357551408931613 ], [ 783767.857568616862409, 8992145.371753918007016 ], [ 783765.594232619623654, 8992149.285672307014465 ], [ 783753.06409634987358, 8992175.300097964704037 ], [ 783751.258749740198255, 8992180.034214736893773 ], [ 783741.953047633869573, 8992212.422694245353341 ], [ 783741.208362591918558, 8992215.693829273805022 ], [ 783734.82853553420864, 8992253.335431026294827 ], [ 783734.854651861824095, 8992263.513468395918608 ], [ 783736.901952744927257, 8992275.227592376992106 ], [ 783740.027511170017533, 8992284.262736722826958 ], [ 783747.912340667564422, 8992298.936564557254314 ], [ 783751.34552218648605, 8992304.005902364850044 ], [ 783767.745683047454804, 8992323.575522815808654 ], [ 783773.048402115586214, 8992330.670020706951618 ], [ 783779.178576391423121, 8992336.784576252102852 ], [ 783792.300913795828819, 8992346.540701391175389 ], [ 783817.542081304010935, 8992376.96413797698915 ], [ 783835.693933446193114, 8992428.12928937934339 ], [ 783836.451536171953194, 8992430.051891658455133 ], [ 783848.256685571046546, 8992457.227038456127048 ], [ 783858.429727089125663, 8992496.955500775948167 ], [ 783870.068408384104259, 8992559.55151791870594 ], [ 783871.51987985172309, 8992619.197037851437926 ], [ 783871.53750717244111, 8992619.72806628420949 ], [ 783873.449345410335809, 8992665.176239607855678 ], [ 783863.875680233119056, 8992720.321724561974406 ], [ 783863.579513569129631, 8992722.497470924630761 ], [ 783859.209659016341902, 8992766.634823819622397 ], [ 783859.065185180632398, 8992769.889580607414246 ], [ 783859.64814228436444, 8992828.372835867106915 ], [ 783858.905802434310317, 8992853.013362912461162 ], [ 783851.222184965386987, 8992906.253559852018952 ], [ 783841.033901405869983, 8992926.846273927018046 ], [ 783827.237440290977247, 8992954.092680666595697 ], [ 783824.616090379422531, 8992961.605361049994826 ], [ 783821.220297907246277, 8992978.127307439222932 ], [ 783820.904723439365625, 8992979.944284657016397 ], [ 783814.883348043076694, 8993022.296554323285818 ], [ 783810.08377934503369, 8993037.417765131220222 ], [ 783803.592423614580184, 8993053.607703922316432 ], [ 783801.59613865823485, 8993061.69199631549418 ], [ 783798.671276713372208, 8993090.028267221525311 ], [ 783786.631215866655111, 8993115.856797186657786 ], [ 783786.388470046455041, 8993116.391120780259371 ], [ 783766.734324937686324, 8993160.802018517628312 ], [ 783743.959876219509169, 8993201.01273762062192 ], [ 783732.522809661924839, 8993217.760119734331965 ], [ 783712.110943946521729, 8993233.233298562467098 ], [ 783663.143123407382518, 8993254.740754475817084 ], [ 783662.724582707276568, 8993254.928413815796375 ], [ 783612.63380792317912, 8993277.848970694467425 ], [ 783531.295980449765921, 8993307.344635868445039 ], [ 783521.435254212818108, 8993309.153082318603992 ], [ 783516.209847151068971, 8993310.610064560547471 ], [ 783498.686285485513508, 8993317.255154442042112 ], [ 783442.980798404896632, 8993334.814559284597635 ], [ 783427.771568162366748, 8993338.926150001585484 ], [ 783394.941928509157151, 8993338.124197190627456 ], [ 783388.993487992673181, 8993338.572145583108068 ], [ 783361.567088062409312, 8993343.414272405207157 ], [ 783347.916827605105937, 8993345.568800421431661 ], [ 783329.766609111335129, 8993341.643311718478799 ], [ 783323.211374307051301, 8993340.966132672503591 ], [ 783310.672415803303011, 8993341.055373096838593 ], [ 783300.003582398872823, 8993343.09796853736043 ], [ 783293.081990138278343, 8993345.792256390675902 ], [ 783282.041179264779203, 8993353.270251104608178 ], [ 783277.35801647498738, 8993358.283762060105801 ], [ 783270.558987942407839, 8993370.100102405995131 ], [ 783267.679041603347287, 8993379.649333627894521 ], [ 783266.797866869485006, 8993383.449519902467728 ], [ 783265.564407384488732, 8993390.959528876468539 ], [ 783259.651164206676185, 8993423.426639935001731 ], [ 783259.166405155090615, 8993429.015603940933943 ], [ 783259.256097956676967, 8993441.620327714830637 ], [ 783260.170554212294519, 8993448.760419031605124 ], [ 783263.203843332827091, 8993460.757643779739738 ], [ 783264.207791350549087, 8993463.961823891848326 ], [ 783267.845782280666754, 8993473.637926870957017 ], [ 783268.219975791405886, 8993478.186696512624621 ], [ 783265.889701301697642, 8993487.253795359283686 ], [ 783257.217390954028815, 8993505.556612065061927 ], [ 783245.57676064025145, 8993527.642153529450297 ], [ 783244.885654806857929, 8993529.040333639830351 ], [ 783238.494206125265919, 8993542.864272614941001 ], [ 783236.226611819816753, 8993549.988931525498629 ], [ 783235.791273392853327, 8993557.453062161803246 ], [ 783236.456094895955175, 8993567.408668795600533 ], [ 783236.748018509708345, 8993570.034416450187564 ], [ 783239.156640231376514, 8993585.472292270511389 ], [ 783240.441285988548771, 8993595.315453080460429 ], [ 783240.164275656221434, 8993597.191804172471166 ], [ 783237.889832338900305, 8993601.265615617856383 ], [ 783232.517045868327841, 8993607.551779329776764 ], [ 783228.771009455434978, 8993613.078016320243478 ], [ 783223.82207741169259, 8993622.487003695219755 ], [ 783222.266418841667473, 8993625.964166957885027 ], [ 783219.082217071438208, 8993634.497370418161154 ], [ 783217.427056902088225, 8993641.2145631685853 ], [ 783216.850127951940522, 8993645.767883829772472 ], [ 783216.405152816325426, 8993646.118365902453661 ], [ 783214.317735214019194, 8993647.924170764163136 ], [ 783199.371016613557003, 8993662.107768340036273 ], [ 783193.934832199942321, 8993669.054013133049011 ], [ 783190.753764822613448, 8993677.280997432768345 ], [ 783189.03705111448653, 8993684.907328015193343 ], [ 783188.424601346487179, 8993688.816067768260837 ], [ 783187.609297364717349, 8993697.907902751117945 ], [ 783188.117482858011499, 8993706.694016018882394 ], [ 783191.153407407342456, 8993714.954584412276745 ], [ 783195.934634454315528, 8993723.718873446807265 ], [ 783203.040910873212852, 8993732.378167349845171 ], [ 783213.132620170712471, 8993740.805864933878183 ], [ 783214.535027311299928, 8993741.907961623743176 ], [ 783229.851872837170959, 8993753.224739391356707 ], [ 783220.438611217774451, 8993758.97739465162158 ], [ 783214.234104607370682, 8993764.017151303589344 ], [ 783203.404214942478575, 8993775.526435300707817 ], [ 783199.261972646927461, 8993781.1018520090729 ], [ 783185.85368890943937, 8993804.360522460192442 ], [ 783185.348764063324779, 8993805.272672437131405 ], [ 783172.540556038846262, 8993829.390294875949621 ], [ 783172.520823266590014, 8993829.427531888708472 ], [ 783168.124512176495045, 8993837.733835147693753 ], [ 783158.425108030671254, 8993846.934820115566254 ], [ 783142.517737230286002, 8993851.95021990686655 ], [ 783117.59323683171533, 8993856.993916204199195 ], [ 783097.01602139766328, 8993856.142982311546803 ], [ 783085.36927338456735, 8993857.980373645201325 ], [ 783067.180266487994231, 8993864.708057260140777 ], [ 783054.531075850129128, 8993869.207299349829555 ], [ 783047.136410701321438, 8993873.068572822958231 ], [ 783041.090911204228178, 8993878.816822592169046 ], [ 783036.862020649481565, 8993886.007584473118186 ], [ 783031.951513717416674, 8993897.881463328376412 ], [ 783020.965585191268474, 8993907.677465695887804 ], [ 783004.590294524095953, 8993915.208968091756105 ], [ 782987.792668874375522, 8993919.631218060851097 ], [ 782985.524282710975967, 8993919.92488581687212 ], [ 782954.901556864380836, 8993927.756569607183337 ], [ 782946.023612785385922, 8993931.64279892295599 ], [ 782920.062628559069708, 8993948.460959022864699 ], [ 782916.052671135519631, 8993951.569969126954675 ], [ 782894.480205368250608, 8993971.433560589328408 ], [ 782891.802030693739653, 8993974.240606509149075 ], [ 782876.00542345980648, 8993993.101843256503344 ], [ 782863.592327949823812, 8994007.898044316098094 ], [ 782856.458224440109916, 8994015.638319857418537 ], [ 782851.412920057540759, 8994023.111886031925678 ], [ 782848.816341236000881, 8994031.747107790783048 ], [ 782846.563892794889398, 8994047.588922331109643 ], [ 782846.463936371495947, 8994055.259587798267603 ], [ 782848.31260931759607, 8994062.704825963824987 ], [ 782854.065292311017402, 8994077.466971943154931 ], [ 782854.679597146110609, 8994080.287640349939466 ], [ 782852.228510818211362, 8994086.49460107088089 ], [ 782852.097675887285732, 8994086.831834321841598 ], [ 782847.20112353656441, 8994099.68296099640429 ], [ 782836.63539827556815, 8994116.814540943130851 ], [ 782826.011773353908211, 8994129.165425576269627 ], [ 782818.295149193145335, 8994133.908914728090167 ], [ 782808.750308344373479, 8994138.050919102504849 ], [ 782778.793527845293283, 8994144.476200660690665 ], [ 782774.787196176126599, 8994145.631858320906758 ], [ 782730.920989061007276, 8994161.663425045087934 ], [ 782719.430038555874489, 8994165.055072778835893 ], [ 782706.714172662352212, 8994164.217193199321628 ], [ 782705.271109273657203, 8994163.854753144085407 ], [ 782697.610508193261921, 8994161.930748224258423 ], [ 782689.910868961829692, 8994161.02965353615582 ], [ 782682.237401116173714, 8994162.131597053259611 ], [ 782661.196665447670966, 8994168.004547687247396 ], [ 782655.991937402868643, 8994169.994569208472967 ], [ 782637.984313084976748, 8994178.876159017905593 ], [ 782628.739762926939875, 8994185.955130008980632 ], [ 782616.954929910134524, 8994199.337803065776825 ], [ 782612.106636769138277, 8994206.8651786390692 ], [ 782609.695686816237867, 8994215.488092597573996 ], [ 782607.638573505682871, 8994232.148905199021101 ], [ 782607.749144359258935, 8994240.306924603879452 ], [ 782608.307082309620455, 8994243.999705454334617 ], [ 782611.271652290597558, 8994253.199113449081779 ], [ 782625.980599639005959, 8994281.903489280492067 ], [ 782631.003150515723974, 8994301.737718097865582 ], [ 782634.454189805546775, 8994309.62460614554584 ], [ 782635.14888079627417, 8994318.926162991672754 ], [ 782635.212442929390818, 8994327.88487059250474 ], [ 782636.460639433003962, 8994336.238088566809893 ], [ 782639.98764457879588, 8994343.912350507453084 ], [ 782645.513917513657361, 8994350.299405405297875 ], [ 782656.194740943377838, 8994359.597376003861427 ], [ 782665.509877025848255, 8994365.116072446107864 ], [ 782681.467562695848756, 8994371.002609634771943 ], [ 782694.604548994451761, 8994377.168454065918922 ], [ 782714.122491684276611, 8994389.47697558440268 ], [ 782714.147305864607915, 8994392.974257359281182 ], [ 782714.260784196434543, 8994408.966365125030279 ], [ 782709.637516001239419, 8994426.775957504287362 ], [ 782694.077903075609356, 8994475.799686489626765 ], [ 782681.2552250350127, 8994507.970901973545551 ], [ 782669.311133763287216, 8994525.339321000501513 ], [ 782646.840100324479863, 8994556.166037295013666 ], [ 782645.284206831362098, 8994558.526638012379408 ], [ 782636.544722776510753, 8994573.252378007397056 ], [ 782633.962299945997074, 8994578.841625401750207 ], [ 782624.705029594828375, 8994605.866464318707585 ], [ 782623.086859352537431, 8994615.801063483580947 ], [ 782623.206839360180311, 8994632.718777991831303 ], [ 782620.573437647661194, 8994640.013197919353843 ], [ 782611.502529385033995, 8994650.408450277522206 ], [ 782593.692449632100761, 8994670.394369050860405 ], [ 782565.657018931815401, 8994688.992634456604719 ], [ 782563.269953353214078, 8994690.75206439755857 ], [ 782552.109928794438019, 8994699.862233638763428 ], [ 782536.122718128492124, 8994711.947566024959087 ], [ 782535.586868987884372, 8994712.362225951626897 ], [ 782510.9423294425942, 8994731.881996000185609 ], [ 782507.868991678347811, 8994734.683991303667426 ], [ 782492.648051916155964, 8994750.628720283508301 ], [ 782489.484679687768221, 8994754.556408958509564 ], [ 782487.802818096824922, 8994757.047396885231137 ], [ 782483.815111101604998, 8994765.611846543848515 ], [ 782477.098248729715124, 8994789.179055344313383 ], [ 782462.006839334149845, 8994838.325784254819155 ], [ 782460.690817151800729, 8994847.710748394951224 ], [ 782461.629592699697241, 8994896.365579344332218 ], [ 782461.659163914155215, 8994897.238542759791017 ], [ 782463.62459901010152, 8994937.807653153315187 ], [ 782458.795686852070503, 8995221.190130176022649 ], [ 782458.791465923190117, 8995221.612995745614171 ], [ 782458.448708750540391, 8995338.114632530137897 ], [ 782453.282519970322028, 8995545.036247868090868 ], [ 782449.105481719365343, 8995599.347741153091192 ], [ 782446.883609196869656, 8995613.202302733436227 ], [ 782439.03552309947554, 8995636.148575656116009 ], [ 782421.767881389474496, 8995672.207836633548141 ], [ 782421.427986658527516, 8995672.942942023277283 ], [ 782388.94946640660055, 8995745.74900989048183 ], [ 782364.731872882111929, 8995798.865192314609885 ], [ 782341.023766062455252, 8995847.986216407269239 ], [ 782340.365334787522443, 8995849.449101457372308 ], [ 782303.229553589364514, 8995938.225355092436075 ], [ 782303.144490224076435, 8995938.430861439555883 ], [ 782287.602159897563979, 8995976.37386042624712 ], [ 782245.91149103816133, 8996072.52824217826128 ], [ 782244.008558002999052, 8996078.627401577308774 ], [ 782242.883953842101619, 8996084.299240216612816 ], [ 782151.176577350706793, 8996291.499741369858384 ], [ 782150.948635309003294, 8996292.028404215350747 ], [ 782050.731704591424204, 8996530.729607554152608 ], [ 782050.659286009147763, 8996530.903626376762986 ], [ 781929.67267093854025, 8996824.224827976897359 ], [ 781821.552127675735392, 8997079.426677368581295 ], [ 781819.390271599171683, 8997087.544661851599813 ], [ 781819.564063744619489, 8997095.943771656602621 ], [ 781822.059894529636949, 8997103.965389797464013 ], [ 781831.702083120588213, 8997124.334513971582055 ], [ 781855.852592113660648, 8997213.619192261248827 ], [ 781856.631720568519086, 8997216.075707599520683 ], [ 781863.249923878116533, 8997234.200890449807048 ], [ 781866.792816534405574, 8997241.028563786298037 ], [ 781871.955452723428607, 8997246.730894217267632 ], [ 781890.360235362662934, 8997262.437806587666273 ], [ 781894.023794232634827, 8997265.113407550379634 ], [ 781914.068466867436655, 8997277.544261010363698 ], [ 781919.778290651272982, 8997284.530751027166843 ], [ 781923.345589326927438, 8997293.766688171774149 ], [ 781923.554763597203419, 8997298.45528207346797 ], [ 781922.546633515506983, 8997308.785810427740216 ], [ 781919.744175326661207, 8997322.151691535487771 ], [ 781919.152329819975421, 8997326.636339718475938 ], [ 781918.497996512101963, 8997338.360827812924981 ], [ 781919.707970278454013, 8997348.624103229492903 ], [ 781923.33579894923605, 8997360.761049535125494 ], [ 781923.469366594450548, 8997361.195855969563127 ], [ 781930.715816038195044, 8997384.163918372243643 ], [ 781933.632181505206972, 8997390.624418197199702 ], [ 781937.982916148961522, 8997396.220345251262188 ], [ 781945.019451919477433, 8997403.343616859987378 ], [ 781955.156892471248284, 8997417.26682504825294 ], [ 781961.446232224581763, 8997423.636143108829856 ], [ 781965.54147002985701, 8997426.697788164019585 ], [ 781970.296370430616662, 8997438.809188129380345 ], [ 781979.462900787359104, 8997499.292442021891475 ], [ 781977.412724157562479, 8997581.024862930178642 ], [ 781969.793977236840874, 8997607.372312806546688 ], [ 781961.022959596477449, 8997628.549697894603014 ], [ 781929.53819841449149, 8997669.325547462329268 ], [ 781866.192697054706514, 8997740.185769194737077 ], [ 781863.864832823630422, 8997743.144162889569998 ], [ 781857.170806279173121, 8997752.847396587952971 ], [ 781853.324176142690703, 8997760.639597425237298 ], [ 781851.872249695356004, 8997769.207383900880814 ], [ 781851.205646012444049, 8997798.796012418344617 ], [ 781848.448559301206842, 8997803.853224646300077 ], [ 781846.037306085345335, 8997809.647599903866649 ], [ 781808.141895507927984, 8997936.847297288477421 ], [ 781767.530222557950765, 8997942.126251500099897 ], [ 781741.168743239715695, 8997943.575331620872021 ], [ 781730.964325669454411, 8997945.970111383125186 ], [ 781722.206591767957434, 8997951.729191545397043 ], [ 781715.964614388998598, 8997960.149575520306826 ], [ 781705.209459447534755, 8997981.731954680755734 ], [ 781702.676850197720341, 8997989.061026833951473 ], [ 781702.107361089671031, 8997996.79439939931035 ], [ 781704.102865962078795, 8998032.332092059776187 ], [ 781704.470449109561741, 8998035.621493754908442 ], [ 781709.0824961271137, 8998063.068664802238345 ], [ 781709.195466851699166, 8998079.105455985292792 ], [ 781709.209978576749563, 8998079.850664691999555 ], [ 781709.769915469223633, 8998097.403138844296336 ], [ 781712.839500166242942, 8998109.697021182626486 ], [ 781719.689466610783711, 8998123.611151486635208 ], [ 781726.071528170024976, 8998145.057883117347956 ], [ 781724.1653261044994, 8998153.13545586168766 ], [ 781707.235640390543267, 8998177.042992232367396 ], [ 781703.582487615756691, 8998183.970908768475056 ], [ 781701.847034214995801, 8998191.608285542577505 ], [ 781699.757671353057958, 8998214.12409189902246 ], [ 781679.520996010745876, 8998237.170991761609912 ], [ 781676.338465367211029, 8998241.531645057722926 ], [ 781646.079254698008299, 8998291.969372438266873 ], [ 781619.868685894878581, 8998317.568503489717841 ], [ 781589.704052302753553, 8998346.029225384816527 ], [ 781576.556558688636869, 8998358.434035634621978 ], [ 781508.150716441450641, 8998388.268527213484049 ], [ 781454.286383906728588, 8998408.585580676794052 ], [ 781448.105773991090246, 8998411.778935424983501 ], [ 781431.92174441984389, 8998422.687982928007841 ], [ 781426.180126697639935, 8998427.732222149148583 ], [ 781413.924118732335046, 8998441.643061513081193 ], [ 781409.113749070791528, 8998449.081183157861233 ], [ 781406.685254324343987, 8998457.599841721355915 ], [ 781404.185832567512989, 8998476.786914981901646 ], [ 781387.774717258755118, 8998528.067979427054524 ] ] ] ] } },
{ "type": "Feature", "properties": { "GM_LAYER": "Unknown Area Type<BR><BR><B>LAYER</B> = Area LiDAR<BR><B>PERIMETER</B> = 21.021 km<BR><B>ENCLOSED_A</B> = 601.71 ha<BR><B>Luas</B> = 600.063", "GM_TYPE": "Unknown Area Type", "KML_STYLE": "area1", "CLOSED": "YES", "BORDER_STY": "Solid", "BORDER_COL": "RGB(255,0,0)", "BORDER_WID": 1, "FILL_STYLE": "No Fill", "LAYER": "Area LiDAR", "PERIMETER": "21.021 km", "ENCLOSED_A": "601.71 ha", "Luas": 600.063 }, "geometry": { "type": "MultiPolygon", "coordinates": [ [ [ [ 780368.064763333299197, 8999134.175241710618138 ], [ 780368.619766185758635, 8999257.170279519632459 ], [ 780172.802742888103239, 8999258.047463925555348 ], [ 780172.979602230014279, 8999297.289469372481108 ], [ 780019.994847890920937, 8999297.974078735336661 ], [ 780020.269623204949312, 8999358.998110193759203 ], [ 779962.650486935861409, 8999359.255783738568425 ], [ 779963.352095234207809, 8999515.150660086423159 ], [ 779933.286955935880542, 8999515.285039223730564 ], [ 779933.567985750734806, 8999577.749629771336913 ], [ 779903.640897911624052, 8999577.883362665772438 ], [ 779903.768609073129483, 8999606.275876155123115 ], [ 779872.838767234468833, 8999606.41405276954174 ], [ 779872.984838845091872, 8999638.897992711514235 ], [ 779841.63675242732279, 8999639.03802003711462 ], [ 779842.335735662374645, 8999794.524199049919844 ], [ 779809.535475064651109, 8999794.670635838061571 ], [ 779810.94446638925001, 9000108.264497369527817 ], [ 779837.965039417846128, 9000108.143915196880698 ], [ 779839.619403338409029, 9000476.493186432868242 ], [ 779870.596740592969581, 9000476.355005534365773 ], [ 779870.7309413428884, 9000506.239382587373257 ], [ 779903.243451496236958, 9000506.094339966773987 ], [ 779903.519364044535905, 9000567.528907431289554 ], [ 779931.813938095932826, 9000567.402665773406625 ], [ 779931.959355199942365, 9000599.778651772066951 ], [ 780300.859170764451846, 9000598.131028840318322 ], [ 780302.234960436820984, 9000903.893911657854915 ], [ 780359.716013786848634, 9000903.636994296684861 ], [ 780361.011885541724041, 9001191.681745385751128 ], [ 780207.624140875414014, 9001192.366830116137862 ], [ 780209.221714660176076, 9001547.953827114775777 ], [ 780293.198738048784435, 9001547.579040240496397 ], [ 780293.352489356417209, 9001581.79626583121717 ], [ 780357.419653839198872, 9001581.510223384946585 ], [ 780357.793973659630865, 9001664.789969110861421 ], [ 780511.194587528007105, 9001664.104770015925169 ], [ 780513.244727049954236, 9002120.036994261667132 ], [ 780588.436575030442327, 9002119.701152553781867 ], [ 780589.131965860724449, 9002274.360885839909315 ], [ 780754.278797844424844, 9002273.62295806966722 ], [ 780754.410403277724981, 9002302.870528310537338 ], [ 780777.469216865021735, 9002302.767445685341954 ], [ 780777.782142790267244, 9002372.306098498404026 ], [ 780840.719913005828857, 9002372.024708021432161 ], [ 780840.873625220381655, 9002406.175096599385142 ], [ 780910.969082854804583, 9002405.861597644165158 ], [ 780911.239829226746224, 9002465.992784017696977 ], [ 780964.674918131437153, 9002465.753728915005922 ], [ 780964.910500176716596, 9002518.064468797296286 ], [ 780991.814118725713342, 9002517.944093316793442 ], [ 780991.986824387684464, 9002556.291403543204069 ], [ 781058.54430571757257, 9002555.993546865880489 ], [ 781058.948144502937794, 9002645.635676492005587 ], [ 781153.100608847569674, 9002645.214203990995884 ], [ 781153.586694085272029, 9002753.071479061618447 ], [ 781092.128939436515793, 9002753.346575709059834 ], [ 781092.669706769520417, 9002873.402111796662211 ], [ 781061.407510360702872, 9002873.541978567838669 ], [ 781062.644371787784621, 9003148.264493726193905 ], [ 780938.849089830648154, 9003148.817904179915786 ], [ 780939.13532678980846, 9003212.454380534589291 ], [ 780877.630842664511874, 9003212.729153489693999 ], [ 780878.455842765048146, 9003396.243714766576886 ], [ 780847.525564591865987, 9003396.381821682676673 ], [ 780847.805458496790379, 9003458.664858147501945 ], [ 780816.718560431618243, 9003458.803623078390956 ], [ 780816.992220430867746, 9003519.716265007853508 ], [ 780802.266063388204202, 9003519.781994726508856 ], [ 780802.304400492575951, 9003869.520075831562281 ], [ 781135.624628961086273, 9003868.031987965106964 ], [ 781135.517225012648851, 9003844.152969976887107 ], [ 781194.034709673724137, 9003843.891422152519226 ], [ 781193.723505212110467, 9003774.728822715580463 ], [ 781286.683194049168378, 9003774.313123548403382 ], [ 781286.138596980250441, 9003653.365165386348963 ], [ 781624.05585986468941, 9003651.851951384916902 ], [ 781623.381412498652935, 9003502.376187283545732 ], [ 781718.984563614823855, 9003501.947460683062673 ], [ 781717.2547550664749, 9003118.936606554314494 ], [ 781687.071169652743265, 9003119.072067815810442 ], [ 781686.323176894220524, 9002953.495248470455408 ], [ 781761.063456691103056, 9002953.159688148647547 ], [ 781761.484129444812424, 9003046.236427173018456 ], [ 782236.376466641901061, 9003044.101365722715855 ], [ 782235.541030332213268, 9002859.751822594553232 ], [ 782314.268031069310382, 9002859.397236701101065 ], [ 782314.552736186538823, 9002922.18976585753262 ], [ 782759.086061886744574, 9002920.184871772304177 ], [ 782757.505486355279572, 9002572.520305763930082 ], [ 782666.597220154479146, 9002572.930933564901352 ], [ 782666.456287784036249, 9002541.926262479275465 ], [ 782634.779908115626313, 9002542.069298671558499 ], [ 782634.642082923557609, 9002511.741510452702641 ], [ 782604.025234831729904, 9002511.879742549732327 ], [ 782603.603548339800909, 9002419.088436109945178 ], [ 782419.445075675146654, 9002419.919557075947523 ], [ 782419.306769163347781, 9002389.458659183233976 ], [ 782305.160504582105204, 9002389.973404806107283 ], [ 782304.85610905312933, 9002322.894619466736913 ], [ 782118.670827651862055, 9002323.733623018488288 ], [ 782118.524753598263487, 9002291.51245317235589 ], [ 782022.855496511328965, 9002291.943242471665144 ], [ 782022.575641233474016, 9002230.18391571752727 ], [ 781872.72334817936644, 9002230.858308956027031 ], [ 781872.442344291252084, 9002168.801354488357902 ], [ 781815.953324201749638, 9002169.055455503985286 ], [ 781815.820964321726933, 9002139.820596760138869 ], [ 781782.22522859275341, 9002139.971685696393251 ], [ 781781.950879011186771, 9002079.361659606918693 ], [ 781692.265404985286295, 9002079.764903880655766 ], [ 781691.981072668801062, 9002016.925862692296505 ], [ 781569.648125481675379, 9002017.475627608597279 ], [ 781569.512409690069035, 9001987.465098295360804 ], [ 781533.177592482650653, 9001987.628328440710902 ], [ 781532.760960245039314, 9001895.486400233581662 ], [ 781380.652620980399661, 9001896.16945031657815 ], [ 781380.373390260851011, 9001834.369604231789708 ], [ 781323.788267221534625, 9001834.623579254373908 ], [ 781323.658530021668412, 9001805.904125634580851 ], [ 781290.099681731197052, 9001806.054724847897887 ], [ 781289.805248669232242, 9001740.868503170087934 ], [ 781265.536231859121472, 9001740.977396639063954 ], [ 781264.803275701589882, 9001578.710793159902096 ], [ 781291.597572881029919, 9001578.590526485815644 ], [ 781290.257775441277772, 9001282.127221534028649 ], [ 781260.542083022417501, 9001282.260651595890522 ], [ 781258.852458715206012, 9000908.525834238156676 ], [ 781569.36688920436427, 9000907.129617091268301 ], [ 781567.362728610401973, 9000464.858978319913149 ], [ 781476.601296012289822, 9000465.267609812319279 ], [ 781476.46875535743311, 9000436.015145113691688 ], [ 781445.509824595646933, 9000436.154499363154173 ], [ 781445.095861781737767, 9000344.783442767336965 ], [ 781381.304451033473015, 9000345.070533897727728 ], [ 781381.166531090158969, 9000314.622307024896145 ], [ 781364.703744373866357, 9000314.696386959403753 ], [ 781364.268869520630687, 9000218.685989072546363 ], [ 781297.044752942863852, 9000218.988446410745382 ], [ 781296.772983322618529, 9000158.972883604466915 ], [ 781261.80002135457471, 9000159.130203925073147 ], [ 781261.519425443839282, 9000097.160322364419699 ], [ 781237.167360485182144, 9000097.269855815917253 ], [ 781236.895568537991494, 9000037.242716621607542 ], [ 781204.764109009178355, 9000037.387236217036843 ], [ 781204.486008458654396, 8999975.959389848634601 ], [ 781169.131694417679682, 8999976.118388470262289 ], [ 781168.996850614668801, 8999946.332319645211101 ], [ 781142.752470099716447, 8999946.45034147799015 ], [ 781142.608308060793206, 8999914.60055516473949 ], [ 781110.778261109720916, 8999914.743665333837271 ], [ 781110.638955550151877, 8999883.962974157184362 ], [ 781077.667750502354465, 8999884.111204968765378 ], [ 781076.830703668994829, 8999699.15846336632967 ], [ 781037.125334728276357, 8999699.336976723745465 ], [ 781036.52175231394358, 8999565.97294164635241 ], [ 781082.736743381945416, 8999565.765111535787582 ], [ 781082.439345033140853, 8999500.082561634480953 ], [ 781202.343379607656971, 8999499.543037796393037 ], [ 781201.495142938219942, 8999312.363483395427465 ], [ 781111.799875309923664, 8999312.767227839678526 ], [ 781106.463312660576776, 8999012.445114549249411 ], [ 781355.819188633235171, 8999012.804335838183761 ], [ 781358.754339042003267, 8998713.89966201223433 ], [ 781793.425774304429069, 8998711.936677565798163 ], [ 781792.479471780126914, 8998461.027453372254968 ], [ 780758.247180306119844, 8998460.418153308331966 ], [ 780758.846228855196387, 8998861.569834290072322 ], [ 780470.560732362326235, 8998866.113073848187923 ], [ 780472.433727234601974, 8999133.444237301126122 ], [ 780368.064763333299197, 8999134.175241710618138 ] ] ] ] } }
]
}
