{
"type": "FeatureCollection",
"name": "forestprotected",
"crs": { "type": "name", "properties": { "name": "urn:ogc:def:crs:EPSG::32751" } },
"features": [
{ "type": "Feature", "properties": { "id": null, "hutan": "Parke Nasional Key Rala Xanana Gusmao" }, "geometry": { "type": "MultiPolygon", "coordinates": [ [ [ [ 786242.818683777702972, 9011360.519769728183746, 0.0 ], [ 786327.547719548107125, 9011546.403438348323107, 0.0 ], [ 786557.659505685558543, 9011712.917413929477334, 0.0 ], [ 786510.999807340675034, 9011559.648806251585484, 0.0 ], [ 786557.770283967023715, 9011299.281193140894175, 0.0 ], [ 786817.913360913749784, 9011131.672211250290275, 0.0 ], [ 787043.924014802556485, 9010949.552277166396379, 0.0 ], [ 786951.437626650440507, 9011367.034657215699553, 0.0 ], [ 787230.19870611326769, 9011220.75582879409194, 0.0 ], [ 787358.196185281383805, 9010979.26401249691844, 0.0 ], [ 787621.731436780653894, 9010982.245276832953095, 0.0 ], [ 787522.238062923075631, 9011058.70348890312016, 0.0 ], [ 787748.806831501424313, 9011232.217782100662589, 0.0 ], [ 787939.022319079842418, 9011310.672353742644191, 0.0 ], [ 788187.10400548344478, 9010927.421932781115174, 0.0 ], [ 788374.875527224736288, 9010845.04548366740346, 0.0 ], [ 788429.644779667025432, 9011029.872240372002125, 0.0 ], [ 788362.481915288604796, 9011322.690793491899967, 0.0 ], [ 788770.317689474439248, 9011217.06813869997859, 0.0 ], [ 789067.048060883069411, 9011094.700324570760131, 0.0 ], [ 789190.224304152070545, 9011316.515692817047238, 0.0 ], [ 789471.874355561798438, 9011178.956054532900453, 0.0 ], [ 789550.322047241963446, 9011510.183252206072211, 0.0 ], [ 790339.182694595539942, 9011200.89874879643321, 0.0 ], [ 790548.42564890277572, 9010913.649292126297951, 0.0 ], [ 790789.080085174995475, 9010701.675171593204141, 0.0 ], [ 791104.73833482270129, 9010232.446411836892366, 0.0 ], [ 791388.504274098668247, 9009653.474823633208871, 0.0 ], [ 791579.989936025696807, 9009082.91907075792551, 0.0 ], [ 791747.609023871249519, 9008525.753173585981131, 0.0 ], [ 792338.8997000339441, 9008197.283453118056059, 0.0 ], [ 792687.709827469894662, 9007810.501851605251431, 0.0 ], [ 792544.710444052587263, 9007659.6301164701581, 0.0 ], [ 792292.990086378762498, 9007404.011536283418536, 0.0 ], [ 792132.156216427916661, 9007232.969076782464981, 0.0 ], [ 792006.367025416926481, 9007184.796226013451815, 0.0 ], [ 791861.669542154064402, 9007081.63622584566474, 0.0 ], [ 791767.545097023947164, 9007010.412398720160127, 0.0 ], [ 791596.055922533385456, 9006846.273568572476506, 0.0 ], [ 791485.122119049774483, 9006622.318068094551563, 0.0 ], [ 791537.678300958126783, 9006552.306328685954213, 0.0 ], [ 791481.062052857829258, 9006277.445810401812196, 0.0 ], [ 791370.917453301837668, 9006020.904016137123108, 0.0 ], [ 791382.642124635051005, 9005763.323291210457683, 0.0 ], [ 791161.845909917261451, 9005692.857525357976556, 0.0 ], [ 791025.28474352019839, 9005539.051250658929348, 0.0 ], [ 790750.042445328435861, 9005414.215691076591611, 0.0 ], [ 790367.121263016713783, 9005228.946976078674197, 0.0 ], [ 790254.57324729161337, 9005209.674832528457046, 0.0 ], [ 790096.190461002406664, 9005230.722759651020169, 0.0 ], [ 789929.638926704297774, 9005268.768730517476797, 0.0 ], [ 789783.164010887499899, 9005220.665123034268618, 0.0 ], [ 789679.537338874186389, 9004957.814866932108998, 0.0 ], [ 789563.762466901913285, 9004756.112474525347352, 0.0 ], [ 789523.339117822470143, 9004612.636581776663661, 0.0 ], [ 789405.610258765053004, 9004490.96608935855329, 0.0 ], [ 789348.569225325714797, 9004270.469478294253349, 0.0 ], [ 789382.520670795231126, 9004049.540023745968938, 0.0 ], [ 789292.925552570610307, 9003922.908409088850021, 0.0 ], [ 789092.869670947664417, 9003812.78647294268012, 0.0 ], [ 788873.263082114281133, 9003860.515166431665421, 0.0 ], [ 788647.51161594199948, 9003803.256849518045783, 0.0 ], [ 788416.371035315329209, 9003853.611169634386897, 0.0 ], [ 788185.683781465515494, 9003829.034616950899363, 0.0 ], [ 787987.812993956496939, 9003869.740687215700746, 0.0 ], [ 787825.170209255069494, 9003974.605619864538312, 0.0 ], [ 787659.338433888042346, 9004064.440868334844708, 0.0 ], [ 787423.460662174969912, 9003883.073021940886974, 0.0 ], [ 787201.587250842479989, 9003767.344157572835684, 0.0 ], [ 786987.548428878886625, 9003777.946873903274536, 0.0 ], [ 786783.654023108654656, 9003822.452601037919521, 0.0 ], [ 786583.349187735235319, 9003722.172010783106089, 0.0 ], [ 786386.634888771688566, 9003554.24436011351645, 0.0 ], [ 786196.91283063031733, 9003843.010478168725967, 0.0 ], [ 785978.62417085270863, 9003859.282152749598026, 0.0 ], [ 785814.696209912421182, 9004046.929134512320161, 0.0 ], [ 786080.97056657797657, 9004264.610238879919052, 0.0 ], [ 786312.951965917833149, 9004409.60132921859622, 0.0 ], [ 786385.140575319295749, 9004581.072506142780185, 0.0 ], [ 786508.151783243287355, 9004828.21404505521059, 0.0 ], [ 786386.079331937013194, 9004914.189300896599889, 0.0 ], [ 786153.275980752892792, 9005149.47274980507791, 0.0 ], [ 786083.745675701764412, 9005770.725639883428812, 0.0 ], [ 785720.261261076433584, 9006059.057894509285688, 0.0 ], [ 785408.264542347518727, 9006082.627091560512781, 0.0 ], [ 785236.522227324778214, 9006163.082957686856389, 0.0 ], [ 785108.896676756907254, 9005853.663585469126701, 0.0 ], [ 785224.786379642551765, 9005561.88905331864953, 0.0 ], [ 785171.026487946510315, 9005226.271620348095894, 0.0 ], [ 785181.016925873700529, 9004850.139938227832317, 0.0 ], [ 785057.52305778011214, 9004782.176789369434118, 0.0 ], [ 784871.560599050717428, 9004951.380716245621443, 0.0 ], [ 784645.812016891781241, 9005049.260443806648254, 0.0 ], [ 784441.936770331580192, 9005034.985424224287271, 0.0 ], [ 784184.256951304618269, 9004942.623705931007862, 0.0 ], [ 784080.016694897902198, 9004887.857893606647849, 0.0 ], [ 783828.864436558680609, 9004876.595076577737927, 0.0 ], [ 783518.075538700213656, 9004440.193635128438473, 0.0 ], [ 783560.033549018553458, 9004147.733675876632333, 0.0 ], [ 783692.614327911054716, 9003850.970219559967518, 0.0 ], [ 783746.760457209777087, 9003745.422898923978209, 0.0 ], [ 783806.947117205709219, 9003596.911550488322973, 0.0 ], [ 783835.556961424998008, 9003227.495863744989038, 0.0 ], [ 783883.177971714176238, 9002980.308328585699201, 0.0 ], [ 784076.340268012601882, 9002799.883149065077305, 0.0 ], [ 784199.544110108865425, 9002411.039566339924932, 0.0 ], [ 784085.167048568837345, 9002238.757625931873918, 0.0 ], [ 784003.170711279963143, 9002046.980007810518146, 0.0 ], [ 783780.389938191394322, 9001903.46397191286087, 0.0 ], [ 783717.613871148088947, 9001682.138739366084337, 0.0 ], [ 783554.715708095347509, 9001610.026111101731658, 0.0 ], [ 783160.136566545115784, 9001275.379207197576761, 0.0 ], [ 782906.119444841286168, 9001417.832158470526338, 0.0 ], [ 782680.24142481200397, 9001338.192477121949196, 0.0 ], [ 782478.217180688632652, 9001068.032580489292741, 0.0 ], [ 782087.289960010093637, 9000468.301031637936831, 0.0 ], [ 781628.216960921417922, 9000361.302430145442486, 0.0 ], [ 781363.377977774944156, 9000199.594087155535817, 0.0 ], [ 781187.717952772974968, 8999937.546725677326322, 0.0 ], [ 781020.881770411273465, 8999756.889170709997416, 0.0 ], [ 780649.85709956753999, 8999669.184955494478345, 0.0 ], [ 780642.223871015710756, 8999788.759852916002274, 0.0 ], [ 780580.529856195556931, 8999886.247738212347031, 0.0 ], [ 780567.422974571818486, 9000025.449081126600504, 0.0 ], [ 780550.679434404941276, 9000132.360817719250917, 0.0 ], [ 780523.629858039668761, 9000244.324700001627207, 0.0 ], [ 780455.816791805089451, 9000332.226810095831752, 0.0 ], [ 780363.975769666605629, 9000445.197000414133072, 0.0 ], [ 780293.907490545418113, 9000541.082472754642367, 0.0 ], [ 780215.051115549402311, 9000654.625283753499389, 0.0 ], [ 780125.190028121229261, 9000783.516792850568891, 0.0 ], [ 780090.825725505710579, 9000903.83102834969759, 0.0 ], [ 780048.961325210286304, 9001052.971062991768122, 0.0 ], [ 779980.147326438687742, 9001123.946525206789374, 0.0 ], [ 779846.18880541715771, 9001161.180053161457181, 0.0 ], [ 779715.98436871659942, 9001200.378900106996298, 0.0 ], [ 779607.053751084022224, 9001182.324791917577386, 0.0 ], [ 779502.226740672136657, 9001216.365984309464693, 0.0 ], [ 779342.293157529085875, 9001236.182523772120476, 0.0 ], [ 779187.445016638026573, 9001196.313619179651141, 0.0 ], [ 779083.304149168892764, 9001234.1115009970963, 0.0 ], [ 778966.646699932869524, 9001259.712092524394393, 0.0 ], [ 778865.728176457574591, 9001302.134893771260977, 0.0 ], [ 778716.601592601276934, 9001341.461600746959448, 0.0 ], [ 778581.60520578850992, 9001467.009263757616282, 0.0 ], [ 778482.977675115223974, 9001570.170667519792914, 0.0 ], [ 778400.663080591824837, 9001693.691771302372217, 0.0 ], [ 778290.566119344090112, 9001777.122722128406167, 0.0 ], [ 778217.717054748092778, 9001885.526970589533448, 0.0 ], [ 778101.136302321217954, 9001938.347622161731124, 0.0 ], [ 777997.846671684645116, 9001988.19851946271956, 0.0 ], [ 777852.312524310778826, 9002070.102455165237188, 0.0 ], [ 777701.089401118922979, 9002220.325665701180696, 0.0 ], [ 777591.938922795117833, 9002345.578855166211724, 0.0 ], [ 777511.373449050821364, 9002547.767852267250419, 0.0 ], [ 777358.00109476048965, 9002705.860942855477333, 0.0 ], [ 777160.514567068312317, 9002800.735601734369993, 0.0 ], [ 777100.721037515788339, 9003016.280750591307878, 0.0 ], [ 776935.66528210346587, 9003187.731548622250557, 0.0 ], [ 776851.201424477389082, 9003351.875883402302861, 0.0 ], [ 776855.960474720457569, 9003579.701933497563004, 0.0 ], [ 776842.340605607489124, 9003774.787021668627858, 0.0 ], [ 777071.730900950497016, 9003918.400062533095479, 0.0 ], [ 777229.590089452220127, 9004107.103164840489626, 0.0 ], [ 777400.556140114320442, 9004249.789667092263699, 0.0 ], [ 777453.149129731347784, 9004473.634836873039603, 0.0 ], [ 777339.322731012711301, 9004688.002874625846744, 0.0 ], [ 777443.691045437240973, 9004905.294234033674002, 0.0 ], [ 777561.107000334071927, 9005036.066153790801764, 0.0 ], [ 777464.298350294702686, 9005181.59387306496501, 0.0 ], [ 777380.045500467065722, 9005520.91994609311223, 0.0 ], [ 777262.757846243679523, 9005760.65279876999557, 0.0 ], [ 777141.968181579839438, 9005907.339800829067826, 0.0 ], [ 777279.688321796129458, 9006094.633912585675716, 0.0 ], [ 777411.452046559774317, 9006295.580674562603235, 0.0 ], [ 777523.721614765701815, 9006493.562857981771231, 0.0 ], [ 777650.801439237548038, 9006701.070978555828333, 0.0 ], [ 777828.776482321205549, 9006885.431624256074429, 0.0 ], [ 777901.963134898338467, 9007079.69879288226366, 0.0 ], [ 778049.450965150725096, 9007214.469615874812007, 0.0 ], [ 778240.053762835334055, 9007282.765003992244601, 0.0 ], [ 778358.457664966816083, 9007364.17341666482389, 0.0 ], [ 778439.383792312350124, 9007531.495399976149201, 0.0 ], [ 778589.98482417804189, 9007686.384932558983564, 0.0 ], [ 778447.619508133037016, 9007848.274757444858551, 0.0 ], [ 778552.868912232574075, 9007984.442768312990665, 0.0 ], [ 778627.913080585654825, 9008144.28017052076757, 0.0 ], [ 778770.139067219337448, 9008057.754349624738097, 0.0 ], [ 778901.600872977636755, 9008021.876583503559232, 0.0 ], [ 779023.223472589161247, 9007979.315640415996313, 0.0 ], [ 779196.029911327175796, 9008019.068317206576467, 0.0 ], [ 779313.007556537631899, 9007973.107854131609201, 0.0 ], [ 779445.594844725681469, 9008020.441569371148944, 0.0 ], [ 779556.295566711341962, 9008085.079708652570844, 0.0 ], [ 779556.341945063555613, 9008234.92199938558042, 0.0 ], [ 779512.43642292288132, 9008346.002962697297335, 0.0 ], [ 779585.749918191926554, 9008445.870491448789835, 0.0 ], [ 779719.377454368746839, 9008436.535270806401968, 0.0 ], [ 779875.502104508108459, 9008418.522469094023108, 0.0 ], [ 779996.766897098859772, 9008451.214670699089766, 0.0 ], [ 780116.082919479813427, 9008520.21886121481657, 0.0 ], [ 780218.257456253748387, 9008640.248514633625746, 0.0 ], [ 780260.990384622942656, 9008804.62500423938036, 0.0 ], [ 780391.073478498496115, 9008823.421915296465158, 0.0 ], [ 780534.628403850132599, 9008785.573962174355984, 0.0 ], [ 780648.421423041494563, 9008708.534408088773489, 0.0 ], [ 780710.276327828876674, 9008869.126195510849357, 0.0 ], [ 780711.584289427381009, 9009009.996827119961381, 0.0 ], [ 780787.024786195950583, 9009130.322077102959156, 0.0 ], [ 780859.9172464821022, 9009248.119644749909639, 0.0 ], [ 780969.34641230921261, 9009160.485609158873558, 0.0 ], [ 781163.969984613824636, 9009139.877026095986366, 0.0 ], [ 781232.243202450568788, 9009178.689483776688576, 0.0 ], [ 781252.15365649596788, 9009304.380445573478937, 0.0 ], [ 781416.624865045072511, 9009409.920636283233762, 0.0 ], [ 781456.100974231492728, 9009279.3897436093539, 0.0 ], [ 781577.211985856527463, 9009384.12434908375144, 0.0 ], [ 781708.51624002866447, 9009514.573502270504832, 0.0 ], [ 781884.914970748242922, 9009546.988214345648885, 0.0 ], [ 781900.766629120218568, 9009421.490496896207333, 0.0 ], [ 782077.947122529149055, 9009329.28607757948339, 0.0 ], [ 782152.59131754108239, 9009318.916049791499972, 0.0 ], [ 782273.515702503966168, 9009333.455446245148778, 0.0 ], [ 782309.874763579107821, 9009434.684962403029203, 0.0 ], [ 782419.040873429970816, 9009546.030614029616117, 0.0 ], [ 782565.315015543135814, 9009613.513512440025806, 0.0 ], [ 782656.245483673643321, 9009666.110273147001863, 0.0 ], [ 782732.547717897454277, 9009672.438762687146664, 0.0 ], [ 782864.14146565576084, 9009654.586835023015738, 0.0 ], [ 783012.017195683671162, 9009651.892943821847439, 0.0 ], [ 783089.327961173141375, 9009739.445000967010856, 0.0 ], [ 783122.799762764479965, 9009836.599891562014818, 0.0 ], [ 783111.865319774486125, 9009909.49679115600884, 0.0 ], [ 783155.483763544354588, 9010009.900825245305896, 0.0 ], [ 783270.163023967761546, 9010075.057566028088331, 0.0 ], [ 783425.822447526268661, 9009989.30596992559731, 0.0 ], [ 783654.513242593267933, 9010165.439879195764661, 0.0 ], [ 783902.042562048183754, 9010312.888163957744837, 0.0 ], [ 784097.204255274264142, 9010461.92017357237637, 0.0 ], [ 784351.378061701543629, 9010536.388385932892561, 0.0 ], [ 784436.689688564045355, 9010775.390699962154031, 0.0 ], [ 784645.019996686605737, 9010981.213461207225919, 0.0 ], [ 784899.952994566527195, 9011006.425681604072452, 0.0 ], [ 785200.724214461399242, 9011055.550780283287168, 0.0 ], [ 785401.95928431476932, 9011268.725398655980825, 0.0 ], [ 785505.978839847259223, 9011366.047559192404151, 0.0 ], [ 785743.594755476689897, 9011306.935064874589443, 0.0 ], [ 785865.187138967914507, 9011367.943158892914653, 0.0 ], [ 786001.700942914118059, 9011297.699957076460123, 0.0 ], [ 786242.818683777702972, 9011360.519769728183746, 0.0 ] ] ] ] } },
{ "type": "Feature", "properties": { "id": null, "hutan": "Suco Raimea Nature Conservation and Sacred Forest" }, "geometry": { "type": "MultiPolygon", "coordinates": [ [ [ [ 773590.176710249157622, 8979211.930030107498169, 0.0 ], [ 773919.731000878964551, 8979388.941813379526138, 0.0 ], [ 774006.154400949482806, 8979408.72548327408731, 0.0 ], [ 774030.103053981089033, 8979466.514624286442995, 0.0 ], [ 773969.710798510117456, 8979485.257048398256302, 0.0 ], [ 773966.587061158148572, 8979593.025987040251493, 0.0 ], [ 774046.242363632773049, 8979716.413612442091107, 0.0 ], [ 774169.629989034612663, 8979776.285245019942522, 0.0 ], [ 774333.62620001193136, 8979784.094588400796056, 0.0 ], [ 774409.637142242630944, 8979753.377837771549821, 0.0 ], [ 774502.828639909042977, 8979735.676659444347024, 0.0 ], [ 774624.654396634898148, 8979740.882888365536928, 0.0 ], [ 774667.866096670157276, 8979772.640884775668383, 0.0 ], [ 774664.742359318188392, 8979859.584907738491893, 0.0 ], [ 774734.505826845066622, 8979870.517988471314311, 0.0 ], [ 774798.021819668007083, 8979840.321860736235976, 0.0 ], [ 774856.331583571038209, 8979864.791136659681797, 0.0 ], [ 774910.476364338188432, 8979910.605951154604554, 0.0 ], [ 774943.796229425584897, 8979978.807550005614758, 0.0 ], [ 774949.523081237450242, 8980088.138357322663069, 0.0 ], [ 775008.874090924509801, 8980095.427077811211348, 0.0 ], [ 775152.56600911449641, 8980171.438020037487149, 0.0 ], [ 775301.984779115999117, 8980152.695595925673842, 0.0 ], [ 775391.531916538486257, 8980169.355528470128775, 0.0 ], [ 775602.904810686712153, 8980182.891723664477468, 0.0 ], [ 775670.585786645766348, 8980226.10342369787395, 0.0 ], [ 775907.989825393655337, 8980155.298710387200117, 0.0 ], [ 776212.033594316453673, 8979917.894671639427543, 0.0 ], [ 776212.033594316453673, 8979715.892989546060562, 0.0 ], [ 775999.619454384082928, 8979536.798714701086283, 0.0 ], [ 775463.377875633304939, 8979425.385415816679597, 0.0 ], [ 775054.168282528291456, 8979273.363531356677413, 0.0 ], [ 774652.247409911127761, 8979273.363531358540058, 0.0 ], [ 773739.074857358704321, 8978875.607641877606511, 0.0 ], [ 772936.274357908405364, 8978411.212022222578526, 0.0 ], [ 772620.776885361992754, 8978234.200238943099976, 0.0 ], [ 772573.920825082692318, 8978125.910677410662174, 0.0 ], [ 772170.958706681616604, 8977886.42414709366858, 0.0 ], [ 772149.092545217950828, 8977962.435089325532317, 0.0 ], [ 772037.679246331914328, 8978054.064718315377831, 0.0 ], [ 772037.679246331914328, 8978118.621956922113895, 0.0 ], [ 772013.730593300308101, 8978191.509161800146103, 0.0 ], [ 771964.792041453183629, 8978227.952764241024852, 0.0 ], [ 771942.925879989517853, 8978321.664884798228741, 0.0 ], [ 771936.678405285580084, 8978394.552089676260948, 0.0 ], [ 772024.143051140126772, 8978419.541988492012024, 0.0 ], [ 772016.85433065216057, 8978498.676668075844646, 0.0 ], [ 772345.887998390477151, 8978701.719595955684781, 0.0 ], [ 772776.963752959156409, 8978858.947709336876869, 0.0 ], [ 773175.760888224234805, 8979034.918246829882264, 0.0 ], [ 773512.083276450517587, 8979237.961174705997109, 0.0 ], [ 773590.176710249157622, 8979211.930030107498169, 0.0 ] ] ] ] } }
]
}
