{
"type": "FeatureCollection",
"name": "genangan_titikkupasan",
"crs": { "type": "name", "properties": { "name": "urn:ogc:def:crs:OGC:1.3:CRS84" } },
"features": [
{ "type": "Feature", "properties": { "Name": "332.00", "description": "garis kupasan<BR><BR><B>ELEVATION</B> = -359", "timestamp": null, "begin": null, "end": null, "altitudeMode": null, "tessellate": -1, "extrude": 0, "visibility": 0, "drawOrder": null, "icon": null }, "geometry": { "type": "Point", "coordinates": [ 125.5556401204, -9.0426041378, -359.0 ] } },
{ "type": "Feature", "properties": { "Name": "337.00", "description": "garis kupasan<BR><BR><B>ELEVATION</B> = -359", "timestamp": null, "begin": null, "end": null, "altitudeMode": null, "tessellate": -1, "extrude": 0, "visibility": 0, "drawOrder": null, "icon": null }, "geometry": { "type": "Point", "coordinates": [ 125.555671207, -9.042596871800001, -359.0 ] } },
{ "type": "Feature", "properties": { "Name": "342.00", "description": "garis kupasan<BR><BR><B>ELEVATION</B> = -359", "timestamp": null, "begin": null, "end": null, "altitudeMode": null, "tessellate": -1, "extrude": 0, "visibility": 0, "drawOrder": null, "icon": null }, "geometry": { "type": "Point", "coordinates": [ 125.555702212300005, -9.0425895873, -359.0 ] } },
{ "type": "Feature", "properties": { "Name": "347.00", "description": "garis kupasan<BR><BR><B>ELEVATION</B> = -359", "timestamp": null, "begin": null, "end": null, "altitudeMode": null, "tessellate": -1, "extrude": 0, "visibility": 0, "drawOrder": null, "icon": null }, "geometry": { "type": "Point", "coordinates": [ 125.5557330667, -9.042582699700001, -359.0 ] } },
{ "type": "Feature", "properties": { "Name": "352.00", "description": "garis kupasan<BR><BR><B>ELEVATION</B> = -359", "timestamp": null, "begin": null, "end": null, "altitudeMode": null, "tessellate": -1, "extrude": 0, "visibility": 0, "drawOrder": null, "icon": null }, "geometry": { "type": "Point", "coordinates": [ 125.555764162599999, -9.0425756141, -359.0 ] } },
{ "type": "Feature", "properties": { "Name": "357.00", "description": "garis kupasan<BR><BR><B>ELEVATION</B> = -359", "timestamp": null, "begin": null, "end": null, "altitudeMode": null, "tessellate": -1, "extrude": 0, "visibility": 0, "drawOrder": null, "icon": null }, "geometry": { "type": "Point", "coordinates": [ 125.555795082399996, -9.042567825900001, -359.0 ] } },
{ "type": "Feature", "properties": { "Name": "362.00", "description": "garis kupasan<BR><BR><B>ELEVATION</B> = -359", "timestamp": null, "begin": null, "end": null, "altitudeMode": null, "tessellate": -1, "extrude": 0, "visibility": 0, "drawOrder": null, "icon": null }, "geometry": { "type": "Point", "coordinates": [ 125.5558261348, -9.0425604784, -359.0 ] } },
{ "type": "Feature", "properties": { "Name": "367.00", "description": "garis kupasan<BR><BR><B>ELEVATION</B> = -359", "timestamp": null, "begin": null, "end": null, "altitudeMode": null, "tessellate": -1, "extrude": 0, "visibility": 0, "drawOrder": null, "icon": null }, "geometry": { "type": "Point", "coordinates": [ 125.555857097599997, -9.042552961, -359.0 ] } },
{ "type": "Feature", "properties": { "Name": "372.00", "description": "garis kupasan<BR><BR><B>ELEVATION</B> = -359", "timestamp": null, "begin": null, "end": null, "altitudeMode": null, "tessellate": -1, "extrude": 0, "visibility": 0, "drawOrder": null, "icon": null }, "geometry": { "type": "Point", "coordinates": [ 125.555887893199994, -9.042546013200001, -359.0 ] } },
{ "type": "Feature", "properties": { "Name": "377.00", "description": "garis kupasan<BR><BR><B>ELEVATION</B> = -359", "timestamp": null, "begin": null, "end": null, "altitudeMode": null, "tessellate": -1, "extrude": 0, "visibility": 0, "drawOrder": null, "icon": null }, "geometry": { "type": "Point", "coordinates": [ 125.555919027100003, -9.0425386838, -359.0 ] } },
{ "type": "Feature", "properties": { "Name": "382.00", "description": "garis kupasan<BR><BR><B>ELEVATION</B> = -359", "timestamp": null, "begin": null, "end": null, "altitudeMode": null, "tessellate": -1, "extrude": 0, "visibility": 0, "drawOrder": null, "icon": null }, "geometry": { "type": "Point", "coordinates": [ 125.555949932499999, -9.042531842700001, -359.0 ] } },
{ "type": "Feature", "properties": { "Name": "332.00", "description": "garis kupasan<BR><BR><B>ELEVATION</B> = -359", "timestamp": null, "begin": null, "end": null, "altitudeMode": null, "tessellate": -1, "extrude": 0, "visibility": 0, "drawOrder": null, "icon": null }, "geometry": { "type": "Point", "coordinates": [ 125.555120119199998, -9.0418276521, -359.0 ] } },
{ "type": "Feature", "properties": { "Name": "337.00", "description": "garis kupasan<BR><BR><B>ELEVATION</B> = -359", "timestamp": null, "begin": null, "end": null, "altitudeMode": null, "tessellate": -1, "extrude": 0, "visibility": 0, "drawOrder": null, "icon": null }, "geometry": { "type": "Point", "coordinates": [ 125.555112809899995, -9.04179675, -359.0 ] } },
{ "type": "Feature", "properties": { "Name": "342.00", "description": "garis kupasan<BR><BR><B>ELEVATION</B> = -359", "timestamp": null, "begin": null, "end": null, "altitudeMode": null, "tessellate": -1, "extrude": 0, "visibility": 0, "drawOrder": null, "icon": null }, "geometry": { "type": "Point", "coordinates": [ 125.5551054819, -9.0417659287, -359.0 ] } },
{ "type": "Feature", "properties": { "Name": "347.00", "description": "garis kupasan<BR><BR><B>ELEVATION</B> = -359", "timestamp": null, "begin": null, "end": null, "altitudeMode": null, "tessellate": -1, "extrude": 0, "visibility": 0, "drawOrder": null, "icon": null }, "geometry": { "type": "Point", "coordinates": [ 125.555098553199997, -9.041735257499999, -359.0 ] } },
{ "type": "Feature", "properties": { "Name": "352.00", "description": "garis kupasan<BR><BR><B>ELEVATION</B> = -359", "timestamp": null, "begin": null, "end": null, "altitudeMode": null, "tessellate": -1, "extrude": 0, "visibility": 0, "drawOrder": null, "icon": null }, "geometry": { "type": "Point", "coordinates": [ 125.555091425399993, -9.0417043462, -359.0 ] } },
{ "type": "Feature", "properties": { "Name": "357.00", "description": "garis kupasan<BR><BR><B>ELEVATION</B> = -359", "timestamp": null, "begin": null, "end": null, "altitudeMode": null, "tessellate": -1, "extrude": 0, "visibility": 0, "drawOrder": null, "icon": null }, "geometry": { "type": "Point", "coordinates": [ 125.555083590799995, -9.0416736099, -359.0 ] } },
{ "type": "Feature", "properties": { "Name": "362.00", "description": "garis kupasan<BR><BR><B>ELEVATION</B> = -359", "timestamp": null, "begin": null, "end": null, "altitudeMode": null, "tessellate": -1, "extrude": 0, "visibility": 0, "drawOrder": null, "icon": null }, "geometry": { "type": "Point", "coordinates": [ 125.555076199499993, -9.041642741900001, -359.0 ] } },
{ "type": "Feature", "properties": { "Name": "367.00", "description": "garis kupasan<BR><BR><B>ELEVATION</B> = -359", "timestamp": null, "begin": null, "end": null, "altitudeMode": null, "tessellate": -1, "extrude": 0, "visibility": 0, "drawOrder": null, "icon": null }, "geometry": { "type": "Point", "coordinates": [ 125.555068637399998, -9.041611962799999, -359.0 ] } },
{ "type": "Feature", "properties": { "Name": "372.00", "description": "garis kupasan<BR><BR><B>ELEVATION</B> = -359", "timestamp": null, "begin": null, "end": null, "altitudeMode": null, "tessellate": -1, "extrude": 0, "visibility": 0, "drawOrder": null, "icon": null }, "geometry": { "type": "Point", "coordinates": [ 125.555061648099993, -9.04158135, -359.0 ] } },
{ "type": "Feature", "properties": { "Name": "377.00", "description": "garis kupasan<BR><BR><B>ELEVATION</B> = -359", "timestamp": null, "begin": null, "end": null, "altitudeMode": null, "tessellate": -1, "extrude": 0, "visibility": 0, "drawOrder": null, "icon": null }, "geometry": { "type": "Point", "coordinates": [ 125.555054275100005, -9.0415504009, -359.0 ] } },
{ "type": "Feature", "properties": { "Name": "382.00", "description": "garis kupasan<BR><BR><B>ELEVATION</B> = -359", "timestamp": null, "begin": null, "end": null, "altitudeMode": null, "tessellate": -1, "extrude": 0, "visibility": 0, "drawOrder": null, "icon": null }, "geometry": { "type": "Point", "coordinates": [ 125.555047393300001, -9.0415196789, -359.0 ] } },
{ "type": "Feature", "properties": { "Name": "387.00", "description": "garis kupasan<BR><BR><B>ELEVATION</B> = -359", "timestamp": null, "begin": null, "end": null, "altitudeMode": null, "tessellate": -1, "extrude": 0, "visibility": 0, "drawOrder": null, "icon": null }, "geometry": { "type": "Point", "coordinates": [ 125.555039381900002, -9.0414889901, -359.0 ] } },
{ "type": "Feature", "properties": { "Name": "392.00", "description": "garis kupasan<BR><BR><B>ELEVATION</B> = -359", "timestamp": null, "begin": null, "end": null, "altitudeMode": null, "tessellate": -1, "extrude": 0, "visibility": 0, "drawOrder": null, "icon": null }, "geometry": { "type": "Point", "coordinates": [ 125.555032027799996, -9.0414584492, -359.0 ] } },
{ "type": "Feature", "properties": { "Name": "397.00", "description": "garis kupasan<BR><BR><B>ELEVATION</B> = -359", "timestamp": null, "begin": null, "end": null, "altitudeMode": null, "tessellate": -1, "extrude": 0, "visibility": 0, "drawOrder": null, "icon": null }, "geometry": { "type": "Point", "coordinates": [ 125.555024922800001, -9.041427502399999, -359.0 ] } },
{ "type": "Feature", "properties": { "Name": "402.00", "description": "garis kupasan<BR><BR><B>ELEVATION</B> = -359", "timestamp": null, "begin": null, "end": null, "altitudeMode": null, "tessellate": -1, "extrude": 0, "visibility": 0, "drawOrder": null, "icon": null }, "geometry": { "type": "Point", "coordinates": [ 125.555018608400005, -9.041396408700001, -359.0 ] } },
{ "type": "Feature", "properties": { "Name": "407.00", "description": "garis kupasan<BR><BR><B>ELEVATION</B> = -359", "timestamp": null, "begin": null, "end": null, "altitudeMode": null, "tessellate": -1, "extrude": 0, "visibility": 0, "drawOrder": null, "icon": null }, "geometry": { "type": "Point", "coordinates": [ 125.555011182699999, -9.0413655883, -359.0 ] } },
{ "type": "Feature", "properties": { "Name": "327.00", "description": "garis kupasan<BR><BR><B>ELEVATION</B> = -359", "timestamp": null, "begin": null, "end": null, "altitudeMode": null, "tessellate": -1, "extrude": 0, "visibility": 0, "drawOrder": null, "icon": null }, "geometry": { "type": "Point", "coordinates": [ 125.555609149299997, -9.0426113768, -359.0 ] } },
{ "type": "Feature", "properties": { "Name": "322.00", "description": "garis kupasan<BR><BR><B>ELEVATION</B> = -359", "timestamp": null, "begin": null, "end": null, "altitudeMode": null, "tessellate": -1, "extrude": 0, "visibility": 0, "drawOrder": null, "icon": null }, "geometry": { "type": "Point", "coordinates": [ 125.555574865200001, -9.042619350500001, -359.0 ] } },
{ "type": "Feature", "properties": { "Name": "462.00", "description": "garis kupasan<BR><BR><B>ELEVATION</B> = -1199", "timestamp": null, "begin": null, "end": null, "altitudeMode": null, "tessellate": -1, "extrude": 0, "visibility": 0, "drawOrder": null, "icon": null }, "geometry": { "type": "Point", "coordinates": [ 125.556108301799995, -9.0415938914, -1199.0 ] } },
{ "type": "Feature", "properties": { "Name": "457.00", "description": "garis kupasan<BR><BR><B>ELEVATION</B> = -1199", "timestamp": null, "begin": null, "end": null, "altitudeMode": null, "tessellate": -1, "extrude": 0, "visibility": 0, "drawOrder": null, "icon": null }, "geometry": { "type": "Point", "coordinates": [ 125.556079865900003, -9.041608076799999, -1199.0 ] } },
{ "type": "Feature", "properties": { "Name": "332.00", "description": "garis kupasan<BR><BR><B>ELEVATION</B> = -739", "timestamp": null, "begin": null, "end": null, "altitudeMode": null, "tessellate": -1, "extrude": 0, "visibility": 0, "drawOrder": null, "icon": null }, "geometry": { "type": "Point", "coordinates": [ 125.555370854800003, -9.041966934, -739.0 ] } },
{ "type": "Feature", "properties": { "Name": "337.00", "description": "garis kupasan<BR><BR><B>ELEVATION</B> = -739", "timestamp": null, "begin": null, "end": null, "altitudeMode": null, "tessellate": -1, "extrude": 0, "visibility": 0, "drawOrder": null, "icon": null }, "geometry": { "type": "Point", "coordinates": [ 125.555399163900006, -9.041952243300001, -739.0 ] } },
{ "type": "Feature", "properties": { "Name": "342.00", "description": "garis kupasan<BR><BR><B>ELEVATION</B> = -739", "timestamp": null, "begin": null, "end": null, "altitudeMode": null, "tessellate": -1, "extrude": 0, "visibility": 0, "drawOrder": null, "icon": null }, "geometry": { "type": "Point", "coordinates": [ 125.555427389499997, -9.0419375547, -739.0 ] } },
{ "type": "Feature", "properties": { "Name": "347.00", "description": "garis kupasan<BR><BR><B>ELEVATION</B> = -739", "timestamp": null, "begin": null, "end": null, "altitudeMode": null, "tessellate": -1, "extrude": 0, "visibility": 0, "drawOrder": null, "icon": null }, "geometry": { "type": "Point", "coordinates": [ 125.555455567799996, -9.0419232878, -739.0 ] } },
{ "type": "Feature", "properties": { "Name": "352.00", "description": "garis kupasan<BR><BR><B>ELEVATION</B> = -739", "timestamp": null, "begin": null, "end": null, "altitudeMode": null, "tessellate": -1, "extrude": 0, "visibility": 0, "drawOrder": null, "icon": null }, "geometry": { "type": "Point", "coordinates": [ 125.555483930799994, -9.041908769699999, -739.0 ] } },
{ "type": "Feature", "properties": { "Name": "357.00", "description": "garis kupasan<BR><BR><B>ELEVATION</B> = -739", "timestamp": null, "begin": null, "end": null, "altitudeMode": null, "tessellate": -1, "extrude": 0, "visibility": 0, "drawOrder": null, "icon": null }, "geometry": { "type": "Point", "coordinates": [ 125.555511948100005, -9.041893614199999, -739.0 ] } },
{ "type": "Feature", "properties": { "Name": "362.00", "description": "garis kupasan<BR><BR><B>ELEVATION</B> = -739", "timestamp": null, "begin": null, "end": null, "altitudeMode": null, "tessellate": -1, "extrude": 0, "visibility": 0, "drawOrder": null, "icon": null }, "geometry": { "type": "Point", "coordinates": [ 125.555540203700005, -9.041878853, -739.0 ] } },
{ "type": "Feature", "properties": { "Name": "367.00", "description": "garis kupasan<BR><BR><B>ELEVATION</B> = -739", "timestamp": null, "begin": null, "end": null, "altitudeMode": null, "tessellate": -1, "extrude": 0, "visibility": 0, "drawOrder": null, "icon": null }, "geometry": { "type": "Point", "coordinates": [ 125.555568330200003, -9.0418639493, -739.0 ] } },
{ "type": "Feature", "properties": { "Name": "372.00", "description": "garis kupasan<BR><BR><B>ELEVATION</B> = -739", "timestamp": null, "begin": null, "end": null, "altitudeMode": null, "tessellate": -1, "extrude": 0, "visibility": 0, "drawOrder": null, "icon": null }, "geometry": { "type": "Point", "coordinates": [ 125.555596436499997, -9.0418496385, -739.0 ] } },
{ "type": "Feature", "properties": { "Name": "377.00", "description": "garis kupasan<BR><BR><B>ELEVATION</B> = -739", "timestamp": null, "begin": null, "end": null, "altitudeMode": null, "tessellate": -1, "extrude": 0, "visibility": 0, "drawOrder": null, "icon": null }, "geometry": { "type": "Point", "coordinates": [ 125.555624775599995, -9.041834874899999, -739.0 ] } },
{ "type": "Feature", "properties": { "Name": "382.00", "description": "garis kupasan<BR><BR><B>ELEVATION</B> = -739", "timestamp": null, "begin": null, "end": null, "altitudeMode": null, "tessellate": -1, "extrude": 0, "visibility": 0, "drawOrder": null, "icon": null }, "geometry": { "type": "Point", "coordinates": [ 125.555653014900003, -9.041820640499999, -739.0 ] } },
{ "type": "Feature", "properties": { "Name": "387.00", "description": "garis kupasan<BR><BR><B>ELEVATION</B> = -739", "timestamp": null, "begin": null, "end": null, "altitudeMode": null, "tessellate": -1, "extrude": 0, "visibility": 0, "drawOrder": null, "icon": null }, "geometry": { "type": "Point", "coordinates": [ 125.5556809423, -9.0418053264, -739.0 ] } },
{ "type": "Feature", "properties": { "Name": "392.00", "description": "garis kupasan<BR><BR><B>ELEVATION</B> = -739", "timestamp": null, "begin": null, "end": null, "altitudeMode": null, "tessellate": -1, "extrude": 0, "visibility": 0, "drawOrder": null, "icon": null }, "geometry": { "type": "Point", "coordinates": [ 125.5557088881, -9.0417906821, -739.0 ] } },
{ "type": "Feature", "properties": { "Name": "397.00", "description": "garis kupasan<BR><BR><B>ELEVATION</B> = -739", "timestamp": null, "begin": null, "end": null, "altitudeMode": null, "tessellate": -1, "extrude": 0, "visibility": 0, "drawOrder": null, "icon": null }, "geometry": { "type": "Point", "coordinates": [ 125.555737291300005, -9.041776177099999, -739.0 ] } },
{ "type": "Feature", "properties": { "Name": "402.00", "description": "garis kupasan<BR><BR><B>ELEVATION</B> = -739", "timestamp": null, "begin": null, "end": null, "altitudeMode": null, "tessellate": -1, "extrude": 0, "visibility": 0, "drawOrder": null, "icon": null }, "geometry": { "type": "Point", "coordinates": [ 125.555766565400006, -9.041763423300001, -739.0 ] } },
{ "type": "Feature", "properties": { "Name": "407.00", "description": "garis kupasan<BR><BR><B>ELEVATION</B> = -739", "timestamp": null, "begin": null, "end": null, "altitudeMode": null, "tessellate": -1, "extrude": 0, "visibility": 0, "drawOrder": null, "icon": null }, "geometry": { "type": "Point", "coordinates": [ 125.555796876700001, -9.041752711499999, -739.0 ] } },
{ "type": "Feature", "properties": { "Name": "327.00", "description": "garis kupasan<BR><BR><B>ELEVATION</B> = -739", "timestamp": null, "begin": null, "end": null, "altitudeMode": null, "tessellate": -1, "extrude": 0, "visibility": 0, "drawOrder": null, "icon": null }, "geometry": { "type": "Point", "coordinates": [ 125.555342651, -9.04198157, -739.0 ] } },
{ "type": "Feature", "properties": { "Name": "412.00", "description": "garis kupasan<BR><BR><B>ELEVATION</B> = -739", "timestamp": null, "begin": null, "end": null, "altitudeMode": null, "tessellate": -1, "extrude": 0, "visibility": 0, "drawOrder": null, "icon": null }, "geometry": { "type": "Point", "coordinates": [ 125.5558250805, -9.0417380755, -739.0 ] } },
{ "type": "Feature", "properties": { "Name": "417.00", "description": "garis kupasan<BR><BR><B>ELEVATION</B> = -739", "timestamp": null, "begin": null, "end": null, "altitudeMode": null, "tessellate": -1, "extrude": 0, "visibility": 0, "drawOrder": null, "icon": null }, "geometry": { "type": "Point", "coordinates": [ 125.555853284299999, -9.0417234394, -739.0 ] } },
{ "type": "Feature", "properties": { "Name": "422.00", "description": "garis kupasan<BR><BR><B>ELEVATION</B> = -739", "timestamp": null, "begin": null, "end": null, "altitudeMode": null, "tessellate": -1, "extrude": 0, "visibility": 0, "drawOrder": null, "icon": null }, "geometry": { "type": "Point", "coordinates": [ 125.555881488099999, -9.041708803300001, -739.0 ] } },
{ "type": "Feature", "properties": { "Name": "427.00", "description": "garis kupasan<BR><BR><B>ELEVATION</B> = -739", "timestamp": null, "begin": null, "end": null, "altitudeMode": null, "tessellate": -1, "extrude": 0, "visibility": 0, "drawOrder": null, "icon": null }, "geometry": { "type": "Point", "coordinates": [ 125.555909691899998, -9.041694167199999, -739.0 ] } },
{ "type": "Feature", "properties": { "Name": "432.00", "description": "garis kupasan<BR><BR><B>ELEVATION</B> = -739", "timestamp": null, "begin": null, "end": null, "altitudeMode": null, "tessellate": -1, "extrude": 0, "visibility": 0, "drawOrder": null, "icon": null }, "geometry": { "type": "Point", "coordinates": [ 125.555937895699998, -9.0416795311, -739.0 ] } },
{ "type": "Feature", "properties": { "Name": "437.00", "description": "garis kupasan<BR><BR><B>ELEVATION</B> = -739", "timestamp": null, "begin": null, "end": null, "altitudeMode": null, "tessellate": -1, "extrude": 0, "visibility": 0, "drawOrder": null, "icon": null }, "geometry": { "type": "Point", "coordinates": [ 125.555966099499997, -9.0416648951, -739.0 ] } },
{ "type": "Feature", "properties": { "Name": "442.00", "description": "garis kupasan<BR><BR><B>ELEVATION</B> = -739", "timestamp": null, "begin": null, "end": null, "altitudeMode": null, "tessellate": -1, "extrude": 0, "visibility": 0, "drawOrder": null, "icon": null }, "geometry": { "type": "Point", "coordinates": [ 125.555994303299997, -9.041650259, -739.0 ] } },
{ "type": "Feature", "properties": { "Name": "447.00", "description": "garis kupasan<BR><BR><B>ELEVATION</B> = -739", "timestamp": null, "begin": null, "end": null, "altitudeMode": null, "tessellate": -1, "extrude": 0, "visibility": 0, "drawOrder": null, "icon": null }, "geometry": { "type": "Point", "coordinates": [ 125.556022507099996, -9.041635622899999, -739.0 ] } },
{ "type": "Feature", "properties": { "Name": "452.00", "description": "garis kupasan<BR><BR><B>ELEVATION</B> = -739", "timestamp": null, "begin": null, "end": null, "altitudeMode": null, "tessellate": -1, "extrude": 0, "visibility": 0, "drawOrder": null, "icon": null }, "geometry": { "type": "Point", "coordinates": [ 125.556050710899996, -9.0416209868, -739.0 ] } },
{ "type": "Feature", "properties": { "Name": "260.00", "description": "garis kupasan<BR><BR><B>ELEVATION</B> = -359", "timestamp": null, "begin": null, "end": null, "altitudeMode": null, "tessellate": -1, "extrude": 0, "visibility": 0, "drawOrder": null, "icon": null }, "geometry": { "type": "Point", "coordinates": [ 125.556437939, -9.045393127, -359.0 ] } },
{ "type": "Feature", "properties": { "Name": "262.00", "description": "garis kupasan<BR><BR><B>ELEVATION</B> = -359", "timestamp": null, "begin": null, "end": null, "altitudeMode": null, "tessellate": -1, "extrude": 0, "visibility": 0, "drawOrder": null, "icon": null }, "geometry": { "type": "Point", "coordinates": [ 125.556474322900002, -9.0453865024, -359.0 ] } },
{ "type": "Feature", "properties": { "Name": "267.00", "description": "garis kupasan<BR><BR><B>ELEVATION</B> = -359", "timestamp": null, "begin": null, "end": null, "altitudeMode": null, "tessellate": -1, "extrude": 0, "visibility": 0, "drawOrder": null, "icon": null }, "geometry": { "type": "Point", "coordinates": [ 125.556505512599998, -9.045380258, -359.0 ] } },
{ "type": "Feature", "properties": { "Name": "272.00", "description": "garis kupasan<BR><BR><B>ELEVATION</B> = -359", "timestamp": null, "begin": null, "end": null, "altitudeMode": null, "tessellate": -1, "extrude": 0, "visibility": 0, "drawOrder": null, "icon": null }, "geometry": { "type": "Point", "coordinates": [ 125.556536702200006, -9.0453740136, -359.0 ] } },
{ "type": "Feature", "properties": { "Name": "277.00", "description": "garis kupasan<BR><BR><B>ELEVATION</B> = -359", "timestamp": null, "begin": null, "end": null, "altitudeMode": null, "tessellate": -1, "extrude": 0, "visibility": 0, "drawOrder": null, "icon": null }, "geometry": { "type": "Point", "coordinates": [ 125.556567891900002, -9.0453677692, -359.0 ] } },
{ "type": "Feature", "properties": { "Name": "282.00", "description": "garis kupasan<BR><BR><B>ELEVATION</B> = -359", "timestamp": null, "begin": null, "end": null, "altitudeMode": null, "tessellate": -1, "extrude": 0, "visibility": 0, "drawOrder": null, "icon": null }, "geometry": { "type": "Point", "coordinates": [ 125.556599081499996, -9.045361524800001, -359.0 ] } },
{ "type": "Feature", "properties": { "Name": "287.00", "description": "garis kupasan<BR><BR><B>ELEVATION</B> = -359", "timestamp": null, "begin": null, "end": null, "altitudeMode": null, "tessellate": -1, "extrude": 0, "visibility": 0, "drawOrder": null, "icon": null }, "geometry": { "type": "Point", "coordinates": [ 125.556630271100005, -9.045355280400001, -359.0 ] } },
{ "type": "Feature", "properties": { "Name": "292.00", "description": "garis kupasan<BR><BR><B>ELEVATION</B> = -359", "timestamp": null, "begin": null, "end": null, "altitudeMode": null, "tessellate": -1, "extrude": 0, "visibility": 0, "drawOrder": null, "icon": null }, "geometry": { "type": "Point", "coordinates": [ 125.556661460800001, -9.045349036, -359.0 ] } },
{ "type": "Feature", "properties": { "Name": "297.00", "description": "garis kupasan<BR><BR><B>ELEVATION</B> = -359", "timestamp": null, "begin": null, "end": null, "altitudeMode": null, "tessellate": -1, "extrude": 0, "visibility": 0, "drawOrder": null, "icon": null }, "geometry": { "type": "Point", "coordinates": [ 125.556692650399995, -9.0453427916, -359.0 ] } },
{ "type": "Feature", "properties": { "Name": "302.00", "description": "garis kupasan<BR><BR><B>ELEVATION</B> = -359", "timestamp": null, "begin": null, "end": null, "altitudeMode": null, "tessellate": -1, "extrude": 0, "visibility": 0, "drawOrder": null, "icon": null }, "geometry": { "type": "Point", "coordinates": [ 125.556723840100005, -9.0453365472, -359.0 ] } },
{ "type": "Feature", "properties": { "Name": "307.00", "description": "garis kupasan<BR><BR><B>ELEVATION</B> = -359", "timestamp": null, "begin": null, "end": null, "altitudeMode": null, "tessellate": -1, "extrude": 0, "visibility": 0, "drawOrder": null, "icon": null }, "geometry": { "type": "Point", "coordinates": [ 125.5567550297, -9.0453303028, -359.0 ] } },
{ "type": "Feature", "properties": { "Name": "312.00", "description": "garis kupasan<BR><BR><B>ELEVATION</B> = -359", "timestamp": null, "begin": null, "end": null, "altitudeMode": null, "tessellate": -1, "extrude": 0, "visibility": 0, "drawOrder": null, "icon": null }, "geometry": { "type": "Point", "coordinates": [ 125.556786219299994, -9.0453240584, -359.0 ] } },
{ "type": "Feature", "properties": { "Name": "317.00", "description": "garis kupasan<BR><BR><B>ELEVATION</B> = -359", "timestamp": null, "begin": null, "end": null, "altitudeMode": null, "tessellate": -1, "extrude": 0, "visibility": 0, "drawOrder": null, "icon": null }, "geometry": { "type": "Point", "coordinates": [ 125.556789822499994, -9.045181658300001, -359.0 ] } },
{ "type": "Feature", "properties": { "Name": "322.00", "description": "garis kupasan<BR><BR><B>ELEVATION</B> = -359", "timestamp": null, "begin": null, "end": null, "altitudeMode": null, "tessellate": -1, "extrude": 0, "visibility": 0, "drawOrder": null, "icon": null }, "geometry": { "type": "Point", "coordinates": [ 125.556809197299998, -9.045117100300001, -359.0 ] } },
{ "type": "Feature", "properties": { "Name": "260.00", "description": "garis kupasan<BR><BR><B>ELEVATION</B> = -359", "timestamp": null, "begin": null, "end": null, "altitudeMode": null, "tessellate": -1, "extrude": 0, "visibility": 0, "drawOrder": null, "icon": null }, "geometry": { "type": "Point", "coordinates": [ 125.556178780799996, -9.044644226100001, -359.0 ] } },
{ "type": "Feature", "properties": { "Name": "262.00", "description": "garis kupasan<BR><BR><B>ELEVATION</B> = -359", "timestamp": null, "begin": null, "end": null, "altitudeMode": null, "tessellate": -1, "extrude": 0, "visibility": 0, "drawOrder": null, "icon": null }, "geometry": { "type": "Point", "coordinates": [ 125.556213364499996, -9.0446311832, -359.0 ] } },
{ "type": "Feature", "properties": { "Name": "267.00", "description": "garis kupasan<BR><BR><B>ELEVATION</B> = -359", "timestamp": null, "begin": null, "end": null, "altitudeMode": null, "tessellate": -1, "extrude": 0, "visibility": 0, "drawOrder": null, "icon": null }, "geometry": { "type": "Point", "coordinates": [ 125.556242908300007, -9.0446194461, -359.0 ] } },
{ "type": "Feature", "properties": { "Name": "272.00", "description": "garis kupasan<BR><BR><B>ELEVATION</B> = -359", "timestamp": null, "begin": null, "end": null, "altitudeMode": null, "tessellate": -1, "extrude": 0, "visibility": 0, "drawOrder": null, "icon": null }, "geometry": { "type": "Point", "coordinates": [ 125.556272452200005, -9.044607708899999, -359.0 ] } },
{ "type": "Feature", "properties": { "Name": "277.00", "description": "garis kupasan<BR><BR><B>ELEVATION</B> = -359", "timestamp": null, "begin": null, "end": null, "altitudeMode": null, "tessellate": -1, "extrude": 0, "visibility": 0, "drawOrder": null, "icon": null }, "geometry": { "type": "Point", "coordinates": [ 125.556301996, -9.0445959718, -359.0 ] } },
{ "type": "Feature", "properties": { "Name": "282.00", "description": "garis kupasan<BR><BR><B>ELEVATION</B> = -359", "timestamp": null, "begin": null, "end": null, "altitudeMode": null, "tessellate": -1, "extrude": 0, "visibility": 0, "drawOrder": null, "icon": null }, "geometry": { "type": "Point", "coordinates": [ 125.556331539799999, -9.0445842346, -359.0 ] } },
{ "type": "Feature", "properties": { "Name": "287.00", "description": "garis kupasan<BR><BR><B>ELEVATION</B> = -359", "timestamp": null, "begin": null, "end": null, "altitudeMode": null, "tessellate": -1, "extrude": 0, "visibility": 0, "drawOrder": null, "icon": null }, "geometry": { "type": "Point", "coordinates": [ 125.556361083599995, -9.044572497500001, -359.0 ] } },
{ "type": "Feature", "properties": { "Name": "292.00", "description": "garis kupasan<BR><BR><B>ELEVATION</B> = -359", "timestamp": null, "begin": null, "end": null, "altitudeMode": null, "tessellate": -1, "extrude": 0, "visibility": 0, "drawOrder": null, "icon": null }, "geometry": { "type": "Point", "coordinates": [ 125.556391009899997, -9.04456169, -359.0 ] } },
{ "type": "Feature", "properties": { "Name": "302.00", "description": "garis kupasan<BR><BR><B>ELEVATION</B> = -359", "timestamp": null, "begin": null, "end": null, "altitudeMode": null, "tessellate": -1, "extrude": 0, "visibility": 0, "drawOrder": null, "icon": null }, "geometry": { "type": "Point", "coordinates": [ 125.556449906300003, -9.0445377509, -359.0 ] } },
{ "type": "Feature", "properties": { "Name": "307.00", "description": "garis kupasan<BR><BR><B>ELEVATION</B> = -359", "timestamp": null, "begin": null, "end": null, "altitudeMode": null, "tessellate": -1, "extrude": 0, "visibility": 0, "drawOrder": null, "icon": null }, "geometry": { "type": "Point", "coordinates": [ 125.556479450099999, -9.044526013700001, -359.0 ] } },
{ "type": "Feature", "properties": { "Name": "312.00", "description": "garis kupasan<BR><BR><B>ELEVATION</B> = -359", "timestamp": null, "begin": null, "end": null, "altitudeMode": null, "tessellate": -1, "extrude": 0, "visibility": 0, "drawOrder": null, "icon": null }, "geometry": { "type": "Point", "coordinates": [ 125.556508993899996, -9.044514276599999, -359.0 ] } },
{ "type": "Feature", "properties": { "Name": "317.00", "description": "garis kupasan<BR><BR><B>ELEVATION</B> = -359", "timestamp": null, "begin": null, "end": null, "altitudeMode": null, "tessellate": -1, "extrude": 0, "visibility": 0, "drawOrder": null, "icon": null }, "geometry": { "type": "Point", "coordinates": [ 125.556538537700007, -9.0445025394, -359.0 ] } },
{ "type": "Feature", "properties": { "Name": "322.00", "description": "garis kupasan<BR><BR><B>ELEVATION</B> = -359", "timestamp": null, "begin": null, "end": null, "altitudeMode": null, "tessellate": -1, "extrude": 0, "visibility": 0, "drawOrder": null, "icon": null }, "geometry": { "type": "Point", "coordinates": [ 125.556545660200001, -9.0444372925, -359.0 ] } },
{ "type": "Feature", "properties": { "Name": "327.00", "description": "garis kupasan<BR><BR><B>ELEVATION</B> = -359", "timestamp": null, "begin": null, "end": null, "altitudeMode": null, "tessellate": -1, "extrude": 0, "visibility": 0, "drawOrder": null, "icon": null }, "geometry": { "type": "Point", "coordinates": [ 125.556575012799996, -9.044425090500001, -359.0 ] } },
{ "type": "Feature", "properties": { "Name": "332.00", "description": "garis kupasan<BR><BR><B>ELEVATION</B> = -359", "timestamp": null, "begin": null, "end": null, "altitudeMode": null, "tessellate": -1, "extrude": 0, "visibility": 0, "drawOrder": null, "icon": null }, "geometry": { "type": "Point", "coordinates": [ 125.556604365400005, -9.0444128885, -359.0 ] } },
{ "type": "Feature", "properties": { "Name": "337.00", "description": "garis kupasan<BR><BR><B>ELEVATION</B> = -359", "timestamp": null, "begin": null, "end": null, "altitudeMode": null, "tessellate": -1, "extrude": 0, "visibility": 0, "drawOrder": null, "icon": null }, "geometry": { "type": "Point", "coordinates": [ 125.556633717899999, -9.0444006865, -359.0 ] } },
{ "type": "Feature", "properties": { "Name": "342.00", "description": "garis kupasan<BR><BR><B>ELEVATION</B> = -359", "timestamp": null, "begin": null, "end": null, "altitudeMode": null, "tessellate": -1, "extrude": 0, "visibility": 0, "drawOrder": null, "icon": null }, "geometry": { "type": "Point", "coordinates": [ 125.556663070499994, -9.044388484500001, -359.0 ] } },
{ "type": "Feature", "properties": { "Name": "347.00", "description": "garis kupasan<BR><BR><B>ELEVATION</B> = -359", "timestamp": null, "begin": null, "end": null, "altitudeMode": null, "tessellate": -1, "extrude": 0, "visibility": 0, "drawOrder": null, "icon": null }, "geometry": { "type": "Point", "coordinates": [ 125.556692423100003, -9.0443762825, -359.0 ] } },
{ "type": "Feature", "properties": { "Name": "352.00", "description": "garis kupasan<BR><BR><B>ELEVATION</B> = -359", "timestamp": null, "begin": null, "end": null, "altitudeMode": null, "tessellate": -1, "extrude": 0, "visibility": 0, "drawOrder": null, "icon": null }, "geometry": { "type": "Point", "coordinates": [ 125.556721775699998, -9.044364080499999, -359.0 ] } },
{ "type": "Feature", "properties": { "Name": "357.00", "description": "garis kupasan<BR><BR><B>ELEVATION</B> = -359", "timestamp": null, "begin": null, "end": null, "altitudeMode": null, "tessellate": -1, "extrude": 0, "visibility": 0, "drawOrder": null, "icon": null }, "geometry": { "type": "Point", "coordinates": [ 125.556751128299993, -9.044351878500001, -359.0 ] } },
{ "type": "Feature", "properties": { "Name": "297.00", "description": "garis kupasan<BR><BR><B>ELEVATION</B> = -359", "timestamp": null, "begin": null, "end": null, "altitudeMode": null, "tessellate": -1, "extrude": 0, "visibility": 0, "drawOrder": null, "icon": null }, "geometry": { "type": "Point", "coordinates": [ 125.556420362500006, -9.044549488, -359.0 ] } },
{ "type": "Feature", "properties": { "Name": "362.00", "description": "garis kupasan<BR><BR><B>ELEVATION</B> = -359", "timestamp": null, "begin": null, "end": null, "altitudeMode": null, "tessellate": -1, "extrude": 0, "visibility": 0, "drawOrder": null, "icon": null }, "geometry": { "type": "Point", "coordinates": [ 125.556780480900002, -9.0443396765, -359.0 ] } },
{ "type": "Feature", "properties": { "Name": "302.00", "description": "garis kupasan<BR><BR><B>ELEVATION</B> = -359", "timestamp": null, "begin": null, "end": null, "altitudeMode": null, "tessellate": -1, "extrude": 0, "visibility": 0, "drawOrder": null, "icon": null }, "geometry": { "type": "Point", "coordinates": [ 125.555886322199996, -9.0438517735, -359.0 ] } },
{ "type": "Feature", "properties": { "Name": "307.00", "description": "garis kupasan<BR><BR><B>ELEVATION</B> = -359", "timestamp": null, "begin": null, "end": null, "altitudeMode": null, "tessellate": -1, "extrude": 0, "visibility": 0, "drawOrder": null, "icon": null }, "geometry": { "type": "Point", "coordinates": [ 125.555913986899995, -9.043836153499999, -359.0 ] } },
{ "type": "Feature", "properties": { "Name": "312.00", "description": "garis kupasan<BR><BR><B>ELEVATION</B> = -359", "timestamp": null, "begin": null, "end": null, "altitudeMode": null, "tessellate": -1, "extrude": 0, "visibility": 0, "drawOrder": null, "icon": null }, "geometry": { "type": "Point", "coordinates": [ 125.555941651599994, -9.0438205334, -359.0 ] } },
{ "type": "Feature", "properties": { "Name": "317.00", "description": "garis kupasan<BR><BR><B>ELEVATION</B> = -359", "timestamp": null, "begin": null, "end": null, "altitudeMode": null, "tessellate": -1, "extrude": 0, "visibility": 0, "drawOrder": null, "icon": null }, "geometry": { "type": "Point", "coordinates": [ 125.555969316399995, -9.043804913400001, -359.0 ] } },
{ "type": "Feature", "properties": { "Name": "322.00", "description": "garis kupasan<BR><BR><B>ELEVATION</B> = -359", "timestamp": null, "begin": null, "end": null, "altitudeMode": null, "tessellate": -1, "extrude": 0, "visibility": 0, "drawOrder": null, "icon": null }, "geometry": { "type": "Point", "coordinates": [ 125.555967451200004, -9.043739309599999, -359.0 ] } },
{ "type": "Feature", "properties": { "Name": "327.00", "description": "garis kupasan<BR><BR><B>ELEVATION</B> = -359", "timestamp": null, "begin": null, "end": null, "altitudeMode": null, "tessellate": -1, "extrude": 0, "visibility": 0, "drawOrder": null, "icon": null }, "geometry": { "type": "Point", "coordinates": [ 125.555994863, -9.0437232549, -359.0 ] } },
{ "type": "Feature", "properties": { "Name": "332.00", "description": "garis kupasan<BR><BR><B>ELEVATION</B> = -359", "timestamp": null, "begin": null, "end": null, "altitudeMode": null, "tessellate": -1, "extrude": 0, "visibility": 0, "drawOrder": null, "icon": null }, "geometry": { "type": "Point", "coordinates": [ 125.556022274699998, -9.0437072002, -359.0 ] } },
{ "type": "Feature", "properties": { "Name": "337.00", "description": "garis kupasan<BR><BR><B>ELEVATION</B> = -359", "timestamp": null, "begin": null, "end": null, "altitudeMode": null, "tessellate": -1, "extrude": 0, "visibility": 0, "drawOrder": null, "icon": null }, "geometry": { "type": "Point", "coordinates": [ 125.556049686400002, -9.0436911455, -359.0 ] } },
{ "type": "Feature", "properties": { "Name": "342.00", "description": "garis kupasan<BR><BR><B>ELEVATION</B> = -359", "timestamp": null, "begin": null, "end": null, "altitudeMode": null, "tessellate": -1, "extrude": 0, "visibility": 0, "drawOrder": null, "icon": null }, "geometry": { "type": "Point", "coordinates": [ 125.556077098100005, -9.043675090800001, -359.0 ] } },
{ "type": "Feature", "properties": { "Name": "297.00", "description": "garis kupasan<BR><BR><B>ELEVATION</B> = -359", "timestamp": null, "begin": null, "end": null, "altitudeMode": null, "tessellate": -1, "extrude": 0, "visibility": 0, "drawOrder": null, "icon": null }, "geometry": { "type": "Point", "coordinates": [ 125.555858657499996, -9.043867393499999, -359.0 ] } },
{ "type": "Feature", "properties": { "Name": "260.00", "description": "garis kupasan<BR><BR><B>ELEVATION</B> = 0", "timestamp": null, "begin": null, "end": null, "altitudeMode": null, "tessellate": -1, "extrude": 0, "visibility": 0, "drawOrder": null, "icon": null }, "geometry": { "type": "Point", "coordinates": [ 125.555609298799993, -9.0446069004, 0.0 ] } },
{ "type": "Feature", "properties": { "Name": "262.00", "description": "garis kupasan<BR><BR><B>ELEVATION</B> = 0", "timestamp": null, "begin": null, "end": null, "altitudeMode": null, "tessellate": -1, "extrude": 0, "visibility": 0, "drawOrder": null, "icon": null }, "geometry": { "type": "Point", "coordinates": [ 125.555573433299998, -9.0445979064, 0.0 ] } },
{ "type": "Feature", "properties": { "Name": "267.00", "description": "garis kupasan<BR><BR><B>ELEVATION</B> = 0", "timestamp": null, "begin": null, "end": null, "altitudeMode": null, "tessellate": -1, "extrude": 0, "visibility": 0, "drawOrder": null, "icon": null }, "geometry": { "type": "Point", "coordinates": [ 125.555574858699998, -9.044516872, 0.0 ] } },
{ "type": "Feature", "properties": { "Name": "272.00", "description": "garis kupasan<BR><BR><B>ELEVATION</B> = 0", "timestamp": null, "begin": null, "end": null, "altitudeMode": null, "tessellate": -1, "extrude": 0, "visibility": 0, "drawOrder": null, "icon": null }, "geometry": { "type": "Point", "coordinates": [ 125.5555657301, -9.044458840100001, 0.0 ] } },
{ "type": "Feature", "properties": { "Name": "277.00", "description": "garis kupasan<BR><BR><B>ELEVATION</B> = 0", "timestamp": null, "begin": null, "end": null, "altitudeMode": null, "tessellate": -1, "extrude": 0, "visibility": 0, "drawOrder": null, "icon": null }, "geometry": { "type": "Point", "coordinates": [ 125.555557924699997, -9.044399525499999, 0.0 ] } },
{ "type": "Feature", "properties": { "Name": "282.00", "description": "garis kupasan<BR><BR><B>ELEVATION</B> = 0", "timestamp": null, "begin": null, "end": null, "altitudeMode": null, "tessellate": -1, "extrude": 0, "visibility": 0, "drawOrder": null, "icon": null }, "geometry": { "type": "Point", "coordinates": [ 125.555574464900005, -9.0442803973, 0.0 ] } },
{ "type": "Feature", "properties": { "Name": "287.00", "description": "garis kupasan<BR><BR><B>ELEVATION</B> = 0", "timestamp": null, "begin": null, "end": null, "altitudeMode": null, "tessellate": -1, "extrude": 0, "visibility": 0, "drawOrder": null, "icon": null }, "geometry": { "type": "Point", "coordinates": [ 125.555546165600006, -9.044226655599999, 0.0 ] } },
{ "type": "Feature", "properties": { "Name": "302.00", "description": "garis kupasan<BR><BR><B>ELEVATION</B> = -359", "timestamp": null, "begin": null, "end": null, "altitudeMode": null, "tessellate": -1, "extrude": 0, "visibility": 0, "drawOrder": null, "icon": null }, "geometry": { "type": "Point", "coordinates": [ 125.555472291200005, -9.043901546100001, -359.0 ] } },
{ "type": "Feature", "properties": { "Name": "307.00", "description": "garis kupasan<BR><BR><B>ELEVATION</B> = -359", "timestamp": null, "begin": null, "end": null, "altitudeMode": null, "tessellate": -1, "extrude": 0, "visibility": 0, "drawOrder": null, "icon": null }, "geometry": { "type": "Point", "coordinates": [ 125.555447737899996, -9.0437925387, -359.0 ] } },
{ "type": "Feature", "properties": { "Name": "312.00", "description": "garis kupasan<BR><BR><B>ELEVATION</B> = -359", "timestamp": null, "begin": null, "end": null, "altitudeMode": null, "tessellate": -1, "extrude": 0, "visibility": 0, "drawOrder": null, "icon": null }, "geometry": { "type": "Point", "coordinates": [ 125.555424490199997, -9.043664120200001, -359.0 ] } },
{ "type": "Feature", "properties": { "Name": "297.00", "description": "garis kupasan<BR><BR><B>ELEVATION</B> = -359", "timestamp": null, "begin": null, "end": null, "altitudeMode": null, "tessellate": -1, "extrude": 0, "visibility": 0, "drawOrder": null, "icon": null }, "geometry": { "type": "Point", "coordinates": [ 125.555498778800001, -9.0439817701, -359.0 ] } },
{ "type": "Feature", "properties": { "Name": "292.00", "description": "garis kupasan<BR><BR><B>ELEVATION</B> = -359", "timestamp": null, "begin": null, "end": null, "altitudeMode": null, "tessellate": -1, "extrude": 0, "visibility": 0, "drawOrder": null, "icon": null }, "geometry": { "type": "Point", "coordinates": [ 125.555517476099993, -9.0441778844, -359.0 ] } },
{ "type": "Feature", "properties": { "Name": "327.00", "description": "garis kupasan<BR><BR><B>ELEVATION</B> = -359", "timestamp": null, "begin": null, "end": null, "altitudeMode": null, "tessellate": -1, "extrude": 0, "visibility": 0, "drawOrder": null, "icon": null }, "geometry": { "type": "Point", "coordinates": [ 125.5551274014, -9.0418584393, -359.0 ] } },
{ "type": "Feature", "properties": { "Name": "322.00", "description": "garis kupasan<BR><BR><B>ELEVATION</B> = -359", "timestamp": null, "begin": null, "end": null, "altitudeMode": null, "tessellate": -1, "extrude": 0, "visibility": 0, "drawOrder": null, "icon": null }, "geometry": { "type": "Point", "coordinates": [ 125.555133980600004, -9.0418928881, -359.0 ] } },
{ "type": "Feature", "properties": { "Name": "322.00", "description": "garis kupasan<BR><BR><B>ELEVATION</B> = -739", "timestamp": null, "begin": null, "end": null, "altitudeMode": null, "tessellate": -1, "extrude": 0, "visibility": 0, "drawOrder": null, "icon": null }, "geometry": { "type": "Point", "coordinates": [ 125.555310866799999, -9.041996818099999, -739.0 ] } },
{ "type": "Feature", "properties": { "Name": "467.00", "description": "garis kupasan<BR><BR><B>ELEVATION</B> = -1199", "timestamp": null, "begin": null, "end": null, "altitudeMode": null, "tessellate": -1, "extrude": 0, "visibility": 0, "drawOrder": null, "icon": null }, "geometry": { "type": "Point", "coordinates": [ 125.555904520699997, -9.041131843, -1199.0 ] } },
{ "type": "Feature", "properties": { "Name": "472.00", "description": "garis kupasan<BR><BR><B>ELEVATION</B> = -1199", "timestamp": null, "begin": null, "end": null, "altitudeMode": null, "tessellate": -1, "extrude": 0, "visibility": 0, "drawOrder": null, "icon": null }, "geometry": { "type": "Point", "coordinates": [ 125.555932800799994, -9.041117353200001, -1199.0 ] } },
{ "type": "Feature", "properties": { "Name": "477.00", "description": "garis kupasan<BR><BR><B>ELEVATION</B> = -1199", "timestamp": null, "begin": null, "end": null, "altitudeMode": null, "tessellate": -1, "extrude": 0, "visibility": 0, "drawOrder": null, "icon": null }, "geometry": { "type": "Point", "coordinates": [ 125.555961080800003, -9.041102863300001, -1199.0 ] } },
{ "type": "Feature", "properties": { "Name": "482.00", "description": "garis kupasan<BR><BR><B>ELEVATION</B> = -1199", "timestamp": null, "begin": null, "end": null, "altitudeMode": null, "tessellate": -1, "extrude": 0, "visibility": 0, "drawOrder": null, "icon": null }, "geometry": { "type": "Point", "coordinates": [ 125.5559893609, -9.041088373499999, -1199.0 ] } },
{ "type": "Feature", "properties": { "Name": "487.00", "description": "garis kupasan<BR><BR><B>ELEVATION</B> = -1199", "timestamp": null, "begin": null, "end": null, "altitudeMode": null, "tessellate": -1, "extrude": 0, "visibility": 0, "drawOrder": null, "icon": null }, "geometry": { "type": "Point", "coordinates": [ 125.556017640899995, -9.041073883599999, -1199.0 ] } },
{ "type": "Feature", "properties": { "Name": "492.00", "description": "garis kupasan<BR><BR><B>ELEVATION</B> = -1199", "timestamp": null, "begin": null, "end": null, "altitudeMode": null, "tessellate": -1, "extrude": 0, "visibility": 0, "drawOrder": null, "icon": null }, "geometry": { "type": "Point", "coordinates": [ 125.556045921, -9.041059393799999, -1199.0 ] } },
{ "type": "Feature", "properties": { "Name": "497.00", "description": "garis kupasan<BR><BR><B>ELEVATION</B> = -1199", "timestamp": null, "begin": null, "end": null, "altitudeMode": null, "tessellate": -1, "extrude": 0, "visibility": 0, "drawOrder": null, "icon": null }, "geometry": { "type": "Point", "coordinates": [ 125.556074201, -9.0410449039, -1199.0 ] } },
{ "type": "Feature", "properties": { "Name": "502.00", "description": "garis kupasan<BR><BR><B>ELEVATION</B> = -1199", "timestamp": null, "begin": null, "end": null, "altitudeMode": null, "tessellate": -1, "extrude": 0, "visibility": 0, "drawOrder": null, "icon": null }, "geometry": { "type": "Point", "coordinates": [ 125.556102481099998, -9.0410304141, -1199.0 ] } },
{ "type": "Feature", "properties": { "Name": "507.00", "description": "garis kupasan<BR><BR><B>ELEVATION</B> = -1199", "timestamp": null, "begin": null, "end": null, "altitudeMode": null, "tessellate": -1, "extrude": 0, "visibility": 0, "drawOrder": null, "icon": null }, "geometry": { "type": "Point", "coordinates": [ 125.556130761099993, -9.0410159242, -1199.0 ] } },
{ "type": "Feature", "properties": { "Name": "512.00", "description": "garis kupasan<BR><BR><B>ELEVATION</B> = -1199", "timestamp": null, "begin": null, "end": null, "altitudeMode": null, "tessellate": -1, "extrude": 0, "visibility": 0, "drawOrder": null, "icon": null }, "geometry": { "type": "Point", "coordinates": [ 125.556159041200004, -9.0410014343, -1199.0 ] } },
{ "type": "Feature", "properties": { "Name": "517.00", "description": "garis kupasan<BR><BR><B>ELEVATION</B> = -1199", "timestamp": null, "begin": null, "end": null, "altitudeMode": null, "tessellate": -1, "extrude": 0, "visibility": 0, "drawOrder": null, "icon": null }, "geometry": { "type": "Point", "coordinates": [ 125.556117645, -9.0408525652, -1199.0 ] } },
{ "type": "Feature", "properties": { "Name": "522.00", "description": "garis kupasan<BR><BR><B>ELEVATION</B> = -1199", "timestamp": null, "begin": null, "end": null, "altitudeMode": null, "tessellate": -1, "extrude": 0, "visibility": 0, "drawOrder": null, "icon": null }, "geometry": { "type": "Point", "coordinates": [ 125.556145925, -9.0408380753, -1199.0 ] } },
{ "type": "Feature", "properties": { "Name": "527.00", "description": "garis kupasan<BR><BR><B>ELEVATION</B> = -1199", "timestamp": null, "begin": null, "end": null, "altitudeMode": null, "tessellate": -1, "extrude": 0, "visibility": 0, "drawOrder": null, "icon": null }, "geometry": { "type": "Point", "coordinates": [ 125.556174205100007, -9.0408235855, -1199.0 ] } },
{ "type": "Feature", "properties": { "Name": "412.00", "description": "garis kupasan<BR><BR><B>ELEVATION</B> = 0", "timestamp": null, "begin": null, "end": null, "altitudeMode": null, "tessellate": -1, "extrude": 0, "visibility": 0, "drawOrder": null, "icon": null }, "geometry": { "type": "Point", "coordinates": [ 125.555314468399999, -9.041250631900001, 0.0 ] } },
{ "type": "Feature", "properties": { "Name": "387.00", "description": "garis kupasan<BR><BR><B>ELEVATION</B> = -359", "timestamp": null, "begin": null, "end": null, "altitudeMode": null, "tessellate": -1, "extrude": 0, "visibility": 0, "drawOrder": null, "icon": null }, "geometry": { "type": "Point", "coordinates": [ 125.555928275400007, -9.042302107199999, -359.0 ] } },
{ "type": "Feature", "properties": { "Name": "392.00", "description": "garis kupasan<BR><BR><B>ELEVATION</B> = -359", "timestamp": null, "begin": null, "end": null, "altitudeMode": null, "tessellate": -1, "extrude": 0, "visibility": 0, "drawOrder": null, "icon": null }, "geometry": { "type": "Point", "coordinates": [ 125.555958736099996, -9.0422927105, -359.0 ] } },
{ "type": "Feature", "properties": { "Name": "397.00", "description": "garis kupasan<BR><BR><B>ELEVATION</B> = -359", "timestamp": null, "begin": null, "end": null, "altitudeMode": null, "tessellate": -1, "extrude": 0, "visibility": 0, "drawOrder": null, "icon": null }, "geometry": { "type": "Point", "coordinates": [ 125.555989406, -9.042284198100001, -359.0 ] } },
{ "type": "Feature", "properties": { "Name": "402.00", "description": "garis kupasan<BR><BR><B>ELEVATION</B> = -359", "timestamp": null, "begin": null, "end": null, "altitudeMode": null, "tessellate": -1, "extrude": 0, "visibility": 0, "drawOrder": null, "icon": null }, "geometry": { "type": "Point", "coordinates": [ 125.556020377, -9.042276959100001, -359.0 ] } },
{ "type": "Feature", "properties": { "Name": "407.00", "description": "garis kupasan<BR><BR><B>ELEVATION</B> = -359", "timestamp": null, "begin": null, "end": null, "altitudeMode": null, "tessellate": -1, "extrude": 0, "visibility": 0, "drawOrder": null, "icon": null }, "geometry": { "type": "Point", "coordinates": [ 125.556051348099999, -9.0422697201, -359.0 ] } },
{ "type": "Feature", "properties": { "Name": "412.00", "description": "garis kupasan<BR><BR><B>ELEVATION</B> = -359", "timestamp": null, "begin": null, "end": null, "altitudeMode": null, "tessellate": -1, "extrude": 0, "visibility": 0, "drawOrder": null, "icon": null }, "geometry": { "type": "Point", "coordinates": [ 125.556081607199999, -9.0422594712, -359.0 ] } },
{ "type": "Feature", "properties": { "Name": "417.00", "description": "garis kupasan<BR><BR><B>ELEVATION</B> = -359", "timestamp": null, "begin": null, "end": null, "altitudeMode": null, "tessellate": -1, "extrude": 0, "visibility": 0, "drawOrder": null, "icon": null }, "geometry": { "type": "Point", "coordinates": [ 125.556113290200003, -9.042255242, -359.0 ] } },
{ "type": "Feature", "properties": { "Name": "422.00", "description": "garis kupasan<BR><BR><B>ELEVATION</B> = -359", "timestamp": null, "begin": null, "end": null, "altitudeMode": null, "tessellate": -1, "extrude": 0, "visibility": 0, "drawOrder": null, "icon": null }, "geometry": { "type": "Point", "coordinates": [ 125.556144261200004, -9.042248003, -359.0 ] } },
{ "type": "Feature", "properties": { "Name": "427.00", "description": "garis kupasan<BR><BR><B>ELEVATION</B> = -359", "timestamp": null, "begin": null, "end": null, "altitudeMode": null, "tessellate": -1, "extrude": 0, "visibility": 0, "drawOrder": null, "icon": null }, "geometry": { "type": "Point", "coordinates": [ 125.556175232300006, -9.042240763900001, -359.0 ] } },
{ "type": "Feature", "properties": { "Name": "432.00", "description": "garis kupasan<BR><BR><B>ELEVATION</B> = -359", "timestamp": null, "begin": null, "end": null, "altitudeMode": null, "tessellate": -1, "extrude": 0, "visibility": 0, "drawOrder": null, "icon": null }, "geometry": { "type": "Point", "coordinates": [ 125.556206203299993, -9.0422335249, -359.0 ] } },
{ "type": "Feature", "properties": { "Name": "437.00", "description": "garis kupasan<BR><BR><B>ELEVATION</B> = -359", "timestamp": null, "begin": null, "end": null, "altitudeMode": null, "tessellate": -1, "extrude": 0, "visibility": 0, "drawOrder": null, "icon": null }, "geometry": { "type": "Point", "coordinates": [ 125.556237174399996, -9.0422262859, -359.0 ] } },
{ "type": "Feature", "properties": { "Name": "442.00", "description": "garis kupasan<BR><BR><B>ELEVATION</B> = -359", "timestamp": null, "begin": null, "end": null, "altitudeMode": null, "tessellate": -1, "extrude": 0, "visibility": 0, "drawOrder": null, "icon": null }, "geometry": { "type": "Point", "coordinates": [ 125.556268145399997, -9.0422190468, -359.0 ] } },
{ "type": "Feature", "properties": { "Name": "447.00", "description": "garis kupasan<BR><BR><B>ELEVATION</B> = -359", "timestamp": null, "begin": null, "end": null, "altitudeMode": null, "tessellate": -1, "extrude": 0, "visibility": 0, "drawOrder": null, "icon": null }, "geometry": { "type": "Point", "coordinates": [ 125.5562991165, -9.042211807799999, -359.0 ] } },
{ "type": "Feature", "properties": { "Name": "452.00", "description": "garis kupasan<BR><BR><B>ELEVATION</B> = -359", "timestamp": null, "begin": null, "end": null, "altitudeMode": null, "tessellate": -1, "extrude": 0, "visibility": 0, "drawOrder": null, "icon": null }, "geometry": { "type": "Point", "coordinates": [ 125.556330087500001, -9.042204568700001, -359.0 ] } },
{ "type": "Feature", "properties": { "Name": "457.00", "description": "garis kupasan<BR><BR><B>ELEVATION</B> = -359", "timestamp": null, "begin": null, "end": null, "altitudeMode": null, "tessellate": -1, "extrude": 0, "visibility": 0, "drawOrder": null, "icon": null }, "geometry": { "type": "Point", "coordinates": [ 125.556361058600004, -9.0421973297, -359.0 ] } },
{ "type": "Feature", "properties": { "Name": "462.00", "description": "garis kupasan<BR><BR><B>ELEVATION</B> = -359", "timestamp": null, "begin": null, "end": null, "altitudeMode": null, "tessellate": -1, "extrude": 0, "visibility": 0, "drawOrder": null, "icon": null }, "geometry": { "type": "Point", "coordinates": [ 125.556392029600005, -9.0421900907, -359.0 ] } },
{ "type": "Feature", "properties": { "Name": "467.00", "description": "garis kupasan<BR><BR><B>ELEVATION</B> = -359", "timestamp": null, "begin": null, "end": null, "altitudeMode": null, "tessellate": -1, "extrude": 0, "visibility": 0, "drawOrder": null, "icon": null }, "geometry": { "type": "Point", "coordinates": [ 125.556423000600006, -9.0421828516, -359.0 ] } },
{ "type": "Feature", "properties": { "Name": "472.00", "description": "garis kupasan<BR><BR><B>ELEVATION</B> = -359", "timestamp": null, "begin": null, "end": null, "altitudeMode": null, "tessellate": -1, "extrude": 0, "visibility": 0, "drawOrder": null, "icon": null }, "geometry": { "type": "Point", "coordinates": [ 125.556453971699995, -9.042175612599999, -359.0 ] } },
{ "type": "Feature", "properties": { "Name": "477.00", "description": "garis kupasan<BR><BR><B>ELEVATION</B> = -359", "timestamp": null, "begin": null, "end": null, "altitudeMode": null, "tessellate": -1, "extrude": 0, "visibility": 0, "drawOrder": null, "icon": null }, "geometry": { "type": "Point", "coordinates": [ 125.556484942699996, -9.042168373499999, -359.0 ] } },
{ "type": "Feature", "properties": { "Name": "482.00", "description": "garis kupasan<BR><BR><B>ELEVATION</B> = -359", "timestamp": null, "begin": null, "end": null, "altitudeMode": null, "tessellate": -1, "extrude": 0, "visibility": 0, "drawOrder": null, "icon": null }, "geometry": { "type": "Point", "coordinates": [ 125.556516053699994, -9.0421617263, -359.0 ] } },
{ "type": "Feature", "properties": { "Name": "467.00", "description": "garis kupasan<BR><BR><B>ELEVATION</B> = -1199", "timestamp": null, "begin": null, "end": null, "altitudeMode": null, "tessellate": -1, "extrude": 0, "visibility": 0, "drawOrder": null, "icon": null }, "geometry": { "type": "Point", "coordinates": [ 125.556136581900006, -9.0415794015, -1199.0 ] } },
{ "type": "Feature", "properties": { "Name": "472.00", "description": "garis kupasan<BR><BR><B>ELEVATION</B> = -1199", "timestamp": null, "begin": null, "end": null, "altitudeMode": null, "tessellate": -1, "extrude": 0, "visibility": 0, "drawOrder": null, "icon": null }, "geometry": { "type": "Point", "coordinates": [ 125.556164861900001, -9.0415649116, -1199.0 ] } },
{ "type": "Feature", "properties": { "Name": "477.00", "description": "garis kupasan<BR><BR><B>ELEVATION</B> = -1199", "timestamp": null, "begin": null, "end": null, "altitudeMode": null, "tessellate": -1, "extrude": 0, "visibility": 0, "drawOrder": null, "icon": null }, "geometry": { "type": "Point", "coordinates": [ 125.556193142, -9.0415504217, -1199.0 ] } },
{ "type": "Feature", "properties": { "Name": "482.00", "description": "garis kupasan<BR><BR><B>ELEVATION</B> = -1199", "timestamp": null, "begin": null, "end": null, "altitudeMode": null, "tessellate": -1, "extrude": 0, "visibility": 0, "drawOrder": null, "icon": null }, "geometry": { "type": "Point", "coordinates": [ 125.556221422099995, -9.0415359319, -1199.0 ] } },
{ "type": "Feature", "properties": { "Name": "487.00", "description": "garis kupasan<BR><BR><B>ELEVATION</B> = -1199", "timestamp": null, "begin": null, "end": null, "altitudeMode": null, "tessellate": -1, "extrude": 0, "visibility": 0, "drawOrder": null, "icon": null }, "geometry": { "type": "Point", "coordinates": [ 125.556249702200006, -9.041521442, -1199.0 ] } },
{ "type": "Feature", "properties": { "Name": "492.00", "description": "garis kupasan<BR><BR><B>ELEVATION</B> = -1199", "timestamp": null, "begin": null, "end": null, "altitudeMode": null, "tessellate": -1, "extrude": 0, "visibility": 0, "drawOrder": null, "icon": null }, "geometry": { "type": "Point", "coordinates": [ 125.556277982200001, -9.041506952100001, -1199.0 ] } },
{ "type": "Feature", "properties": { "Name": "497.00", "description": "garis kupasan<BR><BR><B>ELEVATION</B> = -1199", "timestamp": null, "begin": null, "end": null, "altitudeMode": null, "tessellate": -1, "extrude": 0, "visibility": 0, "drawOrder": null, "icon": null }, "geometry": { "type": "Point", "coordinates": [ 125.556306262299998, -9.041492462200001, -1199.0 ] } },
{ "type": "Feature", "properties": { "Name": "487.00", "description": "garis kupasan<BR><BR><B>ELEVATION</B> = -359", "timestamp": null, "begin": null, "end": null, "altitudeMode": null, "tessellate": -1, "extrude": 0, "visibility": 0, "drawOrder": null, "icon": null }, "geometry": { "type": "Point", "coordinates": [ 125.556547024699995, -9.042154487299999, -359.0 ] } },
{ "type": "Feature", "properties": { "Name": "492.00", "description": "garis kupasan<BR><BR><B>ELEVATION</B> = -359", "timestamp": null, "begin": null, "end": null, "altitudeMode": null, "tessellate": -1, "extrude": 0, "visibility": 0, "drawOrder": null, "icon": null }, "geometry": { "type": "Point", "coordinates": [ 125.556577995799998, -9.042147248199999, -359.0 ] } }
]
}
