{
"type": "FeatureCollection",
"name": "genangan_titikdesain",
"crs": { "type": "name", "properties": { "name": "urn:ogc:def:crs:OGC:1.3:CRS84" } },
"features": [
{ "type": "Feature", "properties": { "Name": "+327.00", "description": "Desain<BR><BR><B>ELEVATION</B> = 0", "timestamp": null, "begin": null, "end": null, "altitudeMode": null, "tessellate": -1, "extrude": 0, "visibility": 0, "drawOrder": null, "icon": null }, "geometry": { "type": "Point", "coordinates": [ 125.553722175, -9.0436500429, 0.0 ] } },
{ "type": "Feature", "properties": { "Name": "+307.00", "description": "Desain<BR><BR><B>ELEVATION</B> = 0", "timestamp": null, "begin": null, "end": null, "altitudeMode": null, "tessellate": -1, "extrude": 0, "visibility": 0, "drawOrder": null, "icon": null }, "geometry": { "type": "Point", "coordinates": [ 125.553615644100006, -9.0429987798, 0.0 ] } },
{ "type": "Feature", "properties": { "Name": "+285.00", "description": "Desain<BR><BR><B>ELEVATION</B> = 0", "timestamp": null, "begin": null, "end": null, "altitudeMode": null, "tessellate": -1, "extrude": 0, "visibility": 0, "drawOrder": null, "icon": null }, "geometry": { "type": "Point", "coordinates": [ 125.553532348, -9.0423437913, 0.0 ] } },
{ "type": "Feature", "properties": { "Name": "+307.00", "description": "Desain<BR><BR><B>ELEVATION</B> = 0", "timestamp": null, "begin": null, "end": null, "altitudeMode": null, "tessellate": -1, "extrude": 0, "visibility": 0, "drawOrder": null, "icon": null }, "geometry": { "type": "Point", "coordinates": [ 125.554077770800006, -9.044055093500001, 0.0 ] } },
{ "type": "Feature", "properties": { "Name": "+282.00", "description": "Desain<BR><BR><B>ELEVATION</B> = 0", "timestamp": null, "begin": null, "end": null, "altitudeMode": null, "tessellate": -1, "extrude": 0, "visibility": 0, "drawOrder": null, "icon": null }, "geometry": { "type": "Point", "coordinates": [ 125.5545526274, -9.044528010800001, 0.0 ] } },
{ "type": "Feature", "properties": { "Name": "0+00", "description": "Desain<BR><BR><B>ELEVATION</B> = 0", "timestamp": null, "begin": null, "end": null, "altitudeMode": null, "tessellate": -1, "extrude": 0, "visibility": 0, "drawOrder": null, "icon": null }, "geometry": { "type": "Point", "coordinates": [ 125.555216004800002, -9.043058352399999, 0.0 ] } },
{ "type": "Feature", "properties": { "Name": "0+50", "description": "Desain<BR><BR><B>ELEVATION</B> = 0.0000000000", "timestamp": null, "begin": null, "end": null, "altitudeMode": null, "tessellate": -1, "extrude": 0, "visibility": 0, "drawOrder": null, "icon": null }, "geometry": { "type": "Point", "coordinates": [ 125.554738800600006, -9.0432412307, 0.0 ] } },
{ "type": "Feature", "properties": { "Name": "0+100", "description": "Desain<BR><BR><B>ELEVATION</B> = 0.0000000000", "timestamp": null, "begin": null, "end": null, "altitudeMode": null, "tessellate": -1, "extrude": 0, "visibility": 0, "drawOrder": null, "icon": null }, "geometry": { "type": "Point", "coordinates": [ 125.554366497499998, -9.0433799426, 0.0 ] } },
{ "type": "Feature", "properties": { "Name": "0+150", "description": "Desain<BR><BR><B>ELEVATION</B> = 0.0000000000", "timestamp": null, "begin": null, "end": null, "altitudeMode": null, "tessellate": -1, "extrude": 0, "visibility": 0, "drawOrder": null, "icon": null }, "geometry": { "type": "Point", "coordinates": [ 125.553941743099998, -9.043540737100001, 0.0 ] } },
{ "type": "Feature", "properties": { "Name": "0+200", "description": "Desain<BR><BR><B>ELEVATION</B> = 0.0000000000", "timestamp": null, "begin": null, "end": null, "altitudeMode": null, "tessellate": -1, "extrude": 0, "visibility": 0, "drawOrder": null, "icon": null }, "geometry": { "type": "Point", "coordinates": [ 125.55356823, -9.043682133300001, 0.0 ] } },
{ "type": "Feature", "properties": { "Name": "0+250", "description": "Desain<BR><BR><B>ELEVATION</B> = 0.0000000000", "timestamp": null, "begin": null, "end": null, "altitudeMode": null, "tessellate": -1, "extrude": 0, "visibility": 0, "drawOrder": null, "icon": null }, "geometry": { "type": "Point", "coordinates": [ 125.553092232799997, -9.043862325, 0.0 ] } },
{ "type": "Feature", "properties": { "Name": "0+302.45", "description": "Desain<BR><BR><B>ELEVATION</B> = -0.0000000000", "timestamp": null, "begin": null, "end": null, "altitudeMode": null, "tessellate": -1, "extrude": 0, "visibility": 0, "drawOrder": null, "icon": null }, "geometry": { "type": "Point", "coordinates": [ 125.552645679700007, -9.0440350805, -0.0 ] } },
{ "type": "Feature", "properties": { "Name": "+322.00", "description": "Desain<BR><BR><B>ELEVATION</B> = -695", "timestamp": null, "begin": null, "end": null, "altitudeMode": null, "tessellate": -1, "extrude": 0, "visibility": 0, "drawOrder": null, "icon": null }, "geometry": { "type": "Point", "coordinates": [ 125.555436451399999, -9.042915583899999, -695.0 ] } },
{ "type": "Feature", "properties": { "Name": "+327.00", "description": "Desain<BR><BR><B>ELEVATION</B> = 0", "timestamp": null, "begin": null, "end": null, "altitudeMode": null, "tessellate": -1, "extrude": 0, "visibility": 0, "drawOrder": null, "icon": null }, "geometry": { "type": "Point", "coordinates": [ 125.5556322897, -9.0429561533, 0.0 ] } },
{ "type": "Feature", "properties": { "Name": "+327.00", "description": "Desain<BR><BR><B>ELEVATION</B> = 0", "timestamp": null, "begin": null, "end": null, "altitudeMode": null, "tessellate": -1, "extrude": 0, "visibility": 0, "drawOrder": null, "icon": null }, "geometry": { "type": "Point", "coordinates": [ 125.555170838099997, -9.0429454533, 0.0 ] } },
{ "type": "Feature", "properties": { "Name": "A", "description": "Desain<BR><BR><B>ELEVATION</B> = -0.0000041886", "timestamp": null, "begin": null, "end": null, "altitudeMode": null, "tessellate": -1, "extrude": 0, "visibility": 0, "drawOrder": null, "icon": null }, "geometry": { "type": "Point", "coordinates": [ 125.554768018600001, -9.0425358854, -0.0000041886 ] } },
{ "type": "Feature", "properties": { "Name": "B", "description": "Desain<BR><BR><B>ELEVATION</B> = -0.0000041886", "timestamp": null, "begin": null, "end": null, "altitudeMode": null, "tessellate": -1, "extrude": 0, "visibility": 0, "drawOrder": null, "icon": null }, "geometry": { "type": "Point", "coordinates": [ 125.555016772299993, -9.042471855500001, -0.0000041886 ] } },
{ "type": "Feature", "properties": { "Name": "C", "description": "Desain<BR><BR><B>ELEVATION</B> = -0.0000041886", "timestamp": null, "begin": null, "end": null, "altitudeMode": null, "tessellate": -1, "extrude": 0, "visibility": 0, "drawOrder": null, "icon": null }, "geometry": { "type": "Point", "coordinates": [ 125.555311790199994, -9.042402900200001, -0.0000041886 ] } },
{ "type": "Feature", "properties": { "Name": "E", "description": "Desain<BR><BR><B>ELEVATION</B> = -0.0000041886", "timestamp": null, "begin": null, "end": null, "altitudeMode": null, "tessellate": -1, "extrude": 0, "visibility": 0, "drawOrder": null, "icon": null }, "geometry": { "type": "Point", "coordinates": [ 125.55545178, -9.042994739, -0.0000041886 ] } },
{ "type": "Feature", "properties": { "Name": "F", "description": "Desain<BR><BR><B>ELEVATION</B> = -0.0000041886", "timestamp": null, "begin": null, "end": null, "altitudeMode": null, "tessellate": -1, "extrude": 0, "visibility": 0, "drawOrder": null, "icon": null }, "geometry": { "type": "Point", "coordinates": [ 125.555512892400003, -9.043253105, -0.0000041886 ] } },
{ "type": "Feature", "properties": { "Name": "G", "description": "Desain<BR><BR><B>ELEVATION</B> = -0.0000041886", "timestamp": null, "begin": null, "end": null, "altitudeMode": null, "tessellate": -1, "extrude": 0, "visibility": 0, "drawOrder": null, "icon": null }, "geometry": { "type": "Point", "coordinates": [ 125.555617613600006, -9.043695834499999, -0.0000041886 ] } },
{ "type": "Feature", "properties": { "Name": "H", "description": "Desain<BR><BR><B>ELEVATION</B> = -0.0000041887", "timestamp": null, "begin": null, "end": null, "altitudeMode": null, "tessellate": -1, "extrude": 0, "visibility": 0, "drawOrder": null, "icon": null }, "geometry": { "type": "Point", "coordinates": [ 125.555721213300004, -9.044133821300001, -0.0000041887 ] } },
{ "type": "Feature", "properties": { "Name": "I", "description": "Desain<BR><BR><B>ELEVATION</B> = -0.0000041887", "timestamp": null, "begin": null, "end": null, "altitudeMode": null, "tessellate": -1, "extrude": 0, "visibility": 0, "drawOrder": null, "icon": null }, "geometry": { "type": "Point", "coordinates": [ 125.555825446200004, -9.0445744829, -0.0000041887 ] } },
{ "type": "Feature", "properties": { "Name": "J", "description": "Desain<BR><BR><B>ELEVATION</B> = -0.0000041887", "timestamp": null, "begin": null, "end": null, "altitudeMode": null, "tessellate": -1, "extrude": 0, "visibility": 0, "drawOrder": null, "icon": null }, "geometry": { "type": "Point", "coordinates": [ 125.555877059899998, -9.044792687599999, -0.0000041887 ] } },
{ "type": "Feature", "properties": { "Name": "K", "description": "Desain<BR><BR><B>ELEVATION</B> = -0.0000041887", "timestamp": null, "begin": null, "end": null, "altitudeMode": null, "tessellate": -1, "extrude": 0, "visibility": 0, "drawOrder": null, "icon": null }, "geometry": { "type": "Point", "coordinates": [ 125.555984337799998, -9.04524622, -0.0000041887 ] } },
{ "type": "Feature", "properties": { "Name": "L", "description": "Desain<BR><BR><B>ELEVATION</B> = -0.0000041887", "timestamp": null, "begin": null, "end": null, "altitudeMode": null, "tessellate": -1, "extrude": 0, "visibility": 0, "drawOrder": null, "icon": null }, "geometry": { "type": "Point", "coordinates": [ 125.556041521799997, -9.0454879726, -0.0000041887 ] } },
{ "type": "Feature", "properties": { "Name": "M", "description": "Desain<BR><BR><B>ELEVATION</B> = -0.0000041888", "timestamp": null, "begin": null, "end": null, "altitudeMode": null, "tessellate": -1, "extrude": 0, "visibility": 0, "drawOrder": null, "icon": null }, "geometry": { "type": "Point", "coordinates": [ 125.556135816099996, -9.0458866121, -0.0000041888 ] } },
{ "type": "Feature", "properties": { "Name": "D", "description": "Desain<BR><BR><B>ELEVATION</B> = -0.0000041886", "timestamp": null, "begin": null, "end": null, "altitudeMode": null, "tessellate": -1, "extrude": 0, "visibility": 0, "drawOrder": null, "icon": null }, "geometry": { "type": "Point", "coordinates": [ 125.555283804699997, -9.0423686254, -0.0000041886 ] } },
{ "type": "Feature", "properties": { "Name": "1", "description": "Desain<BR><BR><B>ELEVATION</B> = -1031", "timestamp": null, "begin": null, "end": null, "altitudeMode": null, "tessellate": -1, "extrude": 0, "visibility": 0, "drawOrder": null, "icon": null }, "geometry": { "type": "Point", "coordinates": [ 125.553907620399997, -9.0405423188, -1031.0 ] } },
{ "type": "Feature", "properties": { "Name": "2", "description": "Desain<BR><BR><B>ELEVATION</B> = -0.0000000000", "timestamp": null, "begin": null, "end": null, "altitudeMode": null, "tessellate": -1, "extrude": 0, "visibility": 0, "drawOrder": null, "icon": null }, "geometry": { "type": "Point", "coordinates": [ 125.553599392400002, -9.040885401200001, -0.0 ] } },
{ "type": "Feature", "properties": { "Name": "3", "description": "Desain<BR><BR><B>ELEVATION</B> = -0.0000000000", "timestamp": null, "begin": null, "end": null, "altitudeMode": null, "tessellate": -1, "extrude": 0, "visibility": 0, "drawOrder": null, "icon": null }, "geometry": { "type": "Point", "coordinates": [ 125.553342733400001, -9.041262517, -0.0 ] } },
{ "type": "Feature", "properties": { "Name": "4", "description": "Desain<BR><BR><B>ELEVATION</B> = 0.0000000000", "timestamp": null, "begin": null, "end": null, "altitudeMode": null, "tessellate": -1, "extrude": 0, "visibility": 0, "drawOrder": null, "icon": null }, "geometry": { "type": "Point", "coordinates": [ 125.553277736, -9.0417072751, 0.0 ] } },
{ "type": "Feature", "properties": { "Name": "5", "description": "Desain<BR><BR><B>ELEVATION</B> = 0.0000000000", "timestamp": null, "begin": null, "end": null, "altitudeMode": null, "tessellate": -1, "extrude": 0, "visibility": 0, "drawOrder": null, "icon": null }, "geometry": { "type": "Point", "coordinates": [ 125.553270780299997, -9.042159034899999, 0.0 ] } },
{ "type": "Feature", "properties": { "Name": "6", "description": "Desain<BR><BR><B>ELEVATION</B> = 0.0000000000", "timestamp": null, "begin": null, "end": null, "altitudeMode": null, "tessellate": -1, "extrude": 0, "visibility": 0, "drawOrder": null, "icon": null }, "geometry": { "type": "Point", "coordinates": [ 125.553263824699997, -9.0426107947, 0.0 ] } },
{ "type": "Feature", "properties": { "Name": "7", "description": "Desain<BR><BR><B>ELEVATION</B> = 0.0000000000", "timestamp": null, "begin": null, "end": null, "altitudeMode": null, "tessellate": -1, "extrude": 0, "visibility": 0, "drawOrder": null, "icon": null }, "geometry": { "type": "Point", "coordinates": [ 125.5532568693, -9.043062554500001, 0.0 ] } },
{ "type": "Feature", "properties": { "Name": "8", "description": "Desain<BR><BR><B>ELEVATION</B> = 0.0000000000", "timestamp": null, "begin": null, "end": null, "altitudeMode": null, "tessellate": -1, "extrude": 0, "visibility": 0, "drawOrder": null, "icon": null }, "geometry": { "type": "Point", "coordinates": [ 125.553289913900002, -9.0435105601, 0.0 ] } },
{ "type": "Feature", "properties": { "Name": "9", "description": "Desain<BR><BR><B>ELEVATION</B> = 0.0000000000", "timestamp": null, "begin": null, "end": null, "altitudeMode": null, "tessellate": -1, "extrude": 0, "visibility": 0, "drawOrder": null, "icon": null }, "geometry": { "type": "Point", "coordinates": [ 125.553472293699997, -9.043980148499999, 0.0 ] } },
{ "type": "Feature", "properties": { "Name": "10", "description": "Desain<BR><BR><B>ELEVATION</B> = -0.0000000000", "timestamp": null, "begin": null, "end": null, "altitudeMode": null, "tessellate": -1, "extrude": 0, "visibility": 0, "drawOrder": null, "icon": null }, "geometry": { "type": "Point", "coordinates": [ 125.5537338834, -9.044315859899999, -0.0 ] } },
{ "type": "Feature", "properties": { "Name": "11", "description": "Desain<BR><BR><B>ELEVATION</B> = -0.0000000000", "timestamp": null, "begin": null, "end": null, "altitudeMode": null, "tessellate": -1, "extrude": 0, "visibility": 0, "drawOrder": null, "icon": null }, "geometry": { "type": "Point", "coordinates": [ 125.554097927300006, -9.044586372, -0.0 ] } },
{ "type": "Feature", "properties": { "Name": "12", "description": "Desain<BR><BR><B>ELEVATION</B> = -0.0000000000", "timestamp": null, "begin": null, "end": null, "altitudeMode": null, "tessellate": -1, "extrude": 0, "visibility": 0, "drawOrder": null, "icon": null }, "geometry": { "type": "Point", "coordinates": [ 125.5544625526, -9.0448573152, -0.0 ] } },
{ "type": "Feature", "properties": { "Name": "13", "description": "Desain<BR><BR><B>ELEVATION</B> = -0.0000000000", "timestamp": null, "begin": null, "end": null, "altitudeMode": null, "tessellate": -1, "extrude": 0, "visibility": 0, "drawOrder": null, "icon": null }, "geometry": { "type": "Point", "coordinates": [ 125.554826016700005, -9.0451273946, -0.0 ] } },
{ "type": "Feature", "properties": { "Name": "14", "description": "Desain<BR><BR><B>ELEVATION</B> = -0.0000000000", "timestamp": null, "begin": null, "end": null, "altitudeMode": null, "tessellate": -1, "extrude": 0, "visibility": 0, "drawOrder": null, "icon": null }, "geometry": { "type": "Point", "coordinates": [ 125.555190061199994, -9.0453979064, -0.0 ] } },
{ "type": "Feature", "properties": { "Name": "15", "description": "Desain<BR><BR><B>ELEVATION</B> = -0.0000000000", "timestamp": null, "begin": null, "end": null, "altitudeMode": null, "tessellate": -1, "extrude": 0, "visibility": 0, "drawOrder": null, "icon": null }, "geometry": { "type": "Point", "coordinates": [ 125.555484292800003, -9.0457292424, -0.0 ] } }
]
}
