{
"type": "FeatureCollection",
"name": "genangan_titikkoordinat",
"crs": { "type": "name", "properties": { "name": "urn:ogc:def:crs:OGC:1.3:CRS84" } },
"features": [
{ "type": "Feature", "properties": { "Name": "P1", "description": "Unknown Point Feature<BR><BR><B>ATTR_1</B> = P1<BR><B>ELEVATION</B> = 0", "timestamp": null, "begin": null, "end": null, "altitudeMode": null, "tessellate": -1, "extrude": 0, "visibility": -1, "drawOrder": null, "icon": null }, "geometry": { "type": "Point", "coordinates": [ 125.552724319199996, -9.043887227700001, 0.0 ] } },
{ "type": "Feature", "properties": { "Name": "P2", "description": "Unknown Point Feature<BR><BR><B>ATTR_1</B> = P2<BR><B>ELEVATION</B> = 325", "timestamp": null, "begin": null, "end": null, "altitudeMode": null, "tessellate": -1, "extrude": 0, "visibility": -1, "drawOrder": null, "icon": null }, "geometry": { "type": "Point", "coordinates": [ 125.550694696199997, -9.0421585472, 325.0 ] } },
{ "type": "Feature", "properties": { "Name": "P3", "description": "Unknown Point Feature<BR><BR><B>ATTR_1</B> = P3<BR><B>ELEVATION</B> = 325", "timestamp": null, "begin": null, "end": null, "altitudeMode": null, "tessellate": -1, "extrude": 0, "visibility": -1, "drawOrder": null, "icon": null }, "geometry": { "type": "Point", "coordinates": [ 125.548704758, -9.038494436600001, 325.0 ] } },
{ "type": "Feature", "properties": { "Name": "P4", "description": "Unknown Point Feature<BR><BR><B>ATTR_1</B> = P4<BR><B>ELEVATION</B> = 325", "timestamp": null, "begin": null, "end": null, "altitudeMode": null, "tessellate": -1, "extrude": 0, "visibility": -1, "drawOrder": null, "icon": null }, "geometry": { "type": "Point", "coordinates": [ 125.547944312599995, -9.0360051634, 325.0 ] } },
{ "type": "Feature", "properties": { "Name": "P5", "description": "Unknown Point Feature<BR><BR><B>ATTR_1</B> = P5<BR><B>ELEVATION</B> = 325", "timestamp": null, "begin": null, "end": null, "altitudeMode": null, "tessellate": -1, "extrude": 0, "visibility": -1, "drawOrder": null, "icon": null }, "geometry": { "type": "Point", "coordinates": [ 125.552194899100002, -9.0339672312, 325.0 ] } },
{ "type": "Feature", "properties": { "Name": "P6", "description": "Unknown Point Feature<BR><BR><B>ATTR_1</B> = P6<BR><B>ELEVATION</B> = 325", "timestamp": null, "begin": null, "end": null, "altitudeMode": null, "tessellate": -1, "extrude": 0, "visibility": -1, "drawOrder": null, "icon": null }, "geometry": { "type": "Point", "coordinates": [ 125.552047644, -9.0278161146, 325.0 ] } },
{ "type": "Feature", "properties": { "Name": "P7", "description": "Unknown Point Feature<BR><BR><B>ATTR_1</B> = P7<BR><B>ELEVATION</B> = 325", "timestamp": null, "begin": null, "end": null, "altitudeMode": null, "tessellate": -1, "extrude": 0, "visibility": -1, "drawOrder": null, "icon": null }, "geometry": { "type": "Point", "coordinates": [ 125.554263111699996, -9.01876316, 325.0 ] } },
{ "type": "Feature", "properties": { "Name": "P8", "description": "Unknown Point Feature<BR><BR><B>ATTR_1</B> = P8<BR><B>ELEVATION</B> = 325", "timestamp": null, "begin": null, "end": null, "altitudeMode": null, "tessellate": -1, "extrude": 0, "visibility": -1, "drawOrder": null, "icon": null }, "geometry": { "type": "Point", "coordinates": [ 125.557341626099998, -9.0159603703, 325.0 ] } },
{ "type": "Feature", "properties": { "Name": "P9", "description": "Unknown Point Feature<BR><BR><B>ATTR_1</B> = P9<BR><B>ELEVATION</B> = 0", "timestamp": null, "begin": null, "end": null, "altitudeMode": null, "tessellate": -1, "extrude": 0, "visibility": -1, "drawOrder": null, "icon": null }, "geometry": { "type": "Point", "coordinates": [ 125.560386244499995, -9.0139131485, 0.0 ] } },
{ "type": "Feature", "properties": { "Name": "P10", "description": "Unknown Point Feature<BR><BR><B>ATTR_1</B> = P10<BR><B>ELEVATION</B> = 325", "timestamp": null, "begin": null, "end": null, "altitudeMode": null, "tessellate": -1, "extrude": 0, "visibility": -1, "drawOrder": null, "icon": null }, "geometry": { "type": "Point", "coordinates": [ 125.563447001900002, -9.014437817799999, 325.0 ] } },
{ "type": "Feature", "properties": { "Name": "P11", "description": "Unknown Point Feature<BR><BR><B>ATTR_1</B> = P11<BR><B>ELEVATION</B> = 325", "timestamp": null, "begin": null, "end": null, "altitudeMode": null, "tessellate": -1, "extrude": 0, "visibility": -1, "drawOrder": null, "icon": null }, "geometry": { "type": "Point", "coordinates": [ 125.557473958200006, -9.018847187, 325.0 ] } },
{ "type": "Feature", "properties": { "Name": "P12", "description": "Unknown Point Feature<BR><BR><B>ATTR_1</B> = P12<BR><B>ELEVATION</B> = 0", "timestamp": null, "begin": null, "end": null, "altitudeMode": null, "tessellate": -1, "extrude": 0, "visibility": -1, "drawOrder": null, "icon": null }, "geometry": { "type": "Point", "coordinates": [ 125.556155565899999, -9.024319140699999, 0.0 ] } },
{ "type": "Feature", "properties": { "Name": "P13", "description": "Unknown Point Feature<BR><BR><B>ATTR_1</B> = P13<BR><B>ELEVATION</B> = 325", "timestamp": null, "begin": null, "end": null, "altitudeMode": null, "tessellate": -1, "extrude": 0, "visibility": -1, "drawOrder": null, "icon": null }, "geometry": { "type": "Point", "coordinates": [ 125.558809364499993, -9.0314962246, 325.0 ] } },
{ "type": "Feature", "properties": { "Name": "P14", "description": "Unknown Point Feature<BR><BR><B>ATTR_1</B> = P14<BR><B>ELEVATION</B> = 325", "timestamp": null, "begin": null, "end": null, "altitudeMode": null, "tessellate": -1, "extrude": 0, "visibility": -1, "drawOrder": null, "icon": null }, "geometry": { "type": "Point", "coordinates": [ 125.557089480399995, -9.035877186700001, 325.0 ] } },
{ "type": "Feature", "properties": { "Name": "P15", "description": "Unknown Point Feature<BR><BR><B>ATTR_1</B> = P15<BR><B>ELEVATION</B> = 325", "timestamp": null, "begin": null, "end": null, "altitudeMode": null, "tessellate": -1, "extrude": 0, "visibility": -1, "drawOrder": null, "icon": null }, "geometry": { "type": "Point", "coordinates": [ 125.554588256200006, -9.0413530102, 325.0 ] } },
{ "type": "Feature", "properties": { "Name": "P16", "description": "Unknown Point Feature<BR><BR><B>ATTR_1</B> = P16<BR><B>ELEVATION</B> = 0", "timestamp": null, "begin": null, "end": null, "altitudeMode": null, "tessellate": -1, "extrude": 0, "visibility": -1, "drawOrder": null, "icon": null }, "geometry": { "type": "Point", "coordinates": [ 125.555064486500001, -9.0426216155, 0.0 ] } },
{ "type": "Feature", "properties": { "Name": "P17", "description": "Unknown Point Feature<BR><BR><B>ATTR_1</B> = P17<BR><B>ELEVATION</B> = 0", "timestamp": null, "begin": null, "end": null, "altitudeMode": null, "tessellate": -1, "extrude": 0, "visibility": -1, "drawOrder": null, "icon": null }, "geometry": { "type": "Point", "coordinates": [ 125.5546962592, -9.045003279, 0.0 ] } }
]
}
