{
"type": "FeatureCollection",
"name": "genangan_garissungai",
"crs": { "type": "name", "properties": { "name": "urn:ogc:def:crs:OGC:1.3:CRS84" } },
"features": [
{ "type": "Feature", "properties": { "Name": null, "description": "Sungai<BR><BR><B>ELEVATION</B> = 0", "timestamp": null, "begin": null, "end": null, "altitudeMode": null, "tessellate": 1, "extrude": 0, "visibility": -1, "drawOrder": null, "icon": null, "snippet": null }, "geometry": { "type": "LineString", "coordinates": [ [ 125.556327605700005, -9.047415903699999, 0.0 ], [ 125.557035070599994, -9.047138314, 0.0 ] ] } },
{ "type": "Feature", "properties": { "Name": null, "description": "Sungai<BR><BR><B>ELEVATION</B> = 0", "timestamp": null, "begin": null, "end": null, "altitudeMode": null, "tessellate": 1, "extrude": 0, "visibility": -1, "drawOrder": null, "icon": null, "snippet": null }, "geometry": { "type": "LineString", "coordinates": [ [ 125.556021876700001, -9.0458443412, 0.0 ], [ 125.556041880500004, -9.045864895899999, 0.0 ], [ 125.5560526302, -9.045836635400001, 0.0 ], [ 125.556041880500004, -9.045864895899999, 0.0 ], [ 125.556031921599995, -9.0458216165, 0.0 ], [ 125.556027253699995, -9.0458226779, 0.0 ], [ 125.556022471800006, -9.0458231835, 0.0 ], [ 125.556018548099999, -9.0458230827, 0.0 ], [ 125.556013616900003, -9.045822939900001, 0.0 ], [ 125.556009131699994, -9.0458221973, 0.0 ], [ 125.556006211400003, -9.0458210597, 0.0 ], [ 125.556003493800006, -9.0458198199, 0.0 ], [ 125.556001694499997, -9.045818146, 0.0 ], [ 125.556000803100005, -9.0458167014, 0.0 ], [ 125.556000377499998, -9.0458158882, 0.0 ], [ 125.556000136099996, -9.0458143208, 0.0 ], [ 125.556000427699999, -9.0458119597, 0.0 ], [ 125.556001377900003, -9.045810042399999, 0.0 ], [ 125.556002606600003, -9.045808299, 0.0 ], [ 125.556004247800004, -9.0458066201, 0.0 ], [ 125.5560075299, -9.045803900899999, 0.0 ], [ 125.556012731799996, -9.04580077, 0.0 ], [ 125.556017855700006, -9.045798618299999, 0.0 ], [ 125.5560224675, -9.045797002800001, 0.0 ], [ 125.556031669899994, -9.0457939893, 0.0 ], [ 125.5560366972, -9.0457919113, 0.0 ], [ 125.556042051600002, -9.0457892867, 0.0 ], [ 125.556046402299998, -9.0457866893, 0.0 ], [ 125.5560491735, -9.045784250100001, 0.0 ], [ 125.556051193200005, -9.0457811777, 0.0 ], [ 125.556051987299995, -9.0457784844, 0.0 ], [ 125.556051437799994, -9.045776096699999, 0.0 ], [ 125.5560508943, -9.045774612200001, 0.0 ], [ 125.556048869500003, -9.045771956799999, 0.0 ], [ 125.556045101199999, -9.045770502, 0.0 ], [ 125.556041192899997, -9.045768877900001, 0.0 ], [ 125.556035423200001, -9.0457683807, 0.0 ], [ 125.556030191199994, -9.0457684648, 0.0 ], [ 125.556025327, -9.045769269199999, 0.0 ], [ 125.556020090299995, -9.0457701992, 0.0 ], [ 125.556014928600007, -9.0457477674, 0.0 ], [ 125.555987443199996, -9.045736957600001, 0.0 ], [ 125.556014928600007, -9.0457477674, 0.0 ], [ 125.556033734799996, -9.045726420799999, 0.0 ] ] } },
{ "type": "Feature", "properties": { "Name": null, "description": "Sungai<BR><BR><B>ELEVATION</B> = 0", "timestamp": null, "begin": null, "end": null, "altitudeMode": null, "tessellate": 1, "extrude": 0, "visibility": -1, "drawOrder": null, "icon": null, "snippet": null }, "geometry": { "type": "LineString", "coordinates": [ [ 125.555018781200005, -9.0452544725, 0.0 ], [ 125.555047379900003, -9.0452575898, 0.0 ], [ 125.555037495299999, -9.045229018900001, 0.0 ], [ 125.555047379900003, -9.0452575898, 0.0 ], [ 125.555011910900006, -9.045230608800001, 0.0 ], [ 125.5550090009, -9.045234388900001, 0.0 ], [ 125.555005646, -9.0452378139, 0.0 ], [ 125.555002562, -9.045240227200001, 0.0 ], [ 125.554998675700006, -9.045243248, 0.0 ], [ 125.5549947473, -9.0452455239, 0.0 ], [ 125.554991769300003, -9.0452465026, 0.0 ], [ 125.554988881499995, -9.045247273799999, 0.0 ], [ 125.554986421600006, -9.045247128, 0.0 ], [ 125.554984807500006, -9.045246582300001, 0.0 ], [ 125.554983957499999, -9.0452462267, 0.0 ], [ 125.554982764800002, -9.0452451739, 0.0 ], [ 125.554981472199998, -9.045243171899999, 0.0 ], [ 125.554980971600003, -9.0452410933, 0.0 ], [ 125.554980797, -9.0452389717, 0.0 ], [ 125.554980981300005, -9.0452366379, 0.0 ], [ 125.5549817598, -9.0452324618, 0.0 ], [ 125.554983751099996, -9.045226750099999, 0.0 ], [ 125.554986311600004, -9.0452218415, 0.0 ], [ 125.554988822499993, -9.0452176706, 0.0 ], [ 125.554993967599998, -9.045209509499999, 0.0 ], [ 125.554996501100007, -9.045204718900001, 0.0 ], [ 125.554998935, -9.0451993001, 0.0 ], [ 125.555000614099995, -9.045194539300001, 0.0 ], [ 125.555001179499996, -9.045190903, 0.0 ], [ 125.555000759600006, -9.0451872566, 0.0 ], [ 125.554999640299997, -9.04518468, 0.0 ], [ 125.554997683500005, -9.0451831915, 0.0 ], [ 125.554996311500005, -9.045182394199999, 0.0 ], [ 125.554993047400004, -9.045181636400001, 0.0 ], [ 125.554989213, -9.045182909199999, 0.0 ], [ 125.554985162199998, -9.0451841406, 0.0 ], [ 125.554980403, -9.045187421, 0.0 ], [ 125.554976431, -9.045190807199999, 0.0 ], [ 125.554973204800007, -9.0451945143, 0.0 ], [ 125.554969772700005, -9.045198554500001, 0.0 ], [ 125.554951389099998, -9.0451845701, 0.0 ], [ 125.554923294199995, -9.045193701200001, 0.0 ], [ 125.554951389099998, -9.0451845701, 0.0 ], [ 125.554952145800002, -9.0451562048, 0.0 ] ] } },
{ "type": "Feature", "properties": { "Name": null, "description": "Sungai<BR><BR><B>ELEVATION</B> = 0", "timestamp": null, "begin": null, "end": null, "altitudeMode": null, "tessellate": 1, "extrude": 0, "visibility": -1, "drawOrder": null, "icon": null, "snippet": null }, "geometry": { "type": "LineString", "coordinates": [ [ 125.553865257599995, -9.0404526423, 0.0 ], [ 125.553881365799995, -9.0404763383, 0.0 ], [ 125.553896889699999, -9.0404503633, 0.0 ], [ 125.553881365799995, -9.0404763383, 0.0 ], [ 125.553879120199994, -9.040431997200001, 0.0 ], [ 125.553874337899998, -9.040432236499999, 0.0 ], [ 125.553869540400001, -9.0404319089, 0.0 ], [ 125.553865694, -9.0404311322, 0.0 ], [ 125.553860862700006, -9.0404301402, 0.0 ], [ 125.553856575500006, -9.0404286345, 0.0 ], [ 125.553853898400007, -9.04042701, 0.0 ], [ 125.553851438699994, -9.040425319900001, 0.0 ], [ 125.553849959299995, -9.0404233608, 0.0 ], [ 125.553849333900004, -9.040421784099999, 0.0 ], [ 125.553849056800004, -9.0404209098, 0.0 ], [ 125.553849092899995, -9.0404193246, 0.0 ], [ 125.553849792600005, -9.0404170497, 0.0 ], [ 125.553851063300002, -9.0404153256, 0.0 ], [ 125.553852578, -9.0404138209, 0.0 ], [ 125.553854487600006, -9.0404124508, 0.0 ], [ 125.5538581948, -9.040410339599999, 0.0 ], [ 125.553863864600004, -9.0404081543, 0.0 ], [ 125.553869286500003, -9.040406920100001, 0.0 ], [ 125.553874110400002, -9.040406125300001, 0.0 ], [ 125.553883699400004, -9.0404047464, 0.0 ], [ 125.553889013299994, -9.040403568, 0.0 ], [ 125.553894744700003, -9.0404019077, 0.0 ], [ 125.553899483099997, -9.040400101, 0.0 ], [ 125.553902638400004, -9.0403981773, 0.0 ], [ 125.553905164100001, -9.040395500200001, 0.0 ], [ 125.553906416700002, -9.040392985, 0.0 ], [ 125.553906292799994, -9.040390538700001, 0.0 ], [ 125.553906016900001, -9.0403889829, 0.0 ], [ 125.553904486799993, -9.0403860183, 0.0 ], [ 125.55390103, -9.040383935, 0.0 ], [ 125.553897465, -9.0403816608, 0.0 ], [ 125.553891869899999, -9.040380175, 0.0 ], [ 125.5538867028, -9.040379354500001, 0.0 ], [ 125.553881772, -9.0403793069, 0.0 ], [ 125.553876452500006, -9.040379318599999, 0.0 ], [ 125.553875288599997, -9.0403563365, 0.0 ], [ 125.55385011, -9.040340945600001, 0.0 ], [ 125.553875288599997, -9.0403563365, 0.0 ], [ 125.553897538399994, -9.0403385613, 0.0 ] ] } },
{ "type": "Feature", "properties": { "Name": null, "description": "Sungai<BR><BR><B>ELEVATION</B> = 0", "timestamp": null, "begin": null, "end": null, "altitudeMode": null, "tessellate": 1, "extrude": 0, "visibility": -1, "drawOrder": null, "icon": null, "snippet": null }, "geometry": { "type": "LineString", "coordinates": [ [ 125.551806238200001, -8.998806184499999, 0.0 ], [ 125.551811836200002, -8.998879386300001, 0.0 ], [ 125.551824814100002, -8.998917179499999, 0.0 ], [ 125.551830235599994, -8.9989651273, 0.0 ], [ 125.551830518900005, -8.9990055342, 0.0 ], [ 125.551807955800001, -8.9990511502, 0.0 ], [ 125.551792896099997, -8.999079035599999, 0.0 ], [ 125.551757638300003, -8.9991272653, 0.0 ], [ 125.551684721699999, -8.9992439456, 0.0 ], [ 125.551596621900003, -8.9993708333, 0.0 ], [ 125.551590003900003, -8.999514835099999, 0.0 ], [ 125.551598534299998, -8.999643578900001, 0.0 ], [ 125.551629557, -8.9997166045, 0.0 ], [ 125.551696280300007, -8.999804536299999, 0.0 ], [ 125.5518425068, -8.999992430300001, 0.0 ], [ 125.551899201699996, -9.000100635600001, 0.0 ], [ 125.551994122899998, -9.000221203800001, 0.0 ], [ 125.552088777899996, -9.0003038906, 0.0 ], [ 125.552313522800006, -9.000446288499999, 0.0 ], [ 125.552617155199997, -9.000598241300001, 0.0 ], [ 125.552742496799993, -9.0007059703, 0.0 ], [ 125.552791689399996, -9.0008319062, 0.0 ], [ 125.552782299499995, -9.0009430953, 0.0 ], [ 125.552767699900002, -9.001036641300001, 0.0 ], [ 125.552771857600007, -9.0011369418, 0.0 ], [ 125.552838439599995, -9.0012046696, 0.0 ], [ 125.552859009700001, -9.001237359099999, 0.0 ], [ 125.552877054700005, -9.001272591699999, 0.0 ], [ 125.552877586299999, -9.001348354, 0.0 ], [ 125.552852551900003, -9.001404089499999, 0.0 ], [ 125.552840424300001, -9.001487516599999, 0.0 ], [ 125.552882308700006, -9.001658962900001, 0.0 ], [ 125.552918505600005, -9.0017445803, 0.0 ], [ 125.553011256399998, -9.0019181993, 0.0 ], [ 125.552984496199997, -9.001924211, 0.0 ], [ 125.552924713400003, -9.001957941200001, 0.0 ], [ 125.552848957899997, -9.0019795078, 0.0 ], [ 125.552871979200006, -9.001989868900001, 0.0 ], [ 125.552956573299994, -9.0019699943, 0.0 ], [ 125.553016491400001, -9.001955551, 0.0 ], [ 125.553037698, -9.001958910900001, 0.0 ], [ 125.553126228599993, -9.001996872699999, 0.0 ], [ 125.553218375200004, -9.002047083600001, 0.0 ], [ 125.5532448413, -9.0020451463, 0.0 ], [ 125.553304980899995, -9.002062263599999, 0.0 ], [ 125.553365526600004, -9.0021372418, 0.0 ], [ 125.5533816839, -9.002175705599999, 0.0 ], [ 125.553417246, -9.0022122815, 0.0 ], [ 125.553458227099995, -9.0022663539, 0.0 ], [ 125.553483235399995, -9.002308263, 0.0 ], [ 125.553510254800003, -9.0023852274, 0.0 ], [ 125.553521276799998, -9.0024465217, 0.0 ], [ 125.553523755499995, -9.0025482042, 0.0 ], [ 125.553548936200002, -9.002614660600001, 0.0 ], [ 125.553583102600001, -9.0027038492, 0.0 ], [ 125.553689987400006, -9.002783111, 0.0 ], [ 125.553755385599999, -9.0027949313, 0.0 ], [ 125.553818945, -9.002796243600001, 0.0 ], [ 125.553871815099996, -9.002783602699999, 0.0 ], [ 125.553957952700003, -9.002732155, 0.0 ], [ 125.553992788599999, -9.002665282200001, 0.0 ], [ 125.554025933399998, -9.0026089421, 0.0 ], [ 125.554213771199997, -9.0024141948, 0.0 ], [ 125.554305117799998, -9.0023504368, 0.0 ], [ 125.554333324200002, -9.0023449807, 0.0 ], [ 125.554423410599995, -9.002353122900001, 0.0 ], [ 125.554471144800004, -9.0023633123, 0.0 ], [ 125.554545356899993, -9.002373318, 0.0 ], [ 125.554630492100003, -9.0024305907, 0.0 ], [ 125.554712220599995, -9.0025054216, 0.0 ], [ 125.554769137700006, -9.002566397200001, 0.0 ], [ 125.554787048400001, -9.0026030951, 0.0 ], [ 125.5547893305, -9.002676724, 0.0 ], [ 125.554786095599994, -9.002718829, 0.0 ], [ 125.554774392100001, -9.0028118428, 0.0 ], [ 125.554754170099997, -9.002948752, 0.0 ], [ 125.554695995200007, -9.003136636900001, 0.0 ], [ 125.554667839700002, -9.0031839932, 0.0 ], [ 125.554576801600007, -9.0032915237, 0.0 ], [ 125.554517038900002, -9.0033453877, 0.0 ], [ 125.554464137099998, -9.0034746616, 0.0 ], [ 125.554433567, -9.0036289333, 0.0 ], [ 125.554494566299994, -9.003751128599999, 0.0 ], [ 125.554672167500001, -9.003800200900001, 0.0 ], [ 125.555043196499994, -9.003898235299999, 0.0 ], [ 125.555167388300006, -9.004004271299999, 0.0 ], [ 125.555318834399998, -9.0042126357, 0.0 ], [ 125.555392936199993, -9.004397621100001, 0.0 ], [ 125.555498136799997, -9.004503789, 0.0 ], [ 125.555625737300005, -9.004644385700001, 0.0 ], [ 125.555775316799995, -9.004759677499999, 0.0 ], [ 125.555877087799999, -9.004828139900001, 0.0 ], [ 125.555992115899997, -9.0049814002, 0.0 ], [ 125.556087932099999, -9.005103353200001, 0.0 ], [ 125.556139834099994, -9.0052822043, 0.0 ], [ 125.556211738399995, -9.0054853473, 0.0 ], [ 125.5563074449, -9.005591580800001, 0.0 ], [ 125.556330506799995, -9.005720327100001, 0.0 ], [ 125.556382121799999, -9.0058583073, 0.0 ], [ 125.556408438, -9.0059996074, 0.0 ], [ 125.556415321100005, -9.0060781614, 0.0 ], [ 125.556381742, -9.006254462299999, 0.0 ], [ 125.556306860700005, -9.0064090416, 0.0 ], [ 125.556273439199998, -9.006599724899999, 0.0 ], [ 125.556287381600001, -9.0067819837, 0.0 ], [ 125.556364583800004, -9.0069575148, 0.0 ], [ 125.556419386499996, -9.007098617, 0.0 ], [ 125.556445547600006, -9.0072179096, 0.0 ], [ 125.556478083499997, -9.0073434463, 0.0 ], [ 125.556529411599996, -9.007440555500001, 0.0 ], [ 125.556545878600005, -9.007531619, 0.0 ], [ 125.5565949569, -9.0077276084, 0.0 ], [ 125.556636834100004, -9.0078310714, 0.0 ], [ 125.556678379, -9.007887375699999, 0.0 ], [ 125.556745068799998, -9.007918352800001, 0.0 ], [ 125.556861694, -9.0078483729, 0.0 ], [ 125.556962051, -9.007715624599999, 0.0 ], [ 125.557011588199998, -9.007558077100001, 0.0 ], [ 125.557164824400004, -9.0072929105, 0.0 ], [ 125.557299135700006, -9.007037307899999, 0.0 ], [ 125.557504132600002, -9.006808251700001, 0.0 ], [ 125.557641492800002, -9.006753198, 0.0 ], [ 125.557666766500006, -9.006772443199999, 0.0 ], [ 125.557672625899997, -9.0068112441, 0.0 ], [ 125.557755733600004, -9.0067135621, 0.0 ], [ 125.557844564099994, -9.006635261, 0.0 ], [ 125.557888881799997, -9.0065822391, 0.0 ], [ 125.557919, -9.0064960231, 0.0 ], [ 125.557971872899998, -9.0064679115, 0.0 ], [ 125.558408506, -9.006103398, 0.0 ], [ 125.558592415700005, -9.006041082299999, 0.0 ], [ 125.558798748100003, -9.0059897079, 0.0 ], [ 125.5589636144, -9.0059996589, 0.0 ], [ 125.559016876900003, -9.0060270324, 0.0 ], [ 125.559157309100001, -9.0061370318, 0.0 ], [ 125.559249986300003, -9.0062085218, 0.0 ], [ 125.559317624100004, -9.0062940578, 0.0 ], [ 125.559436298099996, -9.006487440600001, 0.0 ], [ 125.559510303400003, -9.006683908399999, 0.0 ], [ 125.559514717100001, -9.0069141534, 0.0 ], [ 125.559431798299997, -9.007363448, 0.0 ], [ 125.559347870099998, -9.0077413509, 0.0 ], [ 125.559325779700004, -9.0077775719, 0.0 ], [ 125.559298669499995, -9.007894285500001, 0.0 ], [ 125.559316345400006, -9.008024559400001, 0.0 ], [ 125.5593505067, -9.0081158773, 0.0 ], [ 125.559360026799993, -9.0084054905, 0.0 ], [ 125.559336662199996, -9.0085801468, 0.0 ], [ 125.559260916699998, -9.008800535600001, 0.0 ], [ 125.559223204199995, -9.008933413099999, 0.0 ], [ 125.559135887300002, -9.009007308, 0.0 ], [ 125.559079845799999, -9.009032127, 0.0 ], [ 125.558984887899996, -9.0090188282, 0.0 ], [ 125.558900175199994, -9.0089635797, 0.0 ], [ 125.558860939499993, -9.0088800958, 0.0 ], [ 125.5587586109, -9.008817989900001, 0.0 ], [ 125.5586245402, -9.0087386556, 0.0 ], [ 125.558567884699997, -9.008676231900001, 0.0 ], [ 125.558441036800005, -9.008624766300001, 0.0 ], [ 125.558311044299998, -9.008625670500001, 0.0 ], [ 125.558209232099998, -9.0086368482, 0.0 ], [ 125.558104446499996, -9.0087248237, 0.0 ], [ 125.558006908099998, -9.008844158, 0.0 ], [ 125.557969538799995, -9.0090258912, 0.0 ], [ 125.557991723800001, -9.0091827813, 0.0 ], [ 125.558087516800001, -9.0093147303, 0.0 ], [ 125.558193727, -9.0094291575, 0.0 ], [ 125.558307381099993, -9.009602860499999, 0.0 ], [ 125.5583786575, -9.009793575, 0.0 ], [ 125.558365709699999, -9.0099507095, 0.0 ], [ 125.558408680200003, -9.010065576200001, 0.0 ], [ 125.558444525699997, -9.010166533, 0.0 ], [ 125.558459168400006, -9.010250188100001, 0.0 ], [ 125.558474032700005, -9.0103652507, 0.0 ], [ 125.558481918799998, -9.010487341499999, 0.0 ], [ 125.558524815799998, -9.010591739100001, 0.0 ], [ 125.558574518599997, -9.0106646807, 0.0 ], [ 125.558698547299997, -9.01080494, 0.0 ], [ 125.558720339800004, -9.0109059945, 0.0 ], [ 125.558714124299996, -9.0110212037, 0.0 ], [ 125.558764121400003, -9.0111360215, 0.0 ], [ 125.558842471899993, -9.011285540899999, 0.0 ], [ 125.558981383700001, -9.011553294200001, 0.0 ], [ 125.559010571900004, -9.0117066453, 0.0 ], [ 125.559142089199995, -9.011922102, 0.0 ], [ 125.5592057227, -9.0119774972, 0.0 ], [ 125.559450042400002, -9.0120788035, 0.0 ], [ 125.559542176199997, -9.012189837799999, 0.0 ], [ 125.5596589771, -9.0123111702, 0.0 ], [ 125.559920070800004, -9.012466396500001, 0.0 ], [ 125.560008790099999, -9.012591414199999, 0.0 ], [ 125.560041295299996, -9.012716823, 0.0 ], [ 125.5600213954, -9.0128844753, 0.0 ], [ 125.5599416206, -9.0130316053, 0.0 ], [ 125.559872213800006, -9.0131542341, 0.0 ], [ 125.559725007300003, -9.013294244700001, 0.0 ], [ 125.559666091799997, -9.0134098208, 0.0 ], [ 125.559670293400004, -9.0135075079, 0.0 ], [ 125.559712920799996, -9.013573518499999, 0.0 ], [ 125.559769601599996, -9.0136394315, 0.0 ], [ 125.559794613500003, -9.0136985851, 0.0 ], [ 125.559819772300003, -9.013778676799999, 0.0 ], [ 125.559820731200006, -9.0139147752, 0.0 ], [ 125.559838716200005, -9.013973977699999, 0.0 ], [ 125.559888443899993, -9.014050408299999, 0.0 ], [ 125.560075808299999, -9.0142131275, 0.0 ], [ 125.560288792199998, -9.014292792599999, 0.0 ], [ 125.560418885, -9.014305846, 0.0 ], [ 125.560552491500005, -9.014318874900001, 0.0 ], [ 125.560615978, -9.014353331300001, 0.0 ], [ 125.560654895300004, -9.0143914488, 0.0 ], [ 125.560736121100007, -9.0144502106, 0.0 ], [ 125.560841743500006, -9.014480883499999, 0.0 ], [ 125.561017731299998, -9.014525025599999, 0.0 ], [ 125.561169126300001, -9.014569339199999, 0.0 ], [ 125.561236150699997, -9.0146072605, 0.0 ], [ 125.561373836300007, -9.014700527700001, 0.0 ], [ 125.561479286600004, -9.0147067725, 0.0 ], [ 125.561581370699997, -9.014733980100001, 0.0 ], [ 125.561693921699998, -9.014750644899999, 0.0 ], [ 125.561823916099996, -9.014749738900001, 0.0 ], [ 125.561880351300005, -9.0147807545, 0.0 ], [ 125.562056462900003, -9.0148423444, 0.0 ], [ 125.562191436099994, -9.0148773825, 0.0 ], [ 125.562283250899995, -9.01494305, 0.0 ], [ 125.562280180800002, -9.015005888799999, 0.0 ], [ 125.5622524188, -9.015054940400001, 0.0 ], [ 125.562196918400005, -9.015156533400001, 0.0 ], [ 125.562180016499994, -9.0152508775, 0.0 ], [ 125.562205151399993, -9.0153274794, 0.0 ], [ 125.562230212499998, -9.0153936119, 0.0 ], [ 125.562262325099994, -9.0154631853, 0.0 ], [ 125.562273086800005, -9.015494519200001, 0.0 ], [ 125.562252449599995, -9.0155574804, 0.0 ], [ 125.562119458699996, -9.0156316946, 0.0 ], [ 125.561905782400004, -9.015723920699999, 0.0 ], [ 125.561821757199993, -9.015766384599999, 0.0 ], [ 125.561572998800003, -9.015976584800001, 0.0 ], [ 125.561468803300002, -9.016148314400001, 0.0 ], [ 125.561409765199997, -9.0162464422, 0.0 ], [ 125.561346696599998, -9.016271310800001, 0.0 ], [ 125.561276601, -9.0162962284, 0.0 ], [ 125.561209994600006, -9.0163176317, 0.0 ], [ 125.561111742500003, -9.016335765899999, 0.0 ], [ 125.560960790099998, -9.016354267, 0.0 ], [ 125.560834431299995, -9.0163725969, 0.0 ], [ 125.560792442899995, -9.016397318599999, 0.0 ], [ 125.560666108600003, -9.016419138, 0.0 ], [ 125.560609697800004, -9.016391612, 0.0 ], [ 125.560553213099993, -9.016353617, 0.0 ], [ 125.5605248106, -9.016311936599999, 0.0 ], [ 125.560359485099994, -9.0162851694, 0.0 ], [ 125.560289143399999, -9.0162751899, 0.0 ], [ 125.560211898199995, -9.0162827076, 0.0 ], [ 125.560117209, -9.0163077963, 0.0 ], [ 125.560261159099994, -9.0162928343, 0.0 ], [ 125.560345578699994, -9.016306205399999, 0.0 ], [ 125.560419630499993, -9.016344078099999, 0.0 ], [ 125.560462037099995, -9.016378681300001, 0.0 ], [ 125.560476312399999, -9.0164099908, 0.0 ], [ 125.560430711799995, -9.016420778100001, 0.0 ], [ 125.560360469100004, -9.016424757399999, 0.0 ], [ 125.560244428900006, -9.0164116063, 0.0 ], [ 125.560149444399997, -9.0163948185, 0.0 ], [ 125.560124678700006, -9.016370562, 0.0 ], [ 125.560064729499999, -9.0163395709, 0.0 ], [ 125.560089200099995, -9.016321951, 0.0 ], [ 125.559997852400002, -9.016322587299999, 0.0 ], [ 125.559924169599995, -9.01633706, 0.0 ], [ 125.559808055700003, -9.016313439699999, 0.0 ], [ 125.559653122100002, -9.0162656607, 0.0 ], [ 125.559593173500005, -9.016234669499999, 0.0 ], [ 125.559403253900001, -9.0162080731, 0.0 ], [ 125.559234389899999, -9.016177840299999, 0.0 ], [ 125.558912554499997, -9.016176355700001, 0.0 ], [ 125.558473774399999, -9.016235248399999, 0.0 ], [ 125.558189533800004, -9.016286085300001, 0.0 ], [ 125.558000449600002, -9.0163781383, 0.0 ], [ 125.557748124200003, -9.016470631100001, 0.0 ], [ 125.557541301100002, -9.0165383782, 0.0 ], [ 125.557426440200004, -9.016692732, 0.0 ], [ 125.557262809099996, -9.016906753, 0.0 ], [ 125.557161682599997, -9.017015642900001, 0.0 ], [ 125.557104439400007, -9.0170911231, 0.0 ], [ 125.556999307599995, -9.0171302433, 0.0 ], [ 125.5569747877, -9.0171408835, 0.0 ], [ 125.556887173899995, -9.0171729019, 0.0 ], [ 125.5568385511, -9.0172535076, 0.0 ], [ 125.556838796799994, -9.0172884046, 0.0 ], [ 125.556832114299993, -9.0173373094, 0.0 ], [ 125.556797667799998, -9.0174352656, 0.0 ], [ 125.556770347099999, -9.017547131600001, 0.0 ], [ 125.5566082048, -9.0180636873, 0.0 ], [ 125.556490173300006, -9.0182669214, 0.0 ], [ 125.556417030299997, -9.018358167, 0.0 ], [ 125.5564173251, -9.0184000436, 0.0 ], [ 125.556379316600001, -9.018491044699999, 0.0 ], [ 125.556386760699993, -9.018550320899999, 0.0 ], [ 125.556356098099997, -9.0186866395, 0.0 ], [ 125.556304010900007, -9.0187742489, 0.0 ], [ 125.5561965375, -9.019017331600001, 0.0 ], [ 125.556074771300004, -9.0191891828, 0.0 ], [ 125.556047450299999, -9.019301049099999, 0.0 ], [ 125.556041111200003, -9.0193988099, 0.0 ], [ 125.556041823599998, -9.0195000112, 0.0 ], [ 125.556032634499999, -9.019692018400001, 0.0 ], [ 125.556012389200006, -9.0198108151, 0.0 ], [ 125.555960621300002, -9.019943790699999, 0.0 ], [ 125.555898681499997, -9.0201291853, 0.0 ], [ 125.555837513399993, -9.0204455687, 0.0 ], [ 125.555936479699994, -9.0200295847, 0.0 ], [ 125.556012718700003, -9.0198789894, 0.0 ], [ 125.556085177100002, -9.0196360383, 0.0 ], [ 125.556087314600006, -9.0194405905, 0.0 ], [ 125.556128812400004, -9.0193460751, 0.0 ], [ 125.556177558300007, -9.0192829181, 0.0 ], [ 125.556097314400006, -9.0193637435, 0.0 ], [ 125.556079255699998, -9.019294071599999, 0.0 ], [ 125.556123948, -9.0191541656, 0.0 ], [ 125.556162226799998, -9.019101551, 0.0 ], [ 125.556329321500002, -9.0188338727, 0.0 ], [ 125.556294842300005, -9.019036677, 0.0 ], [ 125.556235013099993, -9.019177129299999, 0.0 ], [ 125.556191460400001, -9.0192735354, 0.0 ], [ 125.556238299399993, -9.019251243299999, 0.0 ], [ 125.556238879299997, -9.019333613200001, 0.0 ], [ 125.556193161400003, -9.019515154500001, 0.0 ], [ 125.556207543400006, -9.019594682699999, 0.0 ], [ 125.556199792, -9.0196716193, 0.0 ], [ 125.556109814500005, -9.0199295593, 0.0 ], [ 125.556080180400002, -9.0200395976, 0.0 ], [ 125.556044997599997, -9.020146928699999, 0.0 ], [ 125.556118494399996, -9.0199844148, 0.0 ], [ 125.556121954700004, -9.0200832397, 0.0 ], [ 125.556097616900004, -9.0201602918, 0.0 ], [ 125.556066087700003, -9.020393904500001, 0.0 ], [ 125.556055629900001, -9.020479097300001, 0.0 ], [ 125.555754083799997, -9.021123529800001, 0.0 ], [ 125.555610155599993, -9.021425020200001, 0.0 ], [ 125.555465522700004, -9.0216263527, 0.0 ], [ 125.555234079900004, -9.021845558500001, 0.0 ], [ 125.555044211500004, -9.022114826799999, 0.0 ], [ 125.554979894799999, -9.022363954799999, 0.0 ], [ 125.554987262500006, -9.0224226199, 0.0 ], [ 125.555039177699996, -9.022387719699999, 0.0 ], [ 125.555090315399994, -9.0222423001, 0.0 ], [ 125.555134425199995, -9.022086567900001, 0.0 ], [ 125.555261940199998, -9.0219233476, 0.0 ], [ 125.555327715499999, -9.021881443, 0.0 ], [ 125.555328080199999, -9.021933249, 0.0 ], [ 125.555304420300004, -9.0220301228, 0.0 ], [ 125.555253064400006, -9.0221444587, 0.0 ], [ 125.555136273, -9.022349051400001, 0.0 ], [ 125.555091555399997, -9.022418440399999, 0.0 ], [ 125.555022108, -9.022432739099999, 0.0 ], [ 125.554987457, -9.0224502498, 0.0 ], [ 125.554987529900004, -9.0224606108, 0.0 ], [ 125.554967104300005, -9.0225229233, 0.0 ], [ 125.554939893899999, -9.02260946, 0.0 ], [ 125.554916088100001, -9.0226856114, 0.0 ], [ 125.554888756699995, -9.022754879500001, 0.0 ], [ 125.554885741099994, -9.0228205245, 0.0 ], [ 125.554879297200003, -9.022893101199999, 0.0 ], [ 125.55484506, -9.0229693253, 0.0 ], [ 125.554797168, -9.02299671, 0.0 ], [ 125.554737710599994, -9.0230028427, 0.0 ], [ 125.554812709800004, -9.023023291199999, 0.0 ], [ 125.554834036, -9.023053644699999, 0.0 ], [ 125.554859281600002, -9.0230954095, 0.0 ], [ 125.554894056400002, -9.0231275761, 0.0 ], [ 125.554974880299994, -9.023157515599999, 0.0 ], [ 125.5550211977, -9.0231934146, 0.0 ], [ 125.555056053100003, -9.0232370186, 0.0 ], [ 125.555104853100005, -9.023352968099999, 0.0 ], [ 125.555109295799994, -9.0234387242, 0.0 ], [ 125.555142755199995, -9.023556686799999, 0.0 ], [ 125.555182281, -9.023718454, 0.0 ], [ 125.555332538499997, -9.024006439600001, 0.0 ], [ 125.555394024899996, -9.0241666775, 0.0 ], [ 125.555430677299995, -9.024228770400001, 0.0 ], [ 125.555455309199999, -9.024298140699999, 0.0 ], [ 125.5554484715, -9.024355740200001, 0.0 ], [ 125.555434847800001, -9.024478132800001, 0.0 ], [ 125.555416260300007, -9.024581376, 0.0 ], [ 125.555368971899995, -9.024723186699999, 0.0 ], [ 125.5553023083, -9.0248813847, 0.0 ], [ 125.555297986200003, -9.024953354599999, 0.0 ], [ 125.555295892700002, -9.024998931100001, 0.0 ], [ 125.555260118800007, -9.025061528, 0.0 ], [ 125.555169155499996, -9.025172469, 0.0 ], [ 125.555097168, -9.0252353176, 0.0 ], [ 125.554998826499997, -9.025327126, 0.0 ], [ 125.5549222641, -9.025425976399999, 0.0 ], [ 125.554771569400003, -9.025626059, 0.0 ], [ 125.554678259, -9.0257466079, 0.0 ], [ 125.554558167699994, -9.025921225699999, 0.0 ], [ 125.554428981200005, -9.0260899843, 0.0 ], [ 125.554254515500006, -9.0263429879, 0.0 ], [ 125.554211617, -9.026422420399999, 0.0 ], [ 125.5541929611, -9.0265160719, 0.0 ], [ 125.554126442400005, -9.0267001948, 0.0 ], [ 125.554083931600005, -9.0268347785, 0.0 ], [ 125.554036254899998, -9.0269214381, 0.0 ], [ 125.554015117700004, -9.027005514900001, 0.0 ], [ 125.553926499799999, -9.027106847500001, 0.0 ], [ 125.55390045, -9.027178968699999, 0.0 ], [ 125.553814634700004, -9.027335435399999, 0.0 ], [ 125.553662489499999, -9.027416882, 0.0 ], [ 125.553441510699997, -9.027579085299999, 0.0 ], [ 125.553272842200002, -9.0276721674, 0.0 ], [ 125.553193780200004, -9.0277590455, 0.0 ], [ 125.553131516400001, -9.0278314186, 0.0 ], [ 125.553045261799994, -9.0279255403, 0.0 ], [ 125.552963971, -9.0280388117, 0.0 ], [ 125.552760920899999, -9.0283471679, 0.0 ], [ 125.552710732199998, -9.0284878084, 0.0 ], [ 125.552715982799995, -9.028547721800001, 0.0 ], [ 125.552747621099996, -9.028583471799999, 0.0 ], [ 125.552793761399997, -9.0286215187, 0.0 ], [ 125.552847347300002, -9.02868829, 0.0 ], [ 125.552862136800002, -9.028731351199999, 0.0 ], [ 125.552937214799996, -9.0287644009, 0.0 ], [ 125.553116341500001, -9.028830298900001, 0.0 ], [ 125.553266615, -9.0289131836, 0.0 ], [ 125.553332441199998, -9.0290038495, 0.0 ], [ 125.553443040299996, -9.0291244391, 0.0 ], [ 125.553702782599998, -9.029324063500001, 0.0 ], [ 125.553858459799997, -9.0294884421, 0.0 ], [ 125.554141956300001, -9.029632747200001, 0.0 ], [ 125.554461566100002, -9.0297624124, 0.0 ], [ 125.554723917199993, -9.029816798, 0.0 ], [ 125.554828033899994, -9.0298592373, 0.0 ], [ 125.554941672400005, -9.029882426, 0.0 ], [ 125.555057404300001, -9.029860038200001, 0.0 ], [ 125.5551828607, -9.0298471749, 0.0 ], [ 125.555277117100005, -9.0298609065, 0.0 ], [ 125.555364418799996, -9.029915452499999, 0.0 ], [ 125.555505188799998, -9.030019983900001, 0.0 ], [ 125.555803813899999, -9.030255305700001, 0.0 ], [ 125.556012292299997, -9.030499161, 0.0 ], [ 125.556132600400005, -9.0307637653, 0.0 ], [ 125.556197351799995, -9.0309020683, 0.0 ], [ 125.556243818900001, -9.0310314491, 0.0 ], [ 125.556306405900003, -9.031295425, 0.0 ], [ 125.556292221600003, -9.031437294, 0.0 ], [ 125.5562565874, -9.031552164900001, 0.0 ], [ 125.556242062300001, -9.031645774199999, 0.0 ], [ 125.556239620900001, -9.031730250300001, 0.0 ], [ 125.556291800400004, -9.031808312800001, 0.0 ], [ 125.556328497300001, -9.031844253699999, 0.0 ], [ 125.556395712300002, -9.0319010969, 0.0 ], [ 125.556417523199997, -9.0319793709, 0.0 ], [ 125.556408710400007, -9.032021662, 0.0 ], [ 125.556375857800006, -9.032100316899999, 0.0 ], [ 125.556313317199994, -9.0322757031, 0.0 ], [ 125.556313955199997, -9.032366190499999, 0.0 ], [ 125.556202190299999, -9.0324776414, 0.0 ], [ 125.556172757300004, -9.032610567600001, 0.0 ], [ 125.556158253500001, -9.0327071932, 0.0 ], [ 125.556116247800006, -9.0327798791, 0.0 ], [ 125.556046889499996, -9.0328497393, 0.0 ], [ 125.556020110600002, -9.032928352200001, 0.0 ], [ 125.555936461, -9.0331250001, 0.0 ], [ 125.555831191199999, -9.0332705204, 0.0 ], [ 125.555411655, -9.033993993699999, 0.0 ], [ 125.555374885, -9.034096873899999, 0.0 ], [ 125.555368034599994, -9.0341420135, 0.0 ], [ 125.555375537499998, -9.034189426699999, 0.0 ], [ 125.555390175200003, -9.034232043599999, 0.0 ], [ 125.5554001844, -9.034296052, 0.0 ], [ 125.555362690500004, -9.0344007372, 0.0 ], [ 125.555293883199994, -9.034470041200001, 0.0 ], [ 125.555232478500002, -9.034572519699999, 0.0 ], [ 125.555182753300002, -9.034636944200001, 0.0 ], [ 125.555109301399995, -9.034725267, 0.0 ], [ 125.554705041199995, -9.0353885824, 0.0 ], [ 125.554256163900007, -9.036241113699999, 0.0 ], [ 125.554052612899994, -9.036540414099999, 0.0 ], [ 125.553946672600006, -9.0367071153, 0.0 ], [ 125.553768317700005, -9.036933897300001, 0.0 ], [ 125.553615339100006, -9.0371136922, 0.0 ], [ 125.553425168, -9.0374226507, 0.0 ], [ 125.553383169900002, -9.0374513121, 0.0 ], [ 125.553342056100007, -9.037502677899999, 0.0 ], [ 125.55333404, -9.0375422794, 0.0 ], [ 125.553326036100003, -9.037583528300001, 0.0 ], [ 125.553294794600006, -9.037623291499999, 0.0 ], [ 125.553252150199995, -9.0376927932, 0.0 ], [ 125.553232800299995, -9.037772019, 0.0 ], [ 125.553241187899999, -9.037785142500001, 0.0 ], [ 125.553246779800006, -9.0378724334, 0.0 ], [ 125.553228914599998, -9.0379269329, 0.0 ], [ 125.5532092965, -9.038462662, 0.0 ], [ 125.553256925400007, -9.038685362600001, 0.0 ], [ 125.553284458700006, -9.0391448534, 0.0 ], [ 125.553317851700001, -9.0392878995, 0.0 ], [ 125.553347930300006, -9.0393783358, 0.0 ], [ 125.553384143900004, -9.0395038178, 0.0 ], [ 125.553423280900006, -9.039626355699999, 0.0 ], [ 125.553462170700001, -9.0397138064, 0.0 ], [ 125.553503612499995, -9.0397456822, 0.0 ], [ 125.553595142700004, -9.039783057499999, 0.0 ], [ 125.553651325600001, -9.0398177548, 0.0 ], [ 125.553678583899995, -9.0399257549, 0.0 ], [ 125.553696762599998, -9.039998729500001, 0.0 ], [ 125.553791772599993, -9.040212478600001, 0.0 ], [ 125.553904297800003, -9.040327806700001, 0.0 ], [ 125.553902100100004, -9.0403845879, 0.0 ], [ 125.553886803799998, -9.0404259787, 0.0 ], [ 125.553858792, -9.040506162, 0.0 ], [ 125.553844077799994, -9.040630117199999, 0.0 ], [ 125.553844514399998, -9.0406920407, 0.0 ], [ 125.553829346, -9.0407514925, 0.0 ], [ 125.553764636099999, -9.041144044699999, 0.0 ], [ 125.55373652, -9.041288935800001, 0.0 ], [ 125.553725477599997, -9.0413758298, 0.0 ], [ 125.553676721599999, -9.0414861379, 0.0 ], [ 125.553542067199999, -9.041811193299999, 0.0 ], [ 125.553430374499996, -9.042076526200001, 0.0 ], [ 125.553433860300004, -9.041841565, 0.0 ], [ 125.553359962900004, -9.0415713915, 0.0 ], [ 125.553295179200006, -9.0411351665, 0.0 ], [ 125.553352951799994, -9.0416710333, 0.0 ], [ 125.553408311699997, -9.041864726, 0.0 ], [ 125.553401894800004, -9.0420486343, 0.0 ], [ 125.553359285499994, -9.0422047047, 0.0 ], [ 125.553313234, -9.042537345, 0.0 ], [ 125.553289874900003, -9.0428940623, 0.0 ], [ 125.5533038863, -9.043015327599999, 0.0 ], [ 125.553268441300006, -9.043181238100001, 0.0 ], [ 125.553289743700006, -9.043523692400001, 0.0 ], [ 125.553349303100006, -9.043736045099999, 0.0 ], [ 125.553466443700003, -9.044024225299999, 0.0 ], [ 125.553573466, -9.0442010699, 0.0 ], [ 125.553735873899996, -9.044375027299999, 0.0 ], [ 125.553913056100001, -9.0445013571, 0.0 ], [ 125.5543526413, -9.044737182900001, 0.0 ], [ 125.554568728099994, -9.044810721099999, 0.0 ], [ 125.554800432899995, -9.0448929787, 0.0 ], [ 125.554967584, -9.0449602359, 0.0 ], [ 125.5550609493, -9.0449639994, 0.0 ], [ 125.555230167299996, -9.0450091703, 0.0 ], [ 125.555408304799997, -9.0450586931, 0.0 ], [ 125.555484048699995, -9.045089821, 0.0 ], [ 125.555549549299997, -9.045188383299999, 0.0 ], [ 125.555572452199996, -9.045255061600001, 0.0 ], [ 125.555582963299997, -9.045331728300001, 0.0 ], [ 125.555596246799993, -9.045447983100001, 0.0 ], [ 125.555639700200004, -9.0456011599, 0.0 ], [ 125.555639927399994, -9.0456333395, 0.0 ], [ 125.555640556399993, -9.0457224524, 0.0 ], [ 125.555668584200006, -9.045808898700001, 0.0 ], [ 125.555686677500006, -9.0459003653, 0.0 ], [ 125.555682531299993, -9.0460192172, 0.0 ], [ 125.5556837022, -9.0461850663, 0.0 ], [ 125.555747529200005, -9.046403760900001, 0.0 ], [ 125.555839876500002, -9.0466055173, 0.0 ], [ 125.555947437499995, -9.046741776699999, 0.0 ], [ 125.556117986800004, -9.046918076500001, 0.0 ], [ 125.556266590600003, -9.047094529600001, 0.0 ], [ 125.556434246699993, -9.047305101899999, 0.0 ], [ 125.556560663100001, -9.047447457100001, 0.0 ], [ 125.556681311399998, -9.0474868888, 0.0 ], [ 125.556840250199997, -9.0475687877, 0.0 ], [ 125.556953281099993, -9.0476903268, 0.0 ], [ 125.557137107499997, -9.0478703512, 0.0 ], [ 125.557226390099999, -9.048001851, 0.0 ], [ 125.557274042700001, -9.0482090392, 0.0 ], [ 125.557352887199997, -9.048472804599999, 0.0 ], [ 125.557470613600003, -9.048728578, 0.0 ], [ 125.557621733700003, -9.0489720726, 0.0 ], [ 125.557817720800003, -9.049300434299999, 0.0 ], [ 125.557913659299999, -9.049528927600001, 0.0 ], [ 125.5580846127, -9.049838229500001, 0.0 ], [ 125.558214569200004, -9.0501796416, 0.0 ], [ 125.558347607499996, -9.050604613499999, 0.0 ], [ 125.558545242199997, -9.0511293243, 0.0 ], [ 125.558627531200003, -9.051420010799999, 0.0 ], [ 125.558670758800005, -9.051664258600001, 0.0 ], [ 125.5587460048, -9.052085791, 0.0 ], [ 125.558823131, -9.0524287208, 0.0 ] ] } },
{ "type": "Feature", "properties": { "Name": null, "description": "Sungai<BR><BR><B>ELEVATION</B> = 0", "timestamp": null, "begin": null, "end": null, "altitudeMode": null, "tessellate": 1, "extrude": 0, "visibility": -1, "drawOrder": null, "icon": null, "snippet": null }, "geometry": { "type": "LineString", "coordinates": [ [ 125.553646246599996, -9.0275477702, 0.0 ], [ 125.553645117800002, -9.027549646400001, 0.0 ], [ 125.5535643658, -9.0276309817, 0.0 ], [ 125.5534784221, -9.0277281562, 0.0 ], [ 125.553318459799996, -9.0278881629, 0.0 ], [ 125.553107209700002, -9.0280349199, 0.0 ], [ 125.553229789499994, -9.0278438443, 0.0 ], [ 125.553354799700003, -9.0277424681, 0.0 ], [ 125.553421657399994, -9.0276567247, 0.0 ], [ 125.553577544899994, -9.027585590299999, 0.0 ], [ 125.553644745599996, -9.027548574700001, 0.0 ], [ 125.553646246599996, -9.0275477702, 0.0 ] ] } },
{ "type": "Feature", "properties": { "Name": null, "description": "Sungai<BR><BR><B>ELEVATION</B> = 0", "timestamp": null, "begin": null, "end": null, "altitudeMode": null, "tessellate": 1, "extrude": 0, "visibility": -1, "drawOrder": null, "icon": null, "snippet": null }, "geometry": { "type": "LineString", "coordinates": [ [ 125.558923287799999, -9.0524443547, 0.0 ], [ 125.558771474300002, -9.051702540100001, 0.0 ], [ 125.558677702, -9.0513066602, 0.0 ], [ 125.558523107799999, -9.0508861083, 0.0 ], [ 125.558218162399996, -9.049976024099999, 0.0 ], [ 125.5581131016, -9.049747482800001, 0.0 ], [ 125.558108266700003, -9.049716933299999, 0.0 ], [ 125.558109482099994, -9.04967105, 0.0 ], [ 125.558112107100001, -9.0496068072, 0.0 ], [ 125.558107142400004, -9.049557908600001, 0.0 ], [ 125.558083788900007, -9.049521371899999, 0.0 ], [ 125.558065216200006, -9.049507739299999, 0.0 ], [ 125.558032495, -9.0494529181, 0.0 ], [ 125.558022522599998, -9.0493490047, 0.0 ], [ 125.557973235099993, -9.0491342484, 0.0 ], [ 125.557946767199994, -9.0489517007, 0.0 ], [ 125.557921074199996, -9.048878787, 0.0 ], [ 125.557906796799998, -9.0487769412, 0.0 ], [ 125.557885086300004, -9.0487193878, 0.0 ], [ 125.557825498, -9.0485188802, 0.0 ], [ 125.5577604331, -9.048355836900001, 0.0 ], [ 125.557680324200007, -9.048256374299999, 0.0 ], [ 125.557531042299999, -9.047998767699999, 0.0 ], [ 125.557402082500005, -9.047838093799999, 0.0 ], [ 125.557054938899995, -9.047639778500001, 0.0 ], [ 125.556919783200001, -9.0475418978, 0.0 ], [ 125.5567914441, -9.0474573242, 0.0 ], [ 125.556699484600003, -9.047383180300001, 0.0 ], [ 125.5566183575, -9.0473196446, 0.0 ], [ 125.556488257400005, -9.0472286776, 0.0 ], [ 125.556402025899999, -9.0471569688, 0.0 ], [ 125.556328537900001, -9.047060679099999, 0.0 ], [ 125.5562088593, -9.0469087295, 0.0 ], [ 125.556249727899996, -9.0469138602, 0.0 ], [ 125.556343356499994, -9.046965694600001, 0.0 ], [ 125.556400921399998, -9.0470465976, 0.0 ], [ 125.556493971500004, -9.047163273800001, 0.0 ], [ 125.556585694600003, -9.0472387924, 0.0 ], [ 125.556622070700001, -9.0472539761, 0.0 ], [ 125.556662445900002, -9.047248548400001, 0.0 ], [ 125.556876393600007, -9.047169867, 0.0 ], [ 125.556913441899994, -9.0471566787, 0.0 ], [ 125.556910634399998, -9.0471476165, 0.0 ], [ 125.556687139800005, -9.047223646500001, 0.0 ], [ 125.556630506600001, -9.047232215099999, 0.0 ], [ 125.556614035300001, -9.047230513900001, 0.0 ], [ 125.556577325899994, -9.0472116985, 0.0 ], [ 125.556506476600006, -9.0471495291, 0.0 ], [ 125.556441886900004, -9.0470673366, 0.0 ], [ 125.556396391, -9.047004558199999, 0.0 ], [ 125.556363706599996, -9.0469588374, 0.0 ], [ 125.556342616799995, -9.0469381834, 0.0 ], [ 125.556286325599999, -9.046902595700001, 0.0 ], [ 125.556216944100001, -9.04685698, 0.0 ], [ 125.556108459100003, -9.046751715299999, 0.0 ], [ 125.556009319400005, -9.0466546252, 0.0 ], [ 125.555929711299996, -9.0465476167, 0.0 ], [ 125.555857355399993, -9.0464400379, 0.0 ], [ 125.555811014, -9.046366409499999, 0.0 ], [ 125.555794831900002, -9.04630537, 0.0 ], [ 125.555792506499998, -9.046178814599999, 0.0 ], [ 125.555791883300003, -9.0460036364, 0.0 ], [ 125.555778254200007, -9.0458915302, 0.0 ], [ 125.555792776199993, -9.045766477400001, 0.0 ], [ 125.555740401700007, -9.0456214907, 0.0 ], [ 125.555741510700003, -9.0454149305, 0.0 ], [ 125.555734812599994, -9.045205171299999, 0.0 ], [ 125.555687555099993, -9.0450575992, 0.0 ], [ 125.5556074972, -9.044991856799999, 0.0 ], [ 125.555507349199999, -9.044990005100001, 0.0 ], [ 125.555276083500004, -9.0449635677, 0.0 ], [ 125.555180796299993, -9.044922847300001, 0.0 ], [ 125.555142645199993, -9.0448766018, 0.0 ], [ 125.555111761500001, -9.044839250600001, 0.0 ], [ 125.555053924099994, -9.0448110314, 0.0 ], [ 125.555010622200001, -9.0448006001, 0.0 ], [ 125.554859052400005, -9.0447623011, 0.0 ], [ 125.554795900599999, -9.0447466415, 0.0 ], [ 125.554662480700003, -9.044727893899999, 0.0 ], [ 125.554529060700006, -9.044709146300001, 0.0 ], [ 125.554334366, -9.0446506977, 0.0 ], [ 125.554166222500001, -9.044582112800001, 0.0 ], [ 125.553950025299997, -9.0444463564, 0.0 ], [ 125.553849848400006, -9.044377297600001, 0.0 ], [ 125.553721866, -9.0442206741, 0.0 ], [ 125.553554908699994, -9.0439990657, 0.0 ], [ 125.553481179, -9.0438797893, 0.0 ], [ 125.553403082399996, -9.043674960400001, 0.0 ], [ 125.553364088899997, -9.0434539253, 0.0 ], [ 125.5533356344, -9.043179843400001, 0.0 ], [ 125.553349040499995, -9.043091992400001, 0.0 ], [ 125.553363554100002, -9.042962344399999, 0.0 ], [ 125.553369633399996, -9.0428299691, 0.0 ], [ 125.553396049699998, -9.042422179200001, 0.0 ], [ 125.553474884, -9.0421893416, 0.0 ], [ 125.553588307599995, -9.0418688428, 0.0 ], [ 125.553729832, -9.0415791614, 0.0 ], [ 125.553781355799998, -9.0413964685, 0.0 ], [ 125.553830364899994, -9.041213793400001, 0.0 ], [ 125.553940525100003, -9.040933751800001, 0.0 ], [ 125.553987523800004, -9.0407989609, 0.0 ], [ 125.5539948391, -9.0406364329, 0.0 ], [ 125.554013495700005, -9.0404822299, 0.0 ], [ 125.554015506400006, -9.0403673613, 0.0 ], [ 125.553964048, -9.040269673399999, 0.0 ], [ 125.5539098876, -9.0401888124, 0.0 ], [ 125.553758154500002, -9.0398968117, 0.0 ], [ 125.553680463299997, -9.0396788494, 0.0 ], [ 125.553551926699996, -9.0394500361, 0.0 ], [ 125.553448852499997, -9.0392322504, 0.0 ], [ 125.553412142400006, -9.039055832600001, 0.0 ], [ 125.553402210300007, -9.038906025799999, 0.0 ], [ 125.553400253099994, -9.0386283279, 0.0 ], [ 125.553444945300001, -9.038475523, 0.0 ], [ 125.553461618, -9.0383691121, 0.0 ], [ 125.5534758541, -9.038270134299999, 0.0 ], [ 125.553505301300007, -9.038210601799999, 0.0 ], [ 125.553527247199995, -9.0381461779, 0.0 ], [ 125.553541326499996, -9.038024953100001, 0.0 ], [ 125.553515253699999, -9.037857040900001, 0.0 ], [ 125.55348504, -9.0378078119, 0.0 ], [ 125.553486451300003, -9.037714578, 0.0 ], [ 125.553494007500007, -9.0375480485, 0.0 ], [ 125.553572988200003, -9.037358478, 0.0 ], [ 125.553612655400002, -9.0372888365, 0.0 ], [ 125.553797203499997, -9.036988360500001, 0.0 ], [ 125.553956309200004, -9.0368149268, 0.0 ], [ 125.554119760199995, -9.036634919, 0.0 ], [ 125.554351346100006, -9.036310006500001, 0.0 ], [ 125.554635691800001, -9.035802352699999, 0.0 ], [ 125.554808469, -9.0354070729, 0.0 ], [ 125.555034404699995, -9.0349985406, 0.0 ], [ 125.555354031799993, -9.0345150525, 0.0 ], [ 125.5554690365, -9.0343921923, 0.0 ], [ 125.555478881599996, -9.0342944767, 0.0 ], [ 125.555460564300006, -9.0341864949, 0.0 ], [ 125.555477908599997, -9.0341115502, 0.0 ], [ 125.555508451199998, -9.033961379200001, 0.0 ], [ 125.555852408600003, -9.0334428477, 0.0 ], [ 125.556054271299999, -9.033122412799999, 0.0 ], [ 125.556088177399999, -9.032951294, 0.0 ], [ 125.556168022099996, -9.0328217039, 0.0 ], [ 125.556244552300001, -9.032720036200001, 0.0 ], [ 125.556293412, -9.032677847, 0.0 ], [ 125.556310057800005, -9.032548697299999, 0.0 ], [ 125.556393413, -9.032419082700001, 0.0 ], [ 125.556418041800001, -9.0323426082, 0.0 ], [ 125.556447167100004, -9.0322812433, 0.0 ], [ 125.556473105500004, -9.032117148599999, 0.0 ], [ 125.556526154599993, -9.031955311600001, 0.0 ], [ 125.556543204700006, -9.031811231700001, 0.0 ], [ 125.556531021799998, -9.0317416389, 0.0 ], [ 125.556530585100006, -9.0316797065, 0.0 ], [ 125.556471880800004, -9.031645276900001, 0.0 ], [ 125.556401376300002, -9.031595445200001, 0.0 ], [ 125.5563852959, -9.0315258799, 0.0 ], [ 125.556376928700004, -9.031444647700001, 0.0 ], [ 125.556387637900002, -9.031305218, 0.0 ], [ 125.5563871194, -9.031231673100001, 0.0 ], [ 125.556311789600002, -9.031050262200001, 0.0 ], [ 125.556267965200007, -9.0309150836, 0.0 ], [ 125.556219435399996, -9.0306895348, 0.0 ], [ 125.556045775200005, -9.0303810664, 0.0 ], [ 125.555794662400004, -9.0301428151, 0.0 ], [ 125.555523926800007, -9.0298853453, 0.0 ], [ 125.555316136200005, -9.029779163300001, 0.0 ], [ 125.555214922199994, -9.029771721199999, 0.0 ], [ 125.555111184400005, -9.0297941682, 0.0 ], [ 125.554966245499998, -9.029789746100001, 0.0 ], [ 125.5547719427, -9.029763943100001, 0.0 ], [ 125.554558310399997, -9.0297111189, 0.0 ], [ 125.554410408300001, -9.0296741305, 0.0 ], [ 125.554303554200004, -9.0296422876, 0.0 ], [ 125.554176930699995, -9.0295209682, 0.0 ], [ 125.5541165538, -9.029488801499999, 0.0 ], [ 125.553946397900006, -9.0293976566, 0.0 ], [ 125.553726494700001, -9.029230821300001, 0.0 ], [ 125.553415495500005, -9.028926247299999, 0.0 ], [ 125.553230467700004, -9.028778297600001, 0.0 ], [ 125.553119695199996, -9.028724246299999, 0.0 ], [ 125.552953687, -9.0286644877, 0.0 ], [ 125.552833244599995, -9.0285434995, 0.0 ], [ 125.552835603800006, -9.028442976299999, 0.0 ], [ 125.552884149700006, -9.0283695429, 0.0 ], [ 125.553062966599995, -9.0281038855, 0.0 ], [ 125.553100248700005, -9.0280457707, 0.0 ], [ 125.553241433, -9.027966857099999, 0.0 ], [ 125.553383799800002, -9.027848218500001, 0.0 ], [ 125.553508413200007, -9.027719167900001, 0.0 ], [ 125.553629615, -9.027607700600001, 0.0 ], [ 125.553703261, -9.027517212699999, 0.0 ], [ 125.553794435699999, -9.027468346499999, 0.0 ], [ 125.553864381099999, -9.027385627099999, 0.0 ], [ 125.553970714599998, -9.027244787200001, 0.0 ], [ 125.554144130400005, -9.0269677216, 0.0 ], [ 125.554194498699999, -9.0267176277, 0.0 ], [ 125.5543789675, -9.0263508656, 0.0 ], [ 125.5545730857, -9.026047995300001, 0.0 ], [ 125.554877381500006, -9.0256266999, 0.0 ], [ 125.554992548399994, -9.025434022400001, 0.0 ], [ 125.5551112534, -9.025308324499999, 0.0 ], [ 125.555291389900006, -9.025147624200001, 0.0 ], [ 125.55536097, -9.0250131314, 0.0 ], [ 125.555372312499998, -9.0248820896, 0.0 ], [ 125.555408485599997, -9.024793513700001, 0.0 ], [ 125.555456923400001, -9.024704852799999, 0.0 ], [ 125.555492817599998, -9.0245766855, 0.0 ], [ 125.555540290799996, -9.024350977099999, 0.0 ], [ 125.555535974500003, -9.024169623, 0.0 ], [ 125.555501580500007, -9.0240754472, 0.0 ], [ 125.555446002500005, -9.0240210125, 0.0 ], [ 125.555418020199994, -9.0239663854, 0.0 ], [ 125.555399279599996, -9.0239177854, 0.0 ], [ 125.555352964199997, -9.0238724229, 0.0 ], [ 125.555318742400004, -9.023802611100001, 0.0 ], [ 125.555296570799996, -9.0237022588, 0.0 ], [ 125.555252549800002, -9.0235674781, 0.0 ], [ 125.555211724100005, -9.023430707899999, 0.0 ], [ 125.555173964199994, -9.0232939164, 0.0 ], [ 125.555142594, -9.0231936281, 0.0 ], [ 125.555093084199996, -9.023130013899999, 0.0 ], [ 125.555016149799997, -9.023090955500001, 0.0 ], [ 125.554967003900003, -9.0230791149, 0.0 ], [ 125.554914642100002, -9.023045976900001, 0.0 ], [ 125.554913977499993, -9.0229515663, 0.0 ], [ 125.555008192100004, -9.0228154122, 0.0 ], [ 125.555028674100001, -9.0227156629, 0.0 ], [ 125.555093460600006, -9.022636647200001, 0.0 ], [ 125.555141317099995, -9.022595323899999, 0.0 ], [ 125.555192420699996, -9.0225266513, 0.0 ], [ 125.555212188400006, -9.022403542799999, 0.0 ], [ 125.555293304200006, -9.0222014425, 0.0 ], [ 125.555394789199994, -9.0219616264, 0.0 ], [ 125.555517075899999, -9.021745576400001, 0.0 ], [ 125.555701577199997, -9.0215380038, 0.0 ], [ 125.555806476699999, -9.021294748, 0.0 ], [ 125.555911087, -9.021010503699999, 0.0 ], [ 125.556077854600005, -9.020730805299999, 0.0 ], [ 125.556168083800003, -9.0203578489, 0.0 ], [ 125.556180396399995, -9.020152811499999, 0.0 ], [ 125.556189529600005, -9.019953279399999, 0.0 ], [ 125.5562671335, -9.0197409561, 0.0 ], [ 125.556303206099997, -9.019491347500001, 0.0 ], [ 125.556281346399999, -9.0193172907, 0.0 ], [ 125.556375171499994, -9.0189396115, 0.0 ], [ 125.556509937800001, -9.0185424342, 0.0 ], [ 125.556706837199997, -9.018115552899999, 0.0 ], [ 125.556777827600001, -9.0179408503, 0.0 ], [ 125.556797378499994, -9.0177870006, 0.0 ], [ 125.556908409, -9.017437810800001, 0.0 ], [ 125.556986502300006, -9.0172545618, 0.0 ], [ 125.557061701, -9.017189137300001, 0.0 ], [ 125.557120185800002, -9.017192146299999, 0.0 ], [ 125.557209404800005, -9.0171641986, 0.0 ], [ 125.557274190100003, -9.017085183, 0.0 ], [ 125.5573250522, -9.0169823534, 0.0 ], [ 125.557587536699998, -9.016652604600001, 0.0 ], [ 125.557892465899997, -9.016489937099999, 0.0 ], [ 125.558262878500003, -9.0163473088, 0.0 ], [ 125.558638937599994, -9.016285314699999, 0.0 ], [ 125.5588073941, -9.0162773102, 0.0 ], [ 125.559058239, -9.016248236599999, 0.0 ], [ 125.559168355200001, -9.0162577174, 0.0 ], [ 125.5593232489, -9.016277133899999, 0.0 ], [ 125.559540186299998, -9.016316613400001, 0.0 ], [ 125.559660691199994, -9.0163362693, 0.0 ], [ 125.559870751, -9.0163757962, 0.0 ], [ 125.559994742800001, -9.016402259299999, 0.0 ], [ 125.560167047299998, -9.016452296800001, 0.0 ], [ 125.560428666500002, -9.016488048499999, 0.0 ], [ 125.560539023, -9.0165316856, 0.0 ], [ 125.560642237400003, -9.0165377981, 0.0 ], [ 125.560946467199997, -9.016483821, 0.0 ], [ 125.561145753, -9.016458521100001, 0.0 ], [ 125.56128612, -9.016368731, 0.0 ], [ 125.561402921, -9.016350837799999, 0.0 ], [ 125.561556826900002, -9.0162302103, 0.0 ], [ 125.561652151299995, -9.0160929122, 0.0 ], [ 125.561775420299995, -9.016016904400001, 0.0 ], [ 125.561998223700002, -9.015912876, 0.0 ], [ 125.562114518599998, -9.015823253200001, 0.0 ], [ 125.562264864200003, -9.015685571500001, 0.0 ], [ 125.562353335200001, -9.015551736800001, 0.0 ], [ 125.562393878600005, -9.0154489788, 0.0 ], [ 125.562362278199998, -9.015356971399999, 0.0 ], [ 125.562272289899994, -9.0152756186, 0.0 ], [ 125.562265263399993, -9.0151753502, 0.0 ], [ 125.562295586800005, -9.015086326800001, 0.0 ], [ 125.562343441500005, -9.015045003199999, 0.0 ], [ 125.562360322900005, -9.015000479399999, 0.0 ], [ 125.5623599133, -9.0149424129, 0.0 ], [ 125.5623388944, -9.0148879059, 0.0 ], [ 125.562293755799999, -9.0148267355, 0.0 ], [ 125.562221250799993, -9.0147862507, 0.0 ], [ 125.5621350869, -9.014759524600001, 0.0 ], [ 125.562072850700005, -9.0147121366, 0.0 ], [ 125.561910911699997, -9.0146688594, 0.0 ], [ 125.561817893799997, -9.014645596899999, 0.0 ], [ 125.561711193500003, -9.014632677, 0.0 ], [ 125.561673438400007, -9.014643187700001, 0.0 ], [ 125.561659779600006, -9.014656946100001, 0.0 ], [ 125.561597976399995, -9.0146710403, 0.0 ], [ 125.561484205200003, -9.014630842900001, 0.0 ], [ 125.561387508300001, -9.0145734476, 0.0 ], [ 125.561277344600001, -9.014557135800001, 0.0 ], [ 125.561235765299998, -9.014513019600001, 0.0 ], [ 125.561187356700003, -9.0144757826, 0.0 ], [ 125.561097681899994, -9.0144388331, 0.0 ], [ 125.561039221100003, -9.0144392404, 0.0 ], [ 125.560932520899996, -9.0144263205, 0.0 ], [ 125.560802708599994, -9.0143840286, 0.0 ], [ 125.560750885299996, -9.014350231, 0.0 ], [ 125.560729818499993, -9.0142888926, 0.0 ], [ 125.560677947100004, -9.014248263700001, 0.0 ], [ 125.560602244199998, -9.0142419594, 0.0 ], [ 125.560516224899999, -9.014235727, 0.0 ], [ 125.560430181599997, -9.0142260787, 0.0 ], [ 125.560295945799993, -9.0142099345, 0.0 ], [ 125.560202976699998, -9.0141935026, 0.0 ], [ 125.560089013199999, -9.014125979499999, 0.0 ], [ 125.559967642700002, -9.013983359, 0.0 ], [ 125.559887563, -9.0138438668, 0.0 ], [ 125.559876572199997, -9.0137482995, 0.0 ], [ 125.559851850800001, -9.0136562438, 0.0 ], [ 125.559823978899999, -9.0136052, 0.0 ], [ 125.559737237799993, -9.0134964968, 0.0 ], [ 125.559750559899996, -9.0134349189, 0.0 ], [ 125.5598084911, -9.0133593668, 0.0 ], [ 125.559931110099996, -9.0131911364, 0.0 ], [ 125.559992641400001, -9.013031701, 0.0 ], [ 125.560101312, -9.0128362409, 0.0 ], [ 125.5601004456, -9.0127132764, 0.0 ], [ 125.560096116400004, -9.0125869199, 0.0 ], [ 125.560023034500006, -9.0124644582, 0.0 ], [ 125.559953801099994, -9.012400039099999, 0.0 ], [ 125.559694082700005, -9.012239193799999, 0.0 ], [ 125.559600512100005, -9.0121373698, 0.0 ], [ 125.559555422399995, -9.012083030099999, 0.0 ], [ 125.559506918, -9.0120321298, 0.0 ], [ 125.559454950800003, -9.011977838, 0.0 ], [ 125.559330888399998, -9.0119411272, 0.0 ], [ 125.559292940899994, -9.0119243122, 0.0 ], [ 125.559165319499996, -9.011870546899999, 0.0 ], [ 125.559123500300004, -9.011792273299999, 0.0 ], [ 125.559081633, -9.011707168299999, 0.0 ], [ 125.559028727300003, -9.0115196646, 0.0 ], [ 125.558948288, -9.0113289366, 0.0 ], [ 125.558798043899998, -9.0110551582, 0.0 ], [ 125.558776881599996, -9.010980156700001, 0.0 ], [ 125.558782990200001, -9.010870807, 0.0 ], [ 125.558768729500002, -9.010799173400001, 0.0 ], [ 125.5587164019, -9.010693646, 0.0 ], [ 125.558650631299997, -9.010632618400001, 0.0 ], [ 125.558591835, -9.0105852055, 0.0 ], [ 125.558560235399995, -9.0105196794, 0.0 ], [ 125.558539073700004, -9.010444677900001, 0.0 ], [ 125.558538063900002, -9.010301219, 0.0 ], [ 125.558506345, -9.0101921324, 0.0 ], [ 125.558502305100006, -9.0101067641, 0.0 ], [ 125.558536044199997, -9.0100143014, 0.0 ], [ 125.558500598099997, -9.0098642504, 0.0 ], [ 125.5584411528, -9.009724614, 0.0 ], [ 125.558266573200001, -9.0094023862, 0.0 ], [ 125.5581766114, -9.009324447199999, 0.0 ], [ 125.558096845700007, -9.009229358300001, 0.0 ], [ 125.558044783100001, -9.0091614032, 0.0 ], [ 125.558044206199995, -9.0090794268, 0.0 ], [ 125.558039685799997, -9.008925744600001, 0.0 ], [ 125.558107452, -9.0087818073, 0.0 ], [ 125.558251208800002, -9.008685163799999, 0.0 ], [ 125.558337106699994, -9.008674318700001, 0.0 ], [ 125.558468045400005, -9.0087109823, 0.0 ], [ 125.558623392599998, -9.008795298100001, 0.0 ], [ 125.558785665399995, -9.0088863972, 0.0 ], [ 125.558862232699994, -9.0090156669, 0.0 ], [ 125.558996922899993, -9.0090967102, 0.0 ], [ 125.559058869699996, -9.0091031108, 0.0 ], [ 125.559113842299993, -9.0090958967, 0.0 ], [ 125.5591891113, -9.0090407194, 0.0 ], [ 125.559315312799995, -9.008892959700001, 0.0 ], [ 125.559358622299996, -9.0086945389, 0.0 ], [ 125.559409257400006, -9.008494651099999, 0.0 ], [ 125.559414451600006, -9.008255505399999, 0.0 ], [ 125.559406371799994, -9.008084769, 0.0 ], [ 125.559371094100001, -9.007958627800001, 0.0 ], [ 125.559356521500007, -9.007842590399999, 0.0 ], [ 125.559400456299997, -9.0077329773, 0.0 ], [ 125.559485073600001, -9.0074915106, 0.0 ], [ 125.559524704, -9.007258957, 0.0 ], [ 125.559548006200004, -9.0071494874, 0.0 ], [ 125.559564262099997, -9.007016156, 0.0 ], [ 125.559614617899996, -9.006841597399999, 0.0 ], [ 125.559581769100006, -9.006584652600001, 0.0 ], [ 125.559504842099997, -9.0064041479, 0.0 ], [ 125.559386577400005, -9.0062136828, 0.0 ], [ 125.559323982, -9.006115058600001, 0.0 ], [ 125.559137471200003, -9.0060002169, 0.0 ], [ 125.559092358599997, -9.0059424611, 0.0 ], [ 125.559002637500001, -9.0058986792, 0.0 ], [ 125.558858137300007, -9.0058894366, 0.0 ], [ 125.558751679300002, -9.005910672200001, 0.0 ], [ 125.558566346399999, -9.0059631987, 0.0 ], [ 125.558463375100004, -9.0059912416, 0.0 ], [ 125.558316012800006, -9.0060639994, 0.0 ], [ 125.558087008300006, -9.006263711400001, 0.0 ], [ 125.557967395899993, -9.006370434400001, 0.0 ], [ 125.557854588799998, -9.0064668627, 0.0 ], [ 125.557786918800005, -9.0066244625, 0.0 ], [ 125.557738967600002, -9.0066521228, 0.0 ], [ 125.557646240799997, -9.006669846899999, 0.0 ], [ 125.557432691800003, -9.006781055499999, 0.0 ], [ 125.557345760100006, -9.006852073799999, 0.0 ], [ 125.557306119499998, -9.0069274575, 0.0 ], [ 125.557205357200004, -9.0070478617, 0.0 ], [ 125.557140153700004, -9.0071844485, 0.0 ], [ 125.557098117300001, -9.007255154699999, 0.0 ], [ 125.557000064199997, -9.0074248295, 0.0 ], [ 125.556901970300004, -9.007692566099999, 0.0 ], [ 125.556842525899995, -9.007772450299999, 0.0 ], [ 125.556772825, -9.0078159815, 0.0 ], [ 125.556699487200007, -9.0078164913, 0.0 ], [ 125.556635172300005, -9.007677864, 0.0 ], [ 125.556634427199995, -9.007571908199999, 0.0 ], [ 125.556633589, -9.007452707600001, 0.0 ], [ 125.556595919200007, -9.007310584100001, 0.0 ], [ 125.556515239700005, -9.007215117599999, 0.0 ], [ 125.55647067, -9.007039929099999, 0.0 ], [ 125.556399735300005, -9.0069079705, 0.0 ], [ 125.556340320700002, -9.006535752, 0.0 ], [ 125.556366359899997, -9.0064461663, 0.0 ], [ 125.556418858399994, -9.006326595299999, 0.0 ], [ 125.556491310699997, -9.0062002628, 0.0 ], [ 125.556489727799999, -9.005975106299999, 0.0 ], [ 125.556384366900005, -9.0057089382, 0.0 ], [ 125.556369822700006, -9.005536852200001, 0.0 ], [ 125.556238535899993, -9.0053556436, 0.0 ], [ 125.556177345899997, -9.005187193099999, 0.0 ], [ 125.556065711800002, -9.004956178300001, 0.0 ], [ 125.555948387399994, -9.004864277199999, 0.0 ], [ 125.555867132900005, -9.0047401915, 0.0 ], [ 125.555736567899999, -9.004661627600001, 0.0 ], [ 125.555612553800003, -9.0045664613, 0.0 ], [ 125.555525115099996, -9.004457796300001, 0.0 ], [ 125.5554680037, -9.004395278300001, 0.0 ], [ 125.555437281400003, -9.0042928416, 0.0 ], [ 125.555393271300005, -9.004197119900001, 0.0 ], [ 125.555329050899999, -9.0040717367, 0.0 ], [ 125.555275063300002, -9.0039793955, 0.0 ], [ 125.555177810800004, -9.003897288399999, 0.0 ], [ 125.555053913400002, -9.0038186778, 0.0 ], [ 125.554900526599994, -9.0038131203, 0.0 ], [ 125.554632249899996, -9.0037308513, 0.0 ], [ 125.554538563, -9.0036818323, 0.0 ], [ 125.554524461900002, -9.003572657499999, 0.0 ], [ 125.554520198199995, -9.003440235399999, 0.0 ], [ 125.554582860099998, -9.003343772799999, 0.0 ], [ 125.554691974899995, -9.0032531631, 0.0 ], [ 125.554790863099996, -9.0030935347, 0.0 ], [ 125.554832896099995, -9.0029078104, 0.0 ], [ 125.554854346900001, -9.0026394468, 0.0 ], [ 125.554826899800005, -9.0024958892, 0.0 ], [ 125.554687916700004, -9.002404009, 0.0 ], [ 125.554593902199997, -9.002326672100001, 0.0 ], [ 125.554473978299995, -9.002286652700001, 0.0 ], [ 125.554361609400004, -9.0022577223, 0.0 ], [ 125.554290730899993, -9.002280496899999, 0.0 ], [ 125.554212636100004, -9.002340459299999, 0.0 ], [ 125.554112473900005, -9.002452568400001, 0.0 ], [ 125.554086538299998, -9.002486172499999, 0.0 ], [ 125.554068001299996, -9.002508583799999, 0.0 ], [ 125.554027188399999, -9.002553432399999, 0.0 ], [ 125.553960465900005, -9.0026355988, 0.0 ], [ 125.553930921599999, -9.002687797, 0.0 ], [ 125.553774236400002, -9.002737163500001, 0.0 ], [ 125.553744274899998, -9.0027299439, 0.0 ], [ 125.553642991499999, -9.0026823673, 0.0 ], [ 125.553582521199999, -9.0025899419, 0.0 ], [ 125.553558993899998, -9.002434125800001, 0.0 ], [ 125.553497364699993, -9.002239936400001, 0.0 ], [ 125.553387979, -9.0021032849, 0.0 ], [ 125.553349966699997, -9.0020144175, 0.0 ], [ 125.553286070300004, -9.0019665815, 0.0 ], [ 125.553173753699994, -9.0019450779, 0.0 ], [ 125.553117387499995, -9.001904617099999, 0.0 ], [ 125.553057073199994, -9.001834473500001, 0.0 ], [ 125.5530003155, -9.0017383082, 0.0 ], [ 125.552939611, -9.001612460400001, 0.0 ], [ 125.552927665400006, -9.001508557, 0.0 ], [ 125.552933829, -9.0013840627, 0.0 ], [ 125.552950111599998, -9.0013000425, 0.0 ], [ 125.552949353100004, -9.0011919343, 0.0 ], [ 125.552925554200002, -9.0011541138, 0.0 ], [ 125.552884085599999, -9.0011134935, 0.0 ], [ 125.552839777900004, -9.001087503100001, 0.0 ], [ 125.552830604799993, -9.001037892799999, 0.0 ], [ 125.552830235800002, -9.0009852998, 0.0 ], [ 125.552850293600002, -9.0009091892, 0.0 ], [ 125.552861731700006, -9.000862358299999, 0.0 ], [ 125.552867102299999, -9.0007892716, 0.0 ], [ 125.552848653599995, -9.0006754424, 0.0 ], [ 125.5527451257, -9.0005943448, 0.0 ], [ 125.552600313400006, -9.0004989235, 0.0 ], [ 125.5522930546, -9.0003686186, 0.0 ], [ 125.552074232600006, -9.0002065048, 0.0 ], [ 125.551981120099995, -9.0001202266, 0.0 ], [ 125.5519174951, -8.9999863042, 0.0 ], [ 125.551877239299998, -8.999891545800001, 0.0 ], [ 125.551774231899998, -8.9997873905, 0.0 ], [ 125.551727631199995, -8.999728724700001, 0.0 ], [ 125.551674386200006, -8.999663550699999, 0.0 ], [ 125.551657224300001, -8.999568631900001, 0.0 ], [ 125.551656236200003, -8.999427721, 0.0 ], [ 125.5517144481, -8.9992601825, 0.0 ], [ 125.551809524099994, -8.9991743174, 0.0 ], [ 125.551875145599993, -8.9990969257, 0.0 ], [ 125.551920712699996, -8.9990081266, 0.0 ], [ 125.551913631900007, -8.998939355199999, 0.0 ], [ 125.551853513, -8.998834902900001, 0.0 ], [ 125.551853214299996, -8.9987923018, 0.0 ] ] } }
]
}
