{
"type": "FeatureCollection",
"name": "genangan_areasungai",
"crs": { "type": "name", "properties": { "name": "urn:ogc:def:crs:OGC:1.3:CRS84" } },
"features": [
{ "type": "Feature", "properties": { "Name": null, "description": "Sungai<BR><BR><B>ELEVATION</B> = 0", "timestamp": null, "begin": null, "end": null, "altitudeMode": "relativeToGround", "tessellate": -1, "extrude": 1, "visibility": -1, "drawOrder": null, "icon": null }, "geometry": { "type": "Polygon", "coordinates": [ [ [ 125.557232012699998, -9.0478420566, 0.0 ], [ 125.557228418899996, -9.047854874, 0.0 ], [ 125.557246000299997, -9.0479039625, 0.0 ], [ 125.557289553399997, -9.0479699865, 0.0 ], [ 125.557331572500004, -9.0481237455, 0.0 ], [ 125.557362880599996, -9.0482861377, 0.0 ], [ 125.557498684, -9.0485565856, 0.0 ], [ 125.557555329, -9.048646053900001, 0.0 ], [ 125.557606056200001, -9.048812589800001, 0.0 ], [ 125.557747653500002, -9.0490341209, 0.0 ], [ 125.557852281899997, -9.049206699200001, 0.0 ], [ 125.557846212, -9.0489662939, 0.0 ], [ 125.557842818099999, -9.048790869, 0.0 ], [ 125.557822552900006, -9.0486669128, 0.0 ], [ 125.557715214400005, -9.0483591791, 0.0 ], [ 125.557640852, -9.048257640399999, 0.0 ], [ 125.557538535500001, -9.048078052099999, 0.0 ], [ 125.557438292200004, -9.0479494784, 0.0 ], [ 125.557232012699998, -9.0478420566, 0.0 ] ] ] } },
{ "type": "Feature", "properties": { "Name": null, "description": "Sungai<BR><BR><B>ELEVATION</B> = 0", "timestamp": null, "begin": null, "end": null, "altitudeMode": "relativeToGround", "tessellate": -1, "extrude": 1, "visibility": -1, "drawOrder": null, "icon": null }, "geometry": { "type": "Polygon", "coordinates": [ [ [ 125.5578727141, -9.0488763237, 0.0 ], [ 125.557877639799997, -9.049234906900001, 0.0 ], [ 125.558035568, -9.049587671599999, 0.0 ], [ 125.558010884, -9.0494785964, 0.0 ], [ 125.558010128600003, -9.049371728700001, 0.0 ], [ 125.557983069800002, -9.0492650448, 0.0 ], [ 125.557960693400005, -9.049144078699999, 0.0 ], [ 125.557933601100004, -9.0490326451, 0.0 ], [ 125.5579089676, -9.048930694099999, 0.0 ], [ 125.5578727141, -9.0488763237, 0.0 ] ] ] } },
{ "type": "Feature", "properties": { "Name": null, "description": "Sungai<BR><BR><B>ELEVATION</B> = 0", "timestamp": null, "begin": null, "end": null, "altitudeMode": "relativeToGround", "tessellate": -1, "extrude": 1, "visibility": -1, "drawOrder": null, "icon": null }, "geometry": { "type": "Polygon", "coordinates": [ [ [ 125.557403129400001, -9.048479452400001, 0.0 ], [ 125.557472498, -9.048659801299999, 0.0 ], [ 125.5575368545, -9.048759325100001, 0.0 ], [ 125.557521387099996, -9.0486653407, 0.0 ], [ 125.557479255100006, -9.0485686024, 0.0 ], [ 125.557403129400001, -9.048479452400001, 0.0 ] ] ] } },
{ "type": "Feature", "properties": { "Name": null, "description": "Sungai<BR><BR><B>ELEVATION</B> = 0", "timestamp": null, "begin": null, "end": null, "altitudeMode": "relativeToGround", "tessellate": -1, "extrude": 1, "visibility": -1, "drawOrder": null, "icon": null }, "geometry": { "type": "Polygon", "coordinates": [ [ [ 125.553393502299997, -9.0376353186, 0.0 ], [ 125.553293197100004, -9.0376864579, 0.0 ], [ 125.553278833600004, -9.037707274600001, 0.0 ], [ 125.553266359899993, -9.0377388868, 0.0 ], [ 125.553274103700005, -9.037808189, 0.0 ], [ 125.553279088400004, -9.0378721059, 0.0 ], [ 125.553272125299998, -9.0379135877, 0.0 ], [ 125.553271390099994, -9.0379379126, 0.0 ], [ 125.553293386700005, -9.038083156100001, 0.0 ], [ 125.553287733299996, -9.0382986529, 0.0 ], [ 125.553300864, -9.0385172756, 0.0 ], [ 125.5533115474, -9.0387174974, 0.0 ], [ 125.553338391400004, -9.0389083979, 0.0 ], [ 125.5533549389, -9.0386251052, 0.0 ], [ 125.553377095800002, -9.038479908799999, 0.0 ], [ 125.553387955199995, -9.038376231699999, 0.0 ], [ 125.553405879300001, -9.038266528799999, 0.0 ], [ 125.553428441799994, -9.038178885800001, 0.0 ], [ 125.553448865099995, -9.038116582700001, 0.0 ], [ 125.553447794299998, -9.0379646413, 0.0 ], [ 125.553442233699997, -9.037833451499999, 0.0 ], [ 125.553425554, -9.037769104600001, 0.0 ], [ 125.553422895599994, -9.0377207758, 0.0 ], [ 125.553424483300006, -9.0376171633, 0.0 ], [ 125.553393502299997, -9.0376353186, 0.0 ] ] ] } },
{ "type": "Feature", "properties": { "Name": null, "description": "Sungai<BR><BR><B>ELEVATION</B> = 0", "timestamp": null, "begin": null, "end": null, "altitudeMode": "relativeToGround", "tessellate": -1, "extrude": 1, "visibility": -1, "drawOrder": null, "icon": null }, "geometry": { "type": "Polygon", "coordinates": [ [ [ 125.553397051100006, -9.039334545299999, 0.0 ], [ 125.553423361499995, -9.039487022699999, 0.0 ], [ 125.553477103199995, -9.0396256382, 0.0 ], [ 125.553511738799997, -9.0396572961, 0.0 ], [ 125.553596810100004, -9.0396840458, 0.0 ], [ 125.553612756, -9.039667985199999, 0.0 ], [ 125.553582644599999, -9.0396271816, 0.0 ], [ 125.553505769300003, -9.039461385099999, 0.0 ], [ 125.553440942600005, -9.0393775316, 0.0 ], [ 125.553397051100006, -9.039334545299999, 0.0 ] ] ] } }
]
}
