{
"type": "FeatureCollection",
"name": "genangan_titikbor",
"crs": { "type": "name", "properties": { "name": "urn:ogc:def:crs:OGC:1.3:CRS84" } },
"features": [
{ "type": "Feature", "properties": { "Name": "DBH-1", "description": null, "timestamp": null, "begin": null, "end": null, "altitudeMode": null, "tessellate": -1, "extrude": 0, "visibility": -1, "drawOrder": null, "icon": null }, "geometry": { "type": "Point", "coordinates": [ 125.553458863274003, -9.0437251950327, 0.0 ] } },
{ "type": "Feature", "properties": { "Name": "DHB-2", "description": null, "timestamp": null, "begin": null, "end": null, "altitudeMode": null, "tessellate": -1, "extrude": 0, "visibility": -1, "drawOrder": null, "icon": null }, "geometry": { "type": "Point", "coordinates": [ 125.554138470224004, -9.04346792545115, 0.0 ] } },
{ "type": "Feature", "properties": { "Name": "DBH-3", "description": null, "timestamp": null, "begin": null, "end": null, "altitudeMode": null, "tessellate": -1, "extrude": 0, "visibility": -1, "drawOrder": null, "icon": null }, "geometry": { "type": "Point", "coordinates": [ 125.554818076813007, -9.04321065486525, 0.0 ] } },
{ "type": "Feature", "properties": { "Name": "DBH-4", "description": null, "timestamp": null, "begin": null, "end": null, "altitudeMode": null, "tessellate": -1, "extrude": 0, "visibility": -1, "drawOrder": null, "icon": null }, "geometry": { "type": "Point", "coordinates": [ 125.553292953779007, -9.04200242644116, 0.0 ] } },
{ "type": "Feature", "properties": { "Name": "DBH-5", "description": null, "timestamp": null, "begin": null, "end": null, "altitudeMode": null, "tessellate": -1, "extrude": 0, "visibility": -1, "drawOrder": null, "icon": null }, "geometry": { "type": "Point", "coordinates": [ 125.554768414673006, -9.04505299423576, 0.0 ] } }
]
}
