{
"type": "FeatureCollection",
"name": "irrigation_point",
"crs": { "type": "name", "properties": { "name": "urn:ogc:def:crs:OGC:1.3:CRS84" } },
"features": [
{ "type": "Feature", "properties": { "Name": "Kakeulaku", "descriptio": null, "timestamp": null, "begin": null, "end": null, "altitudeMo": null, "tessellate": -1, "extrude": 0, "visibility": -1, "drawOrder": null, "icon": null, "LAYER": "Unknown Point Feature", "KML_STYLE": "msn_purple-pushpin", "POINT_SYMB": "Kakeulaku_kmz_GMD7407_tmp_png_hs20x2@SCALE=1.1", "FONT_SIZE": 10, "FONT_COLOR": "RGB(0,0,0)", "FONT_CHARS": 1, "FONT_WEIGH": 400 }, "geometry": { "type": "Point", "coordinates": [ 125.535529339096996, -9.17989472576612 ] } },
{ "type": "Feature", "properties": { "Name": "Lias", "descriptio": null, "timestamp": null, "begin": null, "end": null, "altitudeMo": null, "tessellate": -1, "extrude": 0, "visibility": -1, "drawOrder": null, "icon": null, "LAYER": "Unknown Point Feature", "KML_STYLE": "msn_purple-pushpin", "POINT_SYMB": "Lias_kmz_GMD74D4_tmp_png_hs20x2@SCALE=1.1", "FONT_SIZE": 10, "FONT_COLOR": "RGB(0,0,0)", "FONT_CHARS": 1, "FONT_WEIGH": 400 }, "geometry": { "type": "Point", "coordinates": [ 125.534337532717004, -9.10788168347058 ] } },
{ "type": "Feature", "properties": { "Name": "Luan Kadoe", "descriptio": null, "timestamp": null, "begin": null, "end": null, "altitudeMo": null, "tessellate": -1, "extrude": 0, "visibility": -1, "drawOrder": null, "icon": null, "LAYER": "Unknown Point Feature", "KML_STYLE": "msn_purple-pushpin", "POINT_SYMB": "Luan Kadoe_kmz_GMD7553_tmp_png_hs20x2@SCALE=1.1", "FONT_SIZE": 10, "FONT_COLOR": "RGB(0,0,0)", "FONT_CHARS": 1, "FONT_WEIGH": 400 }, "geometry": { "type": "Point", "coordinates": [ 125.545433786063001, -9.157103104442189 ] } },
{ "type": "Feature", "properties": { "Name": "Paulata", "descriptio": null, "timestamp": null, "begin": null, "end": null, "altitudeMo": null, "tessellate": -1, "extrude": 0, "visibility": -1, "drawOrder": null, "icon": null, "LAYER": "Unknown Point Feature", "KML_STYLE": "msn_purple-pushpin", "POINT_SYMB": "Paulata_kmz_GMD7641_tmp_png_hs20x2@SCALE=1.1", "FONT_SIZE": 10, "FONT_COLOR": "RGB(0,0,0)", "FONT_CHARS": 1, "FONT_WEIGH": 400 }, "geometry": { "type": "Point", "coordinates": [ 125.532878234066999, -9.065844563934069 ] } },
{ "type": "Feature", "properties": { "Name": "Akadiru Kede", "descriptio": null, "timestamp": null, "begin": null, "end": null, "altitudeMo": null, "tessellate": -1, "extrude": 0, "visibility": -1, "drawOrder": null, "icon": null, "LAYER": "Unknown Point Feature", "KML_STYLE": "msn_purple-pushpin", "POINT_SYMB": "Akadiru Kede_kmz_GMD777E_tmp_png_hs20x2@SCALE=1.1", "FONT_SIZE": 10, "FONT_COLOR": "RGB(0,0,0)", "FONT_CHARS": 1, "FONT_WEIGH": 400 }, "geometry": { "type": "Point", "coordinates": [ 125.532337969506997, -9.16931293392353 ] } },
{ "type": "Feature", "properties": { "Name": "Buiha", "descriptio": null, "timestamp": null, "begin": null, "end": null, "altitudeMo": null, "tessellate": -1, "extrude": 0, "visibility": -1, "drawOrder": null, "icon": null, "LAYER": "Unknown Point Feature", "KML_STYLE": "msn_purple-pushpin", "POINT_SYMB": "Buiha_kmz_GMD77FD_tmp_png_hs20x2@SCALE=1.1", "FONT_SIZE": 10, "FONT_COLOR": "RGB(0,0,0)", "FONT_CHARS": 1, "FONT_WEIGH": 400 }, "geometry": { "type": "Point", "coordinates": [ 125.561230772412998, -9.101496019441999 ] } }
]
}
