{
"type": "FeatureCollection",
"name": "oe_downstream",
"crs": { "type": "name", "properties": { "name": "urn:ogc:def:crs:EPSG::32751" } },
"features": [
{ "type": "Feature", "properties": { "LAYER": "Unknown Area Type", "id": null, "DETAIL": "DOWNSTREAM FLOW" }, "geometry": { "type": "MultiPolygon", "coordinates": [ [ [ [ 777763.755170196061954, 8982969.417569998651743 ], [ 777832.424229060066864, 8983061.872335268184543 ], [ 777831.151318213203922, 8983062.708015728741884 ], [ 777915.544232608168386, 8983008.201727401465178 ], [ 777871.422181335394271, 8982930.699908120557666 ], [ 777869.495296569308266, 8982927.432648496702313 ], [ 777865.492397322785109, 8982919.475291013717651 ], [ 777868.783260051626712, 8982890.580566527321935 ], [ 777867.95116141368635, 8982868.749077614396811 ], [ 777861.422937121475115, 8982860.18617550842464 ], [ 777855.255684291943908, 8982843.641691910102963 ], [ 777722.24420667195227, 8982917.021018536761403 ], [ 777749.609511012444273, 8982951.368848642334342 ], [ 777754.740301515790634, 8982958.374554803594947 ], [ 777754.813683429616503, 8982958.309416729956865 ], [ 777763.417595967417583, 8982969.733428187668324 ], [ 777763.755170196061954, 8982969.417569998651743 ] ] ] ] } }
]
}
