{
"type": "FeatureCollection",
"name": "oe_embankment",
"crs": { "type": "name", "properties": { "name": "urn:ogc:def:crs:EPSG::32751" } },
"features": [
{ "type": "Feature", "properties": { "LAYER": "Unknown Area Type", "id": null, "DETAIL": "Embankment" }, "geometry": { "type": "MultiPolygon", "coordinates": [ [ [ [ 777850.646512306644581, 8983091.994133714586496 ], [ 777848.592104100622237, 8983093.305482720956206 ], [ 777846.749729133094661, 8983090.425285210832953 ], [ 777846.711599023430608, 8983090.451761247590184 ], [ 777838.522770244744606, 8983095.333289897069335 ], [ 777838.534985503414646, 8983097.065282979980111 ], [ 777839.978892945451662, 8983099.303117237985134 ], [ 777842.839113492053002, 8983103.825095642358065 ], [ 777845.652317148633301, 8983101.908724494278431 ], [ 777850.248812597244978, 8983098.169961860403419 ], [ 777849.751792054157704, 8983097.425987932831049 ], [ 777852.069199135992676, 8983095.996140532195568 ], [ 777852.228527580737136, 8983096.247009111568332 ], [ 777852.576259119203314, 8983095.892081961035728 ], [ 777852.77006214170251, 8983095.439128482714295 ], [ 777852.745844161952846, 8983095.108870094642043 ], [ 777852.291462551569566, 8983094.469800056889653 ], [ 777851.700079361209646, 8983094.867941817268729 ], [ 777850.260184052749537, 8983092.697264786809683 ], [ 777850.847749545355327, 8983092.312368573620915 ], [ 777850.646512306644581, 8983091.994133714586496 ] ] ] ] } },
{ "type": "Feature", "properties": { "LAYER": "Unknown Area Type", "id": null, "DETAIL": "Embankment" }, "geometry": { "type": "MultiPolygon", "coordinates": [ [ [ [ 777946.394963192287832, 8983037.068150596693158 ], [ 777941.645190690178424, 8983040.126200277358294 ], [ 777941.637859195936471, 8983040.13119457475841 ], [ 777942.209086345392279, 8983040.986909057945013 ], [ 777939.763907192740589, 8983042.70728961378336 ], [ 777939.257122254814021, 8983041.93530784919858 ], [ 777939.138874124269933, 8983041.908983867615461 ], [ 777938.833467606338672, 8983042.05549631267786 ], [ 777938.548314552288502, 8983042.300291489809752 ], [ 777938.465132721001282, 8983042.523976502940059 ], [ 777938.382599013624713, 8983042.839520871639252 ], [ 777938.594469433417544, 8983043.297345636412501 ], [ 777940.235178253264166, 8983045.636319449171424 ], [ 777940.534358439734206, 8983046.147480018436909 ], [ 777949.907544128829613, 8983060.00712956301868 ], [ 777953.350175490952097, 8983057.695280617102981 ], [ 777959.016778653254732, 8983053.889955805614591 ], [ 777959.542000977089629, 8983053.075488593429327 ], [ 777959.536930514965206, 8983052.356895122677088 ], [ 777958.885476496070623, 8983050.850527785718441 ], [ 777950.06522309826687, 8983037.273985816165805 ], [ 777947.592791928676888, 8983038.86649271287024 ], [ 777946.394963192287832, 8983037.068150596693158 ] ], [ [ 777951.074073182186112, 8983048.885900242254138 ], [ 777946.870306325494312, 8983051.890203066170216 ], [ 777942.637978938175365, 8983045.918288361281157 ], [ 777947.188967741793022, 8983042.841544378548861 ], [ 777951.074073182186112, 8983048.885900242254138 ] ] ] ] } },
{ "type": "Feature", "properties": { "LAYER": "Unknown Area Type", "id": null, "DETAIL": "Embankment" }, "geometry": { "type": "MultiPolygon", "coordinates": [ [ [ [ 777935.636225774534978, 8983036.781297393143177 ], [ 777937.07733515650034, 8983038.964198490604758 ], [ 777936.229385604499839, 8983039.520296158269048 ], [ 777936.874361191410571, 8983040.691360101103783 ], [ 777937.208577800076455, 8983040.931785238906741 ], [ 777937.606972738401964, 8983041.027399955317378 ], [ 777938.16035858890973, 8983040.911946415901184 ], [ 777938.471532372408547, 8983040.738624563440681 ], [ 777937.713422872126102, 8983039.583801943808794 ], [ 777940.170686202240176, 8983037.933327786624432 ], [ 777940.665552654187195, 8983038.674651777371764 ], [ 777940.66117377509363, 8983038.657487703487277 ], [ 777945.374670827412046, 8983035.668040422722697 ], [ 777944.270669180434197, 8983033.759509699419141 ], [ 777946.781226024962962, 8983032.253868447616696 ], [ 777947.881224403972737, 8983034.07830573245883 ], [ 777950.72360008652322, 8983032.27558215893805 ], [ 777951.420959474286065, 8983031.72239426523447 ], [ 777951.811704480671324, 8983031.247194042429328 ], [ 777952.239888714859262, 8983030.328449685126543 ], [ 777952.330555376945995, 8983030.036178383976221 ], [ 777952.577398900408298, 8983028.879575695842505 ], [ 777952.630413185223006, 8983028.179285898804665 ], [ 777952.312283242354169, 8983027.44661914370954 ], [ 777951.453662902349606, 8983025.233788307756186 ], [ 777951.39143048087135, 8983025.073403310030699 ], [ 777948.137654880061746, 8983020.616901580244303 ], [ 777945.750615054625086, 8983022.587015116587281 ], [ 777948.409327095374465, 8983027.031230963766575 ], [ 777944.953482901211828, 8983029.071637200191617 ], [ 777946.420105600263923, 8983028.205710979178548 ], [ 777943.959134912816808, 8983024.065590899437666 ], [ 777942.0825875911396, 8983025.614375816658139 ], [ 777934.277811125619337, 8983030.091777415946126 ], [ 777935.315819597104564, 8983031.890239646658301 ], [ 777932.77124932850711, 8983033.627102434635162 ], [ 777934.557070574141107, 8983036.293820727616549 ], [ 777935.114499644609168, 8983037.126214396208525 ], [ 777935.636225774534978, 8983036.781297393143177 ] ] ] ] } }
]
}
