{
"type": "FeatureCollection",
"name": "oe_flushingpier",
"crs": { "type": "name", "properties": { "name": "urn:ogc:def:crs:EPSG::32751" } },
"features": [
{ "type": "Feature", "properties": { "LAYER": "Unknown Area Type", "id": null, "DETAIL": "FLUSHING GATE PIER" }, "geometry": { "type": "MultiPolygon", "coordinates": [ [ [ [ 777854.304642730858177, 8983094.324556296691298 ], [ 777854.645723690045998, 8983094.322150606662035 ], [ 777854.86585347307846, 8983094.23982641659677 ], [ 777855.084986337460577, 8983094.016158986836672 ], [ 777855.062216838588938, 8983093.632654562592506 ], [ 777854.584860085276887, 8983092.925797203555703 ], [ 777853.765728103346191, 8983093.47726815380156 ], [ 777854.304642730858177, 8983094.324556296691298 ] ] ], [ [ [ 777851.696342681301758, 8983088.648556400090456 ], [ 777851.49442511505913, 8983088.468244487419724 ], [ 777851.213534959242679, 8983088.470225634053349 ], [ 777850.954132539918646, 8983088.673984175547957 ], [ 777850.916284017963335, 8983088.997337449342012 ], [ 777852.384502592729405, 8983091.305688578635454 ], [ 777853.15147041506134, 8983090.803271379321814 ], [ 777851.696342681301758, 8983088.648556400090456 ] ] ] ] } },
{ "type": "Feature", "properties": { "LAYER": "Unknown Area Type", "id": null, "DETAIL": "FLUSHING GATE PIER" }, "geometry": { "type": "MultiPolygon", "coordinates": [ [ [ [ 777740.866330252029002, 8982997.31063768081367 ], [ 777740.946015828289092, 8982997.515675762668252 ], [ 777741.142592729767784, 8982997.654272649437189 ], [ 777741.325205027591437, 8982997.661733992397785 ], [ 777741.546164246508852, 8982997.559563282877207 ], [ 777741.686992260161787, 8982997.398893099278212 ], [ 777740.890975726069883, 8982997.172970382496715 ], [ 777740.866330252029002, 8982997.31063768081367 ] ] ], [ [ [ 777742.391675484832376, 8982994.79768748767674 ], [ 777742.595678313751705, 8982994.140079034492373 ], [ 777742.595061456551775, 8982994.052594045177102 ], [ 777742.472065658541396, 8982993.869733680039644 ], [ 777742.358287076698616, 8982993.761174261569977 ], [ 777742.214546038769186, 8982993.718443110585213 ], [ 777742.058166629169136, 8982993.732669143006206 ], [ 777741.945560075342655, 8982993.790331199765205 ], [ 777741.785543607547879, 8982993.905195612460375 ], [ 777741.60393879271578, 8982994.568406222388148 ], [ 777742.391583032440394, 8982994.798030707985163 ], [ 777742.391675484832376, 8982994.79768748767674 ] ] ] ] } },
{ "type": "Feature", "properties": { "LAYER": "Unknown Area Type", "id": null, "DETAIL": "FLUSHING GATE PIER" }, "geometry": { "type": "MultiPolygon", "coordinates": [ [ [ [ 777934.451809960999526, 8983041.409097293391824 ], [ 777934.719791568000801, 8983041.605515968054533 ], [ 777934.962781473994255, 8983041.545475238934159 ], [ 777935.216456617694348, 8983041.357041250914335 ], [ 777935.342388877877966, 8983041.134512778371572 ], [ 777935.224096719175577, 8983040.797054840251803 ], [ 777934.882890003500506, 8983040.40334777161479 ], [ 777934.882889918168075, 8983040.40334764122963 ], [ 777934.103658104548231, 8983040.914379214867949 ], [ 777934.451809960999526, 8983041.409097293391824 ] ] ], [ [ [ 777932.014462585095316, 8983036.025278497487307 ], [ 777931.724452148191631, 8983035.992328887805343 ], [ 777931.539168084505945, 8983036.016966680064797 ], [ 777931.331937440438196, 8983036.216738220304251 ], [ 777931.27563073579222, 8983036.450440695509315 ], [ 777931.381591609446332, 8983036.682998294010758 ], [ 777932.695408996311016, 8983038.725493114441633 ], [ 777933.454705999931321, 8983038.223516250029206 ], [ 777932.014462585095316, 8983036.025278497487307 ] ] ] ] } },
{ "type": "Feature", "properties": { "LAYER": "Unknown Area Type", "id": null, "DETAIL": "FLUSHING GATE PIER" }, "geometry": { "type": "MultiPolygon", "coordinates": [ [ [ [ 777909.20258205384016, 8982934.291644306853414 ], [ 777909.4025183476042, 8982934.290233625099063 ], [ 777909.549741807277314, 8982934.210454367101192 ], [ 777909.635559553978965, 8982934.052367867901921 ], [ 777909.686544042197056, 8982933.885778196156025 ], [ 777909.641351286321878, 8982933.641126619651914 ], [ 777909.518539857119322, 8982933.484512139111757 ], [ 777909.300662267603911, 8982933.407308910042048 ], [ 777909.286325816181488, 8982933.406132876873016 ], [ 777909.18146275007166, 8982934.289560738950968 ], [ 777909.20258205384016, 8982934.291644306853414 ] ] ], [ [ [ 777905.968942878302187, 8982933.098356375470757 ], [ 777905.743174851872027, 8982933.134945074096322 ], [ 777905.587814041180536, 8982933.293522227555513 ], [ 777905.528198383981362, 8982933.468921732157469 ], [ 777905.564389601466246, 8982933.669892096891999 ], [ 777905.739666931331158, 8982933.869881130754948 ], [ 777906.111736662918702, 8982933.980979111045599 ], [ 777906.221733407350257, 8982933.150459678843617 ], [ 777905.968942878302187, 8982933.098356375470757 ] ] ] ] } },
{ "type": "Feature", "properties": { "LAYER": "Unknown Area Type", "id": null, "DETAIL": "FLUSHING GATE PIER" }, "geometry": { "type": "MultiPolygon", "coordinates": [ [ [ [ 777929.810545125626959, 8983037.44065941683948 ], [ 777929.555553207988851, 8983037.442458499222994 ], [ 777929.278450097539462, 8983037.596061961725354 ], [ 777929.153258519130759, 8983037.923572525382042 ], [ 777929.396882019005716, 8983038.401327610015869 ], [ 777930.648910935036838, 8983040.078448118641973 ], [ 777931.436450670356862, 8983039.557799775153399 ], [ 777930.066113140899688, 8983037.520513091236353 ], [ 777929.810545125626959, 8983037.44065941683948 ] ] ], [ [ [ 777933.852594458963722, 8983044.988727394491434 ], [ 777934.155114539898932, 8983045.562565198168159 ], [ 777934.517919179634191, 8983046.055778997018933 ], [ 777934.825685864081606, 8983046.141096999868751 ], [ 777935.033863016404212, 8983046.075469270348549 ], [ 777935.21852987841703, 8983045.963346373289824 ], [ 777935.316103052347898, 8983045.828507449477911 ], [ 777935.309155574417673, 8983045.66524281911552 ], [ 777935.202412808313966, 8983045.321870760992169 ], [ 777934.606663941871375, 8983044.464302960783243 ], [ 777932.88561522657983, 8983041.713189477100968 ], [ 777932.068420038325712, 8983042.24911798350513 ], [ 777933.763270120602101, 8983044.855207126587629 ], [ 777933.852594458963722, 8983044.988727394491434 ] ] ] ] } },
{ "type": "Feature", "properties": { "LAYER": "Unknown Area Type", "id": null, "DETAIL": "FLUSHING GATE PIER" }, "geometry": { "type": "MultiPolygon", "coordinates": [ [ [ [ 777858.471049960935488, 8983096.173109214752913 ], [ 777858.734867377905175, 8983096.595299273729324 ], [ 777859.054175761993974, 8983096.350732360035181 ], [ 777859.332502458477393, 8983095.985297121107578 ], [ 777859.26860881713219, 8983095.460732471197844 ], [ 777857.195683971745893, 8983092.201170390471816 ], [ 777856.77790153643582, 8983091.449357900768518 ], [ 777855.860412923269905, 8983092.067046293988824 ], [ 777855.914554578019306, 8983092.152561478316784 ], [ 777858.471049960935488, 8983096.173109214752913 ] ] ] ] } },
{ "type": "Feature", "properties": { "LAYER": "Unknown Area Type", "id": null, "DETAIL": "FLUSHING GATE PIER" }, "geometry": { "type": "MultiPolygon", "coordinates": [ [ [ [ 777853.591559387277812, 8983087.100529121235013 ], [ 777853.311096486868337, 8983087.163085957989097 ], [ 777853.071757666533813, 8983087.366703007370234 ], [ 777853.053972747176886, 8983087.689914777874947 ], [ 777854.500467079575174, 8983089.919584857299924 ], [ 777855.286445116042159, 8983089.404714645817876 ], [ 777854.032252957113087, 8983087.420476503670216 ], [ 777853.591559387277812, 8983087.100529121235013 ] ] ] ] } }
]
}
