{
"type": "FeatureCollection",
"name": "oe_flushinggate",
"crs": { "type": "name", "properties": { "name": "urn:ogc:def:crs:EPSG::32751" } },
"features": [
{ "type": "Feature", "properties": { "LAYER": "Unknown Area Type", "id": null, "DETAIL": "FLUSHING GATE" }, "geometry": { "type": "MultiPolygon", "coordinates": [ [ [ [ 777856.777901536668651, 8983091.449357900768518 ], [ 777855.893506811466068, 8983089.857862079516053 ], [ 777855.512542833574116, 8983089.239752376452088 ], [ 777855.286445116042159, 8983089.404714645817876 ], [ 777850.260184052749537, 8983092.697264786809683 ], [ 777851.700079361209646, 8983094.867941817268729 ], [ 777856.777901536668651, 8983091.449357900768518 ] ] ] ] } },
{ "type": "Feature", "properties": { "LAYER": "Unknown Area Type", "id": null, "DETAIL": "FLUSHING GATE" }, "geometry": { "type": "MultiPolygon", "coordinates": [ [ [ [ 777738.259156177518889, 8982996.420877646654844 ], [ 777738.887974925222807, 8982996.604485480114818 ], [ 777743.567582943011075, 8982997.932635977864265 ], [ 777743.567811552202329, 8982997.931719928979874 ], [ 777744.004450565902516, 8982998.05662626773119 ], [ 777744.503982210299, 8982998.198401646688581 ], [ 777745.31284220633097, 8982995.649674888700247 ], [ 777738.723284757696092, 8982993.728599790483713 ], [ 777737.953498142189346, 8982996.339265445247293 ], [ 777738.257726840442047, 8982996.425610603764653 ], [ 777738.259156177518889, 8982996.420877646654844 ] ] ] ] } },
{ "type": "Feature", "properties": { "LAYER": "Unknown Area Type", "id": null, "DETAIL": "FLUSHING GATE" }, "geometry": { "type": "MultiPolygon", "coordinates": [ [ [ [ 777937.07733515650034, 8983038.964198490604758 ], [ 777935.636225774534978, 8983036.781297393143177 ], [ 777930.648910935036838, 8983040.078448118641973 ], [ 777930.429491012124345, 8983040.269502695649862 ], [ 777930.633535553468391, 8983040.660145426169038 ], [ 777931.770823241327889, 8983042.444286298006773 ], [ 777937.07733515650034, 8983038.964198490604758 ] ] ] ] } },
{ "type": "Feature", "properties": { "LAYER": "Unknown Area Type", "id": null, "DETAIL": "FLUSHING GATE" }, "geometry": { "type": "MultiPolygon", "coordinates": [ [ [ [ 777905.825258654775098, 8982936.144002698361874 ], [ 777908.922393907676451, 8982936.472108343616128 ], [ 777909.546017073560506, 8982931.218341683968902 ], [ 777906.535070301732048, 8982930.78464075550437 ], [ 777905.825258654775098, 8982936.144002698361874 ] ] ] ] } }
]
}
