{
"type": "FeatureCollection",
"name": "oe_flushingcanal",
"crs": { "type": "name", "properties": { "name": "urn:ogc:def:crs:EPSG::32751" } },
"features": [
{ "type": "Feature", "properties": { "LAYER": "Unknown Area Type", "id": null, "DETAIL": "FLUSHING CANAL" }, "geometry": { "type": "MultiPolygon", "coordinates": [ [ [ [ 777754.006755864829756, 8982959.025692779570818 ], [ 777751.811146351508796, 8982955.999737085774541 ], [ 777739.617502374807373, 8982993.989294027909636 ], [ 777739.617527991067618, 8982993.989301426336169 ], [ 777741.605304754921235, 8982994.563417805358768 ], [ 777741.785543607547879, 8982993.905195612460375 ], [ 777741.945560075342655, 8982993.790331199765205 ], [ 777742.058166629169136, 8982993.732669143006206 ], [ 777742.214546038769186, 8982993.718443110585213 ], [ 777742.358287076698616, 8982993.761174261569977 ], [ 777742.472065658541396, 8982993.869733680039644 ], [ 777742.595061456551775, 8982994.052594045177102 ], [ 777742.595678313751705, 8982994.140079034492373 ], [ 777742.393710430478677, 8982994.791127787902951 ], [ 777744.456145747331902, 8982995.386807300150394 ], [ 777744.788809754420072, 8982993.249721800908446 ], [ 777744.932697679381818, 8982991.463924722746015 ], [ 777754.365101324510761, 8982960.624084331095219 ], [ 777754.36275620397646, 8982960.620932212099433 ], [ 777754.424246906186454, 8982960.425556568428874 ], [ 777754.417980347992852, 8982960.421056993305683 ], [ 777754.602748731849715, 8982959.847081100568175 ], [ 777754.004639883874916, 8982959.027571048587561 ], [ 777754.006755864829756, 8982959.025692779570818 ] ] ] ] } },
{ "type": "Feature", "properties": { "LAYER": "Unknown Area Type", "id": null, "DETAIL": "FLUSHING CANAL" }, "geometry": { "type": "MultiPolygon", "coordinates": [ [ [ [ 777909.432620743406005, 8982932.173658758401871 ], [ 777909.286325816181488, 8982933.406132876873016 ], [ 777909.300662267603911, 8982933.407308910042048 ], [ 777909.518539857119322, 8982933.484512139111757 ], [ 777909.641351286321878, 8982933.641126619651914 ], [ 777909.686544042197056, 8982933.885778196156025 ], [ 777909.635559553978965, 8982934.052367867901921 ], [ 777909.549741807277314, 8982934.210454367101192 ], [ 777909.4025183476042, 8982934.290233625099063 ], [ 777909.20258205384016, 8982934.291644306853414 ], [ 777909.18146275007166, 8982934.289560738950968 ], [ 777909.022132114390843, 8982935.631855295971036 ], [ 777909.638594707008451, 8982935.714645877480507 ], [ 777910.501283616526052, 8982935.880744514986873 ], [ 777911.345721623045392, 8982936.454294757917523 ], [ 777912.688007142976858, 8982937.903696810826659 ], [ 777914.695918249315582, 8982937.068591833114624 ], [ 777914.658333556726575, 8982936.13333648443222 ], [ 777914.635257199639454, 8982935.068456945940852 ], [ 777914.611849323380738, 8982933.956592582166195 ], [ 777914.324218531139195, 8982932.893579682335258 ], [ 777913.94040730886627, 8982932.536052856594324 ], [ 777913.392697572475299, 8982932.109201718121767 ], [ 777912.885992498369887, 8982931.979646615684032 ], [ 777912.094539351761341, 8982932.298478662967682 ], [ 777910.974736637203023, 8982932.400354005396366 ], [ 777910.031594506232068, 8982932.273537868633866 ], [ 777909.596394879044965, 8982932.197867998853326 ], [ 777909.432620743406005, 8982932.173658758401871 ] ] ], [ [ [ 777871.422181335394271, 8982930.699908120557666 ], [ 777871.821621748968028, 8982930.635847585275769 ], [ 777905.947772971703671, 8982935.218970585614443 ], [ 777906.425352134509012, 8982931.613056818023324 ], [ 777869.495296569308266, 8982927.432648496702313 ], [ 777871.422181335394271, 8982930.699908120557666 ] ], [ [ 777905.968942878302187, 8982933.098356375470757 ], [ 777906.221733407350257, 8982933.150459678843617 ], [ 777906.111736662918702, 8982933.980979111045599 ], [ 777905.739666931331158, 8982933.869881130754948 ], [ 777905.564389601466246, 8982933.669892096891999 ], [ 777905.528198383981362, 8982933.468921732157469 ], [ 777905.587814041180536, 8982933.293522227555513 ], [ 777905.743174851872027, 8982933.134945074096322 ], [ 777905.968942878302187, 8982933.098356375470757 ] ] ] ] } },
{ "type": "Feature", "properties": { "LAYER": "Unknown Area Type", "id": null, "DETAIL": "FLUSHING CANAL" }, "geometry": { "type": "MultiPolygon", "coordinates": [ [ [ [ 777743.567582939285785, 8982997.932635992765427 ], [ 777743.567582943243906, 8982997.932635977864265 ], [ 777743.567582943127491, 8982997.932635977864265 ], [ 777743.567582943011075, 8982997.932635977864265 ], [ 777743.567580734030344, 8982997.93263535015285 ], [ 777741.686834366410039, 8982997.399073239415884 ], [ 777741.546164246508852, 8982997.559563282877207 ], [ 777741.325205027591437, 8982997.661733992397785 ], [ 777741.142592729767784, 8982997.654272649437189 ], [ 777740.946015828289092, 8982997.515675762668252 ], [ 777740.866330252029002, 8982997.31063768081367 ], [ 777740.8909211831633, 8982997.173275053501129 ], [ 777738.955480198841542, 8982996.624196242541075 ], [ 777738.935552167706192, 8982996.680451614782214 ], [ 777738.818199128843844, 8982996.96965341642499 ], [ 777738.662316167028621, 8982997.338107522577047 ], [ 777738.025385425658897, 8982999.70761595480144 ], [ 777737.630269333021715, 8983001.057365467771888 ], [ 777743.727171501843259, 8983002.737237274646759 ], [ 777743.161968961008824, 8983002.036415932700038 ], [ 777742.924231713172048, 8983001.427259849384427 ], [ 777743.011640729499049, 8983000.580875651910901 ], [ 777743.19131763628684, 8982999.577217191457748 ], [ 777743.355984646594152, 8982998.651976400986314 ], [ 777743.442431607050821, 8982998.348881026729941 ], [ 777743.567582939285785, 8982997.932635992765427 ] ] ] ] } }
]
}
