{
"type": "FeatureCollection",
"name": "oe_guidewall",
"crs": { "type": "name", "properties": { "name": "urn:ogc:def:crs:EPSG::32751" } },
"features": [
{ "type": "Feature", "properties": { "LAYER": "Unknown Area Type", "id": null, "DETAIL": "GUIDE WALL" }, "geometry": { "type": "MultiPolygon", "coordinates": [ [ [ [ 777936.403666716301814, 8983048.830471333116293 ], [ 777936.849045489449054, 8983049.527244582772255 ], [ 777937.140784354647622, 8983049.805152460932732 ], [ 777937.406790804350749, 8983049.721618814393878 ], [ 777937.417229140177369, 8983049.558231517672539 ], [ 777937.369385542348027, 8983049.348594389855862 ], [ 777935.21852987841703, 8983045.963346373289824 ], [ 777935.033863016404212, 8983046.075469270348549 ], [ 777934.825685864081606, 8983046.141096999868751 ], [ 777934.517919179634191, 8983046.055778997018933 ], [ 777936.403666716301814, 8983048.830471333116293 ] ] ] ] } },
{ "type": "Feature", "properties": { "LAYER": "Unknown Area Type", "id": null, "DETAIL": "GUIDE WALL" }, "geometry": { "type": "MultiPolygon", "coordinates": [ [ [ [ 777860.208693523309194, 8983098.43496910110116 ], [ 777861.050371270743199, 8983099.443909630179405 ], [ 777861.540383254410699, 8983099.89539835229516 ], [ 777861.766028836136684, 8983099.841313168406487 ], [ 777861.88612531288527, 8983099.612993638962507 ], [ 777861.797591806389391, 8983099.386145634576678 ], [ 777859.26860881713219, 8983095.460732471197844 ], [ 777859.332502458477393, 8983095.985297121107578 ], [ 777859.054175761993974, 8983096.350732360035181 ], [ 777858.734867377905175, 8983096.595299273729324 ], [ 777860.208693523309194, 8983098.43496910110116 ] ] ] ] } }
]
}
