{
"type": "FeatureCollection",
"name": "oe_intake",
"crs": { "type": "name", "properties": { "name": "urn:ogc:def:crs:EPSG::32751" } },
"features": [
{ "type": "Feature", "properties": { "LAYER": "Unknown Area Type", "id": null, "DETAIL": "INTAKE" }, "geometry": { "type": "MultiPolygon", "coordinates": [ [ [ [ 777858.471049960935488, 8983096.173109214752913 ], [ 777855.914554578019306, 8983092.152561478316784 ], [ 777855.860412923619151, 8983092.067046293988824 ], [ 777855.860412791371346, 8983092.067046381533146 ], [ 777854.584860085393302, 8983092.925797203555703 ], [ 777855.062216838588938, 8983093.632654562592506 ], [ 777855.084986337460577, 8983094.016158986836672 ], [ 777854.86585347307846, 8983094.23982641659677 ], [ 777854.645723690045998, 8983094.322150606662035 ], [ 777854.304642730858177, 8983094.324556296691298 ], [ 777853.765728103346191, 8983093.47726815380156 ], [ 777852.291462551569566, 8983094.469800056889653 ], [ 777852.745844161952846, 8983095.108870094642043 ], [ 777852.77006214170251, 8983095.439128482714295 ], [ 777852.576259119203314, 8983095.892081961035728 ], [ 777852.228527580737136, 8983096.247009111568332 ], [ 777853.721357523696497, 8983098.597525540739298 ], [ 777853.750099063152447, 8983098.579323183745146 ], [ 777853.945921803824604, 8983098.412727428600192 ], [ 777854.417436314979568, 8983098.541573470458388 ], [ 777854.584544830024242, 8983098.958938492462039 ], [ 777854.498548248666339, 8983099.17983116954565 ], [ 777854.259183448157273, 8983099.379776954650879 ], [ 777854.230960938846692, 8983099.399915127083659 ], [ 777855.294422338483855, 8983101.07437476888299 ], [ 777855.735035413759761, 8983100.762155301868916 ], [ 777855.984619349124841, 8983100.642423536628485 ], [ 777856.014639148022979, 8983100.653064746409655 ], [ 777856.376068589976057, 8983100.690901327878237 ], [ 777856.738210115465336, 8983100.829697364941239 ], [ 777858.734867377905175, 8983096.595299273729324 ], [ 777858.471049960935488, 8983096.173109214752913 ] ] ] ] } },
{ "type": "Feature", "properties": { "LAYER": "Unknown Area Type", "id": null, "DETAIL": "INTAKE" }, "geometry": { "type": "MultiPolygon", "coordinates": [ [ [ [ 777940.235178253264166, 8983045.636319449171424 ], [ 777938.594469433417544, 8983043.297345636412501 ], [ 777938.382599013624713, 8983042.839520871639252 ], [ 777938.465132721001282, 8983042.523976502940059 ], [ 777938.548314552288502, 8983042.300291489809752 ], [ 777938.833467606338672, 8983042.05549631267786 ], [ 777939.138874124269933, 8983041.908983867615461 ], [ 777939.257122254814021, 8983041.93530784919858 ], [ 777938.471532372408547, 8983040.738624563440681 ], [ 777938.16035858890973, 8983040.911946415901184 ], [ 777937.606972738401964, 8983041.027399955317378 ], [ 777937.208577800076455, 8983040.931785238906741 ], [ 777936.874361191410571, 8983040.691360101103783 ], [ 777936.229385604499839, 8983039.520296158269048 ], [ 777934.882889918400906, 8983040.40334764122963 ], [ 777934.882890003500506, 8983040.40334777161479 ], [ 777935.224096719175577, 8983040.797054840251803 ], [ 777935.342388877877966, 8983041.134512778371572 ], [ 777935.216456617694348, 8983041.357041250914335 ], [ 777934.962781473994255, 8983041.545475238934159 ], [ 777934.719791568000801, 8983041.605515968054533 ], [ 777934.451809960999526, 8983041.409097293391824 ], [ 777934.103658104664646, 8983040.914379214867949 ], [ 777932.561252981773578, 8983041.925910960882902 ], [ 777932.561252981889993, 8983041.925910960882902 ], [ 777932.88561522657983, 8983041.713189477100968 ], [ 777934.606663941871375, 8983044.464302960783243 ], [ 777935.202412808313966, 8983045.321870760992169 ], [ 777935.309155574417673, 8983045.66524281911552 ], [ 777935.316103052347898, 8983045.828507449477911 ], [ 777935.21852987841703, 8983045.963346373289824 ], [ 777940.534358439734206, 8983046.147480018436909 ], [ 777940.235178253264166, 8983045.636319449171424 ] ] ] ] } }
]
}
