{
"type": "FeatureCollection",
"name": "oe_ingat",
"crs": { "type": "name", "properties": { "name": "urn:ogc:def:crs:EPSG::32751" } },
"features": [
{ "type": "Feature", "properties": { "LAYER": "Unknown Area Type", "id": null, "DETAIL": "INTAKE GATE" }, "geometry": { "type": "MultiPolygon", "coordinates": [ [ [ [ 777855.822833035839722, 8983101.906377121806145 ], [ 777852.069199135992676, 8983095.996140532195568 ], [ 777849.751792054157704, 8983097.425987932831049 ], [ 777853.685855521354824, 8983103.314759206026793 ], [ 777855.822833035839722, 8983101.906377121806145 ] ] ] ] } },
{ "type": "Feature", "properties": { "LAYER": "Unknown Area Type", "id": null, "DETAIL": "INTAKE GATE" }, "geometry": { "type": "MultiPolygon", "coordinates": [ [ [ [ 777939.763907192740589, 8983042.70728961378336 ], [ 777942.209086345392279, 8983040.986909057945013 ], [ 777940.170686202240176, 8983037.933327786624432 ], [ 777937.713422872126102, 8983039.583801943808794 ], [ 777939.763907192740589, 8983042.70728961378336 ] ] ] ] } }
]
}
