{
"type": "FeatureCollection",
"name": "oe_ingatpier",
"crs": { "type": "name", "properties": { "name": "urn:ogc:def:crs:EPSG::32751" } },
"features": [
{ "type": "Feature", "properties": { "LAYER": "Unknown Area Type", "id": null, "DETAIL": "INTAKE GATE PIER" }, "geometry": { "type": "MultiPolygon", "coordinates": [ [ [ [ 777854.259183448157273, 8983099.379776954650879 ], [ 777854.498548248666339, 8983099.17983116954565 ], [ 777854.584544830024242, 8983098.958938492462039 ], [ 777854.417436314979568, 8983098.541573470458388 ], [ 777853.945921803824604, 8983098.412727428600192 ], [ 777853.750099063152447, 8983098.579323183745146 ], [ 777853.721357523696497, 8983098.597525540739298 ], [ 777854.230960938846692, 8983099.399915127083659 ], [ 777854.259183448157273, 8983099.379776954650879 ] ] ], [ [ [ 777851.015717994654551, 8983100.371912257745862 ], [ 777850.952541103819385, 8983100.724815649911761 ], [ 777851.030390414875001, 8983100.900495482608676 ], [ 777851.294594635721296, 8983101.118918178603053 ], [ 777851.667226773453876, 8983101.193390145897865 ], [ 777852.09067711152602, 8983100.926988679915667 ], [ 777851.48379861342255, 8983100.018572052940726 ], [ 777851.015717994654551, 8983100.371912257745862 ] ] ] ] } }
]
}
