{
"type": "FeatureCollection",
"name": "oe_irrigationpier",
"crs": { "type": "name", "properties": { "name": "urn:ogc:def:crs:EPSG::32751" } },
"features": [
{ "type": "Feature", "properties": { "LAYER": "Unknown Area Type", "id": null, "DETAIL": "IRRIGATION GATE PIER" }, "geometry": { "type": "MultiPolygon", "coordinates": [ [ [ [ 777917.043631454464048, 8982928.085811605677009 ], [ 777917.128584955004044, 8982927.805245948955417 ], [ 777917.10108655213844, 8982927.604214243590832 ], [ 777917.030308928340673, 8982927.42973474599421 ], [ 777916.811690599890426, 8982927.247549453750253 ], [ 777916.515453625237569, 8982927.153401276096702 ], [ 777916.133460682816803, 8982927.226088132709265 ], [ 777915.892035319237038, 8982927.50775783136487 ], [ 777915.849249924183823, 8982927.604298112913966 ], [ 777915.807574616628699, 8982927.687576832249761 ], [ 777916.952374213491566, 8982928.270186772570014 ], [ 777917.043631454464048, 8982928.085811605677009 ] ] ], [ [ [ 777914.417291701538488, 8982930.414064085111022 ], [ 777914.410821020253934, 8982930.72907174937427 ], [ 777914.543374720960855, 8982931.034349538385868 ], [ 777914.744669018546119, 8982931.225406026467681 ], [ 777915.005825846106745, 8982931.27605701982975 ], [ 777915.249226540559903, 8982931.274339627474546 ], [ 777915.560627091908827, 8982931.053418818861246 ], [ 777915.788739854004234, 8982930.619741220027208 ], [ 777914.624911428429186, 8982930.050862969830632 ], [ 777914.623390019754879, 8982930.053903162479401 ], [ 777914.417291701538488, 8982930.414064085111022 ] ] ] ] } },
{ "type": "Feature", "properties": { "LAYER": "Unknown Area Type", "id": null, "DETAIL": "IRRIGATION GATE PIER" }, "geometry": { "type": "MultiPolygon", "coordinates": [ [ [ [ 777734.139972965698689, 8983004.872267657890916 ], [ 777734.372464858810417, 8983004.737498302012682 ], [ 777734.487468517152593, 8983004.493920750916004 ], [ 777734.50142937945202, 8983004.266717992722988 ], [ 777734.445195449981838, 8983004.016516607254744 ], [ 777734.234390231780708, 8983003.916197549551725 ], [ 777733.955076957005076, 8983003.918166909366846 ], [ 777733.939744563424028, 8983004.873179364949465 ], [ 777734.139972965698689, 8983004.872267657890916 ] ] ], [ [ [ 777731.380283844657242, 8983004.884833436459303 ], [ 777731.337602924439125, 8983004.05895566008985 ], [ 777731.107360139372759, 8983004.07137537188828 ], [ 777730.874592184554785, 8983004.166990736499429 ], [ 777730.750648041488603, 8983004.246176455169916 ], [ 777730.704790123272687, 8983004.363967534154654 ], [ 777730.659153049928136, 8983004.513081787154078 ], [ 777730.7307281360263, 8983004.731850273907185 ], [ 777730.824983730679378, 8983004.856484645977616 ], [ 777731.004167964216322, 8983004.886546017602086 ], [ 777731.380283844657242, 8983004.884833436459303 ] ] ] ] } }
]
}
