{
"type": "FeatureCollection",
"name": "oe_irrigationgate",
"crs": { "type": "name", "properties": { "name": "urn:ogc:def:crs:EPSG::32751" } },
"features": [
{ "type": "Feature", "properties": { "LAYER": "Unknown Area Type", "id": null, "DETAIL": "IRRIGATION GATE" }, "geometry": { "type": "MultiPolygon", "coordinates": [ [ [ [ 777733.917253655032255, 8983006.27407593652606 ], [ 777733.986962325987406, 8983001.932115333154798 ], [ 777731.227866360684857, 8983001.935548085719347 ], [ 777731.483444738551043, 8983006.881001496687531 ], [ 777733.971464157104492, 8983006.883652184158564 ], [ 777733.917253655032255, 8983006.27407593652606 ] ] ] ] } },
{ "type": "Feature", "properties": { "LAYER": "Unknown Area Type", "id": null, "DETAIL": "IRRIGATION GATE" }, "geometry": { "type": "MultiPolygon", "coordinates": [ [ [ [ 777716.946573860477656, 8983008.932753568515182 ], [ 777720.513517396058887, 8983008.744858916848898 ], [ 777720.513517396291718, 8983008.744858916848898 ], [ 777720.496605895692483, 8983008.089265290647745 ], [ 777720.272044928162359, 8983001.851249339058995 ], [ 777720.286108029773459, 8983001.090190216898918 ], [ 777716.494672240572982, 8983001.197692647576332 ], [ 777716.946573860477656, 8983008.932753568515182 ] ] ] ] } },
{ "type": "Feature", "properties": { "LAYER": "Unknown Area Type", "id": null, "DETAIL": "IRRIGATION GATE" }, "geometry": { "type": "MultiPolygon", "coordinates": [ [ [ [ 777913.166555394884199, 8982929.338019898161292 ], [ 777917.065915430430323, 8982931.244023453444242 ], [ 777918.257991397054866, 8982928.934639791026711 ], [ 777914.358075915137306, 8982926.949899816885591 ], [ 777913.166555394884199, 8982929.338019898161292 ] ] ] ] } }
]
}
