{
"type": "FeatureCollection",
"name": "oe_irrigationcanal",
"crs": { "type": "name", "properties": { "name": "urn:ogc:def:crs:EPSG::32751" } },
"features": [
{ "type": "Feature", "properties": { "LAYER": "Unknown Area Type", "id": null, "DETAIL": "IRRIGATION CANAL" }, "geometry": { "type": "MultiPolygon", "coordinates": [ [ [ [ 777731.257335111382417, 8983002.577161557972431 ], [ 777729.558617194765247, 8983002.621811877936125 ], [ 777729.544096550904214, 8983002.169541411101818 ], [ 777729.538971402100287, 8983001.442633904516697 ], [ 777720.272044928162359, 8983001.851249339058995 ], [ 777720.496605895692483, 8983008.089265290647745 ], [ 777729.703343294328079, 8983007.68107457831502 ], [ 777729.698360535316169, 8983006.974358947947621 ], [ 777729.682121692923829, 8983006.468572227284312 ], [ 777731.46605981036555, 8983006.427761046215892 ], [ 777731.380283845937811, 8983004.884833436459303 ], [ 777731.004167964216322, 8983004.886546017602086 ], [ 777730.824983730679378, 8983004.856484645977616 ], [ 777730.7307281360263, 8983004.731850273907185 ], [ 777730.659153049928136, 8983004.513081787154078 ], [ 777730.750648041488603, 8983004.246176455169916 ], [ 777730.874592184554785, 8983004.166990736499429 ], [ 777731.107360139372759, 8983004.07137537188828 ], [ 777731.337602925254032, 8983004.05895566008985 ], [ 777731.257335111382417, 8983002.577161557972431 ] ] ] ] } },
{ "type": "Feature", "properties": { "LAYER": "Unknown Area Type", "id": null, "DETAIL": "IRRIGATION CANAL" }, "geometry": { "type": "MultiPolygon", "coordinates": [ [ [ [ 777716.539314017514698, 8983002.150973172858357 ], [ 777688.86937488662079, 8983003.745165849104524 ], [ 777688.897979045053944, 8983004.956536591053009 ], [ 777687.153591767884791, 8983005.13037671148777 ], [ 777687.361920282943174, 8983009.066518312320113 ], [ 777689.185992444865406, 8983008.811344996094704 ], [ 777689.274929476901889, 8983010.042483292520046 ], [ 777716.907869477174245, 8983008.270262552425265 ], [ 777716.907869199756533, 8983008.27025780454278 ], [ 777716.539314017514698, 8983002.150973172858357 ] ] ] ] } },
{ "type": "Feature", "properties": { "LAYER": "Unknown Area Type", "id": null, "DETAIL": "IRRIGATION CANAL" }, "geometry": { "type": "MultiPolygon", "coordinates": [ [ [ [ 777933.779787649633363, 8982890.111030362546444 ], [ 777936.371078468160704, 8982891.44008232280612 ], [ 777936.996398014714941, 8982890.123327724635601 ], [ 777937.90413737797644, 8982888.174656018614769 ], [ 777938.377356431330554, 8982886.246548453345895 ], [ 777938.799899839214049, 8982884.528773186728358 ], [ 777952.261380104580894, 8982858.029453665018082 ], [ 777950.970019888598472, 8982857.356149250641465 ], [ 777937.669579396490008, 8982884.501753779128194 ], [ 777935.700692256214097, 8982886.370424216613173 ], [ 777935.029068594099954, 8982887.285054029896855 ], [ 777933.779787649633363, 8982890.111030362546444 ] ] ] ] } },
{ "type": "Feature", "properties": { "LAYER": "Unknown Area Type", "id": null, "DETAIL": "IRRIGATION CANAL" }, "geometry": { "type": "MultiPolygon", "coordinates": [ [ [ [ 777913.138953492045403, 8982931.437509413808584 ], [ 777912.627932889852673, 8982932.083604350686073 ], [ 777912.885992498369887, 8982931.979646615684032 ], [ 777913.392697572475299, 8982932.109201718121767 ], [ 777913.94040730886627, 8982932.536052856594324 ], [ 777914.324218531139195, 8982932.893579682335258 ], [ 777914.611849323380738, 8982933.956592582166195 ], [ 777914.635257199639454, 8982935.068456945940852 ], [ 777914.658333556726575, 8982936.13333648443222 ], [ 777914.695918249315582, 8982937.068591833114624 ], [ 777916.28048693027813, 8982936.409558080136776 ], [ 777915.606281477725133, 8982934.834500972181559 ], [ 777915.336091275326908, 8982934.037625607103109 ], [ 777915.437290073372424, 8982932.940544422715902 ], [ 777915.911977439653128, 8982931.840827962383628 ], [ 777916.45149554265663, 8982930.943695617839694 ], [ 777915.788739853771403, 8982930.619741220027208 ], [ 777915.560627091908827, 8982931.053418818861246 ], [ 777915.249226540559903, 8982931.274339627474546 ], [ 777915.005825846106745, 8982931.27605701982975 ], [ 777914.744669018546119, 8982931.225406026467681 ], [ 777914.543374720960855, 8982931.034349538385868 ], [ 777914.410821020253934, 8982930.72907174937427 ], [ 777914.417291701538488, 8982930.414064085111022 ], [ 777914.623390019754879, 8982930.053903162479401 ], [ 777914.624911428429186, 8982930.050862969830632 ], [ 777913.93308886338491, 8982929.712700743228197 ], [ 777913.138953492045403, 8982931.437509413808584 ] ] ], [ [ [ 777933.366742326063104, 8982890.957343444228172 ], [ 777933.185288508771919, 8982890.867634847760201 ], [ 777915.017550614080392, 8982927.285518832504749 ], [ 777915.807574616628699, 8982927.687576832249761 ], [ 777915.849249924183823, 8982927.604298112913966 ], [ 777915.892035319237038, 8982927.50775783136487 ], [ 777916.133460682816803, 8982927.226088132709265 ], [ 777916.515453625237569, 8982927.153401276096702 ], [ 777916.811690599890426, 8982927.247549453750253 ], [ 777917.030308928340673, 8982927.42973474599421 ], [ 777917.10108655213844, 8982927.604214243590832 ], [ 777917.128584955004044, 8982927.805245948955417 ], [ 777917.043631454464048, 8982928.085811605677009 ], [ 777916.952374213607982, 8982928.270186772570014 ], [ 777917.966658311430365, 8982928.786374932155013 ], [ 777936.247476205928251, 8982892.403338618576527 ], [ 777935.98576394317206, 8982892.273951234295964 ], [ 777936.371078468160704, 8982891.44008232280612 ], [ 777933.779787649633363, 8982890.111030362546444 ], [ 777933.366742326063104, 8982890.957343444228172 ] ] ] ] } },
{ "type": "Feature", "properties": { "LAYER": "Unknown Area Type", "id": null, "DETAIL": "IRRIGATION CANAL" }, "geometry": { "type": "MultiPolygon", "coordinates": [ [ [ [ 777734.487468517152593, 8983004.493920750916004 ], [ 777734.372464858810417, 8983004.737498302012682 ], [ 777734.139972965698689, 8983004.872267657890916 ], [ 777733.939744563424028, 8983004.873179364949465 ], [ 777733.94203158444725, 8983004.730727139860392 ], [ 777733.918612018227577, 8983006.189467243850231 ], [ 777734.320431083324365, 8983006.186634140089154 ], [ 777734.880333045497537, 8983006.135699326172471 ], [ 777736.051350543275476, 8983006.675625642761588 ], [ 777737.963390845805407, 8983008.572953118011355 ], [ 777739.759527761489153, 8983010.319338221102953 ], [ 777742.585781801841222, 8983007.646907666698098 ], [ 777742.585781801724806, 8983007.646907666698098 ], [ 777745.715765112545341, 8983004.687278801575303 ], [ 777744.668292340822518, 8983003.77998012304306 ], [ 777743.727171501843259, 8983002.737237274646759 ], [ 777737.630269333021715, 8983001.057365467771888 ], [ 777737.028319271514192, 8983001.766416247934103 ], [ 777736.594459602492861, 8983002.035735554993153 ], [ 777735.662504447391257, 8983002.292904449626803 ], [ 777733.980155620141886, 8983002.356086244806647 ], [ 777733.955076957005076, 8983003.918166909366846 ], [ 777734.234390231780708, 8983003.916197549551725 ], [ 777734.445195449981838, 8983004.016516607254744 ], [ 777734.50142937945202, 8983004.266717992722988 ], [ 777734.487468517152593, 8983004.493920750916004 ] ] ] ] } }
]
}
