{
"type": "FeatureCollection",
"name": "oe_operatinghouse",
"crs": { "type": "name", "properties": { "name": "urn:ogc:def:crs:EPSG::32751" } },
"features": [
{ "type": "Feature", "properties": { "LAYER": "Unknown Area Type", "id": null, "DETAIL": "OPERATING HOUSE" }, "geometry": { "type": "MultiPolygon", "coordinates": [ [ [ [ 777860.267836790415458, 8983109.486111311241984 ], [ 777857.914479959988967, 8983105.93889563344419 ], [ 777853.437328032683581, 8983108.911293225362897 ], [ 777857.859272942645475, 8983115.180288527160883 ], [ 777862.096283828257583, 8983112.297698773443699 ], [ 777860.364405433880165, 8983109.635625291615725 ], [ 777860.267836790415458, 8983109.486111311241984 ] ] ] ] } },
{ "type": "Feature", "properties": { "LAYER": "Unknown Area Type", "id": null, "DETAIL": "OPERATING HOUSE" }, "geometry": { "type": "MultiPolygon", "coordinates": [ [ [ [ 777946.870306325494312, 8983051.890203066170216 ], [ 777951.074073182186112, 8983048.885900242254138 ], [ 777947.188967741793022, 8983042.841544378548861 ], [ 777942.637978938175365, 8983045.918288361281157 ], [ 777946.870306325494312, 8983051.890203066170216 ] ] ] ] } }
]
}
