{
"type": "FeatureCollection",
"name": "oe_strais",
"crs": { "type": "name", "properties": { "name": "urn:ogc:def:crs:EPSG::32751" } },
"features": [
{ "type": "Feature", "properties": { "LAYER": "Unknown Area Type", "id": null, "DETAIL": "Stairs" }, "geometry": { "type": "MultiPolygon", "coordinates": [ [ [ [ 777848.591336847748607, 8983105.206165760755539 ], [ 777845.234609799925238, 8983107.208743950352073 ], [ 777846.552841836819425, 8983109.198543237522244 ], [ 777849.787620966555551, 8983106.974703213199973 ], [ 777848.591336847748607, 8983105.206165760755539 ] ] ] ] } },
{ "type": "Feature", "properties": { "LAYER": "Unknown Area Type", "id": null, "DETAIL": "Stairs" }, "geometry": { "type": "MultiPolygon", "coordinates": [ [ [ [ 777947.592791928676888, 8983038.86649271287024 ], [ 777950.06522309826687, 8983037.273985816165805 ], [ 777948.88850718154572, 8983035.462730253115296 ], [ 777946.394963192287832, 8983037.068150596693158 ], [ 777947.592791928676888, 8983038.86649271287024 ] ] ] ] } },
{ "type": "Feature", "properties": { "LAYER": "Unknown Area Type", "id": null, "DETAIL": "Stairs" }, "geometry": { "type": "MultiPolygon", "coordinates": [ [ [ [ 777846.749729133094661, 8983090.425285210832953 ], [ 777848.592104100622237, 8983093.305482720956206 ], [ 777850.646512306644581, 8983091.994133714586496 ], [ 777848.768179107457399, 8983089.023753557354212 ], [ 777846.749729133094661, 8983090.425285210832953 ] ] ] ] } },
{ "type": "Feature", "properties": { "LAYER": "Unknown Area Type", "id": null, "DETAIL": "Stairs" }, "geometry": { "type": "MultiPolygon", "coordinates": [ [ [ [ 777948.409327095374465, 8983027.031230963766575 ], [ 777945.750615054625086, 8983022.587015116587281 ], [ 777943.959134912816808, 8983024.065590899437666 ], [ 777946.420105600263923, 8983028.205710979178548 ], [ 777948.409327095374465, 8983027.031230963766575 ] ] ] ] } },
{ "type": "Feature", "properties": { "LAYER": "Unknown Area Type", "id": null, "DETAIL": "Stairs" }, "geometry": { "type": "MultiPolygon", "coordinates": [ [ [ [ 777947.881224403972737, 8983034.07830573245883 ], [ 777946.781226024962962, 8983032.253868447616696 ], [ 777944.270669180434197, 8983033.759509699419141 ], [ 777945.374670827412046, 8983035.668040422722697 ], [ 777947.881224403972737, 8983034.07830573245883 ] ] ] ] } }
]
}
