{
"type": "FeatureCollection",
"name": "oe_silt",
"crs": { "type": "name", "properties": { "name": "urn:ogc:def:crs:EPSG::32751" } },
"features": [
{ "type": "Feature", "properties": { "LAYER": "Unknown Area Type", "id": null, "DETAIL": "SILT POCKET" }, "geometry": { "type": "MultiPolygon", "coordinates": [ [ [ [ 777853.218666411237791, 8983102.615439066663384 ], [ 777852.09067711152602, 8983100.926988679915667 ], [ 777851.667226773453876, 8983101.193390145897865 ], [ 777851.294594635721296, 8983101.118918178603053 ], [ 777851.030390414875001, 8983100.900495482608676 ], [ 777850.952541103819385, 8983100.724815649911761 ], [ 777851.015717994654551, 8983100.371912257745862 ], [ 777851.48379861342255, 8983100.018572052940726 ], [ 777850.248812644858845, 8983098.169961841776967 ], [ 777850.248812597244978, 8983098.169961860403419 ], [ 777845.652317148633301, 8983101.908724494278431 ], [ 777840.160938414162956, 8983105.64948451705277 ], [ 777839.052672333316877, 8983105.686807850375772 ], [ 777838.169613315258175, 8983105.656015453860164 ], [ 777837.32020462420769, 8983105.180742066353559 ], [ 777836.28400788269937, 8983104.29956266656518 ], [ 777835.357638771180063, 8983103.343568075448275 ], [ 777831.793552109855227, 8983098.704145796597004 ], [ 777827.999107172479853, 8983092.696596840396523 ], [ 777819.621613719267771, 8983083.611663952469826 ], [ 777801.793659947928973, 8983064.560875419527292 ], [ 777783.408232423476875, 8983044.699568152427673 ], [ 777769.549783833092079, 8983030.396399147808552 ], [ 777760.585352203343064, 8983021.537721360102296 ], [ 777745.715765112545341, 8983004.687278801575303 ], [ 777739.759527761489153, 8983010.319338221102953 ], [ 777743.206199509440921, 8983013.960044074803591 ], [ 777761.5542864613235, 8983033.747583493590355 ], [ 777780.048740985104814, 8983053.42302630841732 ], [ 777821.771961878053844, 8983098.048158463090658 ], [ 777830.110138957039453, 8983103.79940021596849 ], [ 777833.032531982054934, 8983106.939895616844296 ], [ 777834.894225123221986, 8983108.656011886894703 ], [ 777836.432179519440979, 8983109.47123826853931 ], [ 777838.274229479720816, 8983109.953890779986978 ], [ 777839.762350169941783, 8983109.910352695733309 ], [ 777840.636764893541113, 8983109.749985463917255 ], [ 777841.914312813663855, 8983109.333446001634002 ], [ 777845.234609799925238, 8983107.208743950352073 ], [ 777848.591336847748607, 8983105.206165760755539 ], [ 777853.218666411237791, 8983102.615439066663384 ] ] ] ] } },
{ "type": "Feature", "properties": { "LAYER": "Unknown Area Type", "id": null, "DETAIL": "SILT POCKET" }, "geometry": { "type": "MultiPolygon", "coordinates": [ [ [ [ 777941.645190690178424, 8983040.126200277358294 ], [ 777951.574243817827664, 8983033.733570370823145 ], [ 777952.755607575760223, 8983032.780348395928741 ], [ 777953.438454515533522, 8983031.813146056607366 ], [ 777953.917561555514112, 8983030.719063423573971 ], [ 777954.17061185464263, 8983029.620743229985237 ], [ 777954.100024954415858, 8983027.830623554065824 ], [ 777952.823554366943426, 8983024.340051852166653 ], [ 777951.882783188135363, 8983019.143983170390129 ], [ 777943.98987778974697, 8983001.165181571617723 ], [ 777916.340073799481615, 8982936.384775463491678 ], [ 777912.688007142976858, 8982937.903696810826659 ], [ 777948.137654880061746, 8983020.616901580244303 ], [ 777951.39143048087135, 8983025.073403310030699 ], [ 777952.312283242354169, 8983027.44661914370954 ], [ 777952.630413185223006, 8983028.179285898804665 ], [ 777952.577398900408298, 8983028.879575695842505 ], [ 777952.330555376945995, 8983030.036178383976221 ], [ 777952.239888714859262, 8983030.328449685126543 ], [ 777951.811704480671324, 8983031.247194042429328 ], [ 777951.420959474286065, 8983031.72239426523447 ], [ 777950.72360008652322, 8983032.27558215893805 ], [ 777940.66117377509363, 8983038.657487703487277 ], [ 777940.665552654187195, 8983038.674651777371764 ], [ 777941.637859195936471, 8983040.13119457475841 ], [ 777941.645190690178424, 8983040.126200277358294 ] ] ] ] } }
]
}
