{
"type": "FeatureCollection",
"name": "oe_stilling",
"crs": { "type": "name", "properties": { "name": "urn:ogc:def:crs:EPSG::32751" } },
"features": [
{ "type": "Feature", "properties": { "LAYER": "Unknown Area Type", "id": null, "DETAIL": "STILLING BASIN" }, "geometry": { "type": "MultiPolygon", "coordinates": [ [ [ [ 777931.40745573118329, 8983039.505824379622936 ], [ 777931.436450670706108, 8983039.557799775153399 ], [ 777932.69540899572894, 8983038.725493114441633 ], [ 777931.381591609446332, 8983036.682998294010758 ], [ 777931.27563073579222, 8983036.450440695509315 ], [ 777931.331937440438196, 8983036.216738220304251 ], [ 777931.539168084505945, 8983036.016966680064797 ], [ 777931.724452148191631, 8983035.992328887805343 ], [ 777932.014462585095316, 8983036.025278497487307 ], [ 777933.45470599969849, 8983038.223516250029206 ], [ 777934.834055994870141, 8983037.347227958962321 ], [ 777932.541094197193161, 8983033.776447741314769 ], [ 777932.088571653235704, 8983033.095549242570996 ], [ 777915.544232608168386, 8983008.201727401465178 ], [ 777831.151318213203922, 8983062.708015728741884 ], [ 777835.406681801658124, 8983068.251077637076378 ], [ 777845.398992673493922, 8983083.561238227412105 ], [ 777848.557074438780546, 8983088.272817809134722 ], [ 777851.137489119195379, 8983092.122569026425481 ], [ 777852.384502592729405, 8983091.305688578635454 ], [ 777850.916284017963335, 8983088.997337449342012 ], [ 777850.954132539918646, 8983088.673984175547957 ], [ 777851.213534959242679, 8983088.470225634053349 ], [ 777851.49442511505913, 8983088.468244487419724 ], [ 777851.696342681301758, 8983088.648556400090456 ], [ 777853.15147041506134, 8983090.803271379321814 ], [ 777854.500467079575174, 8983089.919584857299924 ], [ 777853.053972747176886, 8983087.689914777874947 ], [ 777853.071757666533813, 8983087.366703007370234 ], [ 777853.311096486868337, 8983087.163085957989097 ], [ 777853.591559387277812, 8983087.100529121235013 ], [ 777854.032252957113087, 8983087.420476503670216 ], [ 777929.396882019005716, 8983038.401327610015869 ], [ 777929.153258519130759, 8983037.923572525382042 ], [ 777929.278450097539462, 8983037.596061961725354 ], [ 777929.555553207988851, 8983037.442458499222994 ], [ 777929.810545125626959, 8983037.44065941683948 ], [ 777929.934078554389998, 8983037.479258136823773 ], [ 777930.066113140899688, 8983037.520513091236353 ], [ 777931.357486769091338, 8983039.536099037155509 ], [ 777931.40745573118329, 8983039.505824379622936 ] ] ] ] } }
]
}
