{
"type": "FeatureCollection",
"name": "oe_upstream",
"crs": { "type": "name", "properties": { "name": "urn:ogc:def:crs:EPSG::32751" } },
"features": [
{ "type": "Feature", "properties": { "LAYER": "Unknown Area Type", "id": null, "DETAIL": "UPSTREAM FLOW" }, "geometry": { "type": "MultiPolygon", "coordinates": [ [ [ [ 777932.396499950438738, 8983042.033958397805691 ], [ 777932.288248469354585, 8983042.104951296001673 ], [ 777932.396499950671569, 8983042.033958397805691 ], [ 777932.396499950438738, 8983042.033958397805691 ] ] ], [ [ [ 777861.844583240686916, 8983108.748045932501554 ], [ 777867.091707824962214, 8983117.129245020449162 ], [ 777927.224012310383841, 8983207.866475380957127 ], [ 778011.321079922956415, 8983150.816179083660245 ], [ 777940.534358439734206, 8983046.147480018436909 ], [ 777935.21852987841703, 8983045.963346373289824 ], [ 777937.369385542348027, 8983049.348594389855862 ], [ 777937.417229140177369, 8983049.558231517672539 ], [ 777937.406790804350749, 8983049.721618814393878 ], [ 777937.140784354647622, 8983049.805152460932732 ], [ 777936.849045489449054, 8983049.527244582772255 ], [ 777936.403666716301814, 8983048.830471333116293 ], [ 777934.517919179634191, 8983046.055778997018933 ], [ 777934.155114539898932, 8983045.562565198168159 ], [ 777933.852594458963722, 8983044.988727394491434 ], [ 777933.763270120602101, 8983044.855207126587629 ], [ 777932.068420038442127, 8983042.24911798350513 ], [ 777931.770823241327889, 8983042.444286298006773 ], [ 777931.575819367193617, 8983042.138370402157307 ], [ 777931.575819366960786, 8983042.138370402157307 ], [ 777932.20933884754777, 8983043.132215680554509 ], [ 777857.195683971745893, 8983092.201170390471816 ], [ 777859.26860881713219, 8983095.460732471197844 ], [ 777861.797591806389391, 8983099.386145634576678 ], [ 777861.88612531288527, 8983099.612993638962507 ], [ 777861.766028836136684, 8983099.841313168406487 ], [ 777861.540383254410699, 8983099.89539835229516 ], [ 777861.050371270743199, 8983099.443909630179405 ], [ 777860.208693523309194, 8983098.43496910110116 ], [ 777858.734867377905175, 8983096.595299273729324 ], [ 777856.738210115465336, 8983100.829697364941239 ], [ 777858.838889671955258, 8983104.095174254849553 ], [ 777861.355643556453288, 8983107.982495624572039 ], [ 777861.844583240686916, 8983108.748045932501554 ] ] ] ] } }
]
}
