{
"type": "FeatureCollection",
"name": "oe_weirbody",
"crs": { "type": "name", "properties": { "name": "urn:ogc:def:crs:EPSG::32751" } },
"features": [
{ "type": "Feature", "properties": { "LAYER": "Unknown Area Type", "id": null, "DETAIL": "WEIR BODY" }, "geometry": { "type": "MultiPolygon", "coordinates": [ [ [ [ 777930.429491012124345, 8983040.269502695649862 ], [ 777930.648910935036838, 8983040.078448118641973 ], [ 777929.396882019005716, 8983038.401327610015869 ], [ 777854.032252957113087, 8983087.420476503670216 ], [ 777855.286445116042159, 8983089.404714645817876 ], [ 777855.512542833574116, 8983089.239752376452088 ], [ 777855.893506811466068, 8983089.857862079516053 ], [ 777930.633535553468391, 8983040.660145426169038 ], [ 777930.429491012124345, 8983040.269502695649862 ] ] ] ] } }
]
}
