{
"type": "FeatureCollection",
"name": "oe_wing",
"crs": { "type": "name", "properties": { "name": "urn:ogc:def:crs:EPSG::32751" } },
"features": [
{ "type": "Feature", "properties": { "LAYER": "Unknown Area Type", "id": null, "DETAIL": "WING WALL" }, "geometry": { "type": "MultiPolygon", "coordinates": [ [ [ [ 777763.755170196061954, 8982969.417569998651743 ], [ 777763.417595967417583, 8982969.733428187668324 ], [ 777754.813683429616503, 8982958.309416729956865 ], [ 777754.004639883874916, 8982959.027571048587561 ], [ 777754.602748731849715, 8982959.847081100568175 ], [ 777754.417980347992852, 8982960.421056993305683 ], [ 777754.424246906070039, 8982960.425556568428874 ], [ 777754.36275620397646, 8982960.620932212099433 ], [ 777834.844613821711391, 8983068.798086684197187 ], [ 777835.218044212786481, 8983068.553582299500704 ], [ 777848.710625465144403, 8983089.06371652521193 ], [ 777848.768179107457399, 8983089.023753557354212 ], [ 777850.847749545355327, 8983092.312368573620915 ], [ 777851.137489119195379, 8983092.122569026425481 ], [ 777845.398992673493922, 8983083.561238227412105 ], [ 777835.406681801658124, 8983068.251077637076378 ], [ 777831.151318213203922, 8983062.708015728741884 ], [ 777832.424229060066864, 8983061.872335268184543 ], [ 777763.755170196061954, 8982969.417569998651743 ] ] ] ] } },
{ "type": "Feature", "properties": { "LAYER": "Unknown Area Type", "id": null, "DETAIL": "WING WALL" }, "geometry": { "type": "MultiPolygon", "coordinates": [ [ [ [ 777871.422181335394271, 8982930.699908120557666 ], [ 777915.544232608168386, 8983008.201727401465178 ], [ 777932.541094197193161, 8983033.776447741314769 ], [ 777932.77124932850711, 8983033.627102434635162 ], [ 777915.722287524491549, 8983008.014656605198979 ], [ 777871.981036780867726, 8982930.645041050389409 ], [ 777871.821621748968028, 8982930.635847585275769 ], [ 777871.422181335394271, 8982930.699908120557666 ] ] ] ] } }
]
}
