{
"type": "FeatureCollection",
"name": "rei_rock",
"crs": { "type": "name", "properties": { "name": "urn:ogc:def:crs:EPSG::32751" } },
"features": [
{ "type": "Feature", "properties": { "LAYER": "Unknown Area Type", "Id": 0, "Name": "Rock Apron" }, "geometry": { "type": "MultiPolygon", "coordinates": [ [ [ [ 781101.81651718635112, 8998938.373593943193555 ], [ 781042.389950370416045, 8998914.819824296981096 ], [ 781042.094827479682863, 8998915.519968938082457 ], [ 781041.799017869867384, 8998916.568514352664351 ], [ 781101.394242261536419, 8998939.922167833894491 ], [ 781101.532677100040019, 8998939.362455613911152 ], [ 781101.81651718635112, 8998938.373593943193555 ] ] ] ] } }
]
}
