{
"type": "FeatureCollection",
"name": "rei_silt",
"crs": { "type": "name", "properties": { "name": "urn:ogc:def:crs:EPSG::32751" } },
"features": [
{ "type": "Feature", "properties": { "LAYER": "Unknown Area Type", "Id": 0, "Name": "Silt Pocket" }, "geometry": { "type": "MultiPolygon", "coordinates": [ [ [ [ 781148.493859502486885, 8998917.878548715263605 ], [ 781112.014526219107211, 8998951.757445693016052 ], [ 781111.974838640540838, 8998952.670260019600391 ], [ 781111.339837372303009, 8998953.86088740080595 ], [ 781110.228585149161518, 8998954.614951414987445 ], [ 781109.077645344659686, 8998954.773701727390289 ], [ 781108.601394392549992, 8998954.654638987034559 ], [ 781101.219504627399147, 8998951.678070534020662 ], [ 781101.170901694335043, 8998951.657354481518269 ], [ 781100.667749038897455, 8998952.781218819320202 ], [ 781104.674298759549856, 8998954.22502052038908 ], [ 781108.16680574323982, 8998955.653773374855518 ], [ 781109.395145979709923, 8998955.811252895742655 ], [ 781109.601155208423734, 8998955.83766433596611 ], [ 781110.395414661616087, 8998955.690827682614326 ], [ 781111.157416184432805, 8998955.500327300280333 ], [ 781111.840042551979423, 8998955.166951630264521 ], [ 781112.157543186098337, 8998954.627200558781624 ], [ 781112.649669169448316, 8998954.262074820697308 ], [ 781113.798979240469635, 8998954.135558316484094 ], [ 781143.378016971983016, 8998926.356513641774654 ], [ 781144.637716467492282, 8998925.113850753754377 ], [ 781150.571742197498679, 8998919.953828377649188 ], [ 781148.493859502486885, 8998917.878548715263605 ] ] ] ] } }
]
}
