{
"type": "FeatureCollection",
"name": "rei_parking",
"crs": { "type": "name", "properties": { "name": "urn:ogc:def:crs:EPSG::32751" } },
"features": [
{ "type": "Feature", "properties": { "LAYER": "Unknown Area Type", "Id": 0, "Name": "Parking Area" }, "geometry": { "type": "MultiPolygon", "coordinates": [ [ [ [ 781131.786794518120587, 8998932.612773865461349 ], [ 781121.461924347095191, 8998922.863013360649347 ], [ 781120.628445846959949, 8998922.531463902443647 ], [ 781116.67295643966645, 8998920.958009550347924 ], [ 781115.772109085693955, 8998920.544429218396544 ], [ 781115.406327350065112, 8998920.3764982894063 ], [ 781115.186681390739977, 8998920.29357073828578 ], [ 781112.165175036527216, 8998919.152797926217318 ], [ 781111.768299240618944, 8998919.483527753502131 ], [ 781110.105557846836746, 8998923.78709371574223 ], [ 781110.111276646144688, 8998923.78905688598752 ], [ 781110.084981518797576, 8998923.874705407768488 ], [ 781109.027968985959888, 8998923.498555351048708 ], [ 781108.445884492248297, 8998923.273659069091082 ], [ 781108.227602804079652, 8998923.319961246103048 ], [ 781108.108540060929954, 8998923.425794787704945 ], [ 781108.030106378719211, 8998923.626457367092371 ], [ 781107.123303764499724, 8998925.946396257728338 ], [ 781104.873340885154903, 8998931.70263946801424 ], [ 781103.09417062625289, 8998936.29094797000289 ], [ 781103.019269471988082, 8998936.484110841527581 ], [ 781101.165198054164648, 8998941.265582207590342 ], [ 781101.038407143205404, 8998941.620596760883927 ], [ 781102.185708138160408, 8998942.058695388957858 ], [ 781102.053416209295392, 8998942.349737634882331 ], [ 781103.058834886178374, 8998942.905363749712706 ], [ 781103.984878404065967, 8998943.857865650206804 ], [ 781104.646338059566915, 8998944.783909171819687 ], [ 781105.096130627207458, 8998945.948078170418739 ], [ 781105.175505786202848, 8998946.953496841713786 ], [ 781105.016755468212068, 8998948.197040997445583 ], [ 781104.725713218562305, 8998949.387668378651142 ], [ 781104.037795178592205, 8998951.028088327497244 ], [ 781104.884463536553085, 8998951.319130573421717 ], [ 781104.286153990775347, 8998952.914622699841857 ], [ 781108.601394392549992, 8998954.654638987034559 ], [ 781109.077645344659686, 8998954.773701727390289 ], [ 781110.22858515009284, 8998954.614951414987445 ], [ 781111.339837373234332, 8998953.86088740080595 ], [ 781111.974838641472161, 8998952.670260019600391 ], [ 781111.985421997494996, 8998952.426842859014869 ], [ 781112.014526219107211, 8998951.757445693016052 ], [ 781132.198000785894692, 8998933.012754002586007 ], [ 781131.786794518120587, 8998932.612773865461349 ] ] ] ] } }
]
}
