{
"type": "FeatureCollection",
"name": "rei_crest",
"crs": { "type": "name", "properties": { "name": "urn:ogc:def:crs:EPSG::32751" } },
"features": [
{ "type": "Feature", "properties": { "LAYER": "Unknown Area Type", "Id": 0, "Name": "Crest" }, "geometry": { "type": "MultiPolygon", "coordinates": [ [ [ [ 781093.796141128055751, 8998945.658390499651432 ], [ 781039.483026074245572, 8998924.895291395485401 ], [ 781039.436877749860287, 8998925.068724995478988 ], [ 781039.436508997343481, 8998925.075590897351503 ], [ 781039.363261628895998, 8998926.43939913623035 ], [ 781093.260142425075173, 8998947.146966874599457 ], [ 781093.796141128055751, 8998945.658390499651432 ] ] ] ] } }
]
}
