{
"type": "FeatureCollection",
"name": "rei_road",
"crs": { "type": "name", "properties": { "name": "urn:ogc:def:crs:EPSG::32751" } },
"features": [
{ "type": "Feature", "properties": { "LAYER": "Unknown Area Type", "Id": 0, "Name": "Road" }, "geometry": { "type": "MultiPolygon", "coordinates": [ [ [ [ 781442.924816578975879, 8998460.821595914661884 ], [ 781438.822441575699486, 8998460.819176057353616 ], [ 781437.790131761692464, 8998463.296719612553716 ], [ 781426.677609534934163, 8998506.027013404294848 ], [ 781420.724472627975047, 8998528.64893364906311 ], [ 781409.347366540692747, 8998551.800021616742015 ], [ 781399.160887834616005, 8998576.00944503583014 ], [ 781391.620247753337026, 8998586.460507607087493 ], [ 781383.02127222251147, 8998597.837613692507148 ], [ 781374.81917248480022, 8998605.37825377471745 ], [ 781368.469159783795476, 8998617.549111448228359 ], [ 781352.991003828123212, 8998636.334565687924623 ], [ 781308.408622995950282, 8998678.138815961778164 ], [ 781281.553360951133072, 8998706.184705384075642 ], [ 781265.678329202346504, 8998728.67433369718492 ], [ 781259.989776160567999, 8998737.53789309039712 ], [ 781252.052260283380747, 8998754.868136085569859 ], [ 781240.939738059416413, 8998781.723398130387068 ], [ 781229.033464247360826, 8998804.609902236610651 ], [ 781213.952184082940221, 8998829.083909515291452 ], [ 781205.088624690659344, 8998849.192283065989614 ], [ 781199.400071646086872, 8998855.542295766994357 ], [ 781190.404220320284367, 8998866.390234129503369 ], [ 781170.163554838858545, 8998885.572564160451293 ], [ 781155.611442402936518, 8998898.801757287234068 ], [ 781143.176000864244998, 8998910.178863372653723 ], [ 781134.973901126533747, 8998916.66116800531745 ], [ 781127.43326104618609, 8998920.62992594204843 ], [ 781121.461924347095191, 8998922.863013360649347 ], [ 781127.019664720632136, 8998928.11117984727025 ], [ 781129.172670058906078, 8998930.144259784370661 ], [ 781161.111479445360601, 8998898.405983923003078 ], [ 781180.055683998391032, 8998881.684283811599016 ], [ 781198.364887285977602, 8998863.904248252511024 ], [ 781207.043237973935902, 8998851.839224122464657 ], [ 781216.462423479184508, 8998830.037513853982091 ], [ 781235.724128669127822, 8998798.604950990527868 ], [ 781252.445828778669238, 8998762.304045051336288 ], [ 781261.124179468490183, 8998741.349003141745925 ], [ 781267.15669153444469, 8998733.411487266421318 ], [ 781283.455057465471327, 8998708.858104828745127 ], [ 781308.114273451268673, 8998683.458054026588798 ], [ 781356.850620923563838, 8998636.944210996851325 ], [ 781367.01064124237746, 8998626.413773270323873 ], [ 781370.608981772325933, 8998620.169594114646316 ], [ 781377.858579604886472, 8998607.046234533190727 ], [ 781389.024018602445722, 8998596.833297440782189 ], [ 781399.501539557240903, 8998582.334101775661111 ], [ 781411.778230777941644, 8998557.039884520694613 ], [ 781423.261170409619808, 8998532.645252399146557 ], [ 781428.394097343087196, 8998513.80688139051199 ], [ 781435.541168929077685, 8998481.949881916865706 ], [ 781441.758889697492123, 8998462.635259952396154 ], [ 781442.924816578975879, 8998460.821595914661884 ] ] ] ] } }
]
}
