{
"type": "FeatureCollection",
"name": "rei_intake",
"crs": { "type": "name", "properties": { "name": "urn:ogc:def:crs:EPSG::32751" } },
"features": [
{ "type": "Feature", "properties": { "LAYER": "Unknown Area Type", "Id": 0, "Name": "Intake" }, "geometry": { "type": "MultiPolygon", "coordinates": [ [ [ [ 781096.262815448455513, 8998953.422066491097212 ], [ 781093.670336329727434, 8998948.909472096711397 ], [ 781093.575818521319889, 8998949.029267486184835 ], [ 781093.385318141896278, 8998949.172142770141363 ], [ 781093.219891933491454, 8998949.17666782438755 ], [ 781096.053310486371629, 8998953.95200165733695 ], [ 781096.262815448455513, 8998953.422066491097212 ] ] ], [ [ [ 781093.670336329727434, 8998948.909472096711397 ], [ 781096.262815448455513, 8998953.422066491097212 ], [ 781096.390973802190274, 8998953.094481820240617 ], [ 781097.046033504651859, 8998951.476096108555794 ], [ 781098.271992658264935, 8998951.91788318566978 ], [ 781100.667749038897455, 8998952.781218819320202 ], [ 781101.170901693403721, 8998951.657354479655623 ], [ 781097.562828373163939, 8998950.119483286514878 ], [ 781097.56282835197635, 8998950.119483340531588 ], [ 781097.562828372465447, 8998950.119483286514878 ], [ 781097.669967164751142, 8998949.818198526278138 ], [ 781096.134444438037463, 8998949.216052094474435 ], [ 781095.881799591588788, 8998949.851192776113749 ], [ 781095.733632626594044, 8998950.073443217203021 ], [ 781095.511382183758542, 8998950.136943344026804 ], [ 781095.267965029692277, 8998950.105193281546235 ], [ 781095.056297941366211, 8998949.914692899212241 ], [ 781094.992797811981291, 8998949.787692645564675 ], [ 781094.992797811981291, 8998949.565442200750113 ], [ 781095.263348626671359, 8998948.87310098670423 ], [ 781093.92964701470919, 8998948.348021617159247 ], [ 781093.749247400672175, 8998948.809457268565893 ], [ 781093.670336329727434, 8998948.909472096711397 ] ] ] ] } }
]
}
