{
"type": "FeatureCollection",
"name": "rei_flusingcanal",
"crs": { "type": "name", "properties": { "name": "urn:ogc:def:crs:EPSG::32751" } },
"features": [
{ "type": "Feature", "properties": { "LAYER": "Unknown Area Type", "Id": 0, "Name": "Flushing Canal" }, "geometry": { "type": "MultiPolygon", "coordinates": [ [ [ [ 781147.486197151243687, 8998918.814379664137959 ], [ 781147.460146631114185, 8998918.778313918039203 ], [ 781139.618952807970345, 8998906.430644849315286 ], [ 781138.766877543181181, 8998907.309914002195001 ], [ 781138.818519223481417, 8998907.362388608977199 ], [ 781138.712430762127042, 8998907.466793119907379 ], [ 781146.611908860504627, 8998919.517614526674151 ], [ 781146.658987664617598, 8998919.582621363922954 ], [ 781147.486197151243687, 8998918.814379664137959 ] ] ] ] } }
]
}
