{
"type": "FeatureCollection",
"name": "rei_flushingpier",
"crs": { "type": "name", "properties": { "name": "urn:ogc:def:crs:EPSG::32751" } },
"features": [
{ "type": "Feature", "properties": { "LAYER": "Unknown Area Type", "Id": 0, "Name": "Flushing Pier" }, "geometry": { "type": "MultiPolygon", "coordinates": [ [ [ [ 781096.355080193839967, 8998942.301802653819323 ], [ 781095.393161506392062, 8998941.878271289169788 ], [ 781094.818549880757928, 8998943.271248620003462 ], [ 781094.100321745499969, 8998944.948183065280318 ], [ 781093.796141122467816, 8998945.658390499651432 ], [ 781093.260142424143851, 8998947.146966874599457 ], [ 781092.781254139728844, 8998948.476936113089323 ], [ 781092.766191905364394, 8998948.703829331323504 ], [ 781092.845567062497139, 8998948.973704874515533 ], [ 781092.99637986253947, 8998949.092767611145973 ], [ 781093.219891932792962, 8998949.17666782438755 ], [ 781093.385318142361939, 8998949.172142770141363 ], [ 781093.575818521901965, 8998949.029267486184835 ], [ 781093.749247401952744, 8998948.809457268565893 ], [ 781093.929647015407681, 8998948.348021617159247 ], [ 781094.733757363632321, 8998946.017036536708474 ], [ 781094.713287866674364, 8998946.009206779301167 ], [ 781094.817488129250705, 8998945.774314668029547 ], [ 781096.082586146891117, 8998942.922483531758189 ], [ 781096.355080193839967, 8998942.301802653819323 ] ] ] ] } },
{ "type": "Feature", "properties": { "LAYER": "Unknown Area Type", "Id": 0, "Name": "Flushing Pier" }, "geometry": { "type": "MultiPolygon", "coordinates": [ [ [ [ 781097.75505333673209, 8998944.210264824330807 ], [ 781097.532802892848849, 8998944.083264572545886 ], [ 781097.151802130043507, 8998944.231431532651186 ], [ 781096.696717887185514, 8998945.205100147053599 ], [ 781096.165432005189359, 8998946.564664022997022 ], [ 781095.26334862690419, 8998948.87310098670423 ], [ 781094.992797811515629, 8998949.565442200750113 ], [ 781094.992797811515629, 8998949.787692645564675 ], [ 781095.056297940202057, 8998949.914692899212241 ], [ 781095.267965029925108, 8998950.105193281546235 ], [ 781095.51138218306005, 8998950.136943344026804 ], [ 781095.733632627874613, 8998950.073443217203021 ], [ 781095.88179959077388, 8998949.851192776113749 ], [ 781096.13444443885237, 8998949.216052094474435 ], [ 781097.053921127691865, 8998946.904518522322178 ], [ 781097.776220045983791, 8998945.088683247566223 ], [ 781097.860886882059276, 8998944.623015653342009 ], [ 781097.75505333673209, 8998944.210264824330807 ] ] ] ] } }
]
}
