{
"type": "FeatureCollection",
"name": "rei_stilling",
"crs": { "type": "name", "properties": { "name": "urn:ogc:def:crs:EPSG::32751" } },
"features": [
{ "type": "Feature", "properties": { "LAYER": "Unknown Area Type", "Id": 0, "Name": "Stilling Basin" }, "geometry": { "type": "MultiPolygon", "coordinates": [ [ [ [ 781101.394242261536419, 8998939.922167833894491 ], [ 781041.799017869867384, 8998916.568514350801706 ], [ 781040.168049359694123, 8998922.349748220294714 ], [ 781040.129409491084516, 8998922.486713532358408 ], [ 781051.846069022081792, 8998926.939614411443472 ], [ 781054.522427623160183, 8998927.918769992887974 ], [ 781059.099184336140752, 8998929.696151239797473 ], [ 781094.818549887277186, 8998943.271248621866107 ], [ 781095.393161510117352, 8998941.878271289169788 ], [ 781096.355080192908645, 8998942.301802655681968 ], [ 781099.942862279713154, 8998943.756100956350565 ], [ 781099.958056678064167, 8998943.716951141133904 ], [ 781100.161159524694085, 8998943.193637356162071 ], [ 781100.207307367585599, 8998943.076055195182562 ], [ 781100.790152604691684, 8998941.527520690113306 ], [ 781100.925084521062672, 8998941.168799528852105 ], [ 781101.365748164243996, 8998939.997889501973987 ], [ 781101.394242261536419, 8998939.922167833894491 ] ] ] ] } }
]
}
