{
"type": "FeatureCollection",
"name": "rei_flushinggate",
"crs": { "type": "name", "properties": { "name": "urn:ogc:def:crs:EPSG::32751" } },
"features": [
{ "type": "Feature", "properties": { "LAYER": "Unknown Area Type", "Id": 0, "Name": "Flushing Gate" }, "geometry": { "type": "MultiPolygon", "coordinates": [ [ [ [ 781099.942862277850509, 8998943.75610095448792 ], [ 781096.355080192908645, 8998942.301802651956677 ], [ 781096.082586146891117, 8998942.922483531758189 ], [ 781094.81748812738806, 8998945.774314668029547 ], [ 781094.713287864811718, 8998946.009206779301167 ], [ 781094.733757362700999, 8998946.017036536708474 ], [ 781093.929709161631763, 8998948.347849931567907 ], [ 781095.26360681373626, 8998948.872441608458757 ], [ 781096.165432005189359, 8998946.564664022997022 ], [ 781096.696717887185514, 8998945.205100147053599 ], [ 781097.151802130043507, 8998944.231431532651186 ], [ 781097.532802892848849, 8998944.083264572545886 ], [ 781097.75505333673209, 8998944.210264824330807 ], [ 781097.860886882059276, 8998944.623015653342009 ], [ 781097.776220045983791, 8998945.088683247566223 ], [ 781097.053921127691865, 8998946.904518522322178 ], [ 781096.134833307936788, 8998949.21507066860795 ], [ 781097.669967165216804, 8998949.818198526278138 ], [ 781097.983986131846905, 8998948.983796866610646 ], [ 781098.30818282533437, 8998948.122351257130504 ], [ 781098.892793114297092, 8998946.568942548707128 ], [ 781098.983822621405125, 8998946.327061705291271 ], [ 781099.514913441613317, 8998944.858751783147454 ], [ 781099.838036484085023, 8998944.02619456872344 ], [ 781099.942862277850509, 8998943.75610095448792 ] ] ] ] } },
{ "type": "Feature", "properties": { "LAYER": "Unknown Area Type", "Id": 0, "Name": "Flushing Gate" }, "geometry": { "type": "MultiPolygon", "coordinates": [ [ [ [ 781145.066484004259109, 8998918.502904349938035 ], [ 781147.161988193169236, 8998917.074151493608952 ], [ 781145.955485781654716, 8998915.010397365316749 ], [ 781143.780606432817876, 8998916.455025253817439 ], [ 781143.764731400646269, 8998916.439150221645832 ], [ 781145.066484004259109, 8998918.502904349938035 ] ] ] ] } },
{ "type": "Feature", "properties": { "LAYER": "Unknown Area Type", "Id": 0, "Name": "Flushing Gate" }, "geometry": { "type": "MultiPolygon", "coordinates": [ [ [ [ 781092.964494627900422, 8998947.968040362000465 ], [ 781098.560722701251507, 8998950.161641303449869 ], [ 781099.407391062006354, 8998947.960303571075201 ], [ 781099.31214087177068, 8998947.801553253084421 ], [ 781099.116661202162504, 8998947.718072921037674 ], [ 781093.796141121536493, 8998945.658390499651432 ], [ 781092.964494627900422, 8998947.968040362000465 ] ] ] ] } }
]
}
