{
"type": "FeatureCollection",
"name": "waterbody",
"crs": { "type": "name", "properties": { "name": "urn:ogc:def:crs:EPSG::32751" } },
"features": [
{ "type": "Feature", "properties": { "LAYER": "Unknown Area Type", "id": null, "class": "Water Body" }, "geometry": { "type": "MultiPolygon", "coordinates": [ [ [ [ 762217.441261073225178, 8979772.011971371248364 ], [ 762215.720222528791055, 8979789.179749593138695 ], [ 762220.546139530837536, 8979804.984088877215981 ], [ 762229.294947692542337, 8979819.178571535274386 ], [ 762241.722048159805126, 8979834.404258159920573 ], [ 762247.748075782321393, 8979833.572181344032288 ], [ 762261.039006376406178, 8979821.078090764582157 ], [ 762264.072948598419316, 8979804.165479108691216 ], [ 762267.677187126362696, 8979794.111572694033384 ], [ 762263.593866135110147, 8979771.703701192513108 ], [ 762253.83843904081732, 8979763.850578889250755 ], [ 762230.012468428118154, 8979769.552523355931044 ], [ 762218.100736472290009, 8979769.459586217999458 ], [ 762217.441261073225178, 8979772.011971371248364 ] ] ], [ [ [ 762107.987296851351857, 8980189.37624741718173 ], [ 762113.395561957848258, 8980174.559371449053288 ], [ 762083.946196555509232, 8980162.878474999219179 ], [ 762068.147846597013995, 8980149.248120805248618 ], [ 762053.900187427992932, 8980140.379899753257632 ], [ 762036.848009233130142, 8980139.437901172786951 ], [ 762019.816962915239856, 8980141.663063636049628 ], [ 762013.859902319381945, 8980143.003806019201875 ], [ 762062.547696139547043, 8980195.084936564788222 ], [ 762093.633152689202689, 8980199.765792708843946 ], [ 762107.987296851351857, 8980189.37624741718173 ] ] ], [ [ [ 763082.556275306153111, 8982144.291721714660525 ], [ 763100.76820402010344, 8982152.31165362522006 ], [ 763114.970166778774001, 8982154.316636603325605 ], [ 763129.673375281854533, 8982157.491192985326052 ], [ 763136.85789761855267, 8982159.997421707957983 ], [ 763142.538682722020894, 8982161.166995109990239 ], [ 763140.867863573948853, 8982153.314145114272833 ], [ 763131.511276344768703, 8982143.790475970134139 ], [ 763119.147214649012312, 8982136.438871718943119 ], [ 763110.124791249400005, 8982127.917694063857198 ], [ 763097.092401894391514, 8982112.713239816948771 ], [ 763092.247026364901103, 8982108.536191945895553 ], [ 763085.062504028202966, 8982112.211994072422385 ], [ 763076.875490202684887, 8982117.725697260349989 ], [ 763070.693459354806691, 8982117.725697260349989 ], [ 763067.778319631237537, 8982117.563745053485036 ], [ 763067.017657228978351, 8982120.733171729370952 ], [ 763068.020148717798293, 8982133.097233425825834 ], [ 763082.556275306153111, 8982144.291721714660525 ] ] ], [ [ [ 783712.56639525690116, 8990381.530898654833436 ], [ 783713.951538673602045, 8990380.629947375506163 ], [ 783715.0854996079579, 8990379.985377119854093 ], [ 783716.217640503775328, 8990379.086234506219625 ], [ 783717.475372557062656, 8990378.058901289477944 ], [ 783719.110788135789335, 8990376.774282485246658 ], [ 783721.00284611270763, 8990375.996999410912395 ], [ 783724.794242194620892, 8990375.460722256451845 ], [ 783727.070353900082409, 8990375.317156411707401 ], [ 783729.093463208992034, 8990375.175399305298924 ], [ 783731.23852346255444, 8990374.396306792274117 ], [ 783732.498985261074267, 8990373.750831466168165 ], [ 783734.253620970062912, 8990371.447018004953861 ], [ 783734.112558655673638, 8990369.411343676969409 ], [ 783733.721224156673998, 8990367.759336788207293 ], [ 783733.583802115172148, 8990366.232807159423828 ], [ 783733.313508378807455, 8990363.81617877446115 ], [ 783734.179905008291826, 8990361.136837873607874 ], [ 783734.543937150621787, 8990358.970259498804808 ], [ 783734.65951732697431, 8990357.441920924931765 ], [ 783733.500985126011074, 8990354.649765303358436 ], [ 783733.615655193687417, 8990352.994140565395355 ], [ 783732.846637431881391, 8990351.59941946901381 ], [ 783731.570705103571527, 8990350.081030068919063 ], [ 783731.058330022497103, 8990349.193644724786282 ], [ 783730.667905690846965, 8990347.668924052268267 ], [ 783730.52866345201619, 8990345.887822106480598 ], [ 783730.514102149871178, 8990343.85124334692955 ], [ 783730.626041923183948, 8990341.813760114833713 ], [ 783729.978975063655525, 8990339.78170371055603 ], [ 783728.446400608168915, 8990337.755978597328067 ], [ 783727.549972032662481, 8990336.234875820577145 ], [ 783726.274040273623541, 8990334.716486433520913 ], [ 783723.855958674335852, 8990332.697092495858669 ], [ 783722.202344108140096, 8990331.435988754034042 ], [ 783720.304828152293339, 8990331.449555514380336 ], [ 783718.536543444148265, 8990331.844076229259372 ], [ 783716.773719016229734, 8990333.002313824370503 ], [ 783714.758802402764559, 8990334.28964632563293 ], [ 783713.243519711424597, 8990334.682357899844646 ], [ 783709.834361109882593, 8990335.597780238837004 ], [ 783707.317079997854307, 8990337.397874508053064 ], [ 783706.052069297991693, 8990337.406918495893478 ], [ 783704.273774303263053, 8990336.401290811598301 ], [ 783703.257215778809041, 8990335.772095190361142 ], [ 783701.103967762552202, 8990335.4056113101542 ], [ 783698.075222271843813, 8990336.445605538785458 ], [ 783696.186806177836843, 8990337.73203250952065 ], [ 783695.056486390996724, 8990338.88574705645442 ], [ 783694.559581842273474, 8990340.162225909531116 ], [ 783694.067227087449282, 8990342.075135452672839 ], [ 783693.579422079375945, 8990344.624475674703717 ], [ 783692.077788340393454, 8990346.926478356122971 ], [ 783690.572514606523328, 8990348.719336379319429 ], [ 783687.79859001620207, 8990350.012093054130673 ], [ 783686.162265216233209, 8990351.169424479827285 ], [ 783685.286766777629964, 8990352.575902178883553 ], [ 783685.047413492109627, 8990354.487002797424793 ], [ 783685.570706530823372, 8990356.901822058483958 ], [ 783685.585265333531424, 8990358.93840017914772 ], [ 783684.717955900472589, 8990361.49045299179852 ], [ 783684.730694757308811, 8990363.272458834573627 ], [ 783685.496980915777385, 8990364.285322049632668 ], [ 783686.38794840243645, 8990365.042708685621619 ], [ 783687.530098367482424, 8990365.543714419007301 ], [ 783689.048112086951733, 8990365.532862635329366 ], [ 783690.693536901962943, 8990365.648392608389258 ], [ 783692.971467485884205, 8990365.759400870651007 ], [ 783695.506950167240575, 8990366.505031034350395 ], [ 783699.577736131031998, 8990369.658245636150241 ], [ 783700.473253875854425, 8990371.052062787115574 ], [ 783701.876596312504262, 8990372.69683481939137 ], [ 783702.902255238499492, 8990374.598892189562321 ], [ 783703.289038523216732, 8990375.614468304440379 ], [ 783703.93610393954441, 8990377.646524887531996 ], [ 783705.351276294793934, 8990380.946016829460859 ], [ 783707.763899005483836, 8990382.201695498079062 ], [ 783709.41205470985733, 8990382.699083359912038 ], [ 783710.930069319205359, 8990382.68823092058301 ], [ 783712.56639525690116, 8990381.530898654833436 ] ] ], [ [ [ 783369.002810524776578, 8990554.175462646409869 ], [ 783369.353475788841024, 8990556.039913382381201 ], [ 783372.237685226136819, 8990555.425291204825044 ], [ 783374.257165007060394, 8990554.774411680176854 ], [ 783377.291382764233276, 8990554.498164359480143 ], [ 783378.808491651667282, 8990554.360040608793497 ], [ 783380.830697666620836, 8990554.091018276289105 ], [ 783384.745881883427501, 8990553.172018878161907 ], [ 783386.895498142577708, 8990553.029378887265921 ], [ 783389.931533543625847, 8990553.007702270522714 ], [ 783392.58806457510218, 8990552.988735038787127 ], [ 783394.233492619358003, 8990553.104279199615121 ], [ 783396.004513357533142, 8990553.091634206473827 ], [ 783397.775534117012285, 8990553.078989136964083 ], [ 783399.032369514228776, 8990551.924384042620659 ], [ 783400.407526813796721, 8990549.623302791267633 ], [ 783401.144723550183699, 8990546.563022393733263 ], [ 783402.012056943727657, 8990544.01098220422864 ], [ 783402.507156616309658, 8990542.47993871383369 ], [ 783403.004982783691958, 8990541.330752834677696 ], [ 783404.756917107850313, 8990538.645103864371777 ], [ 783405.760748901870102, 8990537.492304882034659 ], [ 783407.018492378527299, 8990536.464985204860568 ], [ 783408.149734360398725, 8990535.438568741083145 ], [ 783412.062190093682148, 8990534.13770829886198 ], [ 783413.071474915603176, 8990533.748624352738261 ], [ 783415.347591876867227, 8990533.605079213157296 ], [ 783418.900539052207023, 8990535.107217470183969 ], [ 783420.168280239333399, 8990535.480042070150375 ], [ 783422.189576660515741, 8990535.083731390535831 ], [ 783422.685584333259612, 8990533.679973289370537 ], [ 783422.671950514195487, 8990531.770684877410531 ], [ 783422.283356987987645, 8990530.500535897910595 ], [ 783420.982894770801067, 8990525.545419258996844 ], [ 783420.089204578311183, 8990524.406169462949038 ], [ 783415.605302815092728, 8990516.546060275286436 ], [ 783413.690512822475284, 8990514.141178041696548 ], [ 783412.795005230931565, 8990512.747356431558728 ], [ 783409.752610132447444, 8990511.878034468740225 ], [ 783407.855998595710844, 8990512.018869759514928 ], [ 783406.846714372048154, 8990512.407953716814518 ], [ 783404.832690297393128, 8990513.822550937533379 ], [ 783403.323762687388808, 8990515.106249045580626 ], [ 783401.81756159150973, 8990516.771804699674249 ], [ 783400.309542639763094, 8990518.182788508012891 ], [ 783398.801523582777008, 8990519.593772228807211 ], [ 783397.548324883915484, 8990521.257521107792854 ], [ 783394.408511358080432, 8990524.462248975411057 ], [ 783386.864777545561083, 8990531.008021483197808 ], [ 783384.471247690031305, 8990532.425326813012362 ], [ 783382.960501175024547, 8990533.454452037811279 ], [ 783381.700939835514873, 8990534.227199092507362 ], [ 783380.694381274515763, 8990534.998139725998044 ], [ 783379.189996033441275, 8990536.918265743181109 ], [ 783378.437348966952413, 8990537.814685786142945 ], [ 783377.939522248227149, 8990538.963871173560619 ], [ 783377.187783876783215, 8990539.987577028572559 ], [ 783376.435136700281873, 8990540.88399700447917 ], [ 783374.542159118689597, 8990541.533973691985011 ], [ 783373.535600241390057, 8990542.304914049804211 ], [ 783369.106050288188271, 8990545.009677516296506 ], [ 783368.620642558787949, 8990547.898435914888978 ], [ 783368.633970643975772, 8990549.765294993296266 ], [ 783368.647298704599962, 8990551.632154069840908 ], [ 783369.002810524776578, 8990554.175462646409869 ] ] ], [ [ [ 783016.871748656965792, 8991691.966775417327881 ], [ 783015.968891959171742, 8991693.093374779447913 ], [ 783015.676159127266146, 8991694.622962864115834 ], [ 783015.5836581971962, 8991695.845624215900898 ], [ 783015.59453680284787, 8991697.373049912974238 ], [ 783015.705893990583718, 8991698.797926438972354 ], [ 783016.018208378343843, 8991700.017704624682665 ], [ 783016.131016037426889, 8991701.646237913519144 ], [ 783015.938761664088815, 8991703.073276808485389 ], [ 783015.43999477266334, 8991704.0951645411551 ], [ 783014.436659043421969, 8991705.324312938377261 ], [ 783013.835962986922823, 8991706.245093036442995 ], [ 783013.846841411315836, 8991707.772518707439303 ], [ 783015.275299138855189, 8991709.391681827604771 ], [ 783016.996490077697672, 8991709.481256870552897 ], [ 783018.81525871285703, 8991709.060969142243266 ], [ 783020.020276949275285, 8991707.728550653904676 ], [ 783021.124816486379132, 8991706.498681288212538 ], [ 783022.2264549479587, 8991704.861498335376382 ], [ 783022.107119790511206, 8991702.316509537398815 ], [ 783022.092614717665128, 8991700.279941856861115 ], [ 783022.185840757796541, 8991699.159108823165298 ], [ 783022.685332661378197, 8991698.239049322903156 ], [ 783023.688667949521914, 8991697.009900594130158 ], [ 783024.897311905398965, 8991696.186623733490705 ], [ 783027.322577668121085, 8991695.660182129591703 ], [ 783028.534122627228498, 8991695.244218681007624 ], [ 783029.646639568847604, 8991695.134461188688874 ], [ 783030.962289467919618, 8991695.125090388581157 ], [ 783032.280115234083496, 8991695.421204717829823 ], [ 783034.111213126918301, 8991696.731998739764094 ], [ 783035.431940156500787, 8991697.435426561161876 ], [ 783036.444703932851553, 8991697.530046520754695 ], [ 783037.957684594672173, 8991696.806435054168105 ], [ 783041.682643703650683, 8991694.030396714806557 ], [ 783041.672489368123934, 8991692.604799142107368 ], [ 783041.660884395707399, 8991690.975544771179557 ], [ 783040.828043776098639, 8991687.722802940756083 ], [ 783040.411623491439968, 8991686.096432030200958 ], [ 783040.196160230785608, 8991684.26496260240674 ], [ 783040.181653965963051, 8991682.228394651785493 ], [ 783040.771469250321388, 8991679.780187904834747 ], [ 783044.189188252203166, 8991676.49716941639781 ], [ 783045.79684374446515, 8991674.856380885466933 ], [ 783047.599653292214498, 8991672.195866441354156 ], [ 783048.802493302384391, 8991670.557961264625192 ], [ 783050.611105216201395, 8991668.712073810398579 ], [ 783052.830334947328083, 8991667.677929850295186 ], [ 783056.268362199654803, 8991667.246105203405023 ], [ 783058.484690292505547, 8991665.804647220298648 ], [ 783058.665336623904295, 8991662.748353037983179 ], [ 783058.241661757929251, 8991660.103698052465916 ], [ 783056.604992505861446, 8991657.671351009979844 ], [ 783055.782305707223713, 8991655.844207024201751 ], [ 783055.974557979381643, 8991654.417167441919446 ], [ 783056.366316216182895, 8991652.581372357904911 ], [ 783056.142147385282442, 8991649.527961911633611 ], [ 783054.706435243599117, 8991646.890516255050898 ], [ 783053.67843966325745, 8991644.657500524073839 ], [ 783052.047574089141563, 8991643.039780789986253 ], [ 783050.42106086644344, 8991642.033031461760402 ], [ 783048.587788115954027, 8991640.416753491386771 ], [ 783046.555009551346302, 8991639.209230916574597 ], [ 783045.331860755570233, 8991637.995941003784537 ], [ 783043.504391262307763, 8991637.194290120154619 ], [ 783040.063465495826676, 8991637.218800757080317 ], [ 783038.854823870584369, 8991638.042078686878085 ], [ 783035.616305535542779, 8991638.065147131681442 ], [ 783033.184515517205, 8991637.675134712830186 ], [ 783030.955132970237173, 8991637.283680412918329 ], [ 783029.340225827181712, 8991637.906184706836939 ], [ 783028.131584048271179, 8991638.729462243616581 ], [ 783026.925843471777625, 8991639.960053291171789 ], [ 783026.528281783685088, 8991640.981220632791519 ], [ 783024.923528714803979, 8991643.029322126880288 ], [ 783023.541491204407066, 8991647.927176663652062 ], [ 783025.191213184501976, 8991652.192435396835208 ], [ 783026.420163894654252, 8991654.220352986827493 ], [ 783028.064083878998645, 8991657.6709846239537 ], [ 783028.489207271486521, 8991660.519296146929264 ], [ 783028.30275633954443, 8991662.760962432250381 ], [ 783026.100933643756434, 8991666.238986250013113 ], [ 783025.007274982286617, 8991668.996281947940588 ], [ 783024.509234257508069, 8991670.119998382404447 ], [ 783023.710483294446021, 8991671.653190841898322 ], [ 783023.317997920210473, 8991673.3871567286551 ], [ 783023.226222736528143, 8991674.7116465754807 ], [ 783023.234926043078303, 8991675.933587208390236 ], [ 783023.141700277803466, 8991677.054420281201601 ], [ 783022.947995978174731, 8991678.277802560478449 ], [ 783022.246096884598956, 8991679.199303789064288 ], [ 783021.548549357801676, 8991680.731775302439928 ], [ 783021.155338424840011, 8991682.363912723958492 ], [ 783021.370800795266405, 8991684.195382010191679 ], [ 783020.979765565600246, 8991686.133004568517208 ], [ 783019.379361306549981, 8991688.792075503617525 ], [ 783018.582060094806366, 8991690.528924452140927 ], [ 783017.574373412062414, 8991691.147102769464254 ], [ 783016.871748656965792, 8991691.966775417327881 ] ] ], [ [ [ 784332.162084062118083, 8983065.22289908118546 ], [ 783268.646943933330476, 8982469.532517863437533 ], [ 782547.581443376839161, 8981980.230253154411912 ], [ 782471.580668119248003, 8981925.412034057080746 ], [ 782226.829145838040859, 8981748.874690411612391 ], [ 782097.094532465329394, 8981647.944167345762253 ], [ 782066.352507231174968, 8981668.665101919323206 ], [ 782097.308217431651428, 8981690.859762063249946 ], [ 782155.163987076608464, 8981732.795487711206079 ], [ 782258.838419930427335, 8981810.065945154055953 ], [ 782362.124559028074145, 8981881.900290014222264 ], [ 782449.490654129418544, 8981944.027290975674987 ], [ 782548.505561911035329, 8982016.249929593876004 ], [ 782661.499044908909127, 8982093.132093280553818 ], [ 782725.179220894002356, 8982134.67952517233789 ], [ 782810.215553459478542, 8982190.982119796797633 ], [ 782864.770826178602874, 8982231.752964174374938 ], [ 782906.706551827257499, 8982260.292555242776871 ], [ 782925.538798993569799, 8982275.24186484888196 ], [ 782928.894193206098862, 8982277.859548278152943 ], [ 782931.460278771584854, 8982283.881400916725397 ], [ 782933.401747551630251, 8982291.938496353104711 ], [ 782936.411024160683155, 8982298.927783960476518 ], [ 782937.867125745629892, 8982303.975602788850665 ], [ 782939.711521086748689, 8982308.926348177716136 ], [ 782938.546639818814583, 8982315.527342028915882 ], [ 782936.313950721756555, 8982321.060528052970767 ], [ 782934.469555380754173, 8982324.846392173320055 ], [ 782932.13979284465313, 8982327.176154710352421 ], [ 782926.606606821529567, 8982326.78786095418036 ], [ 782924.179770846501924, 8982325.622979685664177 ], [ 782923.500256773550063, 8982323.390290588140488 ], [ 782923.403183334507048, 8982320.769307736307383 ], [ 782923.306109895464033, 8982317.080517053604126 ], [ 782923.111963017494418, 8982313.877093566581607 ], [ 782919.229025457403623, 8982313.682946689426899 ], [ 782918.258291067439131, 8982319.410279590636492 ], [ 782917.869997311383486, 8982322.128335881978273 ], [ 782914.472426946274936, 8982322.613703077659011 ], [ 782909.812901874189265, 8982322.613703077659011 ], [ 782908.405337008764036, 8982322.710776519030333 ], [ 782908.987777642789297, 8982325.331759370863438 ], [ 782911.317540178773925, 8982326.253957042470574 ], [ 782915.249014458386227, 8982326.93347111530602 ], [ 782917.724387152935378, 8982327.75859534740448 ], [ 782921.170494237565435, 8982330.331041479483247 ], [ 782926.024166187620722, 8982334.165442319586873 ], [ 782929.081979516195133, 8982335.912764221429825 ], [ 782933.061990515212528, 8982338.582283794879913 ], [ 782933.692967868642882, 8982346.299622196704149 ], [ 782933.207600673544221, 8982357.948434876278043 ], [ 782931.945645966567099, 8982364.840649046003819 ], [ 782930.877838137559593, 8982376.732145324349403 ], [ 782931.605888930149376, 8982383.284602453932166 ], [ 782932.43101316166576, 8982389.254618952050805 ], [ 782934.178335063625127, 8982391.341697892174125 ], [ 782936.653707758174278, 8982391.535844769328833 ], [ 782939.857131245196797, 8982391.584381489083171 ], [ 782939.313586486736313, 8982387.408969480544329 ], [ 782938.789323416189291, 8982383.381675893440843 ], [ 782937.867125745746307, 8982376.926292199641466 ], [ 782938.20688278216403, 8982368.869196761399508 ], [ 782939.468837489141151, 8982364.889185762032866 ], [ 782941.943577765487134, 8982356.22759479470551 ], [ 782943.351775049231946, 8982351.298904301598668 ], [ 782946.652271975181065, 8982344.309616694226861 ], [ 782950.826429852517322, 8982342.368147915229201 ], [ 782957.912790899630636, 8982343.241808867082 ], [ 782965.678666019695811, 8982347.318893304094672 ], [ 782978.395286528975703, 8982354.696474669501185 ], [ 782987.307778695016168, 8982360.546091446653008 ], [ 782993.684353171847761, 8982363.821377934888005 ], [ 782999.314612634014338, 8982364.646502166986465 ], [ 782999.984315390465781, 8982363.333533322438598 ], [ 782996.305336024612188, 8982357.268920801579952 ], [ 782988.636534343473613, 8982349.794265998527408 ], [ 782980.579438906279393, 8982343.581565903499722 ], [ 782971.745755957206711, 8982339.21326114796102 ], [ 782965.338908983045258, 8982337.660086123272777 ], [ 782955.049124448909424, 8982335.524470465257764 ], [ 782952.233994717826135, 8982333.583001686260104 ], [ 782947.865689962753095, 8982329.991284443065524 ], [ 782947.768616523826495, 8982328.049815662205219 ], [ 782950.874966571922414, 8982323.19614371471107 ], [ 782953.301802546950057, 8982319.507353032007813 ], [ 782953.398875985876657, 8982315.333195155486465 ], [ 782953.593022863962688, 8982310.673670083284378 ], [ 782953.884243180975318, 8982305.334630938246846 ], [ 782954.466683815000579, 8982302.422427767887712 ], [ 782956.019858838990331, 8982300.67510586604476 ], [ 782959.489797919522971, 8982300.427253073081374 ], [ 782968.2511121542193, 8982305.528777815401554 ], [ 783014.65221599698998, 8982332.709340736269951 ], [ 783053.481591597665101, 8982355.036231705918908 ], [ 783101.241723586455919, 8982389.400229113176465 ], [ 783144.14818362519145, 8982419.687142081558704 ], [ 783185.889762395760044, 8982456.963342657312751 ], [ 783204.722009562072344, 8982472.883386654779315 ], [ 783208.216653366107494, 8982482.590730553492904 ], [ 783209.401787435286678, 8982489.51440853625536 ], [ 783210.061048707226291, 8982493.365882283076644 ], [ 783210.740562780178152, 8982502.490785550326109 ], [ 783210.837636219221167, 8982511.906909134238958 ], [ 783211.031783097190782, 8982516.469360766932368 ], [ 783210.352269024238922, 8982519.18741705827415 ], [ 783207.828359610051848, 8982526.662071859464049 ], [ 783206.760551781044342, 8982528.02110000513494 ], [ 783205.20737675705459, 8982529.2830547131598 ], [ 783200.936145440908149, 8982531.515743810683489 ], [ 783191.228801540797576, 8982537.631370468065143 ], [ 783189.772699955734424, 8982538.796251736581326 ], [ 783187.248790541780181, 8982541.805528344586492 ], [ 783184.239513932727277, 8982544.62065807543695 ], [ 783182.492192030651495, 8982546.27090653963387 ], [ 783179.871209177654237, 8982550.056770659983158 ], [ 783177.153152885497548, 8982554.328001976013184 ], [ 783175.599977861507796, 8982558.113866098225117 ], [ 783176.085345056490041, 8982560.055334877222776 ], [ 783178.318034153548069, 8982561.123142706230283 ], [ 783180.744870128692128, 8982556.36654419451952 ], [ 783185.986835834686644, 8982550.930431609973311 ], [ 783193.752710954868235, 8982544.911878392100334 ], [ 783202.683467342983931, 8982539.669912686571479 ], [ 783207.148845537099987, 8982536.563562639057636 ], [ 783210.449342463165522, 8982538.893325174227357 ], [ 783212.390811243210919, 8982543.746997125446796 ], [ 783215.497161291190423, 8982549.765550343319774 ], [ 783219.185951973311603, 8982554.619222292676568 ], [ 783222.098155143321492, 8982556.948984827846289 ], [ 783225.981092703412287, 8982555.978250438347459 ], [ 783224.816211435361765, 8982553.454341024160385 ], [ 783220.93327387527097, 8982547.435787806287408 ], [ 783219.380098851281218, 8982543.164556490257382 ], [ 783218.021070705261081, 8982537.728443905711174 ], [ 783218.215217583230697, 8982529.768421908840537 ], [ 783221.515714509296231, 8982522.002546787261963 ], [ 783225.010358313447796, 8982507.829824693500996 ], [ 783223.916284548235126, 8982498.778850818052888 ], [ 783222.874742655316368, 8982490.162458796054125 ], [ 783222.098155143321492, 8982483.949758699163795 ], [ 783222.874742655316368, 8982478.319499237462878 ], [ 783226.563533337321132, 8982475.989736700430512 ], [ 783245.978221137658693, 8982489.19172440469265 ], [ 783386.152267055935226, 8982571.121706923469901 ], [ 783523.608256682404317, 8982657.711214512586594 ], [ 783655.239839968620799, 8982739.6411970295012 ], [ 783772.892848038580269, 8982800.603316722437739 ], [ 783908.795662640943192, 8982879.426949189975858 ], [ 783926.657175417291, 8982899.229930747300386 ], [ 783930.928406733321026, 8982914.761680986732244 ], [ 783932.507777006016113, 8982923.527186000719666 ], [ 783934.811344293411821, 8982936.311984445899725 ], [ 783928.404497319366783, 8982942.136390784755349 ], [ 783920.638622199185193, 8982945.242740834131837 ], [ 783909.766397031024098, 8982950.484706539660692 ], [ 783899.67075937485788, 8982953.785203466191888 ], [ 783891.51659049873706, 8982958.056434782221913 ], [ 783881.226805964601226, 8982963.68669424392283 ], [ 783875.208252746495418, 8982964.463281756266952 ], [ 783861.42382440820802, 8982963.68669424392283 ], [ 783853.269655532087199, 8982961.939372342079878 ], [ 783847.056955436011776, 8982959.609609805047512 ], [ 783839.873520949855447, 8982957.668141026049852 ], [ 783835.213995877769776, 8982957.86228790320456 ], [ 783834.243261487805285, 8982963.104253610596061 ], [ 783838.902786559890956, 8982965.239869268611073 ], [ 783843.174017875920981, 8982966.210603658109903 ], [ 783849.580864850082435, 8982967.569631803780794 ], [ 783854.046243044082075, 8982971.452569363638759 ], [ 783857.152593092177995, 8982973.976478777825832 ], [ 783864.141880700248294, 8982974.170625656843185 ], [ 783877.149721526540816, 8982973.394038144499063 ], [ 783887.439506060676649, 8982972.035009998828173 ], [ 783902.777109422953799, 8982967.957925559952855 ], [ 783914.42592210310977, 8982964.269134877249599 ], [ 783921.026915955240838, 8982959.027169171720743 ], [ 783927.239616051316261, 8982956.503259757533669 ], [ 783928.598644197336398, 8982959.609609805047512 ], [ 783924.327412881306373, 8982965.239869268611073 ], [ 783918.50300654117018, 8982972.617450632154942 ], [ 783910.348837665049359, 8982980.189178874716163 ], [ 783900.835640642908402, 8982984.072116434574127 ], [ 783891.904884254792705, 8982984.072116434574127 ], [ 783886.080477914656512, 8982986.013585213571787 ], [ 783886.274624792626128, 8982989.896522773429751 ], [ 783890.934149864711799, 8982990.090669652447104 ], [ 783899.28246561891865, 8982989.508229019120336 ], [ 783905.495165714994073, 8982989.314082140102983 ], [ 783911.31957205501385, 8982987.955053994432092 ], [ 783917.726419029175304, 8982985.042850824072957 ], [ 783923.939119125250727, 8982980.965766387060285 ], [ 783930.151819221442565, 8982974.170625656843185 ], [ 783937.52940058556851, 8982965.822309901937842 ], [ 783944.130394437583163, 8982959.803756684064865 ], [ 783950.148947655688971, 8982958.638875417411327 ], [ 783955.585060239769518, 8982959.80375668592751 ], [ 783963.156788481865078, 8982966.210603659972548 ], [ 783964.904110383940861, 8982972.423303756862879 ], [ 783963.545082237920724, 8982982.713088290765882 ], [ 783962.574347847839817, 8983001.157041700556874 ], [ 783965.680697895935737, 8983022.513198280707002 ], [ 783966.651432285900228, 8983038.627389155328274 ], [ 783967.428019797895104, 8983047.363998666405678 ], [ 783968.981194822001271, 8983053.188405005261302 ], [ 783974.029013650026172, 8983055.324020663276315 ], [ 783975.388041796046309, 8983051.635229982435703 ], [ 783973.252426138031296, 8983046.004970518872142 ], [ 783972.864132381975651, 8983036.685920376330614 ], [ 783973.640719894086942, 8983027.366870231926441 ], [ 783976.164629308041185, 8983026.590282719582319 ], [ 783983.930504428222775, 8983036.1034797411412 ], [ 783989.754910768358968, 8983040.568857936188579 ], [ 783993.055407694424503, 8983035.326892228797078 ], [ 783984.124651306192391, 8983027.366870231926441 ], [ 783977.523657454061322, 8983018.630260720849037 ], [ 783979.465126234106719, 8982984.460410192608833 ], [ 783983.73635755025316, 8982979.218444487079978 ], [ 783988.672047594096512, 8982950.813044641166925 ], [ 783993.249554572277702, 8982924.469024889171124 ], [ 784174.5827386273304, 8983014.164882525801659 ], [ 784365.234972826670855, 8983103.084152650088072 ], [ 784524.823706545401365, 8983167.54091614857316 ], [ 784701.109071772312745, 8983235.880617203190923 ], [ 784871.570030659204349, 8983291.018330557271838 ], [ 785066.493496174341999, 8983348.87410020083189 ], [ 785192.024382742820308, 8983373.207565069198608 ], [ 785307.088239407399669, 8983393.294143496081233 ], [ 785614.35959207022097, 8983469.484415277838707 ], [ 785619.485884199501015, 8983445.849821614101529 ], [ 785496.687513820361346, 8983426.25936496630311 ], [ 784332.162084062118083, 8983065.22289908118546 ] ] ], [ [ [ 784345.021727450890467, 8983434.028226356953382 ], [ 784335.952070138184354, 8983439.042210128158331 ], [ 784328.501542145619169, 8983441.29531798325479 ], [ 784317.217507148860022, 8983442.293125052005053 ], [ 784305.38318453647662, 8983442.745060373097658 ], [ 784299.067606010474265, 8983450.854915115982294 ], [ 784301.648837494431064, 8983455.234999878332019 ], [ 784309.519112718757242, 8983460.676605546846986 ], [ 784315.182948270696215, 8983463.201657362282276 ], [ 784323.738024295540527, 8983462.590099591761827 ], [ 784336.300783506827429, 8983462.132904898375273 ], [ 784341.764002801850438, 8983462.093488467857242 ], [ 784349.929167184978724, 8983463.832858065143228 ], [ 784355.078994748182595, 8983464.929890906438231 ], [ 784363.816180352587253, 8983464.31701042689383 ], [ 784375.936704257503152, 8983453.049503499642015 ], [ 784378.438597813947126, 8983446.433387858793139 ], [ 784383.835691323969513, 8983437.230466451495886 ], [ 784392.187496685888618, 8983433.687886387109756 ], [ 784412.212428555358201, 8983424.516854908317327 ], [ 784415.010003057890572, 8983416.478184089064598 ], [ 784408.630960715701804, 8983415.791103735566139 ], [ 784394.21407425601501, 8983411.67971813865006 ], [ 784385.070363116450608, 8983406.430597854778171 ], [ 784377.382188894087449, 8983400.987693082541227 ], [ 784367.531214808812365, 8983398.67614583671093 ], [ 784361.363379320362583, 8983402.019683569669724 ], [ 784354.852487492142245, 8983408.298167089000344 ], [ 784352.903528000926599, 8983415.826688591390848 ], [ 784351.681673574727029, 8983423.166683880612254 ], [ 784350.917765817604959, 8983424.959170680493116 ], [ 784349.174489195691422, 8983429.049717353656888 ], [ 784345.021727450890467, 8983434.028226356953382 ] ] ], [ [ [ 784071.728360456414521, 8983493.365509707480669 ], [ 784070.126383700873703, 8983498.508871147409081 ], [ 784067.598019142402336, 8983501.459560442715883 ], [ 784066.893367638695054, 8983504.763662958517671 ], [ 784066.402525593061, 8983512.464922463521361 ], [ 784062.802650986937806, 8983518.355799386277795 ], [ 784056.253395739244297, 8983519.319397747516632 ], [ 784049.533920863643289, 8983521.933733303099871 ], [ 784045.932722080266103, 8983527.641338184475899 ], [ 784048.544302197406068, 8983536.236632410436869 ], [ 784053.271252079168335, 8983541.648322112858295 ], [ 784062.670912631088868, 8983550.613866982981563 ], [ 784070.121133743901737, 8983548.315001981332898 ], [ 784080.240219229017384, 8983537.291141644120216 ], [ 784083.118178413016722, 8983531.776620522141457 ], [ 784085.808928528800607, 8983526.620814830064774 ], [ 784086.681155571714044, 8983521.2994335424155 ], [ 784087.544694058364257, 8983510.71386456862092 ], [ 784090.216296338476241, 8983506.428343307226896 ], [ 784092.492969306884333, 8983496.209840215742588 ], [ 784094.84671787545085, 8983491.915914842858911 ], [ 784095.144877097918652, 8983482.749809183180332 ], [ 784091.628351921215653, 8983477.078595891594887 ], [ 784093.431931342929602, 8983472.498525908216834 ], [ 784091.757298048003577, 8983467.562061214819551 ], [ 784088.091377990320325, 8983464.289462903514504 ], [ 784083.175810185261071, 8983464.508175568655133 ], [ 784079.554807269014418, 8983467.466742685064673 ], [ 784077.585977351292968, 8983472.246191235259175 ], [ 784073.264286418445408, 8983479.058669198304415 ], [ 784071.29413384583313, 8983483.654847459867597 ], [ 784070.958981504198164, 8983487.68940332531929 ], [ 784071.728360456414521, 8983493.365509707480669 ] ] ], [ [ [ 784597.649955083848909, 8990619.200541108846664 ], [ 784595.85759464930743, 8990614.164861792698503 ], [ 784592.784976761671714, 8990610.665491420775652 ], [ 784591.846121296053752, 8990607.848925024271011 ], [ 784591.931471792981029, 8990605.203059621155262 ], [ 784591.846121296053752, 8990601.106235770508647 ], [ 784590.821915333508514, 8990597.521514901891351 ], [ 784590.13911135843955, 8990595.38775248080492 ], [ 784590.13911135843955, 8990592.571186082437634 ], [ 784590.821915333508514, 8990589.157166209071875 ], [ 784590.224461855366826, 8990586.852702792733908 ], [ 784588.688152911490761, 8990586.084548320621252 ], [ 784585.700885520782322, 8990586.51130080409348 ], [ 784584.079226080095395, 8990588.132960245013237 ], [ 784584.493761989288032, 8990591.148595100268722 ], [ 784584.990050112712197, 8990594.758954854682088 ], [ 784586.426364744314924, 8990598.417695119976997 ], [ 784587.365220209932886, 8990601.661014001816511 ], [ 784586.597065738053061, 8990604.050827912986279 ], [ 784583.780499341082759, 8990607.251471547409892 ], [ 784582.158839900395833, 8990610.153388440608978 ], [ 784583.908525086357258, 8990614.079511297866702 ], [ 784586.639740986516699, 8990615.317093500867486 ], [ 784587.578596452134661, 8990617.621556917205453 ], [ 784589.200255893054418, 8990622.145133253186941 ], [ 784590.992616327479482, 8990625.089725395664573 ], [ 784591.760770799475722, 8990628.205018531531096 ], [ 784591.077966824173927, 8990630.594832444563508 ], [ 784590.736564836581238, 8990635.331785019487143 ], [ 784589.285606389632449, 8990640.111412845551968 ], [ 784589.968410364701413, 8990643.397406974807382 ], [ 784591.846121296170168, 8990644.634989179670811 ], [ 784596.198996637016535, 8990637.977650422602892 ], [ 784599.27161452465225, 8990632.771270113065839 ], [ 784599.442315518390387, 8990628.076992783695459 ], [ 784597.649955083848909, 8990619.200541108846664 ] ] ], [ [ [ 784740.216076512122527, 8990179.135086929425597 ], [ 784740.024690259131603, 8990179.077673992142081 ], [ 784739.757356169167906, 8990178.99265450052917 ], [ 784739.491535127861425, 8990178.90301626548171 ], [ 784739.227306941989809, 8990178.808786198496819 ], [ 784738.964750938001089, 8990178.709992595016956 ], [ 784738.703945911722258, 8990178.606665099039674 ], [ 784738.444970146170817, 8990178.498834727331996 ], [ 784738.187901381053962, 8990178.386533847078681 ], [ 784737.932816780754365, 8990178.26979616843164 ], [ 784737.679792932118289, 8990178.148656740784645 ], [ 784737.42890574678313, 8990178.023151908069849 ], [ 784737.180230573751032, 8990177.893319362774491 ], [ 784736.933842037222348, 8990177.759198067709804 ], [ 784736.689814081182703, 8990177.62082827091217 ], [ 784736.448219994083047, 8990177.478251531720161 ], [ 784736.209132262505591, 8990177.331510625779629 ], [ 784735.972622666507959, 8990177.180649612098932 ], [ 784735.738762190914713, 8990177.025713765993714 ], [ 784735.507621046039276, 8990176.866749601438642 ], [ 784735.279268607846461, 8990176.703804837539792 ], [ 784735.053773407358676, 8990176.536928366869688 ], [ 784734.831203156267293, 8990176.366170305758715 ], [ 784734.611624646931887, 8990176.191581895574927 ], [ 784734.39510378963314, 8990176.0132155418396 ], [ 784734.181705583469011, 8990175.831124788150191 ], [ 784733.971494087018073, 8990175.645364299416542 ], [ 784733.764532388653606, 8990175.455989822745323 ], [ 784733.560882616555318, 8990175.263058207929134 ], [ 784733.360605910304002, 8990175.066627377644181 ], [ 784733.163762364652939, 8990174.866756267845631 ], [ 784732.970411094138399, 8990174.663504907861352 ], [ 784732.780610106419772, 8990174.45693427324295 ], [ 784732.594416402513161, 8990174.247106401249766 ], [ 784732.411885853391141, 8990174.034084254875779 ], [ 784732.233073252718896, 8990173.817931780591607 ], [ 784732.05803228286095, 8990173.598713871091604 ], [ 784731.886815477744676, 8990173.376496320590377 ], [ 784731.719474226352759, 8990173.151345821097493 ], [ 784731.556058779242449, 8990172.923329988494515 ], [ 784731.396618164959364, 8990172.692517226561904 ], [ 784731.241200260352343, 8990172.458976849913597 ], [ 784731.089851706754416, 8990172.22277893871069 ], [ 784730.942617940017954, 8990171.983994405716658 ], [ 784730.799543151631951, 8990171.742694919928908 ], [ 784730.660670292098075, 8990171.498952915892005 ], [ 784730.526041046134196, 8990171.2528415620327 ], [ 784730.39569582126569, 8990171.004434721544385 ], [ 784730.26967374549713, 8990170.75380696170032 ], [ 784730.148012648103759, 8990170.501033518463373 ], [ 784730.030749046942219, 8990170.246190264821053 ], [ 784729.917918142746203, 8990169.989353699609637 ], [ 784729.809553800965659, 8990169.730600912123919 ], [ 784729.705688550835475, 8990169.470009576529264 ], [ 784729.606353569077328, 8990169.207657909020782 ], [ 784729.51157867279835, 8990168.943624660372734 ], [ 784729.421392311574891, 8990168.677989089861512 ], [ 784729.335821556742303, 8990168.410830935463309 ], [ 784729.254892091848888, 8990168.142230378463864 ], [ 784729.178628212539479, 8990167.872268058359623 ], [ 784729.107052808394656, 8990167.601024998351932 ], [ 784729.040187364560552, 8990167.328582618385553 ], [ 784728.978051953949034, 8990167.055022710934281 ], [ 784728.922625013743527, 8990166.789845209568739 ], [ 784724.166749604046345, 8990145.237903481349349 ], [ 784708.538031181204133, 8990152.777857275679708 ], [ 784693.061141074751504, 8990149.591438723728061 ], [ 784681.681074819760397, 8990140.487385721877217 ], [ 784670.528609890141524, 8990130.700528742745519 ], [ 784659.831347610685043, 8990126.831306217238307 ], [ 784651.637699907296337, 8990127.05890754237771 ], [ 784641.623241603141651, 8990125.238096941262484 ], [ 784635.022803175379522, 8990123.417286340147257 ], [ 784630.015574023243971, 8990125.69329959154129 ], [ 784623.187534270458855, 8990131.383332718163729 ], [ 784616.131893192534335, 8990131.383332718163729 ], [ 784612.035069340723567, 8990125.920900916680694 ], [ 784610.897062715259381, 8990120.23086778819561 ], [ 784610.441860065096989, 8990107.25759225897491 ], [ 784610.441860065096989, 8990094.739519378170371 ], [ 784605.207029587589204, 8990083.359453123062849 ], [ 784590.640544781577773, 8990069.930974941700697 ], [ 784581.536491777747869, 8990065.834151091054082 ], [ 784571.97723612387199, 8990064.923745790496469 ], [ 784564.466392395668663, 8990060.371719287708402 ], [ 784558.321156618068926, 8990053.998882185667753 ], [ 784554.451934091513976, 8990044.894829181954265 ], [ 784549.672306264517829, 8990033.287161601707339 ], [ 784538.975043985061347, 8990021.679494021460414 ], [ 784525.318964479374699, 8990012.575441017746925 ], [ 784506.428054496413097, 8990005.519799940288067 ], [ 784492.316772340447642, 8990001.422976089641452 ], [ 784480.481503435526974, 8989997.326152237132192 ], [ 784464.094208028749563, 8989994.367335012182593 ], [ 784450.438128523062915, 8989991.40851778537035 ], [ 784424.946780112572014, 8989990.04290983453393 ], [ 784415.615125783602707, 8989992.546524411067367 ], [ 784403.552255553659052, 8989994.367335012182593 ], [ 784392.172189298900776, 8989996.188145611435175 ], [ 784383.295737620210275, 8989998.008956212550402 ], [ 784368.729252814082429, 8989997.553753562271595 ], [ 784356.211179933859967, 8989997.098550911992788 ], [ 784346.424322954844683, 8989994.367335012182593 ], [ 784340.279087177244946, 8989989.36010585911572 ], [ 784336.865067300852388, 8989978.435242254287004 ], [ 784339.823884527082555, 8989964.096358770504594 ], [ 784333.678648749482818, 8989959.316730944439769 ], [ 784323.664190445328131, 8989958.861528294160962 ], [ 784315.015340091660619, 8989951.350684566423297 ], [ 784311.828921540407464, 8989940.425820961594582 ], [ 784307.276895038434304, 8989927.68014675565064 ], [ 784306.59409106313251, 8989916.300080502405763 ], [ 784304.318077812204137, 8989907.878831474110484 ], [ 784296.35203143383842, 8989900.367987746372819 ], [ 784282.013147952849977, 8989895.588359920307994 ], [ 784273.591898924321868, 8989886.484306916594505 ], [ 784266.763859171420336, 8989882.842685714364052 ], [ 784249.466158464201726, 8989885.346300290897489 ], [ 784239.679301485186443, 8989896.498765220865607 ], [ 784233.078863057424314, 8989900.140386421233416 ], [ 784222.381600777967833, 8989900.140386421233416 ], [ 784213.505149099277332, 8989898.319575821980834 ], [ 784205.311501395772211, 8989898.547177147120237 ], [ 784192.110624540247954, 8989903.326804975047708 ], [ 784178.68214635970071, 8989910.154844727367163 ], [ 784172.081707931938581, 8989918.348492430523038 ], [ 784169.350492030731402, 8989934.280585188418627 ], [ 784167.302080104942434, 8989952.943893846124411 ], [ 784167.984884080360644, 8989972.745209125801921 ], [ 784170.033296006149612, 8989992.774125734344125 ], [ 784182.551368886372074, 8990000.057368136942387 ], [ 784193.021029840689152, 8990016.444663546979427 ], [ 784197.686857005115598, 8990022.020896011963487 ], [ 784200.425992663134821, 8990024.95597074367106 ], [ 784210.698589827632532, 8990037.708231013268232 ], [ 784213.277547774137929, 8990045.57763315923512 ], [ 784217.374371625832282, 8990053.316078212112188 ], [ 784227.388829929986969, 8990065.834151092916727 ], [ 784255.611394242499955, 8990114.882236646488309 ], [ 784267.674264472560026, 8990128.196914168074727 ], [ 784281.102742653223686, 8990133.204143319278955 ], [ 784299.538449985906482, 8990140.259784396737814 ], [ 784312.739326841197908, 8990144.356608247384429 ], [ 784318.928704332793131, 8990155.497353807091713 ], [ 784326.052545484039001, 8990162.475148100405931 ], [ 784324.86976705933921, 8990183.913007028400898 ], [ 784329.642604562570341, 8990201.214542977511883 ], [ 784329.64939488703385, 8990237.854521030560136 ], [ 784330.013305243221112, 8990249.014589454978704 ], [ 784343.988278362667188, 8990256.119527362287045 ], [ 784349.962813144200481, 8990247.413776680827141 ], [ 784426.841079681296833, 8990295.318649405613542 ], [ 784421.48068357212469, 8990301.874188106507063 ], [ 784430.636813240358606, 8990313.009190144017339 ], [ 784443.382487445720471, 8990323.706452423706651 ], [ 784469.329038506606594, 8990343.280166380107403 ], [ 784480.260974561562762, 8990350.481969431042671 ], [ 784486.3991378886858, 8990357.391448536887765 ], [ 784497.096400168142281, 8990361.943475037813187 ], [ 784512.118087624432519, 8990362.398677688091993 ], [ 784525.774167130119167, 8990355.115435285493731 ], [ 784543.470967427478172, 8990363.783255839720368 ], [ 784548.079096989007667, 8990366.040298890322447 ], [ 784560.255767881637439, 8990374.233946593478322 ], [ 784572.432438774150796, 8990382.427594296634197 ], [ 784590.645113630685955, 8990386.367559058591723 ], [ 784597.013381884433329, 8990391.986849950626493 ], [ 784611.943184743518941, 8990394.025663362815976 ], [ 784621.82192631973885, 8990402.456510905176401 ], [ 784623.187534270342439, 8990410.650158608332276 ], [ 784621.366723669576459, 8990415.202185111120343 ], [ 784624.325540895806625, 8990423.623434141278267 ], [ 784624.139535330701619, 8990430.877651177346706 ], [ 784624.097939570667222, 8990432.499885819852352 ], [ 784622.504730295040645, 8990441.603938823565841 ], [ 784623.642736920504831, 8990448.659579901024699 ], [ 784625.691148846410215, 8990456.398024953901768 ], [ 784629.560371372965164, 8990468.688496509566903 ], [ 784634.339999199961312, 8990479.158157464116812 ], [ 784647.313274730346166, 8990488.034609142690897 ], [ 784659.376144960406236, 8990489.62781841866672 ], [ 784672.121819165768102, 8990487.57940649241209 ], [ 784680.998270844458602, 8990482.79977866448462 ], [ 784706.262017929926515, 8990475.516536261886358 ], [ 784726.973738513304852, 8990462.99846338108182 ], [ 784730.49107998306863, 8990450.20132739469409 ], [ 784717.186881534522399, 8990440.010729547590017 ], [ 784709.448436481296085, 8990431.134277869015932 ], [ 784711.95205105736386, 8990421.11981956474483 ], [ 784715.536431950749829, 8990417.147938033565879 ], [ 784720.373300086008385, 8990411.788165234029293 ], [ 784729.477353089721873, 8990395.400869827717543 ], [ 784744.04383789584972, 8990365.812697565183043 ], [ 784759.520728002418764, 8990306.181150389835238 ], [ 784765.893565105157904, 8990279.324194028973579 ], [ 784773.173421394196339, 8990234.495605301111937 ], [ 784774.542415458709002, 8990226.065483955666423 ], [ 784775.169863905292004, 8990191.925502892583609 ], [ 784755.428455536486581, 8990184.820394640788436 ], [ 784740.216076512122527, 8990179.135086929425597 ] ] ] ] } }
]
}
